{
"type": "FeatureCollection",
"name": "IPT_11_PRC_La_Junta",
"crs": { "type": "name", "properties": { "name": "urn:ogc:def:crs:OGC:1.3:CRS84" } },
"features": [
{ "type": "Feature", "properties": { "id": "monoparte.1", "Name": null, "description": null, "timestamp": null, "begin": null, "end": null, "altitudeMode": null, "tessellate": -1, "extrude": 0, "visibility": -1, "drawOrder": null, "icon": null, "REG": "Aysén", "COM": "Cisnes", "LOC": "La Junta", "ZONA": "ZR1", "NOM": "Zona ZR1 Zona de Restricción por Uso Aeronáutico", "UPERM": "Construcciones asociadas al aeródromo.", "UPROH": "Todos los usos de suelo no mencionados precedentemente.", "P_DO": "28/11/1959", "N_DOC": "1816", "T_DO": "Decreto", "OBS": null }, "geometry": { "type": "Polygon", "coordinates": [ [ [ -72.413992389468504, -43.983282228430902 ], [ -72.414563669614395, -43.983159596413799 ], [ -72.415852668473406, -43.982856618315999 ], [ -72.415825258151401, -43.982745483360702 ], [ -72.415633336370703, -43.9821318978722 ], [ -72.414216548268897, -43.977490609690697 ], [ -72.413956002236006, -43.976542610660303 ], [ -72.413584404074697, -43.975383549449496 ], [ -72.413048072899301, -43.974047782077498 ], [ -72.412444851836796, -43.972803339340203 ], [ -72.412411792629399, -43.972737650925602 ], [ -72.410398501166995, -43.972935767874503 ], [ -72.410760707076506, -43.973615736184101 ], [ -72.411219438318199, -43.9744833804316 ], [ -72.411427280187894, -43.974886878585401 ], [ -72.411654523958205, -43.975513708158502 ], [ -72.411881141675096, -43.976359703343199 ], [ -72.412507927971504, -43.978546731754903 ], [ -72.412998871901806, -43.980089903520302 ], [ -72.413121397635706, -43.980500713933701 ], [ -72.413992389468504, -43.983282228430902 ] ] ] } },
{ "type": "Feature", "properties": { "id": "monoparte.2", "Name": null, "description": null, "timestamp": null, "begin": null, "end": null, "altitudeMode": null, "tessellate": -1, "extrude": 0, "visibility": -1, "drawOrder": null, "icon": null, "REG": "Aysén", "COM": "Cisnes", "LOC": "La Junta", "ZONA": "ZR4", "NOM": "Zona ZR4 Zona de Restricción por Protección de Laderas", "UPERM": "Conservación y rehabilitación de la vegetación con una doble finalidad; proteger la estabilidad de las laderas y constituir un área paisajísticamente atractiva que otorgue de un carácter especial a la localidad.", "UPROH": "Todos los usos de suelo no mencionados precedentemente.", "P_DO": "28/11/1959", "N_DOC": "1816", "T_DO": "Decreto", "OBS": null }, "geometry": { "type": "Polygon", "coordinates": [ [ [ -72.4086301222667, -43.971958562925799 ], [ -72.408735972439302, -43.972242238804903 ], [ -72.409469539454804, -43.972610981110897 ], [ -72.409857764175797, -43.972708957080499 ], [ -72.410398501166995, -43.972935767874503 ], [ -72.412411792629399, -43.972737650925602 ], [ -72.411923723310295, -43.971767844025699 ], [ -72.411861984623897, -43.971769689679498 ], [ -72.411791844582794, -43.971768809166797 ], [ -72.411736975227697, -43.971746629353099 ], [ -72.411702685826697, -43.971723833419098 ], [ -72.411654855013296, -43.971680600393903 ], [ -72.411600327717593, -43.9716643648512 ], [ -72.411541682470599, -43.971648252374102 ], [ -72.411415283477595, -43.971672873330903 ], [ -72.411184951934501, -43.971718466059201 ], [ -72.411118218620203, -43.971777034335602 ], [ -72.411081318160797, -43.971852575535003 ], [ -72.411022474939401, -43.971904952476997 ], [ -72.410904988767399, -43.971941217415903 ], [ -72.410794711501296, -43.971959400408103 ], [ -72.410680828397901, -43.971986624694502 ], [ -72.410524254669696, -43.971988325449999 ], [ -72.410430440555402, -43.972006017027198 ], [ -72.410404893418104, -43.971991892211399 ], [ -72.410344716736901, -43.971949027548497 ], [ -72.410206678453605, -43.971914443931702 ], [ -72.410120245168301, -43.9719170265085 ], [ -72.410046159663693, -43.971919240088503 ], [ -72.409941359886105, -43.971961079547 ], [ -72.409731249070902, -43.972035840705097 ], [ -72.409581344547604, -43.972082004637798 ], [ -72.4095036540389, -43.972093258306202 ], [ -72.409420484678193, -43.972080854639998 ], [ -72.409370752874196, -43.972076385699999 ], [ -72.409278840518098, -43.972055310360503 ], [ -72.409229109986896, -43.972050841320502 ], [ -72.409168392276996, -43.972070520505 ], [ -72.409090361197102, -43.972075828601703 ], [ -72.409002906183204, -43.972060575361297 ], [ -72.408923682269105, -43.972045076202797 ], [ -72.408773126449105, -43.9720078874454 ], [ -72.4086301222667, -43.971958562925799 ] ] ] } },
{ "type": "Feature", "properties": { "id": "monoparte.3", "Name": null, "description": null, "timestamp": null, "begin": null, "end": null, "altitudeMode": null, "tessellate": -1, "extrude": 0, "visibility": -1, "drawOrder": null, "icon": null, "REG": "Aysén", "COM": "Cisnes", "LOC": "La Junta", "ZONA": "ZAV", "NOM": "Zona ZAV Zona de Equipaiento de Áreas Verdes", "UPERM": "Equipamiento (comunal y vecinal) de áreas verdes.", "UPROH": "Todos los usos de suelo no mencionados precedentemente y los señalados en el Artículo 2.15 de la Ordenanza, en especial las edificaciones de carácter permanente según la OGUC.", "P_DO": "28/11/1959", "N_DOC": "1816", "T_DO": "Decreto", "OBS": null }, "geometry": { "type": "Polygon", "coordinates": [ [ [ -72.413406155475002, -43.9814101211741 ], [ -72.413121397635706, -43.980500713933701 ], [ -72.412998871901806, -43.980089903520302 ], [ -72.412507927971504, -43.978546731754903 ], [ -72.411881141675096, -43.976359703343199 ], [ -72.411654523958205, -43.975513708158502 ], [ -72.411427280187894, -43.974886878585401 ], [ -72.411219438318199, -43.9744833804316 ], [ -72.410760707076506, -43.973615736184101 ], [ -72.410398501166995, -43.972935767874503 ], [ -72.409857764175797, -43.972708957080499 ], [ -72.409469539454804, -43.972610981110897 ], [ -72.409366971926801, -43.972559424101199 ], [ -72.409512105194494, -43.972939503490998 ], [ -72.409757294566106, -43.973477069517799 ], [ -72.410272783860194, -43.974414483846203 ], [ -72.4104426205419, -43.9747160958024 ], [ -72.410664521273603, -43.975206715558002 ], [ -72.410790589598093, -43.975607895063 ], [ -72.410948654726496, -43.976207612988397 ], [ -72.411224369668901, -43.977277244922 ], [ -72.411443622761993, -43.978009123329301 ], [ -72.411709840331497, -43.978840833811802 ], [ -72.412059338436507, -43.979902303145103 ], [ -72.412560982711199, -43.981459448853698 ], [ -72.412643382987099, -43.981745807035097 ], [ -72.412737552485893, -43.9817340584503 ], [ -72.412818690251996, -43.981710789466298 ], [ -72.413014944904205, -43.981609639692401 ], [ -72.413171569156901, -43.9815364720803 ], [ -72.413342953876693, -43.981433087325101 ], [ -72.413406155475002, -43.9814101211741 ] ] ] } },
{ "type": "Feature", "properties": { "id": "monoparte.4", "Name": null, "description": null, "timestamp": null, "begin": null, "end": null, "altitudeMode": null, "tessellate": -1, "extrude": 0, "visibility": -1, "drawOrder": null, "icon": null, "REG": "Aysén", "COM": "Cisnes", "LOC": "La Junta", "ZONA": "ZR2", "NOM": "Zona ZR2 Zona de Restricción por Riesgo de Inundación", "UPERM": "Todos aquellos asociados al esparcimiento al aire libre, la recreación y las áreas verdes.", "UPROH": "Todos los usos de suelo no mencionados precedentemente.Queda prohibido cualquier construcción de carácter permanente.", "P_DO": "28/11/1959", "N_DOC": "1816", "T_DO": "Decreto", "OBS": null }, "geometry": { "type": "Polygon", "coordinates": [ [ [ -72.406150364666004, -43.9815229163572 ], [ -72.406023753618996, -43.981547633111603 ], [ -72.405852898616303, -43.981588461918498 ], [ -72.405959022880893, -43.981755714624803 ], [ -72.406072309217194, -43.981722082042403 ], [ -72.406138174798301, -43.981720116342601 ], [ -72.406205673792797, -43.981746686248599 ], [ -72.406262176890294, -43.981811696516701 ], [ -72.406341980262994, -43.981937945384402 ], [ -72.406470935284503, -43.982000793109002 ], [ -72.406631464051003, -43.982038878227797 ], [ -72.406754949089105, -43.982063776678999 ], [ -72.407094675442295, -43.982120332910903 ], [ -72.407395701235501, -43.982192334851902 ], [ -72.407431357026994, -43.982238911276802 ], [ -72.407427221099795, -43.9822819113432 ], [ -72.407469737567993, -43.9823330472897 ], [ -72.407531467875003, -43.982374080830297 ], [ -72.407612413322198, -43.982405012795297 ], [ -72.407727925497696, -43.982463496089899 ], [ -72.407812412021499, -43.982556255323701 ], [ -72.407931244405404, -43.982557471394401 ], [ -72.407999016218298, -43.982588795548999 ], [ -72.408003646859001, -43.982669646974799 ], [ -72.408035169170802, -43.9827592232173 ], [ -72.408183071600902, -43.982807211002999 ], [ -72.408461296714194, -43.982941824129398 ], [ -72.408521121330807, -43.982949566189802 ], [ -72.408615240913903, -43.982980103985703 ], [ -72.408663254877098, -43.983012017831598 ], [ -72.408699457047703, -43.983068105361902 ], [ -72.408703271367798, -43.983134688940702 ], [ -72.408790486171199, -43.983275005992901 ], [ -72.408765501389098, -43.983299573150703 ], [ -72.408749283248795, -43.983361989779901 ], [ -72.408817875085205, -43.983407582041899 ], [ -72.408978952743396, -43.983455176167098 ], [ -72.409071710909501, -43.9834619333257 ], [ -72.409236651034604, -43.983461770771797 ], [ -72.409405678776196, -43.983532946829101 ], [ -72.409485264117293, -43.983540097163399 ], [ -72.409584609558294, -43.9835466571162 ], [ -72.409705624096105, -43.983585918350201 ], [ -72.409859570635106, -43.983624195545502 ], [ -72.409964958261995, -43.983621046814797 ], [ -72.410051403459207, -43.983632756157398 ], [ -72.410112046632506, -43.983654765113101 ], [ -72.410271217819101, -43.9836690656225 ], [ -72.410518469974406, -43.983723609498099 ], [ -72.410785210101906, -43.983772806970002 ], [ -72.410856846870502, -43.983756373871401 ], [ -72.410950423584097, -43.983777398125603 ], [ -72.410998712066601, -43.983814067138603 ], [ -72.411102965764201, -43.983906233114297 ], [ -72.411894663673905, -43.983732499584697 ], [ -72.413992389468504, -43.983282228430902 ], [ -72.413406155475002, -43.9814101211741 ], [ -72.413342953876693, -43.981433087325101 ], [ -72.413171569156901, -43.9815364720803 ], [ -72.413014944904205, -43.981609639692401 ], [ -72.412818690251996, -43.981710789466298 ], [ -72.412737552485893, -43.9817340584503 ], [ -72.412643382987099, -43.981745807035097 ], [ -72.412424668744805, -43.981814874949698 ], [ -72.412306822139399, -43.981845196657098 ], [ -72.411973380641996, -43.981855165597402 ], [ -72.411713695904496, -43.981856974191402 ], [ -72.411332245739899, -43.981820735439598 ], [ -72.410996928543696, -43.981798004827901 ], [ -72.4107943656564, -43.981789170470698 ], [ -72.410661811640296, -43.981706782648899 ], [ -72.410533829156805, -43.981776113637999 ], [ -72.410493515262104, -43.981792205620998 ], [ -72.410410815584498, -43.981860183292298 ], [ -72.410224859880998, -43.981925290815298 ], [ -72.410080580639701, -43.981998085523898 ], [ -72.409823110450901, -43.982038530951399 ], [ -72.409573360112006, -43.982069812436201 ], [ -72.409433907140695, -43.9820829111843 ], [ -72.409270946394798, -43.982117554732604 ], [ -72.408977816889603, -43.9821114234093 ], [ -72.408733745260903, -43.982097870663402 ], [ -72.408457623885099, -43.9820287008734 ], [ -72.408398970241606, -43.982012587067899 ], [ -72.408226815456004, -43.981886716275397 ], [ -72.407957148108693, -43.981174202809399 ], [ -72.407597988070705, -43.981167061419697 ], [ -72.407458536620496, -43.981180157700301 ], [ -72.407078251012607, -43.981236174543 ], [ -72.406759169653498, -43.981352890544699 ], [ -72.406603762048405, -43.981375394802598 ], [ -72.406458458419706, -43.9814303500374 ], [ -72.406150364666004, -43.9815229163572 ] ] ] } },
{ "type": "Feature", "properties": { "id": "monoparte.5", "Name": null, "description": null, "timestamp": null, "begin": null, "end": null, "altitudeMode": null, "tessellate": -1, "extrude": 0, "visibility": -1, "drawOrder": null, "icon": null, "REG": "Aysén", "COM": "Cisnes", "LOC": "La Junta", "ZONA": "ZU4", "NOM": "Zona ZU4 Zona Urbana de Equipamiento Comercial y Asociacido a la Vialidad y al Transporte", "UPERM": "Equipamiento comercial, de servicios públicos, esparcimiento y turismo (regional, comunal y vecinal), terminales rodoviarios, estaciones de servicios.", "UPROH": "Todos los usos de suelo no mencionados precedentemente y los señalados en el Artículo 2.15 de la Ordenanza.", "P_DO": "28/11/1959", "N_DOC": "1816", "T_DO": "Decreto", "OBS": null }, "geometry": { "type": "Polygon", "coordinates": [ [ [ -72.401895299518998, -43.9744697502599 ], [ -72.401952359680493, -43.9744789124398 ], [ -72.4019507858482, -43.974475020553399 ], [ -72.401723531908999, -43.973961556784502 ], [ -72.401206758498304, -43.972889557172699 ], [ -72.400854753391101, -43.972140771306798 ], [ -72.400325041249204, -43.970879184843703 ], [ -72.399871941733707, -43.969731437446399 ], [ -72.399506352388201, -43.968816309443703 ], [ -72.3993375224033, -43.9683866150258 ], [ -72.398831799210001, -43.967214184044003 ], [ -72.398696216072196, -43.967306123949399 ], [ -72.398625359447095, -43.967364807734697 ], [ -72.398567019358595, -43.967426096050502 ], [ -72.398494803755895, -43.967460999247898 ], [ -72.398439900005599, -43.967510275138601 ], [ -72.398422206941305, -43.967561420301699 ], [ -72.398442232451799, -43.967623352383399 ], [ -72.398554455438202, -43.967783775762101 ], [ -72.398635960254495, -43.967983822949002 ], [ -72.398770969564794, -43.968182275860798 ], [ -72.398880480592595, -43.968295139522802 ], [ -72.398899658320104, -43.968342208545302 ], [ -72.398895329650998, -43.9684108212819 ], [ -72.398879461119407, -43.968566127006703 ], [ -72.398932921811394, -43.968635996032802 ], [ -72.398991687192705, -43.9687265498386 ], [ -72.399017017090301, -43.968809166623203 ], [ -72.399020750808106, -43.968874561967503 ], [ -72.399005603641797, -43.968970295146498 ], [ -72.398966822266004, -43.969013135670799 ], [ -72.398916202627603, -43.969065261483102 ], [ -72.3988099991643, -43.969154772653702 ], [ -72.398796421447301, -43.969205796212499 ], [ -72.398834098712499, -43.969288045334203 ], [ -72.398875171523699, -43.969429744391398 ], [ -72.398974839973107, -43.969659025005903 ], [ -72.3990680598246, -43.969775350912499 ], [ -72.399139343907706, -43.969868509979399 ], [ -72.399162595913396, -43.969986919602903 ], [ -72.399259933356902, -43.970103122712899 ], [ -72.399292647805794, -43.970170632166599 ], [ -72.399282846231202, -43.970215586942103 ], [ -72.399261715471297, -43.970278744639998 ], [ -72.399272323940494, -43.970320115144602 ], [ -72.399333339998805, -43.970377848904697 ], [ -72.399370849111804, -43.970457125559797 ], [ -72.399404582319406, -43.970542469232498 ], [ -72.399416209366294, -43.970601673981498 ], [ -72.399385829273299, -43.970647242593003 ], [ -72.399346198430706, -43.970675220326399 ], [ -72.399278775202504, -43.970721892209902 ], [ -72.399252169690797, -43.970761392898098 ], [ -72.399235155470706, -43.9708244279824 ], [ -72.399229129823496, -43.9708633157246 ], [ -72.399181267834607, -43.9708915394515 ], [ -72.399149358520802, -43.970910354397297 ], [ -72.399101835936193, -43.970944523448402 ], [ -72.399083462454897, -43.970983778928002 ], [ -72.399073151432205, -43.971019816105702 ], [ -72.399037636997207, -43.971047672036804 ], [ -72.399002630416106, -43.9710844446805 ], [ -72.399009461554101, -43.971131882265297 ], [ -72.399025713062599, -43.9711998820761 ], [ -72.399055330799996, -43.971285349310598 ], [ -72.399083590745406, -43.971347036011998 ], [ -72.399061101617804, -43.971386414058998 ], [ -72.398988713191898, -43.971418345428297 ], [ -72.398899520606093, -43.971444821723303 ], [ -72.398897102304105, -43.9714746692689 ], [ -72.398936351019003, -43.9715122086929 ], [ -72.399012474887201, -43.971545672629901 ], [ -72.399116050951307, -43.9715544979653 ], [ -72.399221155958102, -43.971590075913703 ], [ -72.399322653489193, -43.9716346930581 ], [ -72.399328636268294, -43.971667268574798 ], [ -72.399378197509805, -43.9716687697018 ], [ -72.399444901220704, -43.971681671145902 ], [ -72.399522042825097, -43.971732969022199 ], [ -72.399602961868595, -43.9717781997633 ], [ -72.399753680616399, -43.9718183730918 ], [ -72.399789325097402, -43.971864952329 ], [ -72.399855817044397, -43.971946342736501 ], [ -72.399883399072607, -43.971996139396801 ], [ -72.399915606053995, -43.972054731022801 ], [ -72.399893966156199, -43.972108972144703 ], [ -72.399877461657596, -43.972180924877598 ], [ -72.399890107020894, -43.972257964724903 ], [ -72.399933473666906, -43.972295380228999 ], [ -72.400025553319196, -43.972319435417702 ], [ -72.400154166441794, -43.972333469402599 ], [ -72.400200460398395, -43.972349955719302 ], [ -72.400364718838802, -43.972410567633503 ], [ -72.400452342355095, -43.972428799774598 ], [ -72.400516120191497, -43.972462630537102 ], [ -72.400655513366502, -43.972521005598303 ], [ -72.400781030384707, -43.9725529966178 ], [ -72.400958825570399, -43.972634047089898 ], [ -72.400957597168897, -43.972684702890703 ], [ -72.401010045213994, -43.972736735577897 ], [ -72.401012592729401, -43.972781322495202 ], [ -72.401043274013503, -43.972813161919802 ], [ -72.401075142908596, -43.972865807819304 ], [ -72.401153606863303, -43.973012347194697 ], [ -72.401234697465398, -43.973060548932303 ], [ -72.401265717444005, -43.973098332765503 ], [ -72.401293301224896, -43.973148129021702 ], [ -72.401594436427501, -43.973800170276 ], [ -72.401895299518998, -43.9744697502599 ] ] ] } },
{ "type": "Feature", "properties": { "id": "monoparte.6", "Name": null, "description": null, "timestamp": null, "begin": null, "end": null, "altitudeMode": null, "tessellate": -1, "extrude": 0, "visibility": -1, "drawOrder": null, "icon": null, "REG": "Aysén", "COM": "Cisnes", "LOC": "La Junta", "ZONA": "ZR4", "NOM": "Zona ZR4 Zona de Restricción por Protección de Laderas", "UPERM": "Conservación y rehabilitación de la vegetación con una doble finalidad; proteger la estabilidad de las laderas y constituir un área paisajísticamente atractiva que otorgue de un carácter especial a la localidad.", "UPROH": "Todos los usos de suelo no mencionados precedentemente.", "P_DO": "28/11/1959", "N_DOC": "1816", "T_DO": "Decreto", "OBS": null }, "geometry": { "type": "Polygon", "coordinates": [ [ [ -72.401952359680493, -43.9744789124398 ], [ -72.401895299518998, -43.9744697502599 ], [ -72.401896767848996, -43.974473017784902 ], [ -72.401317508752498, -43.974654048011999 ], [ -72.401084887914095, -43.974768172330599 ], [ -72.401062230338894, -43.974804577595599 ], [ -72.401063759012004, -43.974831330274199 ], [ -72.401107977637096, -43.974883608132302 ], [ -72.401139677970093, -43.974933281740697 ], [ -72.401113582821296, -43.974981700381399 ], [ -72.4011288188956, -43.9750318646267 ], [ -72.401181569838997, -43.975161304702198 ], [ -72.401209834096505, -43.975222991611403 ], [ -72.401219894995904, -43.975326905628798 ], [ -72.401251765527604, -43.975379551411699 ], [ -72.401287393347005, -43.975461861623799 ], [ -72.401338955990695, -43.975570494264197 ], [ -72.401394504868307, -43.9756045688531 ], [ -72.401441651137603, -43.975635917456898 ], [ -72.401541968149303, -43.975659724998998 ], [ -72.401603032008396, -43.975645995021601 ], [ -72.401714508607697, -43.975648627939698 ], [ -72.401781217206107, -43.975661526952202 ], [ -72.401826664724098, -43.975663149618399 ], [ -72.401875379841499, -43.975649787565203 ], [ -72.401882044126197, -43.975694252639201 ], [ -72.401915992509203, -43.975711106226697 ], [ -72.401979264999198, -43.975736017567002 ], [ -72.402009437445201, -43.975758939140299 ], [ -72.402041478807305, -43.975814556886299 ], [ -72.402043347806, -43.975847254865101 ], [ -72.402039022704201, -43.975915866649103 ], [ -72.402043440280295, -43.975993151471698 ], [ -72.402065211276593, -43.9760133452804 ], [ -72.402165869048204, -43.9760430984743 ], [ -72.402187468909005, -43.976060319179702 ], [ -72.402194474534397, -43.976110728618998 ], [ -72.402173345240499, -43.976173887669297 ], [ -72.402133202503407, -43.976192948877298 ], [ -72.402092210264996, -43.976197148990302 ], [ -72.402042135518499, -43.976186731618299 ], [ -72.402019138271001, -43.976217192631402 ], [ -72.402049480828893, -43.976243085501999 ], [ -72.402084279156497, -43.976274801906101 ], [ -72.4020868277901, -43.9763193887459 ], [ -72.402074271071697, -43.976388246800902 ], [ -72.402054670722606, -43.9764781575781 ], [ -72.402083446271703, -43.976548760858698 ], [ -72.402112901539098, -43.976631253892201 ], [ -72.402106537630402, -43.976664197280201 ], [ -72.402101193157506, -43.976714974863 ], [ -72.402119358319396, -43.976744208886302 ], [ -72.402142147894196, -43.976782237798602 ], [ -72.402139901071905, -43.9768150575607 ], [ -72.402142279893795, -43.976856672177902 ], [ -72.402134348815807, -43.976934325090497 ], [ -72.4021868030771, -43.976986357014503 ], [ -72.402197243845606, -43.977024754026097 ], [ -72.4021745849968, -43.9770611604417 ], [ -72.402151927314605, -43.977097565917703 ], [ -72.402162028225305, -43.977130017601901 ], [ -72.402165256713502, -43.977186495091502 ], [ -72.402147734424105, -43.977240612966 ], [ -72.402180116710895, -43.9773021768601 ], [ -72.402186441618994, -43.977340696562699 ], [ -72.402207769611493, -43.977482982840101 ], [ -72.402280971624194, -43.977609430532802 ], [ -72.402329460527696, -43.977765200207102 ], [ -72.402378554490994, -43.977816141117003 ], [ -72.4024438112897, -43.977919005513797 ], [ -72.402458554879999, -43.978061488026 ], [ -72.402494204224297, -43.978108066225197 ], [ -72.402537799720804, -43.978178227557599 ], [ -72.402626078726499, -43.978337574304703 ], [ -72.402683935451407, -43.978426366973302 ], [ -72.402787350971295, -43.9785042734553 ], [ -72.402789798373206, -43.978547077097097 ], [ -72.402778801858403, -43.9785855171991 ], [ -72.402722244182797, -43.978634844418799 ], [ -72.402621760413197, -43.978723593448102 ], [ -72.402497920887399, -43.9788654440258 ], [ -72.4024588865543, -43.978990473183899 ], [ -72.402451424678105, -43.979090741957997 ], [ -72.402431605116007, -43.979205670437899 ], [ -72.402430729827302, -43.97930574195 ], [ -72.402484446612107, -43.979437534734501 ], [ -72.402600765199693, -43.979510292336201 ], [ -72.4026627008991, -43.979670424402997 ], [ -72.402744999948894, -43.979725139532 ], [ -72.402842376294004, -43.979812753836597 ], [ -72.402865126732394, -43.979864479959502 ], [ -72.402910899760997, -43.979972689343597 ], [ -72.402941868854001, -43.980052754804397 ], [ -72.402985466486001, -43.9801229167822 ], [ -72.402998851127506, -43.980241618769099 ], [ -72.4030374952481, -43.980340512823801 ], [ -72.403142818518702, -43.9804517099411 ], [ -72.403551175808403, -43.980439532790101 ], [ -72.403771033079394, -43.980361515073803 ], [ -72.404019956108897, -43.980330270095699 ], [ -72.404106938490401, -43.980351496681102 ], [ -72.404174979166797, -43.980387579477302 ], [ -72.404190873410997, -43.980434746362803 ], [ -72.404213897360094, -43.980491228418003 ], [ -72.404267948426494, -43.980513436231703 ], [ -72.404313781569797, -43.980507305648104 ], [ -72.404477625570294, -43.9804881261365 ], [ -72.404683164588505, -43.980505814800402 ], [ -72.404026100158802, -43.979220603319597 ], [ -72.403460015736002, -43.978046466793302 ], [ -72.402827394226406, -43.976573577846104 ], [ -72.402222679077397, -43.975111495824301 ], [ -72.402019925149901, -43.974645895867702 ], [ -72.401952359680493, -43.9744789124398 ] ] ] } },
{ "type": "Feature", "properties": { "id": "monoparte.7", "Name": null, "description": null, "timestamp": null, "begin": null, "end": null, "altitudeMode": null, "tessellate": -1, "extrude": 0, "visibility": -1, "drawOrder": null, "icon": null, "REG": "Aysén", "COM": "Cisnes", "LOC": "La Junta", "ZONA": "ZU7", "NOM": "Zona ZU7 Zona Urbana de Expansión Industrial", "UPERM": "Industria inofensiva, talleres y recintos de almacenamiento inofensivo y molestos.", "UPROH": "Todos los usos de suelo no mencionados precedentemente y los señalados en el Artículo 2.15 de la Ordenanza.", "P_DO": "28/11/1959", "N_DOC": "1816", "T_DO": "Decreto", "OBS": null }, "geometry": { "type": "Polygon", "coordinates": [ [ [ -72.406086020130601, -43.9808511128318 ], [ -72.406369640267798, -43.981214741344999 ], [ -72.406518236942802, -43.981407741056103 ], [ -72.406603762048405, -43.981375394802598 ], [ -72.406759169653498, -43.981352890544699 ], [ -72.407078251012607, -43.981236174543 ], [ -72.407458536620496, -43.981180157700301 ], [ -72.407597988070705, -43.981167061419697 ], [ -72.407957148108693, -43.981174202809399 ], [ -72.408226815456004, -43.981886716275397 ], [ -72.408398970241606, -43.982012587067899 ], [ -72.408457623885099, -43.9820287008734 ], [ -72.408733745260903, -43.982097870663402 ], [ -72.408977816889603, -43.9821114234093 ], [ -72.409270946394798, -43.982117554732604 ], [ -72.409433907140695, -43.9820829111843 ], [ -72.409573360112006, -43.982069812436201 ], [ -72.409823110450901, -43.982038530951399 ], [ -72.410080580639701, -43.981998085523898 ], [ -72.410224859880998, -43.981925290815298 ], [ -72.410410815584498, -43.981860183292298 ], [ -72.410493515262104, -43.981792205620998 ], [ -72.410533829156805, -43.981776113637999 ], [ -72.410661811640296, -43.981706782648899 ], [ -72.4107943656564, -43.981789170470698 ], [ -72.410996928543696, -43.981798004827901 ], [ -72.411332245739899, -43.981820735439598 ], [ -72.411713695904496, -43.981856974191402 ], [ -72.411973380641996, -43.981855165597402 ], [ -72.412306822139399, -43.981845196657098 ], [ -72.412424668744805, -43.981814874949698 ], [ -72.412643382987099, -43.981745807035097 ], [ -72.412560982711199, -43.981459448853698 ], [ -72.412059338436507, -43.979902303145103 ], [ -72.411975606639004, -43.979648004198602 ], [ -72.406086020130601, -43.9808511128318 ] ] ] } },
{ "type": "Feature", "properties": { "id": "monoparte.8", "Name": null, "description": null, "timestamp": null, "begin": null, "end": null, "altitudeMode": null, "tessellate": -1, "extrude": 0, "visibility": -1, "drawOrder": null, "icon": null, "REG": "Aysén", "COM": "Cisnes", "LOC": "La Junta", "ZONA": "ZAV", "NOM": "Zona ZAV Zona de Equipaiento de Áreas Verdes", "UPERM": "Equipamiento (comunal y vecinal) de áreas verdes.", "UPROH": "Todos los usos de suelo no mencionados precedentemente y los señalados en el Artículo 2.15 de la Ordenanza, en especial las edificaciones de carácter permanente según la OGUC.", "P_DO": "28/11/1959", "N_DOC": "1816", "T_DO": "Decreto", "OBS": null }, "geometry": { "type": "Polygon", "coordinates": [ [ [ -72.400100259891701, -43.968595195736597 ], [ -72.400440168584197, -43.9682569916557 ], [ -72.400689716570398, -43.968006588605498 ], [ -72.399615897535099, -43.967413597121997 ], [ -72.399757650863194, -43.967751792935303 ], [ -72.399973581231507, -43.968284297587402 ], [ -72.400100259891701, -43.968595195736597 ] ] ] } },
{ "type": "Feature", "properties": { "id": "monoparte.9", "Name": null, "description": null, "timestamp": null, "begin": null, "end": null, "altitudeMode": null, "tessellate": -1, "extrude": 0, "visibility": -1, "drawOrder": null, "icon": null, "REG": "Aysén", "COM": "Cisnes", "LOC": "La Junta", "ZONA": "ZU6", "NOM": "Zona ZU6 Zona Urbana de equipamiento Comunal (2)", "UPERM": "Vivienda; Equipamiento (regional y comunal) con excepción de equipamiento deportivo y de áreas verdes.", "UPROH": "Todos los usos de suelo no mencionados precedentemente y los señalados en el Artículo 2.15 de la Ordenanza.", "P_DO": "28/11/1959", "N_DOC": "1816", "T_DO": "Decreto", "OBS": null }, "geometry": { "type": "Polygon", "coordinates": [ [ [ -72.405924460536198, -43.981178307752998 ], [ -72.406150364666004, -43.9815229163572 ], [ -72.406458458419706, -43.9814303500374 ], [ -72.406518236942802, -43.981407741056103 ], [ -72.406369640267798, -43.981214741344999 ], [ -72.406086020130601, -43.9808511128318 ], [ -72.406006507981402, -43.980749171167098 ], [ -72.405778867266704, -43.980460591764597 ], [ -72.405541157324706, -43.979996041587903 ], [ -72.405029008744407, -43.979001337897202 ], [ -72.404474969931798, -43.977850667091197 ], [ -72.403903488404893, -43.976509950565799 ], [ -72.403446924913098, -43.975332547083397 ], [ -72.402880989923801, -43.973972602954099 ], [ -72.402554003346097, -43.973272503749101 ], [ -72.402165339727006, -43.972474196596302 ], [ -72.401955122831396, -43.972027875414398 ], [ -72.401697515052803, -43.971444807628302 ], [ -72.401274718100694, -43.970395018114999 ], [ -72.400731696425794, -43.96897244622 ], [ -72.400440168584197, -43.9682569916557 ], [ -72.400100259891701, -43.968595195736597 ], [ -72.400280446703903, -43.969037408698298 ], [ -72.400705966047397, -43.970135357134403 ], [ -72.401153610789194, -43.971259442710199 ], [ -72.401383103719596, -43.971812383027299 ], [ -72.4017906207783, -43.972666704759803 ], [ -72.402265668030097, -43.973620248438102 ], [ -72.402526202997706, -43.974210969146 ], [ -72.4027651438644, -43.9747844675396 ], [ -72.403008375418196, -43.975360815631198 ], [ -72.403339301924305, -43.976172751313499 ], [ -72.4037660106505, -43.977181325206899 ], [ -72.404267286433907, -43.978303797916801 ], [ -72.404709525876797, -43.979186848173903 ], [ -72.405099354805898, -43.979946402861898 ], [ -72.4054055717382, -43.980541708948103 ], [ -72.405506545404506, -43.980648865278297 ], [ -72.405613336717394, -43.980785623408302 ], [ -72.405723833086398, -43.980925087899401 ], [ -72.405924460536198, -43.981178307752998 ] ] ] } },
{ "type": "Feature", "properties": { "id": "monoparte.10", "Name": null, "description": null, "timestamp": null, "begin": null, "end": null, "altitudeMode": null, "tessellate": -1, "extrude": 0, "visibility": -1, "drawOrder": null, "icon": null, "REG": "Aysén", "COM": "Cisnes", "LOC": "La Junta", "ZONA": "ZU5", "NOM": "Zona ZU5 Zona Urbana de Equipamiento Comunal (1)", "UPERM": "Vivienda; Equipamiento (regional y comunal) con excepción de equipamiento deportivo y de áreas verdes.", "UPROH": "Todos los usos de suelo no mencionados precedentemente y los señalados en el Artículo 2.15 de la Ordenanza.", "P_DO": "28/11/1959", "N_DOC": "1816", "T_DO": "Decreto", "OBS": null }, "geometry": { "type": "Polygon", "coordinates": [ [ [ -72.407267887843105, -43.979505896396503 ], [ -72.406801555522406, -43.978539043869901 ], [ -72.405661936998499, -43.978770452157697 ], [ -72.406092498834695, -43.979737216419601 ], [ -72.406094307000998, -43.979744519676203 ], [ -72.407267887843105, -43.979505896396503 ] ] ] } },
{ "type": "Feature", "properties": { "id": "monoparte.11", "Name": null, "description": null, "timestamp": null, "begin": null, "end": null, "altitudeMode": null, "tessellate": -1, "extrude": 0, "visibility": -1, "drawOrder": null, "icon": null, "REG": "Aysén", "COM": "Cisnes", "LOC": "La Junta", "ZONA": "ZAV", "NOM": "Zona ZAV Zona de Equipaiento de Áreas Verdes", "UPERM": "Equipamiento (comunal y vecinal) de áreas verdes.", "UPROH": "Todos los usos de suelo no mencionados precedentemente y los señalados en el Artículo 2.15 de la Ordenanza, en especial las edificaciones de carácter permanente según la OGUC.", "P_DO": "28/11/1959", "N_DOC": "1816", "T_DO": "Decreto", "OBS": null }, "geometry": { "type": "Polygon", "coordinates": [ [ [ -72.406801555522406, -43.978539043869901 ], [ -72.407267887843105, -43.979505896396503 ], [ -72.408436637417395, -43.979268242591999 ], [ -72.408034175212606, -43.978288737224602 ], [ -72.406801555522406, -43.978539043869901 ] ] ] } },
{ "type": "Feature", "properties": { "id": "monoparte.12", "Name": null, "description": null, "timestamp": null, "begin": null, "end": null, "altitudeMode": null, "tessellate": -1, "extrude": 0, "visibility": -1, "drawOrder": null, "icon": null, "REG": "Aysén", "COM": "Cisnes", "LOC": "La Junta", "ZONA": "ZE1", "NOM": "Zona ZE1 Zona de Expansión Urbana", "UPERM": "Vivienda; Equipamiento (Vecinal) de todo tipo; y talleres y almacenamiento inofensivo y no molesto.", "UPROH": "Todos los usos de suelo no mencionados precedentemente y los señalados en el Artículo 2.15 de la Ordenanza.", "P_DO": "28/11/1959", "N_DOC": "1816", "T_DO": "Decreto", "OBS": null }, "geometry": { "type": "Polygon", "coordinates": [ [ [ -72.404515193784704, -43.977934208509403 ], [ -72.405029008744407, -43.979001337897202 ], [ -72.405541157324706, -43.979996041587903 ], [ -72.405778867266704, -43.980460591764597 ], [ -72.406006507981402, -43.980749171167098 ], [ -72.406086020130601, -43.9808511128318 ], [ -72.411975606639004, -43.979648004198602 ], [ -72.411709840331497, -43.978840833811802 ], [ -72.411443622761993, -43.978009123329301 ], [ -72.411224369668901, -43.977277244922 ], [ -72.411050484410097, -43.976602667102597 ], [ -72.409893109582995, -43.976846668220901 ], [ -72.408353799749193, -43.977154672133302 ], [ -72.405404674181099, -43.977728641600798 ], [ -72.404515193784704, -43.977934208509403 ] ], [ [ -72.408436637417395, -43.979268242591999 ], [ -72.406094307000998, -43.979744519676203 ], [ -72.406092498834695, -43.979737216419601 ], [ -72.405661936998499, -43.978770452157697 ], [ -72.408034175212606, -43.978288737224602 ], [ -72.408436637417395, -43.979268242591999 ] ] ] } },
{ "type": "Feature", "properties": { "id": "monoparte.13", "Name": null, "description": null, "timestamp": null, "begin": null, "end": null, "altitudeMode": null, "tessellate": -1, "extrude": 0, "visibility": -1, "drawOrder": null, "icon": null, "REG": "Aysén", "COM": "Cisnes", "LOC": "La Junta", "ZONA": "ZES", "NOM": "Zona ZES Zona de Equipamiento Sanitario", "UPERM": "Equipamiento para el tratamiento de aguas servidas.", "UPROH": "Todos los usos de suelo no mencionados precedentemente.", "P_DO": "28/11/1959", "N_DOC": "1816", "T_DO": "Decreto", "OBS": null }, "geometry": { "type": "Polygon", "coordinates": [ [ [ -72.406794188038702, -43.971175150561301 ], [ -72.4069399821704, -43.9712417869519 ], [ -72.407300712287693, -43.971435873544998 ], [ -72.408194167268405, -43.9719475371787 ], [ -72.408735972439302, -43.972242238804903 ], [ -72.4086301222667, -43.971958562925799 ], [ -72.407991726670801, -43.970241715510397 ], [ -72.407736765861102, -43.970145113652698 ], [ -72.406342467860696, -43.969626956637299 ], [ -72.406728918797398, -43.970904701378103 ], [ -72.406790204623704, -43.971160503695799 ], [ -72.406794188038702, -43.971175150561301 ] ] ] } },
{ "type": "Feature", "properties": { "id": "monoparte.14", "Name": null, "description": null, "timestamp": null, "begin": null, "end": null, "altitudeMode": null, "tessellate": -1, "extrude": 0, "visibility": -1, "drawOrder": null, "icon": null, "REG": "Aysén", "COM": "Cisnes", "LOC": "La Junta", "ZONA": "ZU3", "NOM": "Zona ZU3 Zona Urbana de Equipamiento Deportivo, Recreacional, Educacional y de Áreas Verdes", "UPERM": "Equipamiento deportivo, recreacional, educacional y de áreas verdes (regional, comunal y vecinal).", "UPROH": "Todos los usos de suelo no mencionados precedentemente y los señalados en el Artículo 2.15 de la Ordenanza.", "P_DO": "28/11/1959", "N_DOC": "1816", "T_DO": "Decreto", "OBS": null }, "geometry": { "type": "Polygon", "coordinates": [ [ [ -72.408735972439302, -43.972242238804903 ], [ -72.408194167268405, -43.9719475371787 ], [ -72.407300712287693, -43.971435873544998 ], [ -72.4069399821704, -43.9712417869519 ], [ -72.406794188038702, -43.971175150561301 ], [ -72.4068403320546, -43.9713448070654 ], [ -72.407030009457998, -43.971777440117997 ], [ -72.407264374947104, -43.972299256358198 ], [ -72.407553997448304, -43.9732100772476 ], [ -72.407708529574094, -43.973719983779098 ], [ -72.408053849118701, -43.974681544665202 ], [ -72.408387643595702, -43.9756720329693 ], [ -72.408811909984493, -43.9755926652496 ], [ -72.410681201895997, -43.9752597991125 ], [ -72.410664521273603, -43.975206715558002 ], [ -72.4104426205419, -43.9747160958024 ], [ -72.410272783860194, -43.974414483846203 ], [ -72.409757294566106, -43.973477069517799 ], [ -72.409512105194494, -43.972939503490998 ], [ -72.409366971926801, -43.972559424101199 ], [ -72.408735972439302, -43.972242238804903 ] ] ] } },
{ "type": "Feature", "properties": { "id": "monoparte.15", "Name": null, "description": null, "timestamp": null, "begin": null, "end": null, "altitudeMode": null, "tessellate": -1, "extrude": 0, "visibility": -1, "drawOrder": null, "icon": null, "REG": "Aysén", "COM": "Cisnes", "LOC": "La Junta", "ZONA": "ZE", "NOM": "Zona  ZE Zona Especial", "UPERM": "Equipamiento (regional y comunal) con excepción de equipamiento deportivo, de áreas verdes y servicios artesanales.", "UPROH": "Todos los usos de suelo no mencionados precedentemente y los señalados en el Artículo 2.15 de la Ordenanza.", "P_DO": "28/11/1959", "N_DOC": "1816", "T_DO": "Decreto", "OBS": null }, "geometry": { "type": "Polygon", "coordinates": [ [ [ -72.406406804327503, -43.9721821183633 ], [ -72.406176860917199, -43.971534309554997 ], [ -72.405723656768899, -43.971635394433903 ], [ -72.405923667928306, -43.972248756256498 ], [ -72.406406804327503, -43.9721821183633 ] ] ] } },
{ "type": "Feature", "properties": { "id": "monoparte.16", "Name": null, "description": null, "timestamp": null, "begin": null, "end": null, "altitudeMode": null, "tessellate": -1, "extrude": 0, "visibility": -1, "drawOrder": null, "icon": null, "REG": "Aysén", "COM": "Cisnes", "LOC": "La Junta", "ZONA": "ZAV", "NOM": "Zona ZAV Zona de Equipaiento de Áreas Verdes", "UPERM": "Equipamiento (comunal y vecinal) de áreas verdes.", "UPROH": "Todos los usos de suelo no mencionados precedentemente y los señalados en el Artículo 2.15 de la Ordenanza, en especial las edificaciones de carácter permanente según la OGUC.", "P_DO": "28/11/1959", "N_DOC": "1816", "T_DO": "Decreto", "OBS": null }, "geometry": { "type": "Polygon", "coordinates": [ [ [ -72.405923667928306, -43.972248756256498 ], [ -72.405723656768899, -43.971635394433903 ], [ -72.405610182683503, -43.971381520648499 ], [ -72.404468073750493, -43.971596629196902 ], [ -72.404668945341001, -43.972109922098603 ], [ -72.404884838757894, -43.972770452952197 ], [ -72.406039594489499, -43.972545434043198 ], [ -72.405923667928306, -43.972248756256498 ] ] ] } },
{ "type": "Feature", "properties": { "id": "monoparte.17", "Name": null, "description": null, "timestamp": null, "begin": null, "end": null, "altitudeMode": null, "tessellate": -1, "extrude": 0, "visibility": -1, "drawOrder": null, "icon": null, "REG": "Aysén", "COM": "Cisnes", "LOC": "La Junta", "ZONA": "ZU5", "NOM": "Zona ZU5 Zona Urbana de Equipamiento Comunal (1)", "UPERM": "Vivienda; Equipamiento (regional y comunal) con excepción de equipamiento deportivo y de áreas verdes.", "UPROH": "Todos los usos de suelo no mencionados precedentemente y los señalados en el Artículo 2.15 de la Ordenanza.", "P_DO": "28/11/1959", "N_DOC": "1816", "T_DO": "Decreto", "OBS": null }, "geometry": { "type": "Polygon", "coordinates": [ [ [ -72.405923667928306, -43.972248756256498 ], [ -72.406039594489499, -43.972545434043198 ], [ -72.404884838757894, -43.972770452952197 ], [ -72.404668945341001, -43.972109922098603 ], [ -72.404468073750493, -43.971596629196902 ], [ -72.405610182683503, -43.971381520648499 ], [ -72.405723656768899, -43.971635394433903 ], [ -72.406176860917199, -43.971534309554997 ], [ -72.405959969944703, -43.970923258760401 ], [ -72.405811828394704, -43.970870510716601 ], [ -72.405501173281706, -43.970975061734798 ], [ -72.403558103170894, -43.971256935319097 ], [ -72.403795096842103, -43.971940660052901 ], [ -72.402115144219593, -43.9723676239295 ], [ -72.402165339727006, -43.972474196596302 ], [ -72.402409988528305, -43.972976702068998 ], [ -72.404088919501206, -43.972579811717303 ], [ -72.404406856589006, -43.973294468685502 ], [ -72.405594551830205, -43.973068470822902 ], [ -72.406667780721705, -43.972917340173701 ], [ -72.406406804327503, -43.9721821183633 ], [ -72.405923667928306, -43.972248756256498 ] ] ] } },
{ "type": "Feature", "properties": { "id": "monoparte.18", "Name": null, "description": null, "timestamp": null, "begin": null, "end": null, "altitudeMode": null, "tessellate": -1, "extrude": 0, "visibility": -1, "drawOrder": null, "icon": null, "REG": "Aysén", "COM": "Cisnes", "LOC": "La Junta", "ZONA": "ZR4", "NOM": "Zona ZR4 Zona de Restricción por Protección de Laderas", "UPERM": "Conservación y rehabilitación de la vegetación con una doble finalidad; proteger la estabilidad de las laderas y constituir un área paisajísticamente atractiva que otorgue de un carácter especial a la localidad.", "UPROH": "Todos los usos de suelo no mencionados precedentemente.", "P_DO": "28/11/1959", "N_DOC": "1816", "T_DO": "Decreto", "OBS": null }, "geometry": { "type": "Polygon", "coordinates": [ [ [ -72.400689716570398, -43.968006588605498 ], [ -72.402437981918695, -43.968966905883498 ], [ -72.403399400250507, -43.969486110101499 ], [ -72.404369407199695, -43.9700110054128 ], [ -72.405187181934593, -43.970468972465099 ], [ -72.406109598799802, -43.970882125172203 ], [ -72.406794188038702, -43.971175150561301 ], [ -72.406790204623704, -43.971160503695799 ], [ -72.406728918797398, -43.970904701378103 ], [ -72.406687250183793, -43.970897013300302 ], [ -72.406603232478304, -43.970869745581098 ], [ -72.406531052155998, -43.970833191737697 ], [ -72.406471389608001, -43.970799241513497 ], [ -72.406398529088307, -43.970750797858699 ], [ -72.406326178959105, -43.970711271670403 ], [ -72.406250904068997, -43.970692675500601 ], [ -72.406138246290894, -43.970669239478603 ], [ -72.406050452621301, -43.970648039503899 ], [ -72.405965245049501, -43.970599964045398 ], [ -72.405854323335404, -43.970534790381102 ], [ -72.405747516051903, -43.970469493830699 ], [ -72.405618770211007, -43.9703810317571 ], [ -72.405528087531707, -43.970309298383 ], [ -72.4054397857022, -43.970279180350403 ], [ -72.405372742451206, -43.970260337982303 ], [ -72.405259915777293, -43.970233928844401 ], [ -72.4052036898441, -43.970187965384703 ], [ -72.405160151560594, -43.970147578821297 ], [ -72.405056612291204, -43.970067296801503 ], [ -72.404842662560995, -43.9699307566217 ], [ -72.404739634117206, -43.969859391818503 ], [ -72.404658034100095, -43.969802275004803 ], [ -72.404575244272905, -43.969724350845297 ], [ -72.404517999387295, -43.969660551941402 ], [ -72.404395959225297, -43.9695450901947 ], [ -72.404326197383597, -43.969478687273103 ], [ -72.404266707443597, -43.969447708916903 ], [ -72.4042022522938, -43.969401990412301 ], [ -72.404128885394798, -43.969344627644404 ], [ -72.404017626863407, -43.969273507651998 ], [ -72.4038972880671, -43.969187770147499 ], [ -72.403740756283, -43.969118000115898 ], [ -72.403561911902997, -43.969090579923702 ], [ -72.403460754479099, -43.969051910966897 ], [ -72.403363884931295, -43.969016091340102 ], [ -72.403282967078198, -43.968970863220299 ], [ -72.403211470776299, -43.9689461977908 ], [ -72.403144089818596, -43.968921408705903 ], [ -72.403063512107593, -43.968882125753197 ], [ -72.4030040234003, -43.968851146695499 ], [ -72.4029124591179, -43.968836011280601 ], [ -72.402832391384507, -43.968805645707697 ], [ -72.402726780989198, -43.9687611533937 ], [ -72.402561851057001, -43.968688653930798 ], [ -72.402347212690202, -43.968575950513099 ], [ -72.4021944622896, -43.968500110150401 ], [ -72.402082697999404, -43.968420070577601 ], [ -72.402000762735994, -43.968357006365899 ], [ -72.401875633951406, -43.968259499449097 ], [ -72.401679048644795, -43.9680658628033 ], [ -72.401574498648799, -43.967967742201701 ], [ -72.401444915196294, -43.9678644121025 ], [ -72.401328867990003, -43.967781521237399 ], [ -72.401228734332093, -43.967760685276097 ], [ -72.401214689122199, -43.967731328296402 ], [ -72.401165851400293, -43.967670255324499 ], [ -72.401056507186894, -43.967560366172599 ], [ -72.400920732658093, -43.9674929509641 ], [ -72.400827681713693, -43.967379599695498 ], [ -72.400711296717802, -43.967290762789503 ], [ -72.400507676512802, -43.967118177385899 ], [ -72.400373981561003, -43.9670149685493 ], [ -72.400130267030093, -43.966789980479803 ], [ -72.399128866119099, -43.967013349520798 ], [ -72.399122263820502, -43.967017790155403 ], [ -72.399460648119799, -43.967221702623903 ], [ -72.399615897535099, -43.967413597121997 ], [ -72.400689716570398, -43.968006588605498 ] ] ] } },
{ "type": "Feature", "properties": { "id": "monoparte.19", "Name": null, "description": null, "timestamp": null, "begin": null, "end": null, "altitudeMode": null, "tessellate": -1, "extrude": 0, "visibility": -1, "drawOrder": null, "icon": null, "REG": "Aysén", "COM": "Cisnes", "LOC": "La Junta", "ZONA": "ZU1", "NOM": "Zona ZU1 Zona Urbana Consolidada de Mayor Densidad", "UPERM": "Vivienda; Equipamiento (Vecinal) de todo tipo; y talleres y almacenamiento inofensivo y no molesto.", "UPROH": "Todos los usos de suelo no mencionados precedentemente y los señalados en el Artículo 2.15 de la Ordenanza.", "P_DO": "28/11/1959", "N_DOC": "1816", "T_DO": "Decreto", "OBS": null }, "geometry": { "type": "Polygon", "coordinates": [ [ [ -72.406503958177396, -43.972455823113897 ], [ -72.406667780721705, -43.972917340173701 ], [ -72.405594551830205, -43.973068470822902 ], [ -72.404406856589006, -43.973294468685502 ], [ -72.404088919501206, -43.972579811717303 ], [ -72.402409988528305, -43.972976702068998 ], [ -72.402554003346097, -43.973272503749101 ], [ -72.402880989923801, -43.973972602954099 ], [ -72.403446924913098, -43.975332547083397 ], [ -72.403903488404893, -43.976509950565799 ], [ -72.404474969931798, -43.977850667091197 ], [ -72.404515193784704, -43.977934208509403 ], [ -72.405404674181099, -43.977728641600798 ], [ -72.408353799749193, -43.977154672133302 ], [ -72.409893109582995, -43.976846668220901 ], [ -72.411050484410097, -43.976602667102597 ], [ -72.410948654726496, -43.976207612988397 ], [ -72.410790589598093, -43.975607895063 ], [ -72.410681201895997, -43.9752597991125 ], [ -72.408811909984493, -43.9755926652496 ], [ -72.408387643595702, -43.9756720329693 ], [ -72.408053849118701, -43.974681544665202 ], [ -72.407708529574094, -43.973719983779098 ], [ -72.407553997448304, -43.9732100772476 ], [ -72.4072868373147, -43.972369896471903 ], [ -72.406503958177396, -43.972455823113897 ] ] ] } },
{ "type": "Feature", "properties": { "id": "monoparte.20", "Name": null, "description": null, "timestamp": null, "begin": null, "end": null, "altitudeMode": null, "tessellate": -1, "extrude": 0, "visibility": -1, "drawOrder": null, "icon": null, "REG": "Aysén", "COM": "Cisnes", "LOC": "La Junta", "ZONA": "ZU2", "NOM": "Zona ZU2 Zona Urbana Consolidada de Menor Densidad", "UPERM": "Vivienda; Equipamiento (Vecinal) de todo tipo; y talleres y almacenamiento inofensivo y no molesto.", "UPROH": "Todos los usos de suelo no mencionados precedentemente y los señalados en el Artículo 2.15 de la Ordenanza.", "P_DO": "28/11/1959", "N_DOC": "1816", "T_DO": "Decreto", "OBS": null }, "geometry": { "type": "Polygon", "coordinates": [ [ [ -72.406503958177396, -43.972455823113897 ], [ -72.4072868373147, -43.972369896471903 ], [ -72.407264374947104, -43.972299256358198 ], [ -72.407030009457998, -43.971777440117997 ], [ -72.4068403320546, -43.9713448070654 ], [ -72.406794188038702, -43.971175150561301 ], [ -72.406109598799802, -43.970882125172203 ], [ -72.405187181934593, -43.970468972465099 ], [ -72.404369407199695, -43.9700110054128 ], [ -72.403399400250507, -43.969486110101499 ], [ -72.402437981918695, -43.968966905883498 ], [ -72.400689716570398, -43.968006588605498 ], [ -72.400440168584197, -43.9682569916557 ], [ -72.400731696425794, -43.96897244622 ], [ -72.401274718100694, -43.970395018114999 ], [ -72.401697515052803, -43.971444807628302 ], [ -72.401955122831396, -43.972027875414398 ], [ -72.402115144219593, -43.9723676239295 ], [ -72.403795096842103, -43.971940660052901 ], [ -72.403558103170894, -43.971256935319097 ], [ -72.405501173281706, -43.970975061734798 ], [ -72.405811828394704, -43.970870510716601 ], [ -72.405959969944703, -43.970923258760401 ], [ -72.406503958177396, -43.972455823113897 ] ] ] } },
{ "type": "Feature", "properties": { "id": "monoparte.21", "Name": null, "description": null, "timestamp": null, "begin": null, "end": null, "altitudeMode": null, "tessellate": -1, "extrude": 0, "visibility": -1, "drawOrder": null, "icon": null, "REG": "Aysén", "COM": "Cisnes", "LOC": "La Junta", "ZONA": "ZR3", "NOM": "Zona ZR3 Zona de Restricción por Protección del Camino Longitudinal Austral", "UPERM": "En las fajas definidas como bandejon central, quedará permitida la construcción de áreas verdes o parques en su interior.", "UPROH": "Todos los usos de suelo no mencionados precedentemente.", "P_DO": "28/11/1959", "N_DOC": "1816", "T_DO": "Decreto", "OBS": null }, "geometry": { "type": "Polygon", "coordinates": [ [ [ -72.405959022880893, -43.981755714624803 ], [ -72.405852898616303, -43.981588461918498 ], [ -72.406023753618996, -43.981547633111603 ], [ -72.406150364666004, -43.9815229163572 ], [ -72.405924460536198, -43.981178307752998 ], [ -72.405613336717394, -43.980785623408302 ], [ -72.405506545404506, -43.980648865278297 ], [ -72.4054055717382, -43.980541708948103 ], [ -72.405099354805898, -43.979946402861898 ], [ -72.404709525876797, -43.979186848173903 ], [ -72.404267286433907, -43.978303797916801 ], [ -72.4037660106505, -43.977181325206899 ], [ -72.403339301924305, -43.976172751313499 ], [ -72.403008375418196, -43.975360815631198 ], [ -72.4027651438644, -43.9747844675396 ], [ -72.402526202997706, -43.974210969146 ], [ -72.402265668030097, -43.973620248438102 ], [ -72.4017906207783, -43.972666704759803 ], [ -72.401383103719596, -43.971812383027299 ], [ -72.401153610789194, -43.971259442710199 ], [ -72.400705966047397, -43.970135357134403 ], [ -72.400280446703903, -43.969037408698298 ], [ -72.399973581231507, -43.968284297587402 ], [ -72.399757650863194, -43.967751792935303 ], [ -72.399615897535099, -43.967413597121997 ], [ -72.399460648119799, -43.967221702623903 ], [ -72.399122263820502, -43.967017790155403 ], [ -72.399017702740494, -43.967088121294204 ], [ -72.398831799210001, -43.967214184044003 ], [ -72.3993375224033, -43.9683866150258 ], [ -72.399506352388201, -43.968816309443703 ], [ -72.399871941733707, -43.969731437446399 ], [ -72.400325041249204, -43.970879184843703 ], [ -72.400854753391101, -43.972140771306798 ], [ -72.401206758498304, -43.972889557172699 ], [ -72.401723531908999, -43.973961556784502 ], [ -72.4019507858482, -43.974475020553399 ], [ -72.402019925149901, -43.974645895867702 ], [ -72.402222679077397, -43.975111495824301 ], [ -72.402827394226406, -43.976573577846104 ], [ -72.403460015736002, -43.978046466793302 ], [ -72.404026100158802, -43.979220603319597 ], [ -72.404683164588505, -43.980505814800402 ], [ -72.405069853177295, -43.981037383064098 ], [ -72.405351492745595, -43.9814625112013 ], [ -72.405621648790401, -43.981802227199204 ], [ -72.405832418510997, -43.981795937663499 ], [ -72.405929583113803, -43.981764453670003 ], [ -72.405959022880893, -43.981755714624803 ] ] ] } }
]
}
