{
"type": "FeatureCollection",
"name": "IPT_11_PNSECC_Rio_Ibanez_Cerro_Castillo",
"crs": { "type": "name", "properties": { "name": "urn:ogc:def:crs:OGC:1.3:CRS84" } },
"features": [
{ "type": "Feature", "properties": { "id": "monoparte.1", "Name": null, "description": null, "timestamp": null, "begin": null, "end": null, "altitudeMode": null, "tessellate": -1, "extrude": 0, "visibility": -1, "drawOrder": null, "icon": null, "REG": "Aysén", "COM": "Río Ibáñez", "LOC": "Cerro Castillo", "ZONA": "ZR-1", "NOM": "Preservación ambiental natural y riesgo de asentamientos", "UPERM": "Edificaciones menores tales como miradores techados, kioskos, juegos infantiles, fuentes de agua y otros similares.", "UPROH": "Todo lo no citado como permitido.", "P_DO": "05/02/1990", "N_DOC": "15", "T_DO": "Resolución", "OBS": null }, "geometry": { "type": "Polygon", "coordinates": [ [ [ -72.153254188496504, -46.124925388189197 ], [ -72.153072239313801, -46.124769607137097 ], [ -72.153110795555705, -46.124803313027002 ], [ -72.153254188496504, -46.124925388189197 ] ] ] } },
{ "type": "Feature", "properties": { "id": "monoparte.2", "Name": null, "description": null, "timestamp": null, "begin": null, "end": null, "altitudeMode": null, "tessellate": -1, "extrude": 0, "visibility": -1, "drawOrder": null, "icon": null, "REG": "Aysén", "COM": "Río Ibáñez", "LOC": "Cerro Castillo", "ZONA": "ZR-1", "NOM": "Preservación ambiental natural y riesgo de asentamientos", "UPERM": "Edificaciones menores tales como miradores techados, kioskos, juegos infantiles, fuentes de agua y otros similares.", "UPROH": "Todo lo no citado como permitido.", "P_DO": "05/02/1990", "N_DOC": "15", "T_DO": "Resolución", "OBS": null }, "geometry": { "type": "Polygon", "coordinates": [ [ [ -72.153254188496504, -46.124925388189197 ], [ -72.153292648531604, -46.124958130901902 ], [ -72.153798941271006, -46.1246323110907 ], [ -72.153886243523601, -46.124673717919997 ], [ -72.153693061350495, -46.125265538760999 ], [ -72.1549514254515, -46.1254883374013 ], [ -72.1556537376796, -46.125252221662002 ], [ -72.160269748253299, -46.123802872490899 ], [ -72.160814979576898, -46.123635370902903 ], [ -72.160397798425905, -46.122933997402598 ], [ -72.160205464377, -46.122632466507703 ], [ -72.159508565256402, -46.122782729271698 ], [ -72.158911812738097, -46.122827815876803 ], [ -72.158727440589701, -46.122837679150798 ], [ -72.157768547440398, -46.122778467882398 ], [ -72.156968378878403, -46.122919663748398 ], [ -72.157021824045401, -46.123015824621802 ], [ -72.156382160616005, -46.123328804878099 ], [ -72.156064929645098, -46.1234709332007 ], [ -72.155728697696802, -46.123580245430603 ], [ -72.155285127712403, -46.123968769443202 ], [ -72.154898097620602, -46.124208079913799 ], [ -72.154600944722404, -46.124402041432099 ], [ -72.154567790589397, -46.124541079829399 ], [ -72.153755586960798, -46.124592090946997 ], [ -72.153455562880794, -46.124334133006599 ], [ -72.154381711366796, -46.123729180388899 ], [ -72.153178220735001, -46.123660930184997 ], [ -72.153081488166507, -46.123001334340898 ], [ -72.152909528490895, -46.122598856730399 ], [ -72.152896622314202, -46.122552774994801 ], [ -72.152872831711605, -46.122462671756601 ], [ -72.151692937780894, -46.122612078355303 ], [ -72.151720587772701, -46.1226378492102 ], [ -72.151735568931798, -46.122660297443097 ], [ -72.151803704157203, -46.1232299614448 ], [ -72.151827650788704, -46.123265497609502 ], [ -72.151930581124603, -46.1233407680525 ], [ -72.1525323818624, -46.1236118326038 ], [ -72.152575369677294, -46.123644938399501 ], [ -72.152612105928398, -46.123712509332499 ], [ -72.152621595138896, -46.123782737925701 ], [ -72.152656037920593, -46.124098041862098 ], [ -72.152675600977304, -46.124152750590902 ], [ -72.152809583113694, -46.124291937189 ], [ -72.153415339677096, -46.124823893841501 ], [ -72.153254188496504, -46.124925388189197 ] ] ] } },
{ "type": "Feature", "properties": { "id": "monoparte.3", "Name": null, "description": null, "timestamp": null, "begin": null, "end": null, "altitudeMode": null, "tessellate": -1, "extrude": 0, "visibility": -1, "drawOrder": null, "icon": null, "REG": "Aysén", "COM": "Río Ibáñez", "LOC": "Cerro Castillo", "ZONA": "ZR-1", "NOM": "Preservación ambiental natural y riesgo de asentamientos", "UPERM": "Edificaciones menores tales como miradores techados, kioskos, juegos infantiles, fuentes de agua y otros similares.", "UPROH": "Todo lo no citado como permitido.", "P_DO": "05/02/1990", "N_DOC": "15", "T_DO": "Resolución", "OBS": null }, "geometry": { "type": "Polygon", "coordinates": [ [ [ -72.153489998504895, -46.121008744388199 ], [ -72.152765489586798, -46.121995567995199 ], [ -72.152753549472607, -46.122011377009102 ], [ -72.152765531968299, -46.122056293476199 ], [ -72.152780511278607, -46.122048736076302 ], [ -72.153104489203002, -46.121964775648699 ], [ -72.153297149603901, -46.1219201615081 ], [ -72.153653324823907, -46.121860316101703 ], [ -72.153755111292497, -46.121849366631103 ], [ -72.153895651113402, -46.121834246918198 ], [ -72.154010721507305, -46.121821868251203 ], [ -72.154347601912306, -46.121783985999301 ], [ -72.154523819966897, -46.121811267725803 ], [ -72.154626398607704, -46.121808434003903 ], [ -72.154775137932603, -46.121804324934999 ], [ -72.154956556085594, -46.121802117429198 ], [ -72.154959824675501, -46.121802077527597 ], [ -72.155006143836005, -46.121801514254699 ], [ -72.155263813718094, -46.121815828199999 ], [ -72.155460041163806, -46.121788735160102 ], [ -72.155623514531996, -46.121772786984103 ], [ -72.155775285963102, -46.121743825660303 ], [ -72.156108155197401, -46.121671756475301 ], [ -72.156371207920799, -46.121624477827801 ], [ -72.156520460112702, -46.121599395129202 ], [ -72.156763351931104, -46.121630784329803 ], [ -72.156997058924603, -46.121645279749799 ], [ -72.157252992043496, -46.121617247626602 ], [ -72.157449181710305, -46.121598486829001 ], [ -72.157606965871395, -46.121578883125899 ], [ -72.158203054551905, -46.121273335784402 ], [ -72.157407873918501, -46.120393357319799 ], [ -72.156347662132404, -46.120555908547303 ], [ -72.154171969660297, -46.120897034174497 ], [ -72.153489998504895, -46.121008744388199 ] ] ] } },
{ "type": "Feature", "properties": { "id": "monoparte.4", "Name": null, "description": null, "timestamp": null, "begin": null, "end": null, "altitudeMode": null, "tessellate": -1, "extrude": 0, "visibility": -1, "drawOrder": null, "icon": null, "REG": "Aysén", "COM": "Río Ibáñez", "LOC": "Cerro Castillo", "ZONA": "Z-3", "NOM": "Mixta", "UPERM": "Equipamiento.", "UPROH": "Todo el equipamiento no citado como permitido.", "P_DO": "05/02/1990", "N_DOC": "15", "T_DO": "Resolución", "OBS": null }, "geometry": { "type": "Polygon", "coordinates": [ [ [ -72.158203054551905, -46.121273335784402 ], [ -72.157606965871395, -46.121578883125899 ], [ -72.157438087675203, -46.121659738960801 ], [ -72.156358776771597, -46.121830080950403 ], [ -72.155533434028101, -46.121982313381302 ], [ -72.155691913160297, -46.122400309566402 ], [ -72.156460837378305, -46.122263796271703 ], [ -72.158928330569907, -46.121814535340903 ], [ -72.158825556276, -46.1215744725775 ], [ -72.160061019625502, -46.1210211374731 ], [ -72.160949811702693, -46.120753631711302 ], [ -72.161997856518596, -46.122432508300797 ], [ -72.162355437290501, -46.122327226156301 ], [ -72.162455060759896, -46.122297893627398 ], [ -72.162070291218896, -46.121710667966397 ], [ -72.162069474263902, -46.121696402011899 ], [ -72.162110096829906, -46.121688132401601 ], [ -72.162130340022898, -46.121682808686799 ], [ -72.162157557082907, -46.121679674331801 ], [ -72.162199132782504, -46.121688048452 ], [ -72.162554245008494, -46.122268691084201 ], [ -72.162660827287397, -46.122237309711501 ], [ -72.162299109271004, -46.121699568457998 ], [ -72.162280379189497, -46.121671509989 ], [ -72.162295432688296, -46.121635371227498 ], [ -72.162441850707395, -46.121566724866398 ], [ -72.162415766501397, -46.121524888429597 ], [ -72.162322256397104, -46.1215655671012 ], [ -72.162257835128102, -46.121576876510197 ], [ -72.162223098431795, -46.121568313026003 ], [ -72.161420213613098, -46.120225981380401 ], [ -72.161373314020494, -46.120184414050101 ], [ -72.161371544427496, -46.120153504303303 ], [ -72.1615252998225, -46.120096612471897 ], [ -72.161496269673705, -46.120050047417898 ], [ -72.161361576181903, -46.120099007534201 ], [ -72.161320408842698, -46.120097765643898 ], [ -72.161066553218703, -46.119671372602397 ], [ -72.161079141745304, -46.1196519723878 ], [ -72.161219439179803, -46.119606003203302 ], [ -72.161162287901504, -46.1195143301765 ], [ -72.160837861264696, -46.119589990479902 ], [ -72.160660632508097, -46.1200086707656 ], [ -72.160050922428596, -46.120275595467199 ], [ -72.160118581804895, -46.120410654938603 ], [ -72.158713695767403, -46.1210433685265 ], [ -72.158203054551905, -46.121273335784402 ] ], [ [ -72.161484218158904, -46.120745743852197 ], [ -72.161271083031806, -46.120432532540697 ], [ -72.161277239945207, -46.120420455096003 ], [ -72.161384884511705, -46.120386516304499 ], [ -72.162127767132304, -46.121578097638199 ], [ -72.162122291087599, -46.121602063270501 ], [ -72.1620994454168, -46.121621747625603 ], [ -72.162068943788995, -46.121627354498102 ], [ -72.162021347451201, -46.121633435619898 ], [ -72.161484218158904, -46.120745743852197 ] ], [ [ -72.161355081754294, -46.120344475645503 ], [ -72.161176586630205, -46.120397045034998 ], [ -72.161155118753001, -46.1203809691673 ], [ -72.160437718232899, -46.120591342039901 ], [ -72.1604492011909, -46.120612456648999 ], [ -72.160378213942096, -46.120628709880499 ], [ -72.160290727628805, -46.120476338331699 ], [ -72.160306190417401, -46.120447333241401 ], [ -72.160506187449002, -46.120291767586203 ], [ -72.160672128245196, -46.120139525783102 ], [ -72.160830244162199, -46.120089901955801 ], [ -72.160926116343703, -46.120089629769403 ], [ -72.161036346549494, -46.1201008670485 ], [ -72.161179526396396, -46.120149294660798 ], [ -72.161260618336101, -46.120189915508398 ], [ -72.161308877787903, -46.120255260136098 ], [ -72.161355081754294, -46.120344475645503 ] ], [ [ -72.161097635834494, -46.120034871389599 ], [ -72.160969629674398, -46.120012219229601 ], [ -72.160867054994497, -46.120015058559098 ], [ -72.1608227418524, -46.120018666725002 ], [ -72.160802362966194, -46.120021611485797 ], [ -72.160804829704006, -46.120004873949 ], [ -72.160891838321305, -46.119909589338498 ], [ -72.160931523933897, -46.119825140924497 ], [ -72.160955747123595, -46.119769696769502 ], [ -72.160964370670996, -46.119740880902803 ], [ -72.160995007455, -46.119737651261197 ], [ -72.161114067473207, -46.1199629736304 ], [ -72.161195413515699, -46.120067886545399 ], [ -72.161171751382099, -46.120073303842197 ], [ -72.161097635834494, -46.120034871389599 ] ], [ [ -72.158363334541093, -46.121557648173699 ], [ -72.157943288758801, -46.1216383263707 ], [ -72.157925919423207, -46.121634044450502 ], [ -72.157917857904906, -46.121612834074199 ], [ -72.158509603611904, -46.121360706339999 ], [ -72.158608644782603, -46.121296049416799 ], [ -72.158659390046097, -46.12128512036 ], [ -72.158708619973595, -46.121307572605701 ], [ -72.158776404056894, -46.121474779822101 ], [ -72.158763543568995, -46.121489424140002 ], [ -72.158736869167896, -46.121502068990303 ], [ -72.158363334541093, -46.121557648173699 ] ] ] } },
{ "type": "Feature", "properties": { "id": "monoparte.5", "Name": null, "description": null, "timestamp": null, "begin": null, "end": null, "altitudeMode": null, "tessellate": -1, "extrude": 0, "visibility": -1, "drawOrder": null, "icon": null, "REG": "Aysén", "COM": "Río Ibáñez", "LOC": "Cerro Castillo", "ZONA": "Z-2", "NOM": "Equipamiento", "UPERM": "Equipamiento.", "UPROH": "El equipamiento no citado como permitido, vivienda, industria y almacenamiento de todo tipo.", "P_DO": "05/02/1990", "N_DOC": "15", "T_DO": "Resolución", "OBS": null }, "geometry": { "type": "Polygon", "coordinates": [ [ [ -72.152765531968299, -46.122056293476199 ], [ -72.152872831711605, -46.122462671756601 ], [ -72.152896622314202, -46.122552774994801 ], [ -72.152909528490895, -46.122598856730399 ], [ -72.153081488166507, -46.123001334340898 ], [ -72.153178220735001, -46.123660930184997 ], [ -72.154381711366796, -46.123729180388899 ], [ -72.154500529961098, -46.123651567929102 ], [ -72.1543971670459, -46.123550830844103 ], [ -72.155031648797703, -46.123236814140199 ], [ -72.154903320927005, -46.122968875883501 ], [ -72.154845508894297, -46.122856164519298 ], [ -72.155346195255703, -46.122778032737003 ], [ -72.155230186569298, -46.122485940447199 ], [ -72.155691913160297, -46.122400309566402 ], [ -72.155533434028101, -46.121982313381302 ], [ -72.154657505177397, -46.1221438128958 ], [ -72.153883036316799, -46.122315235863098 ], [ -72.153755111292497, -46.121849366631103 ], [ -72.153653324823907, -46.121860316101703 ], [ -72.153297149603901, -46.1219201615081 ], [ -72.153104489203002, -46.121964775648699 ], [ -72.152780511278607, -46.122048736076302 ], [ -72.152765531968299, -46.122056293476199 ] ], [ [ -72.154108121411596, -46.122418564476099 ], [ -72.154583862538502, -46.122293496164801 ], [ -72.154636239706306, -46.122311100965703 ], [ -72.154784467305902, -46.1227475710485 ], [ -72.154768321753195, -46.122764687244398 ], [ -72.154742189165603, -46.122786841599897 ], [ -72.154283564677598, -46.122851902798303 ], [ -72.154228312107605, -46.122843902672898 ], [ -72.154095938591396, -46.122445097437399 ], [ -72.154108121411596, -46.122418564476099 ] ] ] } },
{ "type": "Feature", "properties": { "id": "monoparte.6", "Name": null, "description": null, "timestamp": null, "begin": null, "end": null, "altitudeMode": null, "tessellate": -1, "extrude": 0, "visibility": -1, "drawOrder": null, "icon": null, "REG": "Aysén", "COM": "Río Ibáñez", "LOC": "Cerro Castillo", "ZONA": "Z-1", "NOM": "Residencial", "UPERM": "Viviendas, equipamiento vecinal de áreas verdes y almacenamiento inofensivo.", "UPROH": "El equipamiento no citado como permitido, industrias de todo tipo; almacenamiento insalubre, molesto y peligroso, actividades complementarias al transporte.", "P_DO": "05/02/1990", "N_DOC": "15", "T_DO": "Resolución", "OBS": null }, "geometry": { "type": "Polygon", "coordinates": [ [ [ -72.155691913160297, -46.122400309566402 ], [ -72.155230186569298, -46.122485940447199 ], [ -72.155346195255703, -46.122778032737003 ], [ -72.154845508894297, -46.122856164519298 ], [ -72.154903320927005, -46.122968875883501 ], [ -72.155031648797703, -46.123236814140199 ], [ -72.1543971670459, -46.123550830844103 ], [ -72.154500529961098, -46.123651567929102 ], [ -72.154381711366796, -46.123729180388899 ], [ -72.153455562880794, -46.124334133006599 ], [ -72.153755586960798, -46.124592090946997 ], [ -72.154567790589397, -46.124541079829399 ], [ -72.154600944722404, -46.124402041432099 ], [ -72.154898097620602, -46.124208079913799 ], [ -72.155285127712403, -46.123968769443202 ], [ -72.155728697696802, -46.123580245430603 ], [ -72.156064929645098, -46.1234709332007 ], [ -72.156382160616005, -46.123328804878099 ], [ -72.157021824045401, -46.123015824621802 ], [ -72.156968378878403, -46.122919663748398 ], [ -72.157768547440398, -46.122778467882398 ], [ -72.158727440589701, -46.122837679150798 ], [ -72.158911812738097, -46.122827815876803 ], [ -72.159508565256402, -46.122782729271698 ], [ -72.160205464377, -46.122632466507703 ], [ -72.160397798425905, -46.122933997402598 ], [ -72.160382979279802, -46.122909083232798 ], [ -72.161753683098794, -46.122504398996199 ], [ -72.161997856518596, -46.122432508300797 ], [ -72.160949811702693, -46.120753631711302 ], [ -72.160061019625502, -46.1210211374731 ], [ -72.158825556276, -46.1215744725775 ], [ -72.158928330569907, -46.121814535340903 ], [ -72.156460837378305, -46.122263796271703 ], [ -72.155691913160297, -46.122400309566402 ] ] ] } },
{ "type": "Feature", "properties": { "id": "monoparte.7", "Name": null, "description": null, "timestamp": null, "begin": null, "end": null, "altitudeMode": null, "tessellate": -1, "extrude": 0, "visibility": -1, "drawOrder": null, "icon": null, "REG": "Aysén", "COM": "Río Ibáñez", "LOC": "Cerro Castillo", "ZONA": "ZR-2", "NOM": "Protección quebrada e Infraestructura", "UPERM": "Construcciones de infraestructura de agua potable.", "UPROH": "Todo lo no citado como permitido.", "P_DO": "05/02/1990", "N_DOC": "15", "T_DO": "Resolución", "OBS": null }, "geometry": { "type": "Polygon", "coordinates": [ [ [ -72.151692937780894, -46.122612078355303 ], [ -72.152872831711605, -46.122462671756601 ], [ -72.152765531968299, -46.122056293476199 ], [ -72.152753549472607, -46.122011377009102 ], [ -72.152765489586798, -46.121995567995199 ], [ -72.153489998504895, -46.121008744388199 ], [ -72.154202125384003, -46.120046028804303 ], [ -72.152471916645695, -46.119372232553502 ], [ -72.151363574539502, -46.120893602118997 ], [ -72.151109300607899, -46.121238782426197 ], [ -72.150862949304795, -46.121602795269098 ], [ -72.150764928219203, -46.121805540739601 ], [ -72.150687286596295, -46.122005341358097 ], [ -72.150625629030799, -46.122245185945303 ], [ -72.150578298423795, -46.122556078058302 ], [ -72.150563779608405, -46.122601725912403 ], [ -72.151510913647797, -46.122635126742502 ], [ -72.151691025584697, -46.122612321045203 ], [ -72.151692937780894, -46.122612078355303 ] ] ] } },
{ "type": "Feature", "properties": { "id": "monoparte.8", "Name": null, "description": null, "timestamp": null, "begin": null, "end": null, "altitudeMode": null, "tessellate": -1, "extrude": 0, "visibility": -1, "drawOrder": null, "icon": null, "REG": "Aysén", "COM": "Río Ibáñez", "LOC": "Cerro Castillo", "ZONA": "AV", "NOM": "Zona AV Área Verde", "UPERM": "Área verde.", "UPROH": "Todo lo no citado como permitido.", "P_DO": "05/02/1990", "N_DOC": "15", "T_DO": "Resolución", "OBS": null }, "geometry": { "type": "Polygon", "coordinates": [ [ [ -72.153292648531604, -46.124958130901902 ], [ -72.153636658695405, -46.125255552157597 ], [ -72.153693061350495, -46.125265538760999 ], [ -72.153886243523601, -46.124673717919997 ], [ -72.153798941271006, -46.1246323110907 ], [ -72.153292648531604, -46.124958130901902 ] ] ] } },
{ "type": "Feature", "properties": { "id": "monoparte.9", "Name": null, "description": null, "timestamp": null, "begin": null, "end": null, "altitudeMode": null, "tessellate": -1, "extrude": 0, "visibility": -1, "drawOrder": null, "icon": null, "REG": "Aysén", "COM": "Río Ibáñez", "LOC": "Cerro Castillo", "ZONA": "AV", "NOM": "Zona AV Área Verde", "UPERM": "Área verde.", "UPROH": "Todo lo no citado como permitido.", "P_DO": "05/02/1990", "N_DOC": "15", "T_DO": "Resolución", "OBS": null }, "geometry": { "type": "Polygon", "coordinates": [ [ [ -72.153254188496504, -46.124925388189197 ], [ -72.153415339677096, -46.124823893841501 ], [ -72.152809583113694, -46.124291937189 ], [ -72.152675600977304, -46.124152750590902 ], [ -72.152656037920593, -46.124098041862098 ], [ -72.152621595138896, -46.123782737925701 ], [ -72.152612105928398, -46.123712509332499 ], [ -72.152575369677294, -46.123644938399501 ], [ -72.1525323818624, -46.1236118326038 ], [ -72.151930581124603, -46.1233407680525 ], [ -72.151827650788704, -46.123265497609502 ], [ -72.151803704157203, -46.1232299614448 ], [ -72.151735568931798, -46.122660297443097 ], [ -72.151720587772701, -46.1226378492102 ], [ -72.151692937780894, -46.122612078355303 ], [ -72.151691025584697, -46.122612321045203 ], [ -72.151510913647797, -46.122635126742502 ], [ -72.151511432615195, -46.123004234530299 ], [ -72.151607179458196, -46.123301652907799 ], [ -72.151951347762406, -46.1235112454427 ], [ -72.152168620021001, -46.123745649798799 ], [ -72.152168848972295, -46.1237458963978 ], [ -72.152287109724895, -46.123873480980002 ], [ -72.152321414649407, -46.123934450522299 ], [ -72.152429486209698, -46.124207713985001 ], [ -72.153072239313801, -46.124769607137097 ], [ -72.153254188496504, -46.124925388189197 ] ] ] } },
{ "type": "Feature", "properties": { "id": "monoparte.10", "Name": null, "description": null, "timestamp": null, "begin": null, "end": null, "altitudeMode": null, "tessellate": -1, "extrude": 0, "visibility": -1, "drawOrder": null, "icon": null, "REG": "Aysén", "COM": "Río Ibáñez", "LOC": "Cerro Castillo", "ZONA": "AV", "NOM": "Zona AV Área Verde", "UPERM": "Área verde.", "UPROH": "Todo lo no citado como permitido.", "P_DO": "05/02/1990", "N_DOC": "15", "T_DO": "Resolución", "OBS": null }, "geometry": { "type": "Polygon", "coordinates": [ [ [ -72.153755111292497, -46.121849366631103 ], [ -72.153883036316799, -46.122315235863098 ], [ -72.154657505177397, -46.1221438128958 ], [ -72.155533434028101, -46.121982313381302 ], [ -72.156358776771597, -46.121830080950403 ], [ -72.157438087675203, -46.121659738960801 ], [ -72.157606965871395, -46.121578883125899 ], [ -72.157449181710305, -46.121598486829001 ], [ -72.157252992043496, -46.121617247626602 ], [ -72.156997058924603, -46.121645279749799 ], [ -72.156763351931104, -46.121630784329803 ], [ -72.156520460112702, -46.121599395129202 ], [ -72.156371207920799, -46.121624477827801 ], [ -72.156108155197401, -46.121671756475301 ], [ -72.155775285963102, -46.121743825660303 ], [ -72.155623514531996, -46.121772786984103 ], [ -72.155460041163806, -46.121788735160102 ], [ -72.155263813718094, -46.121815828199999 ], [ -72.155006143836005, -46.121801514254699 ], [ -72.154959824675501, -46.121802077527597 ], [ -72.154956556085594, -46.121802117429198 ], [ -72.154775137932603, -46.121804324934999 ], [ -72.154626398607704, -46.121808434003903 ], [ -72.154523819966897, -46.121811267725803 ], [ -72.154347601912306, -46.121783985999301 ], [ -72.154010721507305, -46.121821868251203 ], [ -72.153895651113402, -46.121834246918198 ], [ -72.153755111292497, -46.121849366631103 ] ] ] } },
{ "type": "Feature", "properties": { "id": "monoparte.11", "Name": null, "description": null, "timestamp": null, "begin": null, "end": null, "altitudeMode": null, "tessellate": -1, "extrude": 0, "visibility": -1, "drawOrder": null, "icon": null, "REG": "Aysén", "COM": "Río Ibáñez", "LOC": "Cerro Castillo", "ZONA": "AV", "NOM": "Zona AV Área Verde", "UPERM": "Área verde.", "UPROH": "Todo lo no citado como permitido.", "P_DO": "05/02/1990", "N_DOC": "15", "T_DO": "Resolución", "OBS": null }, "geometry": { "type": "Polygon", "coordinates": [ [ [ -72.154283564677598, -46.122851902798303 ], [ -72.154742189165603, -46.122786841599897 ], [ -72.154768321753195, -46.122764687244398 ], [ -72.154784467305902, -46.1227475710485 ], [ -72.154636239706306, -46.122311100965703 ], [ -72.154583862538502, -46.122293496164801 ], [ -72.154108121411596, -46.122418564476099 ], [ -72.154095938591396, -46.122445097437399 ], [ -72.154228312107605, -46.122843902672898 ], [ -72.154283564677598, -46.122851902798303 ] ] ] } },
{ "type": "Feature", "properties": { "id": "monoparte.12", "Name": null, "description": null, "timestamp": null, "begin": null, "end": null, "altitudeMode": null, "tessellate": -1, "extrude": 0, "visibility": -1, "drawOrder": null, "icon": null, "REG": "Aysén", "COM": "Río Ibáñez", "LOC": "Cerro Castillo", "ZONA": "AV", "NOM": "Zona AV Área Verde", "UPERM": "Área verde.", "UPROH": "Todo lo no citado como permitido.", "P_DO": "05/02/1990", "N_DOC": "15", "T_DO": "Resolución", "OBS": null }, "geometry": { "type": "Polygon", "coordinates": [ [ [ -72.158708619973595, -46.121307572605701 ], [ -72.158659390046097, -46.12128512036 ], [ -72.158608644782603, -46.121296049416799 ], [ -72.158509603611904, -46.121360706339999 ], [ -72.157917857904906, -46.121612834074199 ], [ -72.157925919423207, -46.121634044450502 ], [ -72.157943288758801, -46.1216383263707 ], [ -72.158363334541093, -46.121557648173699 ], [ -72.158736869167896, -46.121502068990303 ], [ -72.158763543568995, -46.121489424140002 ], [ -72.158776404056894, -46.121474779822101 ], [ -72.158708619973595, -46.121307572605701 ] ] ] } },
{ "type": "Feature", "properties": { "id": "monoparte.13", "Name": null, "description": null, "timestamp": null, "begin": null, "end": null, "altitudeMode": null, "tessellate": -1, "extrude": 0, "visibility": -1, "drawOrder": null, "icon": null, "REG": "Aysén", "COM": "Río Ibáñez", "LOC": "Cerro Castillo", "ZONA": "AV", "NOM": "Zona AV Área Verde", "UPERM": "Área verde.", "UPROH": "Todo lo no citado como permitido.", "P_DO": "05/02/1990", "N_DOC": "15", "T_DO": "Resolución", "OBS": null }, "geometry": { "type": "Polygon", "coordinates": [ [ [ -72.162455060759896, -46.122297893627398 ], [ -72.162554245008494, -46.122268691084201 ], [ -72.162199132782504, -46.121688048452 ], [ -72.162157557082907, -46.121679674331801 ], [ -72.162130340022898, -46.121682808686799 ], [ -72.162110096829906, -46.121688132401601 ], [ -72.162069474263902, -46.121696402011899 ], [ -72.162070291218896, -46.121710667966397 ], [ -72.162455060759896, -46.122297893627398 ] ] ] } },
{ "type": "Feature", "properties": { "id": "monoparte.14", "Name": null, "description": null, "timestamp": null, "begin": null, "end": null, "altitudeMode": null, "tessellate": -1, "extrude": 0, "visibility": -1, "drawOrder": null, "icon": null, "REG": "Aysén", "COM": "Río Ibáñez", "LOC": "Cerro Castillo", "ZONA": "AV", "NOM": "Zona AV Área Verde", "UPERM": "Área verde.", "UPROH": "Todo lo no citado como permitido.", "P_DO": "05/02/1990", "N_DOC": "15", "T_DO": "Resolución", "OBS": null }, "geometry": { "type": "Polygon", "coordinates": [ [ [ -72.162660827287397, -46.122237309711501 ], [ -72.162829065397105, -46.122187774517897 ], [ -72.162441850707395, -46.121566724866398 ], [ -72.162295432688296, -46.121635371227498 ], [ -72.162280379189497, -46.121671509989 ], [ -72.162299109271004, -46.121699568457998 ], [ -72.162660827287397, -46.122237309711501 ] ] ] } },
{ "type": "Feature", "properties": { "id": "monoparte.15", "Name": null, "description": null, "timestamp": null, "begin": null, "end": null, "altitudeMode": null, "tessellate": -1, "extrude": 0, "visibility": -1, "drawOrder": null, "icon": null, "REG": "Aysén", "COM": "Río Ibáñez", "LOC": "Cerro Castillo", "ZONA": "AV", "NOM": "Zona AV Área Verde", "UPERM": "Área verde.", "UPROH": "Todo lo no citado como permitido.", "P_DO": "05/02/1990", "N_DOC": "15", "T_DO": "Resolución", "OBS": null }, "geometry": { "type": "Polygon", "coordinates": [ [ [ -72.162127767132304, -46.121578097638199 ], [ -72.161384884511705, -46.120386516304499 ], [ -72.161277239945207, -46.120420455096003 ], [ -72.161271083031806, -46.120432532540697 ], [ -72.161484218158904, -46.120745743852197 ], [ -72.162021347451201, -46.121633435619898 ], [ -72.162068943788995, -46.121627354498102 ], [ -72.1620994454168, -46.121621747625603 ], [ -72.162122291087599, -46.121602063270501 ], [ -72.162127767132304, -46.121578097638199 ] ] ] } },
{ "type": "Feature", "properties": { "id": "monoparte.16", "Name": null, "description": null, "timestamp": null, "begin": null, "end": null, "altitudeMode": null, "tessellate": -1, "extrude": 0, "visibility": -1, "drawOrder": null, "icon": null, "REG": "Aysén", "COM": "Río Ibáñez", "LOC": "Cerro Castillo", "ZONA": "AV", "NOM": "Zona AV Área Verde", "UPERM": "Área verde.", "UPROH": "Todo lo no citado como permitido.", "P_DO": "05/02/1990", "N_DOC": "15", "T_DO": "Resolución", "OBS": null }, "geometry": { "type": "Polygon", "coordinates": [ [ [ -72.1615252998225, -46.120096612471897 ], [ -72.161371544427496, -46.120153504303303 ], [ -72.161373314020494, -46.120184414050101 ], [ -72.161420213613098, -46.120225981380401 ], [ -72.162223098431795, -46.121568313026003 ], [ -72.162257835128102, -46.121576876510197 ], [ -72.162322256397104, -46.1215655671012 ], [ -72.162415766501397, -46.121524888429597 ], [ -72.1615252998225, -46.120096612471897 ] ] ] } },
{ "type": "Feature", "properties": { "id": "monoparte.17", "Name": null, "description": null, "timestamp": null, "begin": null, "end": null, "altitudeMode": null, "tessellate": -1, "extrude": 0, "visibility": -1, "drawOrder": null, "icon": null, "REG": "Aysén", "COM": "Río Ibáñez", "LOC": "Cerro Castillo", "ZONA": "AV", "NOM": "Zona AV Área Verde", "UPERM": "Área verde.", "UPROH": "Todo lo no citado como permitido.", "P_DO": "05/02/1990", "N_DOC": "15", "T_DO": "Resolución", "OBS": null }, "geometry": { "type": "Polygon", "coordinates": [ [ [ -72.161355081754294, -46.120344475645503 ], [ -72.161308877787903, -46.120255260136098 ], [ -72.161260618336101, -46.120189915508398 ], [ -72.161179526396396, -46.120149294660798 ], [ -72.161036346549494, -46.1201008670485 ], [ -72.160926116343703, -46.120089629769403 ], [ -72.160830244162199, -46.120089901955801 ], [ -72.160672128245196, -46.120139525783102 ], [ -72.160506187449002, -46.120291767586203 ], [ -72.160306190417401, -46.120447333241401 ], [ -72.160290727628805, -46.120476338331699 ], [ -72.160378213942096, -46.120628709880499 ], [ -72.1604492011909, -46.120612456648999 ], [ -72.160437718232899, -46.120591342039901 ], [ -72.161155118753001, -46.1203809691673 ], [ -72.161176586630205, -46.120397045034998 ], [ -72.161355081754294, -46.120344475645503 ] ] ] } },
{ "type": "Feature", "properties": { "id": "monoparte.18", "Name": null, "description": null, "timestamp": null, "begin": null, "end": null, "altitudeMode": null, "tessellate": -1, "extrude": 0, "visibility": -1, "drawOrder": null, "icon": null, "REG": "Aysén", "COM": "Río Ibáñez", "LOC": "Cerro Castillo", "ZONA": "AV", "NOM": "Zona AV Área Verde", "UPERM": "Área verde.", "UPROH": "Todo lo no citado como permitido.", "P_DO": "05/02/1990", "N_DOC": "15", "T_DO": "Resolución", "OBS": null }, "geometry": { "type": "Polygon", "coordinates": [ [ [ -72.161171751382099, -46.120073303842197 ], [ -72.161195413515699, -46.120067886545399 ], [ -72.161114067473207, -46.1199629736304 ], [ -72.160995007455, -46.119737651261197 ], [ -72.160964370670996, -46.119740880902803 ], [ -72.160955747123595, -46.119769696769502 ], [ -72.160931523933897, -46.119825140924497 ], [ -72.160891838321305, -46.119909589338498 ], [ -72.160804829704006, -46.120004873949 ], [ -72.160802362966194, -46.120021611485797 ], [ -72.1608227418524, -46.120018666725002 ], [ -72.160867054994497, -46.120015058559098 ], [ -72.160969629674398, -46.120012219229601 ], [ -72.161097635834494, -46.120034871389599 ], [ -72.161171751382099, -46.120073303842197 ] ] ] } },
{ "type": "Feature", "properties": { "id": "monoparte.19", "Name": null, "description": null, "timestamp": null, "begin": null, "end": null, "altitudeMode": null, "tessellate": -1, "extrude": 0, "visibility": -1, "drawOrder": null, "icon": null, "REG": "Aysén", "COM": "Río Ibáñez", "LOC": "Cerro Castillo", "ZONA": "AV", "NOM": "Zona AV Área Verde", "UPERM": "Área verde.", "UPROH": "Todo lo no citado como permitido.", "P_DO": "05/02/1990", "N_DOC": "15", "T_DO": "Resolución", "OBS": null }, "geometry": { "type": "Polygon", "coordinates": [ [ [ -72.161496269673705, -46.120050047417898 ], [ -72.161219439179803, -46.119606003203302 ], [ -72.161079141745304, -46.1196519723878 ], [ -72.161066553218703, -46.119671372602397 ], [ -72.161320408842698, -46.120097765643898 ], [ -72.161361576181903, -46.120099007534201 ], [ -72.161496269673705, -46.120050047417898 ] ] ] } }
]
}
