{
"type": "FeatureCollection",
"name": "IPT_11_PRC_Lago_Verde",
"crs": { "type": "name", "properties": { "name": "urn:ogc:def:crs:OGC:1.3:CRS84" } },
"features": [
{ "type": "Feature", "properties": { "id": "monoparte.1", "Name": null, "description": null, "timestamp": null, "begin": null, "end": null, "altitudeMode": null, "tessellate": -1, "extrude": 0, "visibility": -1, "drawOrder": null, "icon": null, "REG": "Aysén", "COM": "Lago Verde", "LOC": "Lago Verde", "ZONA": "ZU2", "NOM": "Zona Deportiva Recreacional", "UPERM": "Equipamiento deportivo, recreación y de espacimiento.", "UPROH": "Todos aquellos no señalados precedentemente.", "P_DO": "31/12/1998", "N_DOC": "51", "T_DO": "Resolución", "OBS": null }, "geometry": { "type": "Polygon", "coordinates": [ [ [ -71.853421253562701, -44.236513420622103 ], [ -71.854195115712599, -44.238802100108401 ], [ -71.857852543893699, -44.235748566004403 ], [ -71.855447524569797, -44.236166056463702 ], [ -71.853421253562701, -44.236513420622103 ] ] ] } },
{ "type": "Feature", "properties": { "id": "monoparte.2", "Name": null, "description": null, "timestamp": null, "begin": null, "end": null, "altitudeMode": null, "tessellate": -1, "extrude": 0, "visibility": -1, "drawOrder": null, "icon": null, "REG": "Aysén", "COM": "Lago Verde", "LOC": "Lago Verde", "ZONA": "ZE1", "NOM": "Zona de Expansión de Primera Prioridad", "UPERM": "Vivienda, talleres no molestos y equipamiento (comunal, local).", "UPROH": "El equipamiento no citado como permitido, industria (talleres) y almacenamiento de todo tipo.", "P_DO": "31/12/1998", "N_DOC": "51", "T_DO": "Resolución", "OBS": null }, "geometry": { "type": "Polygon", "coordinates": [ [ [ -71.854195115712599, -44.238802100108401 ], [ -71.854924186168105, -44.2408931287586 ], [ -71.857674852630893, -44.240426276392903 ], [ -71.857037231090501, -44.238582120451703 ], [ -71.856454962111101, -44.236915437033701 ], [ -71.854195115712599, -44.238802100108401 ] ] ] } },
{ "type": "Feature", "properties": { "id": "monoparte.3", "Name": null, "description": null, "timestamp": null, "begin": null, "end": null, "altitudeMode": null, "tessellate": -1, "extrude": 0, "visibility": -1, "drawOrder": null, "icon": null, "REG": "Aysén", "COM": "Lago Verde", "LOC": "Lago Verde", "ZONA": "ZE1", "NOM": "Zona de Expansión de Primera Prioridad", "UPERM": "Vivienda, talleres no molestos y equipamiento (comunal, local).", "UPROH": "El equipamiento no citado como permitido, industria (talleres) y almacenamiento de todo tipo.", "P_DO": "31/12/1998", "N_DOC": "51", "T_DO": "Resolución", "OBS": null }, "geometry": { "type": "Polygon", "coordinates": [ [ [ -71.847579388982396, -44.2375146683586 ], [ -71.848018024889299, -44.238780127025699 ], [ -71.853847533326501, -44.237774155669896 ], [ -71.853421253562701, -44.236513420622103 ], [ -71.847579388982396, -44.2375146683586 ] ] ] } },
{ "type": "Feature", "properties": { "id": "monoparte.4", "Name": null, "description": null, "timestamp": null, "begin": null, "end": null, "altitudeMode": null, "tessellate": -1, "extrude": 0, "visibility": -1, "drawOrder": null, "icon": null, "REG": "Aysén", "COM": "Lago Verde", "LOC": "Lago Verde", "ZONA": "ZR2", "NOM": "Zona de Restricción 2", "UPERM": "Áreas verdes, camping, equipamiento para actividades turísticas.", "UPROH": "Todos aquellos no señalados precedentemente, incluido las descargas de efluentes que no cumplan la normativa vigente.", "P_DO": "31/12/1998", "N_DOC": "51", "T_DO": "Resolución", "OBS": null }, "geometry": { "type": "Polygon", "coordinates": [ [ [ -71.851899548873206, -44.242069225184501 ], [ -71.851495859649802, -44.242115041278502 ], [ -71.850949501944498, -44.242122733749497 ], [ -71.850617721061099, -44.242045268396801 ], [ -71.850674952765701, -44.242201051684603 ], [ -71.850631211383401, -44.242427242490002 ], [ -71.850349119946301, -44.242966664394103 ], [ -71.850235702924195, -44.243191022629702 ], [ -71.850029340559999, -44.2434462855039 ], [ -71.849929426662897, -44.243577685274801 ], [ -71.850025196232707, -44.243669106084099 ], [ -71.850117042388305, -44.243924069122599 ], [ -71.850292731231804, -44.244062601753797 ], [ -71.850596115806795, -44.244169361138702 ], [ -71.850896052853599, -44.244204745965703 ], [ -71.851167238053705, -44.244262286611701 ], [ -71.851524065924295, -44.244446314822902 ], [ -71.852275718290002, -44.244777688006202 ], [ -71.852573424767598, -44.244355780212103 ], [ -71.852718133386006, -44.244059177778098 ], [ -71.8528470425493, -44.243641487834999 ], [ -71.852904461772894, -44.243389942730197 ], [ -71.853654901231494, -44.243285431602402 ], [ -71.854054725575196, -44.243125368720797 ], [ -71.854221441157094, -44.243078324035302 ], [ -71.854480278077304, -44.2430861432358 ], [ -71.854877423945695, -44.243076210609502 ], [ -71.855317394983203, -44.243129519632099 ], [ -71.8555909977174, -44.243237010732599 ], [ -71.856478546957106, -44.243500642862799 ], [ -71.857059944225895, -44.243600427197798 ], [ -71.857652310076901, -44.243721372356802 ], [ -71.857979958677603, -44.2437131688337 ], [ -71.858186733168594, -44.243672260844598 ], [ -71.858520158641397, -44.243578159292497 ], [ -71.858652588002698, -44.2434390685248 ], [ -71.859291409952206, -44.2426727376982 ], [ -71.859454061426604, -44.242499835963898 ], [ -71.858977652037694, -44.242317937486597 ], [ -71.858825553267494, -44.242256242616797 ], [ -71.858670572261104, -44.242135068793402 ], [ -71.858521603151303, -44.242052451809897 ], [ -71.858358247681593, -44.242014857876299 ], [ -71.8581827711823, -44.241983522592101 ], [ -71.857985209894593, -44.242009311926303 ], [ -71.857756140121396, -44.242068642050903 ], [ -71.857438033806801, -44.242085538632097 ], [ -71.857029164252495, -44.242024313760602 ], [ -71.856644147616194, -44.242027994953098 ], [ -71.856364280032906, -44.242064773943902 ], [ -71.855987681238403, -44.2420712203958 ], [ -71.855600073860998, -44.242021368208803 ], [ -71.854992204155195, -44.241956181856402 ], [ -71.854723702834903, -44.2418854822604 ], [ -71.854343326390506, -44.241728254685597 ], [ -71.853933023140698, -44.241637279522898 ], [ -71.853492790557794, -44.2416125565165 ], [ -71.853114214993397, -44.241663704971501 ], [ -71.852821251176593, -44.2417722624945 ], [ -71.852463247842095, -44.241906265214901 ], [ -71.851899548873206, -44.242069225184501 ] ] ] } },
{ "type": "Feature", "properties": { "id": "monoparte.5", "Name": null, "description": null, "timestamp": null, "begin": null, "end": null, "altitudeMode": null, "tessellate": -1, "extrude": 0, "visibility": -1, "drawOrder": null, "icon": null, "REG": "Aysén", "COM": "Lago Verde", "LOC": "Lago Verde", "ZONA": "ZU3", "NOM": "Zona de Equipamiento Sanitario", "UPERM": "Equipamiento para el tratamiento de aguas servidas.", "UPROH": "Todos aquellos no señalados precedentemente.", "P_DO": "31/12/1998", "N_DOC": "51", "T_DO": "Resolución", "OBS": null }, "geometry": { "type": "Polygon", "coordinates": [ [ [ -71.858977652037694, -44.242317937486597 ], [ -71.859454061426604, -44.242499835963898 ], [ -71.8599247864924, -44.241999437946802 ], [ -71.859308363799101, -44.240148996853101 ], [ -71.857674852630893, -44.240426276392903 ], [ -71.8581827711823, -44.241983522592101 ], [ -71.858358247681593, -44.242014857876299 ], [ -71.858521603151303, -44.242052451809897 ], [ -71.858670572261104, -44.242135068793402 ], [ -71.858825553267494, -44.242256242616797 ], [ -71.858977652037694, -44.242317937486597 ] ] ] } },
{ "type": "Feature", "properties": { "id": "monoparte.6", "Name": null, "description": null, "timestamp": null, "begin": null, "end": null, "altitudeMode": null, "tessellate": -1, "extrude": 0, "visibility": -1, "drawOrder": null, "icon": null, "REG": "Aysén", "COM": "Lago Verde", "LOC": "Lago Verde", "ZONA": "ZU4", "NOM": "Zona de Equipamiento Comunal", "UPERM": "Equipamiento de esparcimiento, cultura, recreación y turismo (comunal).", "UPROH": "Todos aquellos no señalados precedentemente.", "P_DO": "31/12/1998", "N_DOC": "51", "T_DO": "Resolución", "OBS": null }, "geometry": { "type": "Polygon", "coordinates": [ [ [ -71.854924186168105, -44.2408931287586 ], [ -71.855332358053701, -44.241992659347403 ], [ -71.855600073860998, -44.242021368208803 ], [ -71.855987681238403, -44.2420712203958 ], [ -71.856364280032906, -44.242064773943902 ], [ -71.856644147616194, -44.242027994953098 ], [ -71.857029164252495, -44.242024313760602 ], [ -71.857438033806801, -44.242085538632097 ], [ -71.857756140121396, -44.242068642050903 ], [ -71.857985209894593, -44.242009311926303 ], [ -71.8581827711823, -44.241983522592101 ], [ -71.857674852630893, -44.240426276392903 ], [ -71.854924186168105, -44.2408931287586 ] ] ] } },
{ "type": "Feature", "properties": { "id": "monoparte.7", "Name": null, "description": null, "timestamp": null, "begin": null, "end": null, "altitudeMode": null, "tessellate": -1, "extrude": 0, "visibility": -1, "drawOrder": null, "icon": null, "REG": "Aysén", "COM": "Lago Verde", "LOC": "Lago Verde", "ZONA": "ZE2", "NOM": "Zona de Expansión de Segunda Prioridad", "UPERM": "Vivienda, talleres no molestos, equipamiento (comunal, local), servicios públicos, servicios profesionales, servicios artesanales, comercio minorista.", "UPROH": "El equipamiento no citado como permitido.", "P_DO": "31/12/1998", "N_DOC": "51", "T_DO": "Resolución", "OBS": null }, "geometry": { "type": "Polygon", "coordinates": [ [ [ -71.857037231090501, -44.238582120451703 ], [ -71.857674852630893, -44.240426276392903 ], [ -71.859308363799101, -44.240148996853101 ], [ -71.858959242364406, -44.239100911752097 ], [ -71.858101127309993, -44.2365712777409 ], [ -71.857852543893699, -44.235748566004403 ], [ -71.856454962111101, -44.236915437033701 ], [ -71.857037231090501, -44.238582120451703 ] ] ] } },
{ "type": "Feature", "properties": { "id": "monoparte.8", "Name": null, "description": null, "timestamp": null, "begin": null, "end": null, "altitudeMode": null, "tessellate": -1, "extrude": 0, "visibility": -1, "drawOrder": null, "icon": null, "REG": "Aysén", "COM": "Lago Verde", "LOC": "Lago Verde", "ZONA": "ZAV", "NOM": "Zona de Área Verde", "UPERM": "Áreas verdes, juegos infantiles y esparcimiento.", "UPROH": "Todos aquellos no señalados precedentemente.", "P_DO": "31/12/1998", "N_DOC": "51", "T_DO": "Resolución", "OBS": null }, "geometry": { "type": "Polygon", "coordinates": [ [ [ -71.848321812402801, -44.239805144349901 ], [ -71.848677620283297, -44.240826480287403 ], [ -71.850135696647996, -44.240572723490402 ], [ -71.849792435443803, -44.239554102899397 ], [ -71.848321812402801, -44.239805144349901 ] ] ] } },
{ "type": "Feature", "properties": { "id": "monoparte.9", "Name": null, "description": null, "timestamp": null, "begin": null, "end": null, "altitudeMode": null, "tessellate": -1, "extrude": 0, "visibility": -1, "drawOrder": null, "icon": null, "REG": "Aysén", "COM": "Lago Verde", "LOC": "Lago Verde", "ZONA": "ZR1", "NOM": "Zona de Restricción 1", "UPERM": "Equipamiento (local), infraestructura de agua potable, antenas de telecomunicaciones, radio o TV, miradores y otros similares, siempre y cuando estén autorizados por los servicios competentes.", "UPROH": "Todos aquellos no señalados precedentemente.", "P_DO": "31/12/1998", "N_DOC": "51", "T_DO": "Resolución", "OBS": null }, "geometry": { "type": "Polygon", "coordinates": [ [ [ -71.846146738005004, -44.241164737015303 ], [ -71.846283728794305, -44.241325679253798 ], [ -71.846427204061598, -44.2414149997267 ], [ -71.846777111121995, -44.241456295728803 ], [ -71.847214963773098, -44.242495836193001 ], [ -71.847343065055995, -44.2426784372783 ], [ -71.847387947773797, -44.2427845079051 ], [ -71.847719039934205, -44.242847707862801 ], [ -71.847969669486204, -44.242891476106998 ], [ -71.848100466020696, -44.242923942895899 ], [ -71.848264149947894, -44.2430199023106 ], [ -71.848641441397902, -44.243010486858502 ], [ -71.848770514943894, -44.243007265492103 ], [ -71.8490225236105, -44.2430795818455 ], [ -71.849479660641506, -44.243282550217401 ], [ -71.849879296133693, -44.2435298292719 ], [ -71.849929426662897, -44.243577685274801 ], [ -71.850029340559999, -44.2434462855039 ], [ -71.850235702924195, -44.243191022629702 ], [ -71.850349119946301, -44.242966664394103 ], [ -71.850631211383401, -44.242427242490002 ], [ -71.850664108687695, -44.242257129187202 ], [ -71.848850996957495, -44.242563991728197 ], [ -71.848503844858698, -44.242065289240401 ], [ -71.848099014470293, -44.242121840539198 ], [ -71.848039894240401, -44.241926800358399 ], [ -71.847660230474801, -44.241989868583197 ], [ -71.847380084138507, -44.241128617343499 ], [ -71.847212163526507, -44.241150671353502 ], [ -71.846463436007795, -44.2388183097301 ], [ -71.846105306814295, -44.237765682882902 ], [ -71.845914712237004, -44.237797608364701 ], [ -71.844792203651096, -44.2392547914421 ], [ -71.845243210242302, -44.239743770300002 ], [ -71.845409634827107, -44.239896834382598 ], [ -71.845398385169503, -44.240075765033097 ], [ -71.845260133095394, -44.240300737519 ], [ -71.845280045463596, -44.240507474418898 ], [ -71.845368767183402, -44.2406982049528 ], [ -71.845727965999799, -44.240932214730101 ], [ -71.845815656840102, -44.241101532185503 ], [ -71.846146738005004, -44.241164737015303 ] ] ] } },
{ "type": "Feature", "properties": { "id": "monoparte.10", "Name": null, "description": null, "timestamp": null, "begin": null, "end": null, "altitudeMode": null, "tessellate": -1, "extrude": 0, "visibility": -1, "drawOrder": null, "icon": null, "REG": "Aysén", "COM": "Lago Verde", "LOC": "Lago Verde", "ZONA": "ZU1", "NOM": "Zona Urbana Consolidada", "UPERM": "Vivienda, equipamiento (comunal, local) sin perjuicio de lo establecido en el artículo 25° de la presente Ordenanza: oficinas, talleres no molestos, almacenamiento inofensivo y áreas verdes.", "UPROH": "Todos los usos de suelo no mencionados precedentemente.", "P_DO": "31/12/1998", "N_DOC": "51", "T_DO": "Resolución", "OBS": null }, "geometry": { "type": "Polygon", "coordinates": [ [ [ -71.846463436007795, -44.2388183097301 ], [ -71.847212163526507, -44.241150671353502 ], [ -71.847380084138507, -44.241128617343499 ], [ -71.847660230474801, -44.241989868583197 ], [ -71.848039894240401, -44.241926800358399 ], [ -71.848099014470293, -44.242121840539198 ], [ -71.848503844858698, -44.242065289240401 ], [ -71.848850996957495, -44.242563991728197 ], [ -71.850664108687695, -44.242257129187202 ], [ -71.850674952765701, -44.242201051684603 ], [ -71.850617721061099, -44.242045268396801 ], [ -71.850494891633701, -44.241629104327302 ], [ -71.854924186168105, -44.2408931287586 ], [ -71.854195115712599, -44.238802100108401 ], [ -71.853847533326501, -44.237774155669896 ], [ -71.848018024889299, -44.238780127025699 ], [ -71.847579388982396, -44.2375146683586 ], [ -71.846516179221794, -44.237696858489798 ], [ -71.846105306814295, -44.237765682882902 ], [ -71.846463436007795, -44.2388183097301 ] ], [ [ -71.850135696647996, -44.240572723490402 ], [ -71.848677620283297, -44.240826480287403 ], [ -71.848321812402801, -44.239805144349901 ], [ -71.849792435443803, -44.239554102899397 ], [ -71.850135696647996, -44.240572723490402 ] ] ] } },
{ "type": "Feature", "properties": { "id": "monoparte.11", "Name": null, "description": null, "timestamp": null, "begin": null, "end": null, "altitudeMode": null, "tessellate": -1, "extrude": 0, "visibility": -1, "drawOrder": null, "icon": null, "REG": "Aysén", "COM": "Lago Verde", "LOC": "Lago Verde", "ZONA": "ZE1", "NOM": "Zona de Expansión de Primera Prioridad", "UPERM": "Vivienda, talleres no molestos y equipamiento (comunal, local).", "UPROH": "El equipamiento no citado como permitido, industria (talleres) y almacenamiento de todo tipo.", "P_DO": "31/12/1998", "N_DOC": "51", "T_DO": "Resolución", "OBS": null }, "geometry": { "type": "Polygon", "coordinates": [ [ [ -71.855332358053701, -44.241992659347403 ], [ -71.854924186168105, -44.2408931287586 ], [ -71.850494891633701, -44.241629104327302 ], [ -71.850617721061099, -44.242045268396801 ], [ -71.850949501944498, -44.242122733749497 ], [ -71.851495859649802, -44.242115041278502 ], [ -71.851899548873206, -44.242069225184501 ], [ -71.852463247842095, -44.241906265214901 ], [ -71.852821251176593, -44.2417722624945 ], [ -71.853114214993397, -44.241663704971501 ], [ -71.853492790557794, -44.2416125565165 ], [ -71.853933023140698, -44.241637279522898 ], [ -71.854343326390506, -44.241728254685597 ], [ -71.854723702834903, -44.2418854822604 ], [ -71.854992204155195, -44.241956181856402 ], [ -71.855332358053701, -44.241992659347403 ] ] ] } }
]
}
