{
"type": "FeatureCollection",
"name": "IPT_16_PRC_Pemuco",
"crs": { "type": "name", "properties": { "name": "urn:ogc:def:crs:OGC:1.3:CRS84" } },
"features": [
{ "type": "Feature", "properties": { "id": "monoparte.1", "Name": null, "description": null, "timestamp": null, "begin": null, "end": null, "altitudeMode": null, "tessellate": -1, "extrude": 0, "visibility": -1, "drawOrder": null, "icon": null, "REG": "Ñuble", "COM": "Pemuco", "LOC": "Pemuco", "ZONA": "ZR-2", "NOM": "ZR-2 Zona Residencial", "UPERM": "Residencial; Equipamiento científico, comercio, excepto discotecas y similar, deporte, culto y cultura, educación, esparcimiento, salud, seguridad, servicios y social. Mayor detalle en ordenanza.", "UPROH": "Todos aquellos no mencionados como permitidos.", "P_DO": "01/03/2014", "N_DOC": "190", "T_DO": "Resolución", "OBS": null }, "geometry": { "type": "Polygon", "coordinates": [ [ [ -72.098876099672793, -36.971312068809397 ], [ -72.098711317670293, -36.971337380534301 ], [ -72.098456771939496, -36.971215287272301 ], [ -72.098410470574393, -36.970806429652299 ], [ -72.098331365719403, -36.970760813483999 ], [ -72.098082427464206, -36.970776852637201 ], [ -72.097917756302294, -36.970819298889097 ], [ -72.097715728159201, -36.9708198065671 ], [ -72.097384259924198, -36.970852304171302 ], [ -72.097260563202397, -36.970879374917601 ], [ -72.097521368123395, -36.971918952060797 ], [ -72.097618609459801, -36.972338400165199 ], [ -72.094147983955807, -36.973106669053202 ], [ -72.093234937727701, -36.973306310945802 ], [ -72.092579160731205, -36.973453345525698 ], [ -72.092056006181295, -36.973566163661403 ], [ -72.091719211512398, -36.973643605201303 ], [ -72.091652352283603, -36.9736949370985 ], [ -72.0913212817307, -36.973972494554502 ], [ -72.091077591174596, -36.974177204034902 ], [ -72.091011502326793, -36.974247588697899 ], [ -72.090953618172406, -36.974344461263897 ], [ -72.090716022800805, -36.974379676373701 ], [ -72.090720371851802, -36.974402274807403 ], [ -72.090903442923803, -36.975071016712597 ], [ -72.091004976045795, -36.9751935373313 ], [ -72.091367516630399, -36.976441709965997 ], [ -72.089487930073801, -36.976806577767 ], [ -72.089462534733698, -36.976729756150803 ], [ -72.088435036461107, -36.976879340585697 ], [ -72.088245904302397, -36.977113454380202 ], [ -72.087901499905399, -36.9775573633679 ], [ -72.0880847036603, -36.978363788840099 ], [ -72.088654141797605, -36.9805692495652 ], [ -72.089290694679704, -36.981428833773002 ], [ -72.091131782305794, -36.9809910619595 ], [ -72.092076735601296, -36.980769740903298 ], [ -72.092360347699596, -36.981938907089699 ], [ -72.092782225469193, -36.981459427972801 ], [ -72.092937343804493, -36.981877371384101 ], [ -72.093871838978899, -36.981727831835201 ], [ -72.094515444835594, -36.981550113782099 ], [ -72.095376512385997, -36.981348836088898 ], [ -72.095769196071402, -36.981249182875501 ], [ -72.096253325412505, -36.982634826716399 ], [ -72.097997879535498, -36.982235230374499 ], [ -72.098165350250397, -36.982187941036401 ], [ -72.098529327932795, -36.982149823392497 ], [ -72.099187051134294, -36.982100453762499 ], [ -72.099613513576401, -36.982064275497599 ], [ -72.099835432802706, -36.982040595502298 ], [ -72.100411215540902, -36.981839584449197 ], [ -72.100927148901306, -36.981668064358701 ], [ -72.101112773498102, -36.981401441491698 ], [ -72.101514984730997, -36.981207347655598 ], [ -72.101629953622705, -36.981111361607397 ], [ -72.101777961878, -36.981024046611701 ], [ -72.101856661484106, -36.980986227328401 ], [ -72.101902045921193, -36.980859874332097 ], [ -72.102046622157602, -36.980359007075101 ], [ -72.102152233146995, -36.980105913633203 ], [ -72.102217478196707, -36.979846723149599 ], [ -72.102281705533201, -36.979672195717001 ], [ -72.102411738594199, -36.979654489866803 ], [ -72.102479110819402, -36.979557362877799 ], [ -72.102456847891304, -36.979448276811098 ], [ -72.102411804685502, -36.979363627332098 ], [ -72.102396059891703, -36.979268674466802 ], [ -72.102402900796704, -36.979144522494401 ], [ -72.102435555737401, -36.9789243296905 ], [ -72.102509638945307, -36.978846101170902 ], [ -72.1026790998839, -36.978774912842397 ], [ -72.102808743028802, -36.978747680676697 ], [ -72.102938193589395, -36.978715684903797 ], [ -72.103061514277499, -36.978679080859003 ], [ -72.103179090074406, -36.978647395499202 ], [ -72.103175605166996, -36.978561658994202 ], [ -72.103173217360506, -36.978356687465897 ], [ -72.103277886545499, -36.978153684329499 ], [ -72.103388557278805, -36.978098338720002 ], [ -72.103517037205407, -36.9780425261117 ], [ -72.103579051534396, -36.977959844243998 ], [ -72.1036360966324, -36.977901132196799 ], [ -72.103704821342106, -36.977837347792899 ], [ -72.103983591904296, -36.977677469551999 ], [ -72.104435110058702, -36.977527373953798 ], [ -72.104839132506598, -36.977378520877998 ], [ -72.105066599998395, -36.9772724339457 ], [ -72.105093958847903, -36.977214498377499 ], [ -72.1051239616543, -36.9770754353369 ], [ -72.105099758768105, -36.976918717351097 ], [ -72.105047616148099, -36.976805645516798 ], [ -72.105012701627501, -36.976677818041097 ], [ -72.104979144263396, -36.976583331846598 ], [ -72.104956422740798, -36.976316906651398 ], [ -72.104979908523404, -36.976163709624799 ], [ -72.105007780519699, -36.9759722515386 ], [ -72.105041589438798, -36.975780638025 ], [ -72.105055525318505, -36.975684908526802 ], [ -72.104448363620804, -36.973442733951899 ], [ -72.103766882087498, -36.9710049363512 ], [ -72.102664921330501, -36.971234031319 ], [ -72.099679698130998, -36.971921787083303 ], [ -72.099669727545802, -36.9719248770257 ], [ -72.099625387442501, -36.971681909824298 ], [ -72.099616822352601, -36.971602398009303 ], [ -72.099507960869005, -36.971116499764598 ], [ -72.099340634331497, -36.970471201562802 ], [ -72.099180802777397, -36.970028584433798 ], [ -72.099132157326906, -36.970139097827399 ], [ -72.099045931532601, -36.970503736123497 ], [ -72.099042481801206, -36.971004489646297 ], [ -72.099034144314302, -36.971238350262801 ], [ -72.098988393641505, -36.971282459486098 ], [ -72.098935738637095, -36.9713029083035 ], [ -72.098876099672793, -36.971312068809397 ] ], [ [ -72.102468545352593, -36.978308367364598 ], [ -72.093418318554896, -36.980434409012801 ], [ -72.093413231468901, -36.980414028601999 ], [ -72.091813473584295, -36.975840097021099 ], [ -72.100961744791903, -36.973693990616098 ], [ -72.102468545352593, -36.978308367364598 ] ] ] } },
{ "type": "Feature", "properties": { "id": "monoparte.2", "Name": null, "description": null, "timestamp": null, "begin": null, "end": null, "altitudeMode": null, "tessellate": -1, "extrude": 0, "visibility": -1, "drawOrder": null, "icon": null, "REG": "Ñuble", "COM": "Pemuco", "LOC": "Pemuco", "ZONA": "ZE-5", "NOM": "ZE-5 Zona de Equipamiento de parque", "UPERM": "Residencial; Industria, bodegaje y talleres inofensiva; Equipamiento científico, comercio, culto y cultura, deporte, esparcimiento y social.", "UPROH": "Discotecas, centros de servicio automotor, grandes tiendas, supermercados y mercados, y todo uso no mencionado precedentemente.", "P_DO": "01/03/2014", "N_DOC": "190", "T_DO": "Resolución", "OBS": null }, "geometry": { "type": "Polygon", "coordinates": [ [ [ -72.101013582156298, -36.966682102145398 ], [ -72.101736445763805, -36.968219248269698 ], [ -72.101866715294094, -36.968218593732999 ], [ -72.102027418633497, -36.9681518086159 ], [ -72.102302369672401, -36.967971769400798 ], [ -72.102566672928603, -36.967803929346601 ], [ -72.102838515326795, -36.967638871384501 ], [ -72.103212343595501, -36.967241675088196 ], [ -72.103698759009802, -36.966781928220698 ], [ -72.103960412472503, -36.966516730728799 ], [ -72.102891891256604, -36.966586797756001 ], [ -72.101013582156298, -36.966682102145398 ] ] ] } },
{ "type": "Feature", "properties": { "id": "monoparte.3", "Name": null, "description": null, "timestamp": null, "begin": null, "end": null, "altitudeMode": null, "tessellate": -1, "extrude": 0, "visibility": -1, "drawOrder": null, "icon": null, "REG": "Ñuble", "COM": "Pemuco", "LOC": "Pemuco", "ZONA": "ZE-3", "NOM": "ZE-3 Zona de Equipamiento", "UPERM": "Equipamiento científico, culto y cultura, deporte, educación, esparcimiento, salud, seguridad, servicio y social.", "UPROH": "Zoológicos, parques de entretención, juegos electrónicos y mecánicos, y todo uso no mencionado precedentemente.", "P_DO": "01/03/2014", "N_DOC": "190", "T_DO": "Resolución", "OBS": null }, "geometry": { "type": "Polygon", "coordinates": [ [ [ -72.101736445763805, -36.968219248269698 ], [ -72.101013582156298, -36.966682102145398 ], [ -72.100952761633096, -36.966685187896303 ], [ -72.098893704841799, -36.966800984058203 ], [ -72.098418719969303, -36.967836176488802 ], [ -72.098252617627494, -36.968136145080599 ], [ -72.098253057613107, -36.968293484737998 ], [ -72.098252724736994, -36.9684317723136 ], [ -72.098377007756596, -36.968968527238601 ], [ -72.098617178467094, -36.970076434663603 ], [ -72.098743663890303, -36.969876713936301 ], [ -72.098780937408407, -36.969696931690997 ], [ -72.098822439699006, -36.969621343478899 ], [ -72.0988607142029, -36.969557760866799 ], [ -72.0989843218575, -36.969491948889598 ], [ -72.099037558379706, -36.969430955201602 ], [ -72.099295540752195, -36.969290108024403 ], [ -72.099568966518206, -36.969163757917002 ], [ -72.099678906230693, -36.969035719684101 ], [ -72.099728672660703, -36.968980777020903 ], [ -72.100082389938294, -36.968819545387298 ], [ -72.100213414813297, -36.968753538317699 ], [ -72.100564628815704, -36.968622173015198 ], [ -72.100959032194993, -36.968456895461699 ], [ -72.101101428868304, -36.968396550792399 ], [ -72.1012080542598, -36.968369921545097 ], [ -72.101366014787303, -36.968327049781301 ], [ -72.101725612459504, -36.968219303571502 ], [ -72.101736445763805, -36.968219248269698 ] ] ] } },
{ "type": "Feature", "properties": { "id": "monoparte.4", "Name": null, "description": null, "timestamp": null, "begin": null, "end": null, "altitudeMode": null, "tessellate": -1, "extrude": 0, "visibility": -1, "drawOrder": null, "icon": null, "REG": "Ñuble", "COM": "Pemuco", "LOC": "Pemuco", "ZONA": "ZER-2", "NOM": "ZER-2 Zona de Crecimiento residencial", "UPERM": "Residencial; Industria, bodegaje y talleres inofensiva; Equipamiento científico, comercio, culto y cultura, deporte, educación, esparcimiento, salud, seguridad, servicio y social.", "UPROH": "Discotecas, cárceles y centros de detención, y todo uso no mencionado precedentemente.", "P_DO": "01/03/2014", "N_DOC": "190", "T_DO": "Resolución", "OBS": null }, "geometry": { "type": "Polygon", "coordinates": [ [ [ -72.101734916798705, -36.968673978353202 ], [ -72.102365084093407, -36.970436044247599 ], [ -72.102591299861601, -36.9710309237161 ], [ -72.102664921330501, -36.971234031319 ], [ -72.103766882087498, -36.9710049363512 ], [ -72.104448363620804, -36.973442733951899 ], [ -72.106397906798904, -36.973032741273599 ], [ -72.106113543640504, -36.972167579756302 ], [ -72.104276092292295, -36.966710402660297 ], [ -72.104151696682706, -36.966823855446698 ], [ -72.103636522541905, -36.967278128323599 ], [ -72.1035035951233, -36.967483110939398 ], [ -72.103303181513496, -36.967765424385597 ], [ -72.102985175128197, -36.968050812787702 ], [ -72.102786462782205, -36.968181951895097 ], [ -72.102247928051696, -36.968447918769897 ], [ -72.101734916798705, -36.968673978353202 ] ] ] } },
{ "type": "Feature", "properties": { "id": "monoparte.5", "Name": null, "description": null, "timestamp": null, "begin": null, "end": null, "altitudeMode": null, "tessellate": -1, "extrude": 0, "visibility": -1, "drawOrder": null, "icon": null, "REG": "Ñuble", "COM": "Pemuco", "LOC": "Pemuco", "ZONA": "ZE-2", "NOM": "ZE-2 Zona de Cementerio", "UPERM": "Equipamiento de culto y salud, sólo cementerio y crematorio.", "UPROH": "Todos aquellos no mencionados como permitidos.", "P_DO": "01/03/2014", "N_DOC": "190", "T_DO": "Resolución", "OBS": null }, "geometry": { "type": "Polygon", "coordinates": [ [ [ -72.085617605306297, -36.978597223962701 ], [ -72.086918537394595, -36.978397881148297 ], [ -72.086683597095004, -36.977384768113502 ], [ -72.085223454502696, -36.977594430873197 ], [ -72.085484423387001, -36.978206320980803 ], [ -72.085617605306297, -36.978597223962701 ] ] ] } },
{ "type": "Feature", "properties": { "id": "monoparte.6", "Name": null, "description": null, "timestamp": null, "begin": null, "end": null, "altitudeMode": null, "tessellate": -1, "extrude": 0, "visibility": -1, "drawOrder": null, "icon": null, "REG": "Ñuble", "COM": "Pemuco", "LOC": "Pemuco", "ZONA": "ZE-4", "NOM": "ZE-4 Zona de Equipamiento", "UPERM": "Equipamiento de comercio, culto y cultura, deporte, esparcimiento, salud, seguridad, servicio y social. Actividad productiva inofensiva.", "UPROH": "Discotecas,estadios, zoológicos, parque de entretención, cárceles y centro de detención, y todo uso no mencionado precedentemente.", "P_DO": "01/03/2014", "N_DOC": "190", "T_DO": "Resolución", "OBS": null }, "geometry": { "type": "Polygon", "coordinates": [ [ [ -72.086643209681796, -36.9772106028298 ], [ -72.0862178513093, -36.975619544361301 ], [ -72.086101944388503, -36.975149946915401 ], [ -72.086029696562704, -36.975216159440102 ], [ -72.085951314627593, -36.975298662692403 ], [ -72.085823374028493, -36.975349673843702 ], [ -72.085705380002295, -36.975463008982501 ], [ -72.085466883777102, -36.975719545670998 ], [ -72.085353079999706, -36.9758446918947 ], [ -72.084887861633604, -36.976005799842 ], [ -72.084763027859793, -36.976041827872798 ], [ -72.084603253786497, -36.976132407686798 ], [ -72.084394899700399, -36.976307694447399 ], [ -72.084171498524299, -36.976494380644702 ], [ -72.084286989303706, -36.976996858814999 ], [ -72.084722252622896, -36.978734410979897 ], [ -72.085617605306297, -36.978597223962701 ], [ -72.085484423387001, -36.978206320980803 ], [ -72.085223454502696, -36.977594430873197 ], [ -72.086683597095004, -36.977384768113502 ], [ -72.086643209681796, -36.9772106028298 ] ] ] } },
{ "type": "Feature", "properties": { "id": "monoparte.7", "Name": null, "description": null, "timestamp": null, "begin": null, "end": null, "altitudeMode": null, "tessellate": -1, "extrude": 0, "visibility": -1, "drawOrder": null, "icon": null, "REG": "Ñuble", "COM": "Pemuco", "LOC": "Pemuco", "ZONA": "ZE-6", "NOM": "ZE-6 Zona de Equipamiento", "UPERM": "Residencial; Industria, bodegaje y talleres inofensiva; Equipamiento científico, comercio, culto y cultura, deporte, educación, esparcimiento, salud, seguridad, servicio y social.", "UPROH": "Estadios, canchas y multicanchas, zoológicos y parques de entretención, cárceles y centro de detención, y todo uso no mencionado precedentemente.", "P_DO": "01/03/2014", "N_DOC": "190", "T_DO": "Resolución", "OBS": null }, "geometry": { "type": "Polygon", "coordinates": [ [ [ -72.086101944388503, -36.975149946915401 ], [ -72.0862178513093, -36.975619544361301 ], [ -72.086643209681796, -36.9772106028298 ], [ -72.087990322698801, -36.976989559932598 ], [ -72.088516382431806, -36.975994816528797 ], [ -72.088660134559206, -36.975508289902002 ], [ -72.088722804818303, -36.975312948795597 ], [ -72.088781192618001, -36.974736259702297 ], [ -72.088344807730095, -36.9747833848608 ], [ -72.088152346563902, -36.974800316258303 ], [ -72.087279653135596, -36.974712768649901 ], [ -72.087193831700404, -36.9747030819738 ], [ -72.087055823771095, -36.974688792805601 ], [ -72.086633557075302, -36.974717663144297 ], [ -72.0865667686314, -36.974719401139502 ], [ -72.086233852466705, -36.9750290587262 ], [ -72.086101944388503, -36.975149946915401 ] ] ] } },
{ "type": "Feature", "properties": { "id": "monoparte.8", "Name": null, "description": null, "timestamp": null, "begin": null, "end": null, "altitudeMode": null, "tessellate": -1, "extrude": 0, "visibility": -1, "drawOrder": null, "icon": null, "REG": "Ñuble", "COM": "Pemuco", "LOC": "Pemuco", "ZONA": "ZD", "NOM": "ZD Zona de drenaje", "UPERM": "Equipamiento de deporte, sólo multicanchas y esparcimiento, sólo parques zoológicos.", "UPROH": "Todos aquellos no mencionados como permitidos.", "P_DO": "01/03/2014", "N_DOC": "190", "T_DO": "Resolución", "OBS": null }, "geometry": { "type": "Polygon", "coordinates": [ [ [ -72.097703442223306, -36.986435176955403 ], [ -72.097493625722905, -36.986464498650598 ], [ -72.096771511112607, -36.986392759994203 ], [ -72.096697748453195, -36.986332699005501 ], [ -72.096517277500396, -36.986206285206499 ], [ -72.096516214664504, -36.986180087959198 ], [ -72.096453360865993, -36.986095901244099 ], [ -72.096383892975297, -36.985995197390501 ], [ -72.096332844742705, -36.9859822255181 ], [ -72.096072824116902, -36.985946099845101 ], [ -72.095876622683505, -36.986017977117797 ], [ -72.095668834864497, -36.986097308363497 ], [ -72.095596425638206, -36.9860705891045 ], [ -72.095323925623404, -36.985946575473903 ], [ -72.094914355762199, -36.985740309486303 ], [ -72.094830504886104, -36.985577993856097 ], [ -72.094388306711195, -36.985446485724701 ], [ -72.094346068209006, -36.985430898869097 ], [ -72.093956584007401, -36.9854267554689 ], [ -72.093833441797202, -36.9854681141532 ], [ -72.0932820741927, -36.985649383152897 ], [ -72.0930494734652, -36.985703131971803 ], [ -72.092425790566494, -36.985860058864702 ], [ -72.092021645708698, -36.986154304645602 ], [ -72.091909775113194, -36.9861071553876 ], [ -72.091899807006698, -36.986081190228703 ], [ -72.091761730807207, -36.985827305316903 ], [ -72.091700790168005, -36.9857168410566 ], [ -72.091624352417497, -36.985663998413202 ], [ -72.091504519157297, -36.985566989607698 ], [ -72.090904821159796, -36.985545666897202 ], [ -72.090597957531202, -36.985453530399298 ], [ -72.090496518004301, -36.985370345865 ], [ -72.090364050759504, -36.985291546117203 ], [ -72.090301128146194, -36.985278881019603 ], [ -72.089910669918694, -36.985213954658803 ], [ -72.089134497720906, -36.985091126334702 ], [ -72.089026061495801, -36.985165474846497 ], [ -72.088815637455298, -36.985253206825398 ], [ -72.088554348574604, -36.985295773594203 ], [ -72.088446055993103, -36.985373693337301 ], [ -72.088135258699694, -36.985624965512102 ], [ -72.088077946913998, -36.985640762451098 ], [ -72.087805726011595, -36.9856335454852 ], [ -72.087444587977501, -36.9856322190372 ], [ -72.087300668581804, -36.9857110652055 ], [ -72.086824954283998, -36.9859630505144 ], [ -72.086531020132398, -36.986114491358499 ], [ -72.086581739884394, -36.986326303195803 ], [ -72.086760440291002, -36.9861375885082 ], [ -72.087016781108801, -36.986009326452702 ], [ -72.087382193909406, -36.985859152278103 ], [ -72.087631553836601, -36.985778753150001 ], [ -72.087807288839102, -36.985788482599901 ], [ -72.088113360771999, -36.985787665361897 ], [ -72.088295805755706, -36.985816292545799 ], [ -72.088395008746005, -36.985770795329103 ], [ -72.088449873484706, -36.9857312202641 ], [ -72.088674402461194, -36.985551332990603 ], [ -72.088838992671796, -36.985530456703998 ], [ -72.089161902414702, -36.985468404141002 ], [ -72.089238877083503, -36.985387723122102 ], [ -72.089300642921003, -36.985371809609802 ], [ -72.0895086680449, -36.985445066840697 ], [ -72.089620574735093, -36.985456456300902 ], [ -72.089779585497496, -36.985420128162097 ], [ -72.089921940636998, -36.985412843950598 ], [ -72.090098939440296, -36.9854904839478 ], [ -72.090226664135301, -36.985562255685799 ], [ -72.090346929770405, -36.985669982814301 ], [ -72.090440590414403, -36.985671118661003 ], [ -72.090557963477494, -36.985707397693801 ], [ -72.090633810515698, -36.985708997584098 ], [ -72.090705351054893, -36.98571428604 ], [ -72.090814685470903, -36.9857722317225 ], [ -72.090929598330007, -36.985747779517801 ], [ -72.091046216831401, -36.985655335900802 ], [ -72.0911392987135, -36.985642181631803 ], [ -72.091309241420703, -36.985655633230301 ], [ -72.091415280296602, -36.985742273539998 ], [ -72.091612264297794, -36.9858730324815 ], [ -72.091695893156995, -36.985956681213302 ], [ -72.091726519663894, -36.986052438948498 ], [ -72.091732709593501, -36.986095191516903 ], [ -72.091690927008699, -36.986164228461298 ], [ -72.091714350717396, -36.986192227128797 ], [ -72.091803703197598, -36.986197049675397 ], [ -72.091857864626604, -36.986213518740598 ], [ -72.091899679904401, -36.986255342546897 ], [ -72.092010897362499, -36.986359728307903 ], [ -72.092167916717898, -36.986384243818001 ], [ -72.092246480986304, -36.986342856989701 ], [ -72.092280224733798, -36.986295487772097 ], [ -72.092356763646293, -36.986204087887103 ], [ -72.092419797349194, -36.986109463712097 ], [ -72.092474938410902, -36.986040079103802 ], [ -72.092643579339594, -36.9860213770394 ], [ -72.092744987956294, -36.985993698831301 ], [ -72.092836332742294, -36.985937674603697 ], [ -72.093021482929203, -36.985886355813797 ], [ -72.093195300629205, -36.985885398987698 ], [ -72.093252322904604, -36.985862454367897 ], [ -72.093501842844205, -36.985859522642599 ], [ -72.093564331983004, -36.985861469070301 ], [ -72.093585727992206, -36.985839453566101 ], [ -72.093670447664906, -36.985729958455302 ], [ -72.093803751065295, -36.985719329297297 ], [ -72.093923117198202, -36.985694758036203 ], [ -72.0940088488166, -36.985610270084202 ], [ -72.094132811794793, -36.985589155078401 ], [ -72.094331356586693, -36.985648346416397 ], [ -72.094411801668201, -36.985653399400803 ], [ -72.094536633617096, -36.985653718701798 ], [ -72.094613350654001, -36.9856767498393 ], [ -72.094695390217296, -36.985721099442699 ], [ -72.094720263324305, -36.985784821710602 ], [ -72.094727902259805, -36.985863298313397 ], [ -72.094824459967498, -36.985935877348297 ], [ -72.094959358032099, -36.985964542784401 ], [ -72.095073294056306, -36.986025940756498 ], [ -72.095236938778299, -36.986103921425297 ], [ -72.095671105745595, -36.9862570932927 ], [ -72.095849955886294, -36.986270305820199 ], [ -72.095977068515296, -36.986216921017302 ], [ -72.096111928513395, -36.9861347254771 ], [ -72.096254718548195, -36.986138149619897 ], [ -72.096368365925201, -36.986192401089099 ], [ -72.096389221941493, -36.986266956093303 ], [ -72.096398892808196, -36.986395446139603 ], [ -72.096463411376604, -36.986447403779302 ], [ -72.096545886461996, -36.986502468929601 ], [ -72.096689836747402, -36.986534472389401 ], [ -72.096868398809704, -36.9865405381193 ], [ -72.096986499514998, -36.986594672684902 ], [ -72.097058330958106, -36.986607101536599 ], [ -72.097344637637406, -36.986631810254401 ], [ -72.097495175577194, -36.986606421290702 ], [ -72.097647163301403, -36.986616756273101 ], [ -72.097739374899703, -36.9865821630612 ], [ -72.097911307460507, -36.9865347573718 ], [ -72.097945772629402, -36.986505247862297 ], [ -72.097969737027796, -36.9864366751601 ], [ -72.097976322711602, -36.9863792846526 ], [ -72.098061760314593, -36.986287648763799 ], [ -72.098071785423997, -36.986205135546697 ], [ -72.098070582469205, -36.986065696249902 ], [ -72.098103452314106, -36.985996890891698 ], [ -72.098190340564003, -36.985940978122201 ], [ -72.098360966249501, -36.985861421232002 ], [ -72.098411358104201, -36.985785005276398 ], [ -72.098449798820695, -36.985633802952897 ], [ -72.098519700703406, -36.985488929629 ], [ -72.098521108578396, -36.985413793369503 ], [ -72.098542025561997, -36.985270200697499 ], [ -72.098558552715701, -36.985164868062697 ], [ -72.098615268502598, -36.985097823821 ], [ -72.098772987977696, -36.984956616585102 ], [ -72.098821072557897, -36.984859995497999 ], [ -72.098853105153495, -36.984733993343703 ], [ -72.098896968376707, -36.984649293861203 ], [ -72.098919801873606, -36.984571213515501 ], [ -72.098916659436398, -36.9844938127939 ], [ -72.098919851358602, -36.984389424160099 ], [ -72.098910011932304, -36.984330078520799 ], [ -72.098870123566797, -36.984262577517804 ], [ -72.098900016596801, -36.984175373119598 ], [ -72.098928977744606, -36.9841567353971 ], [ -72.099544457740393, -36.984036346709502 ], [ -72.099613755120004, -36.984004734298402 ], [ -72.099750656071805, -36.9838998319008 ], [ -72.099913290536605, -36.983788297020098 ], [ -72.099934104894004, -36.983751990995898 ], [ -72.100038379617601, -36.983484033105199 ], [ -72.100186654546306, -36.9833847935639 ], [ -72.100265631508194, -36.9833171657748 ], [ -72.100349491225003, -36.983186828613199 ], [ -72.100416741109996, -36.983068248547902 ], [ -72.100390670186499, -36.983011711605897 ], [ -72.100347367969306, -36.982969929712503 ], [ -72.100340557878795, -36.982942658186403 ], [ -72.1003331723537, -36.982913082326597 ], [ -72.100354793619005, -36.982860067171401 ], [ -72.100411070877499, -36.982782304440804 ], [ -72.100485738958696, -36.982718365534801 ], [ -72.100639333474604, -36.982695277081199 ], [ -72.100766856843705, -36.9826156515769 ], [ -72.100851077788207, -36.982494245134802 ], [ -72.101035140986696, -36.982050756320703 ], [ -72.101268115865395, -36.981787181601902 ], [ -72.101665200026304, -36.981466864017399 ], [ -72.102239425630302, -36.981118070322097 ], [ -72.1024424504877, -36.980702693636403 ], [ -72.1024525153572, -36.980668624619 ], [ -72.1025730675685, -36.9802606015202 ], [ -72.102587329403406, -36.980026585228998 ], [ -72.102619273378707, -36.979935154323499 ], [ -72.102683419518598, -36.9799048670763 ], [ -72.102782412023601, -36.9798545950866 ], [ -72.102886568472897, -36.979785114803597 ], [ -72.102948390056596, -36.979697669779597 ], [ -72.102989690171498, -36.979544006151698 ], [ -72.102919931296199, -36.979436162769197 ], [ -72.1029256097342, -36.979283431069597 ], [ -72.102935466435696, -36.9791740886984 ], [ -72.102970985095993, -36.9791121258516 ], [ -72.103074391554003, -36.979082718860298 ], [ -72.103163703072497, -36.979057494816097 ], [ -72.103532591846303, -36.978950571482898 ], [ -72.103684938343804, -36.978896995086203 ], [ -72.103736176556396, -36.9788708602252 ], [ -72.103673629840799, -36.978618827298497 ], [ -72.103643065980705, -36.978451785996597 ], [ -72.1036653162666, -36.978355839982903 ], [ -72.103707648419402, -36.9782860701104 ], [ -72.103768848864803, -36.978241384471502 ], [ -72.103789709384202, -36.978209220661199 ], [ -72.103999917124796, -36.978043983772899 ], [ -72.104166018911897, -36.977963346074603 ], [ -72.104489058488994, -36.977869062603197 ], [ -72.1048913730897, -36.977751247491703 ], [ -72.105241614664905, -36.977677284666903 ], [ -72.105271225657901, -36.9776595619605 ], [ -72.105498767140503, -36.977523370860702 ], [ -72.105540448667995, -36.977379232546703 ], [ -72.105581937456506, -36.977230331663797 ], [ -72.105583348343202, -36.976972811792201 ], [ -72.105412207148007, -36.976710272760997 ], [ -72.105387546752596, -36.9763962161161 ], [ -72.105443233219205, -36.976304161988303 ], [ -72.105543312907898, -36.976134654858299 ], [ -72.105648927519695, -36.975516789531397 ], [ -72.105983176942701, -36.975260090385099 ], [ -72.106140947504798, -36.975193971920802 ], [ -72.106356920322895, -36.975097719768101 ], [ -72.1066427043137, -36.974818447385097 ], [ -72.106887214285095, -36.974521386907 ], [ -72.106685466107706, -36.973907607483703 ], [ -72.1066107286277, -36.974032529642102 ], [ -72.106574211138906, -36.974157459950703 ], [ -72.106468392967201, -36.974331886689797 ], [ -72.106361605467796, -36.9744824980122 ], [ -72.106236232797997, -36.974614522846103 ], [ -72.106144541497599, -36.974697984097801 ], [ -72.1060047764974, -36.974768398654497 ], [ -72.105771769331298, -36.974884169307401 ], [ -72.105610581725799, -36.975012363690702 ], [ -72.105419904635596, -36.975146097548397 ], [ -72.105142570009093, -36.975487132834097 ], [ -72.105086302584098, -36.975564897421698 ], [ -72.105055525318505, -36.975684908526802 ], [ -72.105041589438798, -36.975780638025 ], [ -72.105007780519699, -36.9759722515386 ], [ -72.104979908523404, -36.976163709624799 ], [ -72.104956422740798, -36.976316906651398 ], [ -72.104979144263396, -36.976583331846598 ], [ -72.105012701627501, -36.976677818041097 ], [ -72.105047616148099, -36.976805645516798 ], [ -72.105099758768105, -36.976918717351097 ], [ -72.1051239616543, -36.9770754353369 ], [ -72.105093958847903, -36.977214498377499 ], [ -72.105066599998395, -36.9772724339457 ], [ -72.104839132506598, -36.977378520877998 ], [ -72.104435110058702, -36.977527373953798 ], [ -72.103983591904296, -36.977677469551999 ], [ -72.103704821342106, -36.977837347792899 ], [ -72.1036360966324, -36.977901132196799 ], [ -72.103579051534396, -36.977959844243998 ], [ -72.103517037205407, -36.9780425261117 ], [ -72.103388557278805, -36.978098338720002 ], [ -72.103277886545499, -36.978153684329499 ], [ -72.103173217360506, -36.978356687465897 ], [ -72.103175605166996, -36.978561658994202 ], [ -72.103179090074406, -36.978647395499202 ], [ -72.103061514277499, -36.978679080859003 ], [ -72.102938193589395, -36.978715684903797 ], [ -72.102808743028802, -36.978747680676697 ], [ -72.1026790998839, -36.978774912842397 ], [ -72.102509638945307, -36.978846101170902 ], [ -72.102435555737401, -36.9789243296905 ], [ -72.102402900796704, -36.979144522494401 ], [ -72.102396059891703, -36.979268674466802 ], [ -72.102411804685502, -36.979363627332098 ], [ -72.102456847891304, -36.979448276811098 ], [ -72.102479110819402, -36.979557362877799 ], [ -72.102411738594199, -36.979654489866803 ], [ -72.102281705533201, -36.979672195717001 ], [ -72.102217478196707, -36.979846723149599 ], [ -72.102152233146995, -36.980105913633203 ], [ -72.102046622157602, -36.980359007075101 ], [ -72.101902045921193, -36.980859874332097 ], [ -72.101856661484106, -36.980986227328401 ], [ -72.101777961878, -36.981024046611701 ], [ -72.101629953622705, -36.981111361607397 ], [ -72.101514984730997, -36.981207347655598 ], [ -72.101112773498102, -36.981401441491698 ], [ -72.100927148901306, -36.981668064358701 ], [ -72.1007898663796, -36.981865248421798 ], [ -72.100742012739602, -36.981930870731198 ], [ -72.100714292222094, -36.982053185142 ], [ -72.100591606413602, -36.982251888654702 ], [ -72.100430588387795, -36.982384840425503 ], [ -72.100237948478394, -36.982470935312797 ], [ -72.099931013250398, -36.982669686637202 ], [ -72.099726238171399, -36.982822853382999 ], [ -72.099694937525598, -36.982857049179003 ], [ -72.099687510958901, -36.9829669126228 ], [ -72.099713871467898, -36.9830305940215 ], [ -72.0997699179498, -36.9830935004506 ], [ -72.099896631270596, -36.983140254340199 ], [ -72.099897598461993, -36.983164070691899 ], [ -72.099846290867802, -36.983217861669999 ], [ -72.099715893400898, -36.983299945584399 ], [ -72.099684785967, -36.983338903935703 ], [ -72.099634377685106, -36.983488036048001 ], [ -72.099654347514402, -36.983613872353402 ], [ -72.099634437172895, -36.983635849185099 ], [ -72.0995677046932, -36.983675739457503 ], [ -72.099401780115301, -36.983761134865297 ], [ -72.099253085817907, -36.983831776074197 ], [ -72.099049891710493, -36.983877615302703 ], [ -72.098959216770496, -36.983913362346598 ], [ -72.098898421339598, -36.983953096220503 ], [ -72.098831785957699, -36.983995366904999 ], [ -72.098777701626901, -36.984053999399698 ], [ -72.098759047821005, -36.984106936755303 ], [ -72.098697923175706, -36.9842849577349 ], [ -72.098735952833295, -36.984562904674199 ], [ -72.098528644653101, -36.984873487372496 ], [ -72.098400012311203, -36.9850723441075 ], [ -72.098354668310094, -36.985199886933103 ], [ -72.098163250824896, -36.985755616697702 ], [ -72.0980078691654, -36.985881264446498 ], [ -72.097860716055393, -36.985990009092802 ], [ -72.097738874067701, -36.986429483891698 ], [ -72.097703442223306, -36.986435176955403 ] ] ] } },
{ "type": "Feature", "properties": { "id": "monoparte.9", "Name": null, "description": null, "timestamp": null, "begin": null, "end": null, "altitudeMode": null, "tessellate": -1, "extrude": 0, "visibility": -1, "drawOrder": null, "icon": null, "REG": "Ñuble", "COM": "Pemuco", "LOC": "Pemuco", "ZONA": "ZAP-1", "NOM": "ZAP-1 Zona de Actividad productiva mixta", "UPERM": "Residencial; Industria, bodegaje y talleres inofensiva, Equipamiento de comercio, seguridad y servicio.", "UPROH": "Discotecas, y todo uso no mencionado precedentemente.", "P_DO": "01/03/2014", "N_DOC": "190", "T_DO": "Resolución", "OBS": null }, "geometry": { "type": "Polygon", "coordinates": [ [ [ -72.105271225657901, -36.9776595619605 ], [ -72.105544787546094, -36.978705874503802 ], [ -72.105942051036706, -36.980143815974699 ], [ -72.106353525301998, -36.981820985135599 ], [ -72.104844931846699, -36.981992805052201 ], [ -72.104405386729994, -36.982057953765 ], [ -72.100340557878795, -36.982942658186403 ], [ -72.100347367969306, -36.982969929712503 ], [ -72.100390670186499, -36.983011711605897 ], [ -72.100416741109996, -36.983068248547902 ], [ -72.100349491225003, -36.983186828613199 ], [ -72.100265631508194, -36.9833171657748 ], [ -72.100186654546306, -36.9833847935639 ], [ -72.100038379617601, -36.983484033105199 ], [ -72.099934104894004, -36.983751990995898 ], [ -72.099913290536605, -36.983788297020098 ], [ -72.099750656071805, -36.9838998319008 ], [ -72.099613755120004, -36.984004734298402 ], [ -72.099544457740393, -36.984036346709502 ], [ -72.098928977744606, -36.9841567353971 ], [ -72.098900016596801, -36.984175373119598 ], [ -72.098870123566797, -36.984262577517804 ], [ -72.098910011932304, -36.984330078520799 ], [ -72.098919851358602, -36.984389424160099 ], [ -72.098916659436398, -36.9844938127939 ], [ -72.098919801873606, -36.984571213515501 ], [ -72.098896968376707, -36.984649293861203 ], [ -72.098853105153495, -36.984733993343703 ], [ -72.101191929534096, -36.984148356377503 ], [ -72.103810071898494, -36.983489802009402 ], [ -72.106232845064199, -36.982878625660298 ], [ -72.109445145469707, -36.982055663885703 ], [ -72.109328193943398, -36.9817175185472 ], [ -72.107980268006401, -36.977733249452498 ], [ -72.106978283689003, -36.974798441793901 ], [ -72.106887214285095, -36.974521386907 ], [ -72.1066427043137, -36.974818447385097 ], [ -72.106356920322895, -36.975097719768101 ], [ -72.106140947504798, -36.975193971920802 ], [ -72.105983176942701, -36.975260090385099 ], [ -72.105648927519695, -36.975516789531397 ], [ -72.105543312907898, -36.976134654858299 ], [ -72.105443233219205, -36.976304161988303 ], [ -72.105387546752596, -36.9763962161161 ], [ -72.105412207148007, -36.976710272760997 ], [ -72.105583348343202, -36.976972811792201 ], [ -72.105581937456506, -36.977230331663797 ], [ -72.105540448667995, -36.977379232546703 ], [ -72.105498767140503, -36.977523370860702 ], [ -72.105271225657901, -36.9776595619605 ] ] ] } },
{ "type": "Feature", "properties": { "id": "monoparte.10", "Name": null, "description": null, "timestamp": null, "begin": null, "end": null, "altitudeMode": null, "tessellate": -1, "extrude": 0, "visibility": -1, "drawOrder": null, "icon": null, "REG": "Ñuble", "COM": "Pemuco", "LOC": "Pemuco", "ZONA": "ZR-2", "NOM": "ZR-2 Zona Residencial", "UPERM": "Residencial; Equipamiento científico, comercio, excepto discotecas y similar, deporte, culto y cultura, educación, esparcimiento, salud, seguridad, servicios y social.  Actividad productiva inofensiva.  Mayor detalle en ordenanza.", "UPROH": "Todos aquellos no mencionados como permitidos.", "P_DO": "01/03/2014", "N_DOC": "190", "T_DO": "Resolución", "OBS": null }, "geometry": { "type": "Polygon", "coordinates": [ [ [ -72.1024525153572, -36.980668624619 ], [ -72.102573598939202, -36.980736156747497 ], [ -72.102845689120997, -36.980621814193903 ], [ -72.105723518109599, -36.979352817701297 ], [ -72.105544787546094, -36.978705874503802 ], [ -72.105271225657901, -36.9776595619605 ], [ -72.105241614664905, -36.977677284666903 ], [ -72.1048913730897, -36.977751247491703 ], [ -72.104489058488994, -36.977869062603197 ], [ -72.104166018911897, -36.977963346074603 ], [ -72.103999917124796, -36.978043983772899 ], [ -72.103789709384202, -36.978209220661199 ], [ -72.103768848864803, -36.978241384471502 ], [ -72.103707648419402, -36.9782860701104 ], [ -72.1036653162666, -36.978355839982903 ], [ -72.103643065980705, -36.978451785996597 ], [ -72.103673629840799, -36.978618827298497 ], [ -72.103736176556396, -36.9788708602252 ], [ -72.103684938343804, -36.978896995086203 ], [ -72.103532591846303, -36.978950571482898 ], [ -72.103163703072497, -36.979057494816097 ], [ -72.103074391554003, -36.979082718860298 ], [ -72.102970985095993, -36.9791121258516 ], [ -72.102935466435696, -36.9791740886984 ], [ -72.1029256097342, -36.979283431069597 ], [ -72.102919931296199, -36.979436162769197 ], [ -72.102989690171498, -36.979544006151698 ], [ -72.102948390056596, -36.979697669779597 ], [ -72.102886568472897, -36.979785114803597 ], [ -72.102782412023601, -36.9798545950866 ], [ -72.102683419518598, -36.9799048670763 ], [ -72.102619273378707, -36.979935154323499 ], [ -72.102587329403406, -36.980026585228998 ], [ -72.1025730675685, -36.9802606015202 ], [ -72.1024525153572, -36.980668624619 ] ] ] } },
{ "type": "Feature", "properties": { "id": "monoparte.11", "Name": null, "description": null, "timestamp": null, "begin": null, "end": null, "altitudeMode": null, "tessellate": -1, "extrude": 0, "visibility": -1, "drawOrder": null, "icon": null, "REG": "Ñuble", "COM": "Pemuco", "LOC": "Pemuco", "ZONA": "ZER-2", "NOM": "ZER-2 Zona de Crecimiento residencial", "UPERM": "Residencial; Industria, bodegaje y talleres inofensiva; Equipamiento científico, comercio, culto y cultura, deporte, educación, esparcimiento, salud, seguridad, servicio y social.", "UPROH": "Discotecas, cárceles y centros de detención, y todo uso no mencionado precedentemente.", "P_DO": "01/03/2014", "N_DOC": "190", "T_DO": "Resolución", "OBS": null }, "geometry": { "type": "Polygon", "coordinates": [ [ [ -72.1024525153572, -36.980668624619 ], [ -72.1024424504877, -36.980702693636403 ], [ -72.102239425630302, -36.981118070322097 ], [ -72.101665200026304, -36.981466864017399 ], [ -72.101268115865395, -36.981787181601902 ], [ -72.101035140986696, -36.982050756320703 ], [ -72.100851077788207, -36.982494245134802 ], [ -72.100766856843705, -36.9826156515769 ], [ -72.100639333474604, -36.982695277081199 ], [ -72.100485738958696, -36.982718365534801 ], [ -72.100411070877499, -36.982782304440804 ], [ -72.100354793619005, -36.982860067171401 ], [ -72.1003331723537, -36.982913082326597 ], [ -72.100340557878795, -36.982942658186403 ], [ -72.104405386729994, -36.982057953765 ], [ -72.104844931846699, -36.981992805052201 ], [ -72.106353525301998, -36.981820985135599 ], [ -72.105942051036706, -36.980143815974699 ], [ -72.105723518109599, -36.979352817701297 ], [ -72.102845689120997, -36.980621814193903 ], [ -72.102573598939202, -36.980736156747497 ], [ -72.1024525153572, -36.980668624619 ] ] ] } },
{ "type": "Feature", "properties": { "id": "monoparte.12", "Name": null, "description": null, "timestamp": null, "begin": null, "end": null, "altitudeMode": null, "tessellate": -1, "extrude": 0, "visibility": -1, "drawOrder": null, "icon": null, "REG": "Ñuble", "COM": "Pemuco", "LOC": "Pemuco", "ZONA": "ZE-5", "NOM": "ZE-5 Zona de Equipamiento de parque", "UPERM": "Residencial; Industria, bodegaje y talleres inofensiva; Equipamiento científico, comercio, culto y cultura, deporte, esparcimiento y social.", "UPROH": "Discotecas, centros de servicio automotor, grandes tiendas, supermercados y mercados, y todo uso no mencionado precedentemente.", "P_DO": "01/03/2014", "N_DOC": "190", "T_DO": "Resolución", "OBS": null }, "geometry": { "type": "Polygon", "coordinates": [ [ [ -72.090101390284104, -36.985245667735803 ], [ -72.090301128146194, -36.985278881019603 ], [ -72.090364050759504, -36.985291546117203 ], [ -72.090496518004301, -36.985370345865 ], [ -72.090597957531202, -36.985453530399298 ], [ -72.090904821159796, -36.985545666897202 ], [ -72.091504519157297, -36.985566989607698 ], [ -72.091624352417497, -36.985663998413202 ], [ -72.091700790168005, -36.9857168410566 ], [ -72.091761730807207, -36.985827305316903 ], [ -72.091899807006698, -36.986081190228703 ], [ -72.091909775113194, -36.9861071553876 ], [ -72.092021645708698, -36.986154304645602 ], [ -72.092425790566494, -36.985860058864702 ], [ -72.0930494734652, -36.985703131971803 ], [ -72.0932820741927, -36.985649383152897 ], [ -72.093833441797202, -36.9854681141532 ], [ -72.093956584007401, -36.9854267554689 ], [ -72.094346068209006, -36.985430898869097 ], [ -72.094388306711195, -36.985446485724701 ], [ -72.094830504886104, -36.985577993856097 ], [ -72.094914355762199, -36.985740309486303 ], [ -72.095323925623404, -36.985946575473903 ], [ -72.095596425638206, -36.9860705891045 ], [ -72.095668834864497, -36.986097308363497 ], [ -72.095876622683505, -36.986017977117797 ], [ -72.096072824116902, -36.985946099845101 ], [ -72.096332844742705, -36.9859822255181 ], [ -72.096383892975297, -36.985995197390501 ], [ -72.096453360865993, -36.986095901244099 ], [ -72.096516214664504, -36.986180087959198 ], [ -72.096517277500396, -36.986206285206499 ], [ -72.096697748453195, -36.986332699005501 ], [ -72.096771511112607, -36.986392759994203 ], [ -72.097493625722905, -36.986464498650598 ], [ -72.097703442223306, -36.986435176955403 ], [ -72.097738874067701, -36.986429483891698 ], [ -72.097860716055393, -36.985990009092802 ], [ -72.0980078691654, -36.985881264446498 ], [ -72.098163250824896, -36.985755616697702 ], [ -72.098354668310094, -36.985199886933103 ], [ -72.098400012311203, -36.9850723441075 ], [ -72.098528644653101, -36.984873487372496 ], [ -72.098735952833295, -36.984562904674199 ], [ -72.098697923175706, -36.9842849577349 ], [ -72.098759047821005, -36.984106936755303 ], [ -72.098777701626901, -36.984053999399698 ], [ -72.098831785957699, -36.983995366904999 ], [ -72.098898421339598, -36.983953096220503 ], [ -72.098959216770496, -36.983913362346598 ], [ -72.099049891710493, -36.983877615302703 ], [ -72.099253085817907, -36.983831776074197 ], [ -72.099401780115301, -36.983761134865297 ], [ -72.0995677046932, -36.983675739457503 ], [ -72.099634437172895, -36.983635849185099 ], [ -72.099654347514402, -36.983613872353402 ], [ -72.099634377685106, -36.983488036048001 ], [ -72.099684785967, -36.983338903935703 ], [ -72.099715893400898, -36.983299945584399 ], [ -72.099846290867802, -36.983217861669999 ], [ -72.099897598461993, -36.983164070691899 ], [ -72.099896631270596, -36.983140254340199 ], [ -72.0997699179498, -36.9830935004506 ], [ -72.099742943830606, -36.983063224562002 ], [ -72.095029188824796, -36.984138171026899 ], [ -72.090101390284104, -36.985245667735803 ] ] ] } },
{ "type": "Feature", "properties": { "id": "monoparte.13", "Name": null, "description": null, "timestamp": null, "begin": null, "end": null, "altitudeMode": null, "tessellate": -1, "extrude": 0, "visibility": -1, "drawOrder": null, "icon": null, "REG": "Ñuble", "COM": "Pemuco", "LOC": "Pemuco", "ZONA": "ZER-1", "NOM": "ZER-1 Zona de Crecimiento residencial", "UPERM": "Residencial; Industria, bodegaje y talleres inofensiva; Equipamiento científico, comercio, culto y cultura, deporte, educación, esparcimiento, salud, seguridad, servicio y social.", "UPROH": "Zoológico y parques de entretención, cementerios y crematorios, cárceles y centro de detención, y todo uso no mencionado precedentemente.", "P_DO": "01/03/2014", "N_DOC": "190", "T_DO": "Resolución", "OBS": null }, "geometry": { "type": "Polygon", "coordinates": [ [ [ -72.088554348574604, -36.985295773594203 ], [ -72.088815637455298, -36.985253206825398 ], [ -72.089026061495801, -36.985165474846497 ], [ -72.089134497720906, -36.985091126334702 ], [ -72.089910669918694, -36.985213954658803 ], [ -72.090101390284104, -36.985245667735803 ], [ -72.095029188824796, -36.984138171026899 ], [ -72.099742943830606, -36.983063224562002 ], [ -72.099713871467898, -36.9830305940215 ], [ -72.099687510958901, -36.9829669126228 ], [ -72.099694937525598, -36.982857049179003 ], [ -72.099726238171399, -36.982822853382999 ], [ -72.099931013250398, -36.982669686637202 ], [ -72.100237948478394, -36.982470935312797 ], [ -72.100430588387795, -36.982384840425503 ], [ -72.100591606413602, -36.982251888654702 ], [ -72.100714292222094, -36.982053185142 ], [ -72.100742012739602, -36.981930870731198 ], [ -72.1007898663796, -36.981865248421798 ], [ -72.100927148901306, -36.981668064358701 ], [ -72.100411215540902, -36.981839584449197 ], [ -72.099835432802706, -36.982040595502298 ], [ -72.099613513576401, -36.982064275497599 ], [ -72.099187051134294, -36.982100453762499 ], [ -72.098529327932795, -36.982149823392497 ], [ -72.098165350250397, -36.982187941036401 ], [ -72.097997879535498, -36.982235230374499 ], [ -72.096253325412505, -36.982634826716399 ], [ -72.095769196071402, -36.981249182875501 ], [ -72.095376512385997, -36.981348836088898 ], [ -72.094515444835594, -36.981550113782099 ], [ -72.093871838978899, -36.981727831835201 ], [ -72.092937343804493, -36.981877371384101 ], [ -72.092782225469193, -36.981459427972801 ], [ -72.092360347699596, -36.981938907089699 ], [ -72.092076735601296, -36.980769740903298 ], [ -72.091131782305794, -36.9809910619595 ], [ -72.089290694679704, -36.981428833773002 ], [ -72.088654141797605, -36.9805692495652 ], [ -72.088158890848803, -36.980667973487002 ], [ -72.088141512989097, -36.980679154229399 ], [ -72.088155331594294, -36.9808003845489 ], [ -72.087477077269099, -36.980893142121602 ], [ -72.087517206224106, -36.981113820311101 ], [ -72.087908161473194, -36.982734377844302 ], [ -72.088554348574604, -36.985295773594203 ] ] ] } },
{ "type": "Feature", "properties": { "id": "monoparte.14", "Name": null, "description": null, "timestamp": null, "begin": null, "end": null, "altitudeMode": null, "tessellate": -1, "extrude": 0, "visibility": -1, "drawOrder": null, "icon": null, "REG": "Ñuble", "COM": "Pemuco", "LOC": "Pemuco", "ZONA": "ZER-2", "NOM": "ZER-2 Zona de Crecimiento residencial", "UPERM": "Residencial; Industria, bodegaje y talleres inofensiva; Equipamiento científico, comercio, culto y cultura, deporte, educación, esparcimiento, salud, seguridad, servicio y social.", "UPROH": "Discotecas, cárceles y centros de detención, y todo uso no mencionado precedentemente.", "P_DO": "01/03/2014", "N_DOC": "190", "T_DO": "Resolución", "OBS": null }, "geometry": { "type": "Polygon", "coordinates": [ [ [ -72.088654141797605, -36.9805692495652 ], [ -72.0880847036603, -36.978363788840099 ], [ -72.087901499905399, -36.9775573633679 ], [ -72.087797541228596, -36.9776913547052 ], [ -72.0876658325151, -36.9780166399389 ], [ -72.087672574756994, -36.978183351970699 ], [ -72.087711552019798, -36.978504192868101 ], [ -72.087823176987897, -36.978784401357501 ], [ -72.087922948301497, -36.979047036358502 ], [ -72.087995398808502, -36.979185216930802 ], [ -72.088035560911607, -36.979443443983598 ], [ -72.088055844838607, -36.979669407214502 ], [ -72.0879950204762, -36.980094171120399 ], [ -72.087905646909803, -36.9802723269054 ], [ -72.087700759734702, -36.980441568561602 ], [ -72.087501147298099, -36.980649415468903 ], [ -72.087310237398796, -36.980705047402601 ], [ -72.086962993718799, -36.980752827630397 ], [ -72.086919146327901, -36.980587080408903 ], [ -72.086918664818, -36.9805751725318 ], [ -72.087150753387206, -36.980527409948003 ], [ -72.087242197405004, -36.9804922475087 ], [ -72.087383181996501, -36.980396193405099 ], [ -72.087550962842997, -36.980227918238697 ], [ -72.087686912817603, -36.980099212600798 ], [ -72.087764453369104, -36.979995869150898 ], [ -72.087785184449899, -36.979590029277603 ], [ -72.087594967840403, -36.979019813545499 ], [ -72.087461638667904, -36.978570301492503 ], [ -72.087385917559004, -36.978259357474599 ], [ -72.087404066464202, -36.978065175898998 ], [ -72.087448047088998, -36.977774956817399 ], [ -72.087673342857201, -36.977375712200498 ], [ -72.087849478280802, -36.977138675716802 ], [ -72.087974652121702, -36.977019191795399 ], [ -72.087990322698801, -36.976989559932598 ], [ -72.086643209681796, -36.9772106028298 ], [ -72.086918537394595, -36.978397881148297 ], [ -72.084722252622896, -36.978734410979897 ], [ -72.084898162157899, -36.979436606974197 ], [ -72.0854693837139, -36.981805865536103 ], [ -72.085938401909303, -36.983667578789003 ], [ -72.086187327667801, -36.9846791200805 ], [ -72.086531020132398, -36.986114491358499 ], [ -72.086824954283998, -36.9859630505144 ], [ -72.087300668581804, -36.9857110652055 ], [ -72.087444587977501, -36.9856322190372 ], [ -72.087805726011595, -36.9856335454852 ], [ -72.088077946913998, -36.985640762451098 ], [ -72.088135258699694, -36.985624965512102 ], [ -72.088446055993103, -36.985373693337301 ], [ -72.088554348574604, -36.985295773594203 ], [ -72.087908161473194, -36.982734377844302 ], [ -72.087517206224106, -36.981113820311101 ], [ -72.087477077269099, -36.980893142121602 ], [ -72.088155331594294, -36.9808003845489 ], [ -72.088141512989097, -36.980679154229399 ], [ -72.088158890848803, -36.980667973487002 ], [ -72.088654141797605, -36.9805692495652 ] ] ] } },
{ "type": "Feature", "properties": { "id": "monoparte.15", "Name": null, "description": null, "timestamp": null, "begin": null, "end": null, "altitudeMode": null, "tessellate": -1, "extrude": 0, "visibility": -1, "drawOrder": null, "icon": null, "REG": "Ñuble", "COM": "Pemuco", "LOC": "Pemuco", "ZONA": "ZE-6", "NOM": "ZE-6 Zona de Equipamiento", "UPERM": "Residencial; Industria, bodegaje y talleres inofensiva; Equipamiento científico, comercio, culto y cultura, deporte, educación, esparcimiento, salud, seguridad, servicio y social.", "UPROH": "Estadios, canchas y multicanchas, zoológicos y parques de entretención, cárceles y centro de detención, y todo uso no mencionado precedentemente.", "P_DO": "01/03/2014", "N_DOC": "190", "T_DO": "Resolución", "OBS": null }, "geometry": { "type": "Polygon", "coordinates": [ [ [ -72.088435036461107, -36.976879340585697 ], [ -72.089462534733698, -36.976729756150803 ], [ -72.089487930073801, -36.976806577767 ], [ -72.091367516630399, -36.976441709965997 ], [ -72.091004976045795, -36.9751935373313 ], [ -72.090903442923803, -36.975071016712597 ], [ -72.090720371851802, -36.974402274807403 ], [ -72.090643936668997, -36.974005127022103 ], [ -72.090515134372893, -36.974169568512302 ], [ -72.090445143632905, -36.974275696813201 ], [ -72.089912943463403, -36.974524993866801 ], [ -72.089775320155397, -36.974612022682599 ], [ -72.089501231435705, -36.974631083465198 ], [ -72.089191363155606, -36.974683855926401 ], [ -72.089147320530401, -36.9746969233871 ], [ -72.089145027362093, -36.975099302592298 ], [ -72.089137990981399, -36.975200811585601 ], [ -72.089009302545904, -36.975600521888502 ], [ -72.088837289875499, -36.976031162676499 ], [ -72.088504129258993, -36.976793814787897 ], [ -72.088435036461107, -36.976879340585697 ] ] ] } },
{ "type": "Feature", "properties": { "id": "monoparte.16", "Name": null, "description": null, "timestamp": null, "begin": null, "end": null, "altitudeMode": null, "tessellate": -1, "extrude": 0, "visibility": -1, "drawOrder": null, "icon": null, "REG": "Ñuble", "COM": "Pemuco", "LOC": "Pemuco", "ZONA": "ZER-1", "NOM": "ZER-1 Zona de Crecimiento residencial", "UPERM": "Residencial; Industria, bodegaje y talleres inofensiva; Equipamiento científico, comercio, culto y cultura, deporte, educación, esparcimiento, salud, seguridad, servicio y social.", "UPROH": "Zoológico y parques de entretención, cementerios y crematorios, cárceles y centro de detención, y todo uso no mencionado precedentemente.", "P_DO": "01/03/2014", "N_DOC": "190", "T_DO": "Resolución", "OBS": null }, "geometry": { "type": "Polygon", "coordinates": [ [ [ -72.090716022800805, -36.974379676373701 ], [ -72.090953618172406, -36.974344461263897 ], [ -72.091011502326793, -36.974247588697899 ], [ -72.091077591174596, -36.974177204034902 ], [ -72.0913212817307, -36.973972494554502 ], [ -72.091652352283603, -36.9736949370985 ], [ -72.091719211512398, -36.973643605201303 ], [ -72.092056006181295, -36.973566163661403 ], [ -72.092579160731205, -36.973453345525698 ], [ -72.093234937727701, -36.973306310945802 ], [ -72.094147983955807, -36.973106669053202 ], [ -72.097618609459801, -36.972338400165199 ], [ -72.097521368123395, -36.971918952060797 ], [ -72.097260563202397, -36.970879374917601 ], [ -72.0972239263711, -36.970708675759901 ], [ -72.095221888933693, -36.970870602975502 ], [ -72.094558562499699, -36.970926056468699 ], [ -72.094337035081907, -36.971031968230001 ], [ -72.094217002557102, -36.971149536714599 ], [ -72.093956134333098, -36.971604555289403 ], [ -72.093776975436, -36.971876249219903 ], [ -72.093690437801996, -36.971940493451001 ], [ -72.093287190705595, -36.972108361364597 ], [ -72.092673701870098, -36.972367538653799 ], [ -72.092205534998996, -36.972546631748898 ], [ -72.091936121110194, -36.972644251361899 ], [ -72.091411752557093, -36.973196729527899 ], [ -72.090916694160796, -36.9737210235999 ], [ -72.090712915086996, -36.9739170628377 ], [ -72.090643936668997, -36.974005127022103 ], [ -72.090716022800805, -36.974379676373701 ] ] ] } },
{ "type": "Feature", "properties": { "id": "monoparte.17", "Name": null, "description": null, "timestamp": null, "begin": null, "end": null, "altitudeMode": null, "tessellate": -1, "extrude": 0, "visibility": -1, "drawOrder": null, "icon": null, "REG": "Ñuble", "COM": "Pemuco", "LOC": "Pemuco", "ZONA": "ZE-1", "NOM": "ZE-1 Zona de Equipamiento", "UPERM": "Equipamiento de comercio, culto y cultura, deporte, esparcimiento, seguridad, servicio y social.", "UPROH": "Discotecas, talleres mecánicos, grandes tiendas, supermercados, mercados, zoológicos, parque de entretención, cárceles y centro de detención, y todo uso no mencionado precedentemente.", "P_DO": "01/03/2014", "N_DOC": "190", "T_DO": "Resolución", "OBS": null }, "geometry": { "type": "Polygon", "coordinates": [ [ [ -72.099625387442501, -36.971681909824298 ], [ -72.099669727545802, -36.9719248770257 ], [ -72.099679698130998, -36.971921787083303 ], [ -72.102664921330501, -36.971234031319 ], [ -72.102591299861601, -36.9710309237161 ], [ -72.102365084093407, -36.970436044247599 ], [ -72.101734916798705, -36.968673978353202 ], [ -72.101471658763401, -36.968776225855301 ], [ -72.101167234605398, -36.9688890860619 ], [ -72.100861842543594, -36.968978130039503 ], [ -72.100550319763599, -36.969062564076999 ], [ -72.100393330718006, -36.969147727702797 ], [ -72.100125292670896, -36.969278707392398 ], [ -72.099928295675397, -36.969403060538298 ], [ -72.099696260847395, -36.969542634512898 ], [ -72.099592502354298, -36.969621637578499 ], [ -72.099422671294406, -36.969683293854601 ], [ -72.099302650106296, -36.969800867924199 ], [ -72.099219212389102, -36.969941325910597 ], [ -72.099180802777397, -36.970028584433798 ], [ -72.099340634331497, -36.970471201562802 ], [ -72.099507960869005, -36.971116499764598 ], [ -72.099616822352601, -36.971602398009303 ], [ -72.099625387442501, -36.971681909824298 ] ] ] } },
{ "type": "Feature", "properties": { "id": "monoparte.18", "Name": null, "description": null, "timestamp": null, "begin": null, "end": null, "altitudeMode": null, "tessellate": -1, "extrude": 0, "visibility": -1, "drawOrder": null, "icon": null, "REG": "Ñuble", "COM": "Pemuco", "LOC": "Pemuco", "ZONA": "ZAP-1", "NOM": "ZAP-1 Zona de Actividad productiva mixta", "UPERM": "Residencial; Industria, bodegaje y talleres inofensiva, Equipamiento de comercio, seguridad y servicio.", "UPROH": "Discotecas, y todo uso no mencionado precedentemente.", "P_DO": "01/03/2014", "N_DOC": "190", "T_DO": "Resolución", "OBS": null }, "geometry": { "type": "Polygon", "coordinates": [ [ [ -72.104448363620804, -36.973442733951899 ], [ -72.105055525318505, -36.975684908526802 ], [ -72.105086302584098, -36.975564897421698 ], [ -72.105142570009093, -36.975487132834097 ], [ -72.105419904635596, -36.975146097548397 ], [ -72.105610581725799, -36.975012363690702 ], [ -72.105771769331298, -36.974884169307401 ], [ -72.1060047764974, -36.974768398654497 ], [ -72.106144541497599, -36.974697984097801 ], [ -72.106236232797997, -36.974614522846103 ], [ -72.106361605467796, -36.9744824980122 ], [ -72.106468392967201, -36.974331886689797 ], [ -72.106574211138906, -36.974157459950703 ], [ -72.1066107286277, -36.974032529642102 ], [ -72.106685466107706, -36.973907607483703 ], [ -72.106397906798904, -36.973032741273599 ], [ -72.104448363620804, -36.973442733951899 ] ] ] } },
{ "type": "Feature", "properties": { "id": "monoparte.19", "Name": null, "description": null, "timestamp": null, "begin": null, "end": null, "altitudeMode": null, "tessellate": -1, "extrude": 0, "visibility": -1, "drawOrder": null, "icon": null, "REG": "Ñuble", "COM": "Pemuco", "LOC": "Pemuco", "ZONA": "ZR-1", "NOM": "ZR-1 Zona Residencial", "UPERM": "Residencial; Equipamiento científico, comercio, excepto discotecas y similar, deporte, culto y cultura, educación, esparcimiento, salud, seguridad, servicios y social. Actividad productiva inofensiva. Mayor detalle en ordenanza.", "UPROH": "Todos aquellos no mencionados como permitidos.", "P_DO": "01/03/2014", "N_DOC": "190", "T_DO": "Resolución", "OBS": null }, "geometry": { "type": "Polygon", "coordinates": [ [ [ -72.100961744791903, -36.973693990616098 ], [ -72.091813473584295, -36.975840097021099 ], [ -72.093413231468901, -36.980414028601999 ], [ -72.093418318554896, -36.980434409012801 ], [ -72.102468545352593, -36.978308367364598 ], [ -72.100961744791903, -36.973693990616098 ] ], [ [ -72.093933315784795, -36.976528664451301 ], [ -72.099966453, -36.975086284410501 ], [ -72.099972994357202, -36.975102619417498 ], [ -72.100810113218401, -36.977569748388198 ], [ -72.0947775007877, -36.978881216910501 ], [ -72.093933315784795, -36.976528664451301 ] ] ] } },
{ "type": "Feature", "properties": { "id": "monoparte.20", "Name": null, "description": null, "timestamp": null, "begin": null, "end": null, "altitudeMode": null, "tessellate": -1, "extrude": 0, "visibility": -1, "drawOrder": null, "icon": null, "REG": "Ñuble", "COM": "Pemuco", "LOC": "Pemuco", "ZONA": "AV", "NOM": "Av Área verde", "UPERM": "Plaza", "UPROH": "Todos aquellos no mencionados como permitidos.", "P_DO": "01/03/2014", "N_DOC": "190", "T_DO": "Resolución", "OBS": null }, "geometry": { "type": "Polygon", "coordinates": [ [ [ -72.098002075017305, -36.976327096928102 ], [ -72.098354470782596, -36.977395510057796 ], [ -72.099709110198305, -36.977093095561401 ], [ -72.099356698571199, -36.976024687195299 ], [ -72.099352947058307, -36.976003816209797 ], [ -72.098002075017305, -36.976327096928102 ] ] ] } },
{ "type": "Feature", "properties": { "id": "monoparte.21", "Name": null, "description": null, "timestamp": null, "begin": null, "end": null, "altitudeMode": null, "tessellate": -1, "extrude": 0, "visibility": -1, "drawOrder": null, "icon": null, "REG": "Ñuble", "COM": "Pemuco", "LOC": "Pemuco", "ZONA": "ZCH", "NOM": "ZCH Zona de Conservación histórica", "UPERM": "Residencial; Equipamiento científico, comercio, culto y cultura, educación, esparcimiento, salud, seguridad, servicios y social.", "UPROH": "Discotecas,centros de servicio automotor, supermercados, zoológicos, parque de entretención, cementerios, crematorios, cárceles y centro de detención, y todo uso no mencionado precedentemente.", "P_DO": "01/03/2014", "N_DOC": "190", "T_DO": "Resolución", "OBS": null }, "geometry": { "type": "Polygon", "coordinates": [ [ [ -72.099966453, -36.975086284410501 ], [ -72.093933315784795, -36.976528664451301 ], [ -72.0947775007877, -36.978881216910501 ], [ -72.100810113218401, -36.977569748388198 ], [ -72.099972994357202, -36.975102619417498 ], [ -72.099966453, -36.975086284410501 ] ], [ [ -72.098002075017305, -36.976327096928102 ], [ -72.099352947058307, -36.976003816209797 ], [ -72.099356698571199, -36.976024687195299 ], [ -72.099709110198305, -36.977093095561401 ], [ -72.098354470782596, -36.977395510057796 ], [ -72.098002075017305, -36.976327096928102 ] ] ] } },
{ "type": "Feature", "properties": { "id": "monoparte.22", "Name": null, "description": null, "timestamp": null, "begin": null, "end": null, "altitudeMode": null, "tessellate": -1, "extrude": 0, "visibility": -1, "drawOrder": null, "icon": null, "REG": "Ñuble", "COM": "Pemuco", "LOC": "Pemuco", "ZONA": "ZD", "NOM": "ZD Zona de drenaje", "UPERM": "Equipamiento de deporte, sólo multicanchas y esparcimiento, sólo parques zoológicos.", "UPROH": "Todos aquellos no mencionados como permitidos.", "P_DO": "01/03/2014", "N_DOC": "190", "T_DO": "Resolución", "OBS": null }, "geometry": { "type": "Polygon", "coordinates": [ [ [ -72.101734916798705, -36.968673978353202 ], [ -72.102247928051696, -36.968447918769897 ], [ -72.102786462782205, -36.968181951895097 ], [ -72.102985175128197, -36.968050812787702 ], [ -72.103303181513496, -36.967765424385597 ], [ -72.1035035951233, -36.967483110939398 ], [ -72.103636522541905, -36.967278128323599 ], [ -72.104151696682706, -36.966823855446698 ], [ -72.104276092292295, -36.966710402660297 ], [ -72.104205477736201, -36.966500659207597 ], [ -72.103960412472503, -36.966516730728799 ], [ -72.103698759009802, -36.966781928220698 ], [ -72.103212343595501, -36.967241675088196 ], [ -72.102838515326795, -36.967638871384501 ], [ -72.102566672928603, -36.967803929346601 ], [ -72.102302369672401, -36.967971769400798 ], [ -72.102027418633497, -36.9681518086159 ], [ -72.101866715294094, -36.968218593732999 ], [ -72.101725612459504, -36.968219303571502 ], [ -72.101366014787303, -36.968327049781301 ], [ -72.1012080542598, -36.968369921545097 ], [ -72.101101428868304, -36.968396550792399 ], [ -72.100959032194993, -36.968456895461699 ], [ -72.100564628815704, -36.968622173015198 ], [ -72.100213414813297, -36.968753538317699 ], [ -72.100082389938294, -36.968819545387298 ], [ -72.099728672660703, -36.968980777020903 ], [ -72.099678906230693, -36.969035719684101 ], [ -72.099568966518206, -36.969163757917002 ], [ -72.099295540752195, -36.969290108024403 ], [ -72.099037558379706, -36.969430955201602 ], [ -72.0989843218575, -36.969491948889598 ], [ -72.0988607142029, -36.969557760866799 ], [ -72.098822439699006, -36.969621343478899 ], [ -72.098780937408407, -36.969696931690997 ], [ -72.098743663890303, -36.969876713936301 ], [ -72.098617178467094, -36.970076434663603 ], [ -72.098660452418599, -36.970276049529801 ], [ -72.098492963705795, -36.9702886804344 ], [ -72.098360992613493, -36.970331466123397 ], [ -72.098205309632206, -36.970339108941602 ], [ -72.098056936512506, -36.970399964051303 ], [ -72.097745404443998, -36.970484392009702 ], [ -72.097454526081705, -36.9704919880703 ], [ -72.097277788624496, -36.9705299808981 ], [ -72.096661379120405, -36.970569915461397 ], [ -72.095860748741998, -36.970609887434399 ], [ -72.094977974320201, -36.970675838141403 ], [ -72.094629469203298, -36.970727844843097 ], [ -72.094373626865604, -36.970720214625302 ], [ -72.094308906693101, -36.970736207624697 ], [ -72.094222949738906, -36.970814741732198 ], [ -72.094097753713797, -36.970951517971002 ], [ -72.0939184037139, -36.9712184485603 ], [ -72.093695273351202, -36.971724932381299 ], [ -72.093608156921306, -36.971774886985997 ], [ -72.093502845203005, -36.971815779020403 ], [ -72.093069723621198, -36.9719796576927 ], [ -72.092923241782401, -36.9720311598238 ], [ -72.092789982600706, -36.972115693958401 ], [ -72.092517143009403, -36.972275391356597 ], [ -72.092322589128301, -36.972313841408599 ], [ -72.092252316035399, -36.972339514223798 ], [ -72.092065048766997, -36.972411151753398 ], [ -72.091859972798204, -36.972483252299298 ], [ -72.091778789968899, -36.9725330509266 ], [ -72.091716188971205, -36.972601437453498 ], [ -72.091483976921893, -36.9728840479562 ], [ -72.091021628413998, -36.973353847623301 ], [ -72.0904597021634, -36.973859617048902 ], [ -72.089761996274206, -36.9743879950231 ], [ -72.089621637121098, -36.974444101320699 ], [ -72.089520135351904, -36.974432440507798 ], [ -72.089174846437302, -36.974417592918599 ], [ -72.088982020445997, -36.974498906629798 ], [ -72.088834181973894, -36.974517061289397 ], [ -72.088704346019099, -36.9745395146034 ], [ -72.088456161514998, -36.974574586450302 ], [ -72.088069507628902, -36.974565581224901 ], [ -72.087837592756401, -36.9745620817949 ], [ -72.087688020277696, -36.974537366134598 ], [ -72.087574453043402, -36.974521250105099 ], [ -72.087286218429597, -36.974447692211001 ], [ -72.087041468068904, -36.974420684459901 ], [ -72.086917568671097, -36.974442982215997 ], [ -72.086700029073299, -36.974501094588902 ], [ -72.086424086964996, -36.974584566203802 ], [ -72.086312060041394, -36.974606554401397 ], [ -72.086185495848696, -36.9747099803146 ], [ -72.086069841758004, -36.9747892813999 ], [ -72.086024658780801, -36.974847675696999 ], [ -72.085966669757099, -36.975030377687098 ], [ -72.085903483926501, -36.975084471793501 ], [ -72.085771366329993, -36.975197578822602 ], [ -72.085633312363996, -36.975310840141503 ], [ -72.085593102283596, -36.975345263173203 ], [ -72.085505622185593, -36.975533500663303 ], [ -72.085459474848605, -36.9755680790011 ], [ -72.08537693817, -36.975584530682902 ], [ -72.085277552409806, -36.975625261420802 ], [ -72.085182401882605, -36.975770783247697 ], [ -72.085094888971994, -36.975811205917502 ], [ -72.084922338102203, -36.975806156774802 ], [ -72.084682970910094, -36.975912515830402 ], [ -72.084542989707202, -36.975978142551099 ], [ -72.084479993425006, -36.9760370004282 ], [ -72.084244858946093, -36.976248149000298 ], [ -72.084132985517797, -36.976326813811397 ], [ -72.084171498524299, -36.976494380644702 ], [ -72.084394899700399, -36.976307694447399 ], [ -72.084603253786497, -36.976132407686798 ], [ -72.084763027859793, -36.976041827872798 ], [ -72.084887861633604, -36.976005799842 ], [ -72.085353079999706, -36.9758446918947 ], [ -72.085466883777102, -36.975719545670998 ], [ -72.085705380002295, -36.975463008982501 ], [ -72.085823374028493, -36.975349673843702 ], [ -72.085951314627593, -36.975298662692403 ], [ -72.086029696562704, -36.975216159440102 ], [ -72.086233852466705, -36.9750290587262 ], [ -72.0865667686314, -36.974719401139502 ], [ -72.086633557075302, -36.974717663144297 ], [ -72.087055823771095, -36.974688792805601 ], [ -72.087193831700404, -36.9747030819738 ], [ -72.087279653135596, -36.974712768649901 ], [ -72.088152346563902, -36.974800316258303 ], [ -72.088344807730095, -36.9747833848608 ], [ -72.088781192618001, -36.974736259702297 ], [ -72.088722804818303, -36.975312948795597 ], [ -72.088660134559206, -36.975508289902002 ], [ -72.088516382431806, -36.975994816528797 ], [ -72.087974652121702, -36.977019191795399 ], [ -72.087849478280802, -36.977138675716802 ], [ -72.087673342857201, -36.977375712200498 ], [ -72.087448047088998, -36.977774956817399 ], [ -72.087404066464202, -36.978065175898998 ], [ -72.087385917559004, -36.978259357474599 ], [ -72.087461638667904, -36.978570301492503 ], [ -72.087594967840403, -36.979019813545499 ], [ -72.087785184449899, -36.979590029277603 ], [ -72.087764453369104, -36.979995869150898 ], [ -72.087686912817603, -36.980099212600798 ], [ -72.087550962842997, -36.980227918238697 ], [ -72.087383181996501, -36.980396193405099 ], [ -72.087242197405004, -36.9804922475087 ], [ -72.087150753387206, -36.980527409948003 ], [ -72.086918664818, -36.9805751725318 ], [ -72.086919146327901, -36.980587080408903 ], [ -72.086962993718799, -36.980752827630397 ], [ -72.087310237398796, -36.980705047402601 ], [ -72.087501147298099, -36.980649415468903 ], [ -72.087700759734702, -36.980441568561602 ], [ -72.087905646909803, -36.9802723269054 ], [ -72.0879950204762, -36.980094171120399 ], [ -72.088055844838607, -36.979669407214502 ], [ -72.088035560911607, -36.979443443983598 ], [ -72.087995398808502, -36.979185216930802 ], [ -72.087922948301497, -36.979047036358502 ], [ -72.087823176987897, -36.978784401357501 ], [ -72.087711552019798, -36.978504192868101 ], [ -72.087672574756994, -36.978183351970699 ], [ -72.0876658325151, -36.9780166399389 ], [ -72.087797541228596, -36.9776913547052 ], [ -72.088245904302397, -36.977113454380202 ], [ -72.088504129258993, -36.976793814787897 ], [ -72.088837289875499, -36.976031162676499 ], [ -72.089009302545904, -36.975600521888502 ], [ -72.089137990981399, -36.975200811585601 ], [ -72.089145027362093, -36.975099302592298 ], [ -72.089147320530401, -36.9746969233871 ], [ -72.089191363155606, -36.974683855926401 ], [ -72.089501231435705, -36.974631083465198 ], [ -72.089775320155397, -36.974612022682599 ], [ -72.089912943463403, -36.974524993866801 ], [ -72.090445143632905, -36.974275696813201 ], [ -72.090515134372893, -36.974169568512302 ], [ -72.090712915086996, -36.9739170628377 ], [ -72.090916694160796, -36.9737210235999 ], [ -72.091411752557093, -36.973196729527899 ], [ -72.091936121110194, -36.972644251361899 ], [ -72.092205534998996, -36.972546631748898 ], [ -72.092673701870098, -36.972367538653799 ], [ -72.093287190705595, -36.972108361364597 ], [ -72.093690437801996, -36.971940493451001 ], [ -72.093776975436, -36.971876249219903 ], [ -72.093956134333098, -36.971604555289403 ], [ -72.094217002557102, -36.971149536714599 ], [ -72.094337035081907, -36.971031968230001 ], [ -72.094558562499699, -36.970926056468699 ], [ -72.095221888933693, -36.970870602975502 ], [ -72.0972239263711, -36.970708675759901 ], [ -72.097260563202397, -36.970879374917601 ], [ -72.097384259924198, -36.970852304171302 ], [ -72.097715728159201, -36.9708198065671 ], [ -72.097917756302294, -36.970819298889097 ], [ -72.098082427464206, -36.970776852637201 ], [ -72.098331365719403, -36.970760813483999 ], [ -72.098410470574393, -36.970806429652299 ], [ -72.098456771939496, -36.971215287272301 ], [ -72.098711317670293, -36.971337380534301 ], [ -72.098935738637095, -36.9713029083035 ], [ -72.098988393641505, -36.971282459486098 ], [ -72.099034144314302, -36.971238350262801 ], [ -72.099042481801206, -36.971004489646297 ], [ -72.099045931532601, -36.970503736123497 ], [ -72.099132157326906, -36.970139097827399 ], [ -72.099219212389102, -36.969941325910597 ], [ -72.099302650106296, -36.969800867924199 ], [ -72.099422671294406, -36.969683293854601 ], [ -72.099592502354298, -36.969621637578499 ], [ -72.099696260847395, -36.969542634512898 ], [ -72.099928295675397, -36.969403060538298 ], [ -72.100125292670896, -36.969278707392398 ], [ -72.100393330718006, -36.969147727702797 ], [ -72.100550319763599, -36.969062564076999 ], [ -72.100861842543594, -36.968978130039503 ], [ -72.101167234605398, -36.9688890860619 ], [ -72.101471658763401, -36.968776225855301 ], [ -72.101734916798705, -36.968673978353202 ] ] ] } }
]
}
