{
"type": "FeatureCollection",
"name": "IPT_16_PRC_El_Carmen",
"crs": { "type": "name", "properties": { "name": "urn:ogc:def:crs:OGC:1.3:CRS84" } },
"features": [
{ "type": "Feature", "properties": { "id": "monoparte.1", "Name": null, "description": null, "timestamp": null, "begin": null, "end": null, "altitudeMode": null, "tessellate": -1, "extrude": 0, "visibility": -1, "drawOrder": null, "icon": null, "REG": "Ñuble", "COM": "El Carmen", "LOC": "El Carmen", "ZONA": "ZM", "NOM": "ZM Zona Mixta", "UPERM": "Residencial; Actividades productivas inofensivas; Equipamiento de comercio, seguridad, servicios y social.", "UPROH": "Todos los usos de suelo no mencionados como permitidos.", "P_DO": "28/12/2009", "N_DOC": "147", "T_DO": "Resolución", "OBS": null }, "geometry": { "type": "Polygon", "coordinates": [ [ [ -72.058032700943897, -36.898156231869898 ], [ -72.055816210066496, -36.897660185592898 ], [ -72.055668849702997, -36.897835638102201 ], [ -72.053965109363801, -36.900072910616203 ], [ -72.052565988274495, -36.901911323949598 ], [ -72.052325903752205, -36.902442012676197 ], [ -72.052037516788502, -36.903250506189899 ], [ -72.054194459843004, -36.903738615122897 ], [ -72.054273778555498, -36.903345572583198 ], [ -72.054392865261306, -36.9030564088809 ], [ -72.054523053138396, -36.902747886766797 ], [ -72.055911799654595, -36.900947864373002 ], [ -72.058033842360999, -36.898184812307598 ], [ -72.058032700943897, -36.898156231869898 ] ] ] } },
{ "type": "Feature", "properties": { "id": "monoparte.2", "Name": null, "description": null, "timestamp": null, "begin": null, "end": null, "altitudeMode": null, "tessellate": -1, "extrude": 0, "visibility": -1, "drawOrder": null, "icon": null, "REG": "Ñuble", "COM": "El Carmen", "LOC": "El Carmen", "ZONA": "ZE-1", "NOM": "ZE-1 Zona de Equipamiento Comercio", "UPERM": "Residencial; Equipamiento científico, comercio, culto y cultura, deporte, esparcimiento, salud, seguridad, servicios y social.", "UPROH": "Actividades productivas, discotecas, estadios, canchas, zoológicos, parques de entretención, cementerio, crematorios, cárceles y centros de detención.", "P_DO": "28/12/2009", "N_DOC": "147", "T_DO": "Resolución", "OBS": null }, "geometry": { "type": "Polygon", "coordinates": [ [ [ -72.021668892502703, -36.895246720781898 ], [ -72.021556415887801, -36.897860461153599 ], [ -72.021476931738903, -36.900359913563697 ], [ -72.022738973442003, -36.900369506548003 ], [ -72.023325627141205, -36.900378407944601 ], [ -72.024870579756197, -36.900410574635799 ], [ -72.027767954839106, -36.9004857191985 ], [ -72.027783247382999, -36.9001217425824 ], [ -72.027895126933402, -36.897883722904197 ], [ -72.0279370364117, -36.8966438757517 ], [ -72.027989361557403, -36.895414689547202 ], [ -72.024405139991302, -36.895305786945897 ], [ -72.021668892502703, -36.895246720781898 ] ], [ [ -72.023916433608406, -36.898415286787198 ], [ -72.023901505633503, -36.897285565507303 ], [ -72.024876264084895, -36.897313183815598 ], [ -72.025411940431994, -36.897340249292199 ], [ -72.025360893155096, -36.898459544130702 ], [ -72.023916433608406, -36.898415286787198 ] ] ] } },
{ "type": "Feature", "properties": { "id": "monoparte.3", "Name": null, "description": null, "timestamp": null, "begin": null, "end": null, "altitudeMode": null, "tessellate": -1, "extrude": 0, "visibility": -1, "drawOrder": null, "icon": null, "REG": "Ñuble", "COM": "El Carmen", "LOC": "El Carmen", "ZONA": "ZE-3", "NOM": "ZE-3 Zona de Equipamiento Esparcimiento", "UPERM": "Equipamiento de comercio, culto y cultura, deporte, esparcimiento y social.", "UPROH": "Residencial, actividades productivas, estaciones o centros de servicio automotor, talleres mecánicos, grandes tiendas, supermercados, mercados, zoológicos y parques de entretención.", "P_DO": "28/12/2009", "N_DOC": "147", "T_DO": "Resolución", "OBS": null }, "geometry": { "type": "Polygon", "coordinates": [ [ [ -72.024986952886493, -36.893542522429797 ], [ -72.025473708325904, -36.8936210767598 ], [ -72.025768032674605, -36.893632649110103 ], [ -72.026137902979897, -36.8936780571741 ], [ -72.026133940485195, -36.893640125228004 ], [ -72.026123006296601, -36.893639098249402 ], [ -72.026122207751996, -36.893527803255601 ], [ -72.026110507733193, -36.891895389388701 ], [ -72.026081230434102, -36.8919056720745 ], [ -72.025900040663501, -36.891940092751298 ], [ -72.025648695814596, -36.891964380454503 ], [ -72.025412177087603, -36.891988289792003 ], [ -72.025271795761498, -36.892003787984301 ], [ -72.025176834133902, -36.892041970969203 ], [ -72.025074458641399, -36.892080341896403 ], [ -72.024998799164095, -36.892102204965802 ], [ -72.024986952886493, -36.893542522429797 ] ] ] } },
{ "type": "Feature", "properties": { "id": "monoparte.4", "Name": null, "description": null, "timestamp": null, "begin": null, "end": null, "altitudeMode": null, "tessellate": -1, "extrude": 0, "visibility": -1, "drawOrder": null, "icon": null, "REG": "Ñuble", "COM": "El Carmen", "LOC": "El Carmen", "ZONA": "ZE-4", "NOM": "ZE-4 Zona de Equipamiento Comercio y Servicios", "UPERM": "Residencial; Equipamiento científico, comercio, culto y cultura, deporte, esparcimiento, salud, seguridad, servicios y social.", "UPROH": "Actividades productivas, discotecas, estadios, canchas, zoológicos, parques de entretención, cementerio, crematorios, cárceles y centros de detención.", "P_DO": "28/12/2009", "N_DOC": "147", "T_DO": "Resolución", "OBS": null }, "geometry": { "type": "Polygon", "coordinates": [ [ [ -72.037928753422307, -36.896425749445299 ], [ -72.037864267579906, -36.897784573224897 ], [ -72.040398928592595, -36.897169073208197 ], [ -72.040768193272598, -36.897123851993797 ], [ -72.041822440599603, -36.8970218734 ], [ -72.041626594784006, -36.895995104377299 ], [ -72.039246494284399, -36.896120223666003 ], [ -72.037928753422307, -36.896425749445299 ] ] ] } },
{ "type": "Feature", "properties": { "id": "monoparte.5", "Name": null, "description": null, "timestamp": null, "begin": null, "end": null, "altitudeMode": null, "tessellate": -1, "extrude": 0, "visibility": -1, "drawOrder": null, "icon": null, "REG": "Ñuble", "COM": "El Carmen", "LOC": "El Carmen", "ZONA": "ZE-4", "NOM": "ZE-4 Zona de Equipamiento Comercio y Servicios", "UPERM": "Residencial; Equipamiento científico, comercio, culto y cultura, deporte, esparcimiento, salud, seguridad, servicios y social.", "UPROH": "Actividades productivas, discotecas, estadios, canchas, zoológicos, parques de entretención, cementerio, crematorios, cárceles y centros de detención.", "P_DO": "28/12/2009", "N_DOC": "147", "T_DO": "Resolución", "OBS": null }, "geometry": { "type": "Polygon", "coordinates": [ [ [ -71.998833365527702, -36.896620755524097 ], [ -71.998366511281105, -36.898037833029399 ], [ -71.998782417000498, -36.897963654920602 ], [ -72.000860568680906, -36.897589273977303 ], [ -72.003699610954499, -36.897088318000399 ], [ -72.004912288423, -36.896900271636603 ], [ -72.0062195117101, -36.896814484439197 ], [ -72.006675841247201, -36.895508311507598 ], [ -72.006122967101803, -36.895536354106298 ], [ -72.005352638601295, -36.895573739061298 ], [ -72.004657614807698, -36.8956390163778 ], [ -72.003470070217801, -36.895824040477798 ], [ -72.002246150298802, -36.8960278534528 ], [ -71.998833365527702, -36.896620755524097 ] ] ] } },
{ "type": "Feature", "properties": { "id": "monoparte.6", "Name": null, "description": null, "timestamp": null, "begin": null, "end": null, "altitudeMode": null, "tessellate": -1, "extrude": 0, "visibility": -1, "drawOrder": null, "icon": null, "REG": "Ñuble", "COM": "El Carmen", "LOC": "El Carmen", "ZONA": "ZE-5", "NOM": "ZE-5 Zona de Equipamiento Deporte", "UPERM": "Equipamiento de comercio (restaurantes, kioscos y afines), deporte, esparcimiento, seguridad y social.", "UPROH": "Todos los usos de suelo no mencionados como permitidos, en especual cárceles y centros de detención.", "P_DO": "28/12/2009", "N_DOC": "147", "T_DO": "Resolución", "OBS": null }, "geometry": { "type": "Polygon", "coordinates": [ [ [ -72.031805334434907, -36.894404154601098 ], [ -72.0319430090086, -36.894443911253298 ], [ -72.032247431805004, -36.894448056533498 ], [ -72.032552278078299, -36.894445726594903 ], [ -72.032163961289001, -36.890666478683201 ], [ -72.032043279808505, -36.890674708973101 ], [ -72.031883490554307, -36.890762236670398 ], [ -72.031704998875497, -36.890939647542702 ], [ -72.031513327827497, -36.891159118540898 ], [ -72.031332712282193, -36.891282938565702 ], [ -72.031172686382604, -36.891364510575301 ], [ -72.030961475006393, -36.8914652707291 ], [ -72.030712725825694, -36.891555067216203 ], [ -72.030405141395903, -36.891658286680297 ], [ -72.030020424542997, -36.891735591180201 ], [ -72.030008292937396, -36.892431352649702 ], [ -72.030054422084206, -36.892471898212499 ], [ -72.030139972412499, -36.892571042017401 ], [ -72.030188928766904, -36.892683041433997 ], [ -72.0302191777849, -36.892884924123798 ], [ -72.030225429430203, -36.893230470577798 ], [ -72.030271086889798, -36.893259107369801 ], [ -72.030294269576899, -36.893282357031403 ], [ -72.030284390624502, -36.893407778013596 ], [ -72.0302688301892, -36.8937001717849 ], [ -72.030443768214596, -36.893752276631602 ], [ -72.0309473217998, -36.893875319374203 ], [ -72.031275499335806, -36.894067210385103 ], [ -72.031522765495595, -36.894239709592703 ], [ -72.031805334434907, -36.894404154601098 ] ] ] } },
{ "type": "Feature", "properties": { "id": "monoparte.7", "Name": null, "description": null, "timestamp": null, "begin": null, "end": null, "altitudeMode": null, "tessellate": -1, "extrude": 0, "visibility": -1, "drawOrder": null, "icon": null, "REG": "Ñuble", "COM": "El Carmen", "LOC": "El Carmen", "ZONA": "ZE-6", "NOM": "ZE-6 Zona de Equipamiento Esparcimiento", "UPERM": "Equipamiento de comercio, culto y cultura, deporte, esparcimiento y social. Más detalle revisar Ordenanza.", "UPROH": "Todos los usos de suelo no mencionados como permitidos.", "P_DO": "28/12/2009", "N_DOC": "147", "T_DO": "Resolución", "OBS": null }, "geometry": { "type": "Polygon", "coordinates": [ [ [ -72.026110507733193, -36.891895389388701 ], [ -72.026123006296601, -36.893639098249402 ], [ -72.026622058618301, -36.893685980405401 ], [ -72.026669715226404, -36.8939529856614 ], [ -72.026651826875195, -36.8942514642562 ], [ -72.026668066667597, -36.894286812373899 ], [ -72.026719960834996, -36.894285489285302 ], [ -72.026845989833504, -36.894282275967697 ], [ -72.026972018812003, -36.894279062516603 ], [ -72.027184655652604, -36.894214035964097 ], [ -72.027453775442396, -36.894076043395899 ], [ -72.027532970024097, -36.894014419237401 ], [ -72.027667469346994, -36.893850057093999 ], [ -72.027904344121097, -36.893647320612303 ], [ -72.028230413588105, -36.893448269282601 ], [ -72.028480349340001, -36.893388249821903 ], [ -72.028691792551498, -36.893360682974098 ], [ -72.029148316896993, -36.893420560190997 ], [ -72.029922141330999, -36.893622540932903 ], [ -72.03020046396, -36.893679809180597 ], [ -72.0302688301892, -36.8937001717849 ], [ -72.030284390624502, -36.893407778013596 ], [ -72.030294269576899, -36.893282357031403 ], [ -72.030271086889798, -36.893259107369801 ], [ -72.030225429430203, -36.893230470577798 ], [ -72.0302191777849, -36.892884924123798 ], [ -72.030188928766904, -36.892683041433997 ], [ -72.030139972412499, -36.892571042017401 ], [ -72.030054422084206, -36.892471898212499 ], [ -72.030008292937396, -36.892431352649702 ], [ -72.030020424542997, -36.891735591180201 ], [ -72.029963411224898, -36.891747046795501 ], [ -72.029653705076598, -36.891796674826203 ], [ -72.029245742162999, -36.891801124628799 ], [ -72.029051114993507, -36.891758406964399 ], [ -72.028900495726006, -36.891702645454899 ], [ -72.028767641573495, -36.891533182343501 ], [ -72.028742106386005, -36.8914503878853 ], [ -72.028784465674903, -36.891395662605603 ], [ -72.028819412427893, -36.891341127329603 ], [ -72.028816351344403, -36.8912637194084 ], [ -72.028819997519903, -36.891168259737199 ], [ -72.028854708671602, -36.891107769653097 ], [ -72.028904716796006, -36.891058809995698 ], [ -72.028962609402896, -36.891021569869999 ], [ -72.029013088390698, -36.890984519774101 ], [ -72.029145347841194, -36.890951342905304 ], [ -72.029482112486207, -36.890835461377797 ], [ -72.029635668957894, -36.890777899066499 ], [ -72.029663436774399, -36.890729506667398 ], [ -72.029685787380302, -36.890544162020198 ], [ -72.029682490004504, -36.890460800253202 ], [ -72.029641656135794, -36.890366474796103 ], [ -72.029509275065095, -36.890208921120397 ], [ -72.029402195482703, -36.890128207668901 ], [ -72.029303941455495, -36.890083031070198 ], [ -72.029229575382899, -36.8900789687263 ], [ -72.029148032388207, -36.890081049367602 ], [ -72.029052839741496, -36.890113280469002 ], [ -72.0289449402907, -36.890199479382503 ], [ -72.028822450128203, -36.890292011263398 ], [ -72.028668780410499, -36.890534349714898 ], [ -72.028385910842601, -36.890887271226497 ], [ -72.028257182424795, -36.891009763934697 ], [ -72.027952185740105, -36.891178475462198 ], [ -72.027756267127899, -36.891290760641397 ], [ -72.027516339008798, -36.891416088571397 ], [ -72.026880332572404, -36.891658803724503 ], [ -72.026264209134993, -36.891841403257402 ], [ -72.026110507733193, -36.891895389388701 ] ] ] } },
{ "type": "Feature", "properties": { "id": "monoparte.8", "Name": null, "description": null, "timestamp": null, "begin": null, "end": null, "altitudeMode": null, "tessellate": -1, "extrude": 0, "visibility": -1, "drawOrder": null, "icon": null, "REG": "Ñuble", "COM": "El Carmen", "LOC": "El Carmen", "ZONA": "ZE-7", "NOM": "ZE-7 Zona de Equipamiento Comercio", "UPERM": "Residencial; Equipamiento de comercio, seguridad y servicios.", "UPROH": "Actividades productivas, servicentros, estaciones o centros de servicio automotor, grandes tiendas, cárceles y centros de detención.", "P_DO": "28/12/2009", "N_DOC": "147", "T_DO": "Resolución", "OBS": null }, "geometry": { "type": "Polygon", "coordinates": [ [ [ -72.007316246699702, -36.898561054113301 ], [ -72.005670877953904, -36.898482173327999 ], [ -72.005417140209005, -36.899114086601998 ], [ -72.005258581158202, -36.901278177440197 ], [ -72.005796151981599, -36.901291191735901 ], [ -72.007316246699702, -36.898561054113301 ] ] ] } },
{ "type": "Feature", "properties": { "id": "monoparte.9", "Name": null, "description": null, "timestamp": null, "begin": null, "end": null, "altitudeMode": null, "tessellate": -1, "extrude": 0, "visibility": -1, "drawOrder": null, "icon": null, "REG": "Ñuble", "COM": "El Carmen", "LOC": "El Carmen", "ZONA": "ZE-8", "NOM": "ZE-8 Zona de Equipamiento Comercio", "UPERM": "Equipamiento de comercio, culto y cultura, deporte, esparcimiento y salud.", "UPROH": "Todos los usos de suelo no mencionados como permitidos.", "P_DO": "28/12/2009", "N_DOC": "147", "T_DO": "Resolución", "OBS": null }, "geometry": { "type": "Polygon", "coordinates": [ [ [ -72.002058825162393, -36.901969733968301 ], [ -72.002112208678, -36.901968383889901 ], [ -72.002202303068898, -36.901994715575498 ], [ -72.002311591886595, -36.9020563240773 ], [ -72.002430058932603, -36.902124853339302 ], [ -72.002497663394394, -36.902259042482399 ], [ -72.002579210065605, -36.902521624993199 ], [ -72.002662719048402, -36.902834226155697 ], [ -72.002710569281803, -36.902918846469703 ], [ -72.002818178350694, -36.902937582502098 ], [ -72.002907151936398, -36.9029353317393 ], [ -72.002976368892007, -36.902883512353498 ], [ -72.003079774878998, -36.902795065651503 ], [ -72.003165665115702, -36.902714214111299 ], [ -72.0032254232664, -36.9026483296729 ], [ -72.003312155183806, -36.902588913960599 ], [ -72.003426698471003, -36.9025574056501 ], [ -72.003497876947506, -36.902555604696502 ], [ -72.0036410760042, -36.9025734394761 ], [ -72.003758702859102, -36.902620531403599 ], [ -72.003885509187498, -36.9026745430265 ], [ -72.004461699701693, -36.901243751905703 ], [ -72.004600604449294, -36.900811796389597 ], [ -72.004794832319504, -36.898498984161002 ], [ -72.002200967754604, -36.898364339414499 ], [ -72.002105037005407, -36.900763355735599 ], [ -72.002058825162393, -36.901969733968301 ] ] ] } },
{ "type": "Feature", "properties": { "id": "monoparte.10", "Name": null, "description": null, "timestamp": null, "begin": null, "end": null, "altitudeMode": null, "tessellate": -1, "extrude": 0, "visibility": -1, "drawOrder": null, "icon": null, "REG": "Ñuble", "COM": "El Carmen", "LOC": "El Carmen", "ZONA": "ZE-9", "NOM": "ZE-9 Zona de Equipamiento Comercio e infraestructura", "UPERM": "Residencial; Equipamiento de comercio, servicios y social.", "UPROH": "Todos los usos de suelo no mencionados como permitidos.", "P_DO": "28/12/2009", "N_DOC": "147", "T_DO": "Resolución", "OBS": null }, "geometry": { "type": "Polygon", "coordinates": [ [ [ -72.005670877953904, -36.898482173327999 ], [ -72.007316246699702, -36.898561054113301 ], [ -72.007592010703107, -36.898065751273798 ], [ -72.008398062361806, -36.896670268465598 ], [ -72.008324644554094, -36.896675325238697 ], [ -72.006343798377003, -36.896806269128597 ], [ -72.005670877953904, -36.898482173327999 ] ] ] } },
{ "type": "Feature", "properties": { "id": "monoparte.11", "Name": null, "description": null, "timestamp": null, "begin": null, "end": null, "altitudeMode": null, "tessellate": -1, "extrude": 0, "visibility": -1, "drawOrder": null, "icon": null, "REG": "Ñuble", "COM": "El Carmen", "LOC": "El Carmen", "ZONA": "ZEP", "NOM": "ZEP Zona de Espacio Público", "UPERM": "Sólo se permite el uso de espacio público sin cinstrucciones. Se protege especialmente la arborización y el mobiliario urbano.", "UPROH": "Todos los usos de suelo no mencionados como permitidos.", "P_DO": "28/12/2009", "N_DOC": "147", "T_DO": "Resolución", "OBS": null }, "geometry": { "type": "Polygon", "coordinates": [ [ [ -72.023916433608406, -36.898415286787198 ], [ -72.025360893155096, -36.898459544130702 ], [ -72.025411940431994, -36.897340249292199 ], [ -72.024876264084895, -36.897313183815598 ], [ -72.023901505633503, -36.897285565507303 ], [ -72.023916433608406, -36.898415286787198 ] ] ] } },
{ "type": "Feature", "properties": { "id": "monoparte.12", "Name": null, "description": null, "timestamp": null, "begin": null, "end": null, "altitudeMode": null, "tessellate": -1, "extrude": 0, "visibility": -1, "drawOrder": null, "icon": null, "REG": "Ñuble", "COM": "El Carmen", "LOC": "El Carmen", "ZONA": "ZCH", "NOM": "ZCH Zona de Conservación Histórica", "UPERM": "Residencial; Equipamiento científico, comercio, culto y cultura, educación, esparcimiento, salud, seguridad, servicios y social.", "UPROH": "Todos los usos de suelo no mencionados como permitidos.", "P_DO": "28/12/2009", "N_DOC": "147", "T_DO": "Resolución", "OBS": null }, "geometry": { "type": "Polygon", "coordinates": [ [ [ -72.017602842278706, -36.897411154802398 ], [ -72.019127260549695, -36.897451072648003 ], [ -72.019150689506603, -36.896900817068797 ], [ -72.017634540261398, -36.896859602371599 ], [ -72.017602842278706, -36.897411154802398 ] ] ] } },
{ "type": "Feature", "properties": { "id": "monoparte.13", "Name": null, "description": null, "timestamp": null, "begin": null, "end": null, "altitudeMode": null, "tessellate": -1, "extrude": 0, "visibility": -1, "drawOrder": null, "icon": null, "REG": "Ñuble", "COM": "El Carmen", "LOC": "El Carmen", "ZONA": "ZES-1", "NOM": "ZES-1 Zona de Equipamiento de Salud/ Hospital\na de Equipamiento de Salud/ Cementerio", "UPERM": "Equipamiento científico, salud y social.", "UPROH": "Todos los usos de suelo no mencionados como permitidos.", "P_DO": "28/12/2009", "N_DOC": "147", "T_DO": "Resolución", "OBS": null }, "geometry": { "type": "Polygon", "coordinates": [ [ [ -72.034336970919796, -36.897850365474902 ], [ -72.034324503103804, -36.897910288526496 ], [ -72.034261628472194, -36.898758277338899 ], [ -72.035449970401601, -36.898781539815701 ], [ -72.035476610213493, -36.898143093289399 ], [ -72.035527590327206, -36.897650649942399 ], [ -72.034343091645695, -36.897630269602502 ], [ -72.034336970919796, -36.897850365474902 ] ] ] } },
{ "type": "Feature", "properties": { "id": "monoparte.14", "Name": null, "description": null, "timestamp": null, "begin": null, "end": null, "altitudeMode": null, "tessellate": -1, "extrude": 0, "visibility": -1, "drawOrder": null, "icon": null, "REG": "Ñuble", "COM": "El Carmen", "LOC": "El Carmen", "ZONA": "ZES-2", "NOM": "ZES-2 Zona de Equipamiento de Salud/ Cementerio", "UPERM": "Equipamiento de culto, cementerios y crematorios.", "UPROH": "Todos los usos de suelo no mencionados como permitidos.", "P_DO": "28/12/2009", "N_DOC": "147", "T_DO": "Resolución", "OBS": null }, "geometry": { "type": "Polygon", "coordinates": [ [ [ -72.030162786376906, -36.901922538163397 ], [ -72.032348861785707, -36.902014715437602 ], [ -72.033013645984198, -36.902041856461899 ], [ -72.033076067767297, -36.901150814382497 ], [ -72.033105692161499, -36.900774549814102 ], [ -72.032861263529497, -36.900786755920201 ], [ -72.032843471160504, -36.9005249516782 ], [ -72.032456997574698, -36.9005109829288 ], [ -72.032403212899695, -36.900464674132699 ], [ -72.031263678202606, -36.900362648460501 ], [ -72.031070205536295, -36.9003497082292 ], [ -72.031025721961697, -36.9003508440817 ], [ -72.030988887445901, -36.900357744507602 ], [ -72.030956060042996, -36.900465870794299 ], [ -72.030945625307396, -36.901139666108797 ], [ -72.030210213771497, -36.901122679389601 ], [ -72.030132573109896, -36.901786269592101 ], [ -72.030162786376906, -36.901922538163397 ] ] ] } },
{ "type": "Feature", "properties": { "id": "monoparte.15", "Name": null, "description": null, "timestamp": null, "begin": null, "end": null, "altitudeMode": null, "tessellate": -1, "extrude": 0, "visibility": -1, "drawOrder": null, "icon": null, "REG": "Ñuble", "COM": "El Carmen", "LOC": "El Carmen", "ZONA": "ZR", "NOM": "ZR Zona Residencial", "UPERM": "Residencial; Equipamiento científico, comercio, culto y cultura, deporte, esparcimiento, salud, seguridad, servicios y social.", "UPROH": "Actividades productivas, estaciones o centros de servicios automotor, talleres mecánicos, mercados, discotecas, estadios, canchas, zoológicos, parques de entretención, cementerio, crematorios, cárceles y centros de detención.", "P_DO": "28/12/2009", "N_DOC": "147", "T_DO": "Resolución", "OBS": null }, "geometry": { "type": "Polygon", "coordinates": [ [ [ -72.020716696738006, -36.899073922316298 ], [ -72.020732348744502, -36.901659875442498 ], [ -72.024468610475907, -36.9017544207396 ], [ -72.025240296983895, -36.901766095023497 ], [ -72.025256387593501, -36.902323582262603 ], [ -72.025020895831801, -36.903726712167703 ], [ -72.024836437136599, -36.904618326726997 ], [ -72.024833704857798, -36.904699457908499 ], [ -72.024888395540003, -36.904828193613803 ], [ -72.024990157417093, -36.904751976500798 ], [ -72.025275586463493, -36.904311973884496 ], [ -72.025296981845301, -36.904289970590298 ], [ -72.025600339387296, -36.904303696626101 ], [ -72.0257434635799, -36.904339287901102 ], [ -72.0257083873216, -36.904204754139002 ], [ -72.025947655999005, -36.902935041724703 ], [ -72.026042867072107, -36.902527304135397 ], [ -72.026071701273096, -36.902317953490297 ], [ -72.026101948803401, -36.901768821587197 ], [ -72.026978473497294, -36.901788196192101 ], [ -72.030162786376906, -36.901922538163397 ], [ -72.030132573109896, -36.901786269592101 ], [ -72.030210213771497, -36.901122679389601 ], [ -72.030945625307396, -36.901139666108797 ], [ -72.030956060042996, -36.900465870794299 ], [ -72.030988887445901, -36.900357744507602 ], [ -72.031025721961697, -36.9003508440817 ], [ -72.031070205536295, -36.9003497082292 ], [ -72.031263678202606, -36.900362648460501 ], [ -72.032403212899695, -36.900464674132699 ], [ -72.032456997574698, -36.9005109829288 ], [ -72.032843471160504, -36.9005249516782 ], [ -72.032861263529497, -36.900786755920201 ], [ -72.033105692161499, -36.900774549814102 ], [ -72.033076067767297, -36.901150814382497 ], [ -72.035398898297302, -36.900960310449101 ], [ -72.035864096027296, -36.900900730297799 ], [ -72.0358349650446, -36.899604486227098 ], [ -72.035705821459999, -36.898219008770297 ], [ -72.035706673261302, -36.898143170013803 ], [ -72.035476610213493, -36.898143093289399 ], [ -72.035449970401601, -36.898781539815701 ], [ -72.034261628472194, -36.898758277338899 ], [ -72.034324503103804, -36.897910288526496 ], [ -72.034336970919796, -36.897850365474902 ], [ -72.032458218626104, -36.897820888997103 ], [ -72.032437996127896, -36.898059823136897 ], [ -72.030431552992994, -36.897991852611902 ], [ -72.027895126933402, -36.897883722904197 ], [ -72.027783247382999, -36.9001217425824 ], [ -72.027767954839106, -36.9004857191985 ], [ -72.024870579756197, -36.900410574635799 ], [ -72.023325627141205, -36.900378407944601 ], [ -72.022738973442003, -36.900369506548003 ], [ -72.021476931738903, -36.900359913563697 ], [ -72.021556415887801, -36.897860461153599 ], [ -72.020303237213795, -36.897886391443201 ], [ -72.019195517195399, -36.897837083714997 ], [ -72.018537943696401, -36.8978359256445 ], [ -72.0184829722769, -36.899077098374001 ], [ -72.020716696738006, -36.899073922316298 ] ] ] } },
{ "type": "Feature", "properties": { "id": "monoparte.16", "Name": null, "description": null, "timestamp": null, "begin": null, "end": null, "altitudeMode": null, "tessellate": -1, "extrude": 0, "visibility": -1, "drawOrder": null, "icon": null, "REG": "Ñuble", "COM": "El Carmen", "LOC": "El Carmen", "ZONA": "ZR", "NOM": "ZR Zona Residencial", "UPERM": "Residencial; Equipamiento científico, comercio, culto y cultura, deporte, esparcimiento, salud, seguridad, servicios y social.", "UPROH": "Actividades productivas, estaciones o centros de servicios automotor, talleres mecánicos, mercados, discotecas, estadios, canchas, zoológicos, parques de entretención, cementerio, crematorios, cárceles y centros de detención.", "P_DO": "28/12/2009", "N_DOC": "147", "T_DO": "Resolución", "OBS": null }, "geometry": { "type": "Polygon", "coordinates": [ [ [ -72.005108827228895, -36.901274551600999 ], [ -72.005258581158202, -36.901278177440197 ], [ -72.005417140209005, -36.899114086601998 ], [ -72.006343798377003, -36.896806269128597 ], [ -72.0062195117101, -36.896814484439197 ], [ -72.004912288423, -36.896900271636603 ], [ -72.004794832319504, -36.898498984161002 ], [ -72.004600604449294, -36.900811796389597 ], [ -72.004461699701693, -36.901243751905703 ], [ -72.005108827228895, -36.901274551600999 ] ] ] } },
{ "type": "Feature", "properties": { "id": "monoparte.17", "Name": null, "description": null, "timestamp": null, "begin": null, "end": null, "altitudeMode": null, "tessellate": -1, "extrude": 0, "visibility": -1, "drawOrder": null, "icon": null, "REG": "Ñuble", "COM": "El Carmen", "LOC": "El Carmen", "ZONA": "ZR", "NOM": "ZR Zona Residencial", "UPERM": "Residencial; Equipamiento científico, comercio, culto y cultura, deporte, esparcimiento, salud, seguridad, servicios y social.", "UPROH": "Actividades productivas, estaciones o centros de servicios automotor, talleres mecánicos, mercados, discotecas, estadios, canchas, zoológicos, parques de entretención, cementerio, crematorios, cárceles y centros de detención.", "P_DO": "28/12/2009", "N_DOC": "147", "T_DO": "Resolución", "OBS": null }, "geometry": { "type": "Polygon", "coordinates": [ [ [ -72.019086130441195, -36.896407846926202 ], [ -72.021618552736797, -36.896416520556997 ], [ -72.021668892502703, -36.895246720781898 ], [ -72.016497994831596, -36.895136112667799 ], [ -72.016459643139299, -36.895745054447701 ], [ -72.016515273284696, -36.895800861196399 ], [ -72.016489649535103, -36.896280733807799 ], [ -72.017713535644006, -36.896378373855903 ], [ -72.019086130441195, -36.896407846926202 ] ] ] } },
{ "type": "Feature", "properties": { "id": "monoparte.18", "Name": null, "description": null, "timestamp": null, "begin": null, "end": null, "altitudeMode": null, "tessellate": -1, "extrude": 0, "visibility": -1, "drawOrder": null, "icon": null, "REG": "Ñuble", "COM": "El Carmen", "LOC": "El Carmen", "ZONA": "ZR", "NOM": "ZR Zona Residencial", "UPERM": "Residencial; Equipamiento científico, comercio, culto y cultura, deporte, esparcimiento, salud, seguridad, servicios y social.", "UPROH": "Actividades productivas, estaciones o centros de servicios automotor, talleres mecánicos, mercados, discotecas, estadios, canchas, zoológicos, parques de entretención, cementerio, crematorios, cárceles y centros de detención.", "P_DO": "28/12/2009", "N_DOC": "147", "T_DO": "Resolución", "OBS": null }, "geometry": { "type": "Polygon", "coordinates": [ [ [ -72.023147030777494, -36.895278636578503 ], [ -72.024399777128394, -36.895305671265 ], [ -72.024497171734495, -36.894434170875499 ], [ -72.024247137678401, -36.8944166984733 ], [ -72.023834525986004, -36.894341378826603 ], [ -72.0232292077051, -36.894347259413898 ], [ -72.023147030777494, -36.895278636578503 ] ] ] } },
{ "type": "Feature", "properties": { "id": "monoparte.19", "Name": null, "description": null, "timestamp": null, "begin": null, "end": null, "altitudeMode": null, "tessellate": -1, "extrude": 0, "visibility": -1, "drawOrder": null, "icon": null, "REG": "Ñuble", "COM": "El Carmen", "LOC": "El Carmen", "ZONA": "ZR", "NOM": "ZR Zona Residencial", "UPERM": "Residencial; Equipamiento científico, comercio, culto y cultura, deporte, esparcimiento, salud, seguridad, servicios y social.", "UPROH": "Actividades productivas, estaciones o centros de servicios automotor, talleres mecánicos, mercados, discotecas, estadios, canchas, zoológicos, parques de entretención, cementerio, crematorios, cárceles y centros de detención.", "P_DO": "28/12/2009", "N_DOC": "147", "T_DO": "Resolución", "OBS": null }, "geometry": { "type": "Polygon", "coordinates": [ [ [ -72.024918568518402, -36.895321393789402 ], [ -72.026090292685097, -36.895357001780702 ], [ -72.026137902979897, -36.8936780571741 ], [ -72.025768032674605, -36.893632649110103 ], [ -72.025473708325904, -36.8936210767598 ], [ -72.024986952886493, -36.893542522429797 ], [ -72.024985221240897, -36.8937530657319 ], [ -72.024918568518402, -36.895321393789402 ] ] ] } },
{ "type": "Feature", "properties": { "id": "monoparte.20", "Name": null, "description": null, "timestamp": null, "begin": null, "end": null, "altitudeMode": null, "tessellate": -1, "extrude": 0, "visibility": -1, "drawOrder": null, "icon": null, "REG": "Ñuble", "COM": "El Carmen", "LOC": "El Carmen", "ZONA": "ZR", "NOM": "ZR Zona Residencial", "UPERM": "Residencial; Equipamiento científico, comercio, culto y cultura, deporte, esparcimiento, salud, seguridad, servicios y social.", "UPROH": "Actividades productivas, estaciones o centros de servicios automotor, talleres mecánicos, mercados, discotecas, estadios, canchas, zoológicos, parques de entretención, cementerio, crematorios, cárceles y centros de detención.", "P_DO": "28/12/2009", "N_DOC": "147", "T_DO": "Resolución", "OBS": null }, "geometry": { "type": "Polygon", "coordinates": [ [ [ -72.028691792551498, -36.893360682974098 ], [ -72.028649194191203, -36.895436003739199 ], [ -72.027989361557403, -36.895414689547202 ], [ -72.0279370364117, -36.8966438757517 ], [ -72.029460027226406, -36.896699850361003 ], [ -72.029458920413006, -36.8960948330324 ], [ -72.030189553651994, -36.896104795296999 ], [ -72.030178657971902, -36.8956043965064 ], [ -72.031717716291595, -36.895565101055901 ], [ -72.031805334434907, -36.894404154601098 ], [ -72.031522765495595, -36.894239709592703 ], [ -72.031275499335806, -36.894067210385103 ], [ -72.0309473217998, -36.893875319374203 ], [ -72.030443768214596, -36.893752276631602 ], [ -72.03020046396, -36.893679809180597 ], [ -72.029922141330999, -36.893622540932903 ], [ -72.029148316896993, -36.893420560190997 ], [ -72.028691792551498, -36.893360682974098 ] ] ] } },
{ "type": "Feature", "properties": { "id": "monoparte.21", "Name": null, "description": null, "timestamp": null, "begin": null, "end": null, "altitudeMode": null, "tessellate": -1, "extrude": 0, "visibility": -1, "drawOrder": null, "icon": null, "REG": "Ñuble", "COM": "El Carmen", "LOC": "El Carmen", "ZONA": "ZR", "NOM": "ZR Zona Residencial", "UPERM": "Residencial; Equipamiento científico, comercio, culto y cultura, deporte, esparcimiento, salud, seguridad, servicios y social.", "UPROH": "Actividades productivas, estaciones o centros de servicios automotor, talleres mecánicos, mercados, discotecas, estadios, canchas, zoológicos, parques de entretención, cementerio, crematorios, cárceles y centros de detención.", "P_DO": "28/12/2009", "N_DOC": "147", "T_DO": "Resolución", "OBS": null }, "geometry": { "type": "Polygon", "coordinates": [ [ [ -72.013079352351298, -36.895752598234701 ], [ -72.013733455622798, -36.895851488502799 ], [ -72.013391792586603, -36.894108976967502 ], [ -72.013985591837198, -36.894036681452498 ], [ -72.013923514742203, -36.893480945493998 ], [ -72.013678141776694, -36.893474401539997 ], [ -72.012731866056697, -36.893448470432098 ], [ -72.013079352351298, -36.895752598234701 ] ] ] } },
{ "type": "Feature", "properties": { "id": "monoparte.22", "Name": null, "description": null, "timestamp": null, "begin": null, "end": null, "altitudeMode": null, "tessellate": -1, "extrude": 0, "visibility": -1, "drawOrder": null, "icon": null, "REG": "Ñuble", "COM": "El Carmen", "LOC": "El Carmen", "ZONA": "ZE-2", "NOM": "ZE-2 Zona de Equipamiento Comercio y Servicios", "UPERM": "Residencial; Equipamiento científico, comercio, culto y cultura, deporte, esparcimiento, salud, seguridad, servicios y social.", "UPROH": "Actividades productivas, estaciones o centros de servicios automotor, talleres mecánicos, mercados, discotecas, estadios, canchas, zoológicos, parques de entretención, cementerio, crematorios, cárceles y centros de detención.", "P_DO": "28/12/2009", "N_DOC": "147", "T_DO": "Resolución", "OBS": null }, "geometry": { "type": "Polygon", "coordinates": [ [ [ -72.0279370364117, -36.8966438757517 ], [ -72.027895126933402, -36.897883722904197 ], [ -72.030431552992994, -36.897991852611902 ], [ -72.032437996127896, -36.898059823136897 ], [ -72.032458218626104, -36.897820888997103 ], [ -72.034336970919796, -36.897850365474902 ], [ -72.034343091645695, -36.897630269602502 ], [ -72.035527590327206, -36.897650649942399 ], [ -72.035476610213493, -36.898143093289399 ], [ -72.035706673261302, -36.898143170013803 ], [ -72.035705821459999, -36.898219008770297 ], [ -72.035943062895996, -36.898212941565397 ], [ -72.036238670474205, -36.898181539672301 ], [ -72.036392942794294, -36.898141830723503 ], [ -72.037864267579906, -36.897784573224897 ], [ -72.037928753422307, -36.896425749445299 ], [ -72.035924342401799, -36.896907172024598 ], [ -72.033439923541096, -36.896837169933697 ], [ -72.029468619201893, -36.896700166350598 ], [ -72.0279370364117, -36.8966438757517 ] ] ] } },
{ "type": "Feature", "properties": { "id": "monoparte.23", "Name": null, "description": null, "timestamp": null, "begin": null, "end": null, "altitudeMode": null, "tessellate": -1, "extrude": 0, "visibility": -1, "drawOrder": null, "icon": null, "REG": "Ñuble", "COM": "El Carmen", "LOC": "El Carmen", "ZONA": "ZE-2", "NOM": "ZE-2 Zona de Equipamiento Comercio y Servicios", "UPERM": "Residencial; Equipamiento científico, comercio, culto y cultura, deporte, esparcimiento, salud, seguridad, servicios y social.", "UPROH": "Actividades productivas, estaciones o centros de servicios automotor, talleres mecánicos, mercados, discotecas, estadios, canchas, zoológicos, parques de entretención, cementerio, crematorios, cárceles y centros de detención.", "P_DO": "28/12/2009", "N_DOC": "147", "T_DO": "Resolución", "OBS": null }, "geometry": { "type": "Polygon", "coordinates": [ [ [ -72.006675841247201, -36.895508311507598 ], [ -72.0062195117101, -36.896814484439197 ], [ -72.008324644554094, -36.896675325238697 ], [ -72.008653257297496, -36.8966526921416 ], [ -72.009784528247494, -36.8966597778359 ], [ -72.010293319775997, -36.896689792247997 ], [ -72.011168837169507, -36.896760571141201 ], [ -72.011580047657006, -36.896800208151198 ], [ -72.012279040669299, -36.896911219184197 ], [ -72.014771702613103, -36.897341467732303 ], [ -72.017208755808298, -36.897715857239 ], [ -72.018273934168903, -36.897853287857799 ], [ -72.018537943696401, -36.8978359256445 ], [ -72.019195517195399, -36.897837083714997 ], [ -72.020303237213795, -36.897886391443201 ], [ -72.021556415887801, -36.897860461153599 ], [ -72.021618552736797, -36.896416520556997 ], [ -72.019086130441195, -36.896407846926202 ], [ -72.017713535644006, -36.896378373855903 ], [ -72.016489649535103, -36.896280733807799 ], [ -72.015867414360898, -36.8962192950138 ], [ -72.013733455622798, -36.895851488502799 ], [ -72.0118700618617, -36.8955697615676 ], [ -72.010581948981397, -36.895423621219301 ], [ -72.010082624576199, -36.8954076729352 ], [ -72.009342816437794, -36.895390666885397 ], [ -72.008363925625105, -36.895408324477401 ], [ -72.007271343558202, -36.895478922448497 ], [ -72.006675841247201, -36.895508311507598 ] ], [ [ -72.019150689506603, -36.896900817068797 ], [ -72.019127260549695, -36.897451072648003 ], [ -72.017602842278706, -36.897411154802398 ], [ -72.017634540261398, -36.896859602371599 ], [ -72.019150689506603, -36.896900817068797 ] ] ] } },
{ "type": "Feature", "properties": { "id": "monoparte.24", "Name": null, "description": null, "timestamp": null, "begin": null, "end": null, "altitudeMode": null, "tessellate": -1, "extrude": 0, "visibility": -1, "drawOrder": null, "icon": null, "REG": "Ñuble", "COM": "El Carmen", "LOC": "El Carmen", "ZONA": "ZER", "NOM": "ZER Zona de Extensión Residencial", "UPERM": "Residencial; Equipamiento científico, comercio, culto y cultura, deporte, esparcimiento, salud, seguridad, servicios y social.", "UPROH": "Actividades productivas, discotecas, estadios, canchas, zoológicos, parques de entretención, cementerio, crematorios, cárceles y centros de detención.", "P_DO": "28/12/2009", "N_DOC": "147", "T_DO": "Resolución", "OBS": null }, "geometry": { "type": "Polygon", "coordinates": [ [ [ -72.024263602513798, -36.905207165213099 ], [ -72.024310211247894, -36.905306525643702 ], [ -72.0244534061476, -36.905255601606001 ], [ -72.024501496082095, -36.905232919174701 ], [ -72.024518020609605, -36.905200311574603 ], [ -72.024592874327695, -36.905066082469403 ], [ -72.024682486344304, -36.904967240289103 ], [ -72.024782548830103, -36.9049074694558 ], [ -72.024888395540003, -36.904828193613803 ], [ -72.024833704857798, -36.904699457908499 ], [ -72.024836437136599, -36.904618326726997 ], [ -72.025020895831801, -36.903726712167703 ], [ -72.025256387593501, -36.902323582262603 ], [ -72.025240296983895, -36.901766095023497 ], [ -72.024468610475907, -36.9017544207396 ], [ -72.024469777223899, -36.902159701663003 ], [ -72.024390063157199, -36.902772081605498 ], [ -72.0241977300835, -36.903915426766197 ], [ -72.024091207314797, -36.904412857918402 ], [ -72.024078965879099, -36.904478734162197 ], [ -72.024202526958504, -36.904976263347599 ], [ -72.024263602513798, -36.905207165213099 ] ] ] } },
{ "type": "Feature", "properties": { "id": "monoparte.25", "Name": null, "description": null, "timestamp": null, "begin": null, "end": null, "altitudeMode": null, "tessellate": -1, "extrude": 0, "visibility": -1, "drawOrder": null, "icon": null, "REG": "Ñuble", "COM": "El Carmen", "LOC": "El Carmen", "ZONA": "ZER", "NOM": "ZER Zona de Extensión Residencial", "UPERM": "Residencial; Equipamiento científico, comercio, culto y cultura, deporte, esparcimiento, salud, seguridad, servicios y social.", "UPROH": "Actividades productivas, discotecas, estadios, canchas, zoológicos, parques de entretención, cementerio, crematorios, cárceles y centros de detención.", "P_DO": "28/12/2009", "N_DOC": "147", "T_DO": "Resolución", "OBS": null }, "geometry": { "type": "Polygon", "coordinates": [ [ [ -72.004380825495403, -36.903041093659198 ], [ -72.004746628747796, -36.9031182033048 ], [ -72.004742594534804, -36.902911032259297 ], [ -72.004565985767201, -36.902760529807502 ], [ -72.004540704345601, -36.9026836833144 ], [ -72.004543913062193, -36.902576314211302 ], [ -72.004571233568996, -36.902516017914401 ], [ -72.004837960855497, -36.901937060147901 ], [ -72.005108827228895, -36.901274551600999 ], [ -72.004461699701693, -36.901243751905703 ], [ -72.003885509187498, -36.9026745430265 ], [ -72.004030109217098, -36.9027281042098 ], [ -72.004114109815106, -36.902826114186603 ], [ -72.004199233289697, -36.9029527059052 ], [ -72.004263478043995, -36.903001148307602 ], [ -72.004380825495403, -36.903041093659198 ] ] ] } },
{ "type": "Feature", "properties": { "id": "monoparte.26", "Name": null, "description": null, "timestamp": null, "begin": null, "end": null, "altitudeMode": null, "tessellate": -1, "extrude": 0, "visibility": -1, "drawOrder": null, "icon": null, "REG": "Ñuble", "COM": "El Carmen", "LOC": "El Carmen", "ZONA": "ZER", "NOM": "ZER Zona de Extensión Residencial", "UPERM": "Residencial; Equipamiento científico, comercio, culto y cultura, deporte, esparcimiento, salud, seguridad, servicios y social.", "UPROH": "Actividades productivas, discotecas, estadios, canchas, zoológicos, parques de entretención, cementerio, crematorios, cárceles y centros de detención.", "P_DO": "28/12/2009", "N_DOC": "147", "T_DO": "Resolución", "OBS": null }, "geometry": { "type": "Polygon", "coordinates": [ [ [ -72.036238670474205, -36.898181539672301 ], [ -72.035943062895996, -36.898212941565397 ], [ -72.035705821459999, -36.898219008770297 ], [ -72.0358349650446, -36.899604486227098 ], [ -72.035864096027296, -36.900900730297799 ], [ -72.035398898297302, -36.900960310449101 ], [ -72.033076067767297, -36.901150814382497 ], [ -72.033013645984198, -36.902041856461899 ], [ -72.033695850956093, -36.902069704637299 ], [ -72.035292731681494, -36.902100407414302 ], [ -72.036702369554604, -36.902088195278999 ], [ -72.038195687491395, -36.9021274689905 ], [ -72.038455654676895, -36.902132735521697 ], [ -72.038268741084906, -36.900414957613101 ], [ -72.038195252501097, -36.900059212853897 ], [ -72.038237610279893, -36.9000044852286 ], [ -72.039681482908605, -36.898799277769101 ], [ -72.041822440599603, -36.8970218734 ], [ -72.040768193272598, -36.897123851993797 ], [ -72.040398928592595, -36.897169073208197 ], [ -72.036392942794294, -36.898141830723503 ], [ -72.036238670474205, -36.898181539672301 ] ] ] } },
{ "type": "Feature", "properties": { "id": "monoparte.27", "Name": null, "description": null, "timestamp": null, "begin": null, "end": null, "altitudeMode": null, "tessellate": -1, "extrude": 0, "visibility": -1, "drawOrder": null, "icon": null, "REG": "Ñuble", "COM": "El Carmen", "LOC": "El Carmen", "ZONA": "ZER", "NOM": "ZER Zona de Extensión Residencial", "UPERM": "Residencial; Equipamiento científico, comercio, culto y cultura, deporte, esparcimiento, salud, seguridad, servicios y social.", "UPROH": "Actividades productivas, discotecas, estadios, canchas, zoológicos, parques de entretención, cementerio, crematorios, cárceles y centros de detención.", "P_DO": "28/12/2009", "N_DOC": "147", "T_DO": "Resolución", "OBS": null }, "geometry": { "type": "Polygon", "coordinates": [ [ [ -71.998366511281105, -36.898037833029399 ], [ -71.997822906326803, -36.899687811776097 ], [ -71.998067519781102, -36.8996601858993 ], [ -71.998219329208197, -36.899670656892297 ], [ -71.998345006660799, -36.8996960928744 ], [ -71.998514890014505, -36.899713259092003 ], [ -71.998586066170205, -36.899711461198898 ], [ -71.998665860080607, -36.899702293453899 ], [ -71.998773463799694, -36.899721032512197 ], [ -71.998828525013593, -36.899762556975404 ], [ -71.998884985588305, -36.899839809354098 ], [ -71.998922812599005, -36.899896074287199 ], [ -71.998925331370302, -36.899960384222801 ], [ -71.999011282630306, -36.900108417189799 ], [ -71.999115868025498, -36.900277436554298 ], [ -71.9991667903127, -36.900440659515603 ], [ -71.999233548898502, -36.900553413910302 ], [ -71.999314463189194, -36.900572827675198 ], [ -71.999385360162293, -36.900563883322803 ], [ -71.999402034735397, -36.900534851736303 ], [ -71.999462074587399, -36.900476114148198 ], [ -71.999540189561898, -36.9004240719213 ], [ -71.999681703259796, -36.900399038776698 ], [ -71.999815160158306, -36.900395666314203 ], [ -71.9999508567318, -36.9004494576306 ], [ -72.000070438015698, -36.9005465714623 ], [ -72.000239763540506, -36.9005494450264 ], [ -72.000374340645095, -36.900574653877797 ], [ -72.000466951863402, -36.900665296854797 ], [ -72.000490066368002, -36.900800610889497 ], [ -72.000517318355904, -36.900814227183503 ], [ -72.000642998308194, -36.900839660607701 ], [ -72.000743387711395, -36.9009014964805 ], [ -72.000837960108399, -36.901042157069298 ], [ -72.000884125692195, -36.901083906306297 ], [ -72.000938628892897, -36.901111138718498 ], [ -72.001152722044594, -36.901120031318001 ], [ -72.001398267905003, -36.901249721396702 ], [ -72.001549586577198, -36.901474778229499 ], [ -72.001680378073701, -36.901857710271699 ], [ -72.001709310369705, -36.901914199158703 ], [ -72.001756038342904, -36.901970238032497 ], [ -72.001818878872399, -36.901982954065502 ], [ -72.002005441643206, -36.901971084022698 ], [ -72.002058825162393, -36.901969733968301 ], [ -72.002105037005407, -36.900763355735599 ], [ -72.002200967754604, -36.898364339414499 ], [ -72.004794832319504, -36.898498984161002 ], [ -72.004912288423, -36.896900271636603 ], [ -72.003699610954499, -36.897088318000399 ], [ -72.000860568680906, -36.897589273977303 ], [ -71.998782417000498, -36.897963654920602 ], [ -71.998366511281105, -36.898037833029399 ] ] ] } },
{ "type": "Feature", "properties": { "id": "monoparte.28", "Name": null, "description": null, "timestamp": null, "begin": null, "end": null, "altitudeMode": null, "tessellate": -1, "extrude": 0, "visibility": -1, "drawOrder": null, "icon": null, "REG": "Ñuble", "COM": "El Carmen", "LOC": "El Carmen", "ZONA": "ZER", "NOM": "ZER Zona de Extensión Residencial", "UPERM": "Residencial; Equipamiento científico, comercio, culto y cultura, deporte, esparcimiento, salud, seguridad, servicios y social.", "UPROH": "Actividades productivas, discotecas, estadios, canchas, zoológicos, parques de entretención, cementerio, crematorios, cárceles y centros de detención.", "P_DO": "28/12/2009", "N_DOC": "147", "T_DO": "Resolución", "OBS": null }, "geometry": { "type": "Polygon", "coordinates": [ [ [ -72.007592010703107, -36.898065751273798 ], [ -72.005796151981599, -36.901291191735901 ], [ -72.006312282049507, -36.901303684183098 ], [ -72.011706833507503, -36.901429201045197 ], [ -72.017659097132196, -36.901582018218697 ], [ -72.020732348744502, -36.901659875442498 ], [ -72.020716696738006, -36.899073922316298 ], [ -72.0184829722769, -36.899077098374001 ], [ -72.018537943696401, -36.8978359256445 ], [ -72.018273934168903, -36.897853287857799 ], [ -72.017208755808298, -36.897715857239 ], [ -72.014771702613103, -36.897341467732303 ], [ -72.012279040669299, -36.896911219184197 ], [ -72.011580047657006, -36.896800208151198 ], [ -72.011168837169507, -36.896760571141201 ], [ -72.010293319775997, -36.896689792247997 ], [ -72.009784528247494, -36.8966597778359 ], [ -72.008653257297496, -36.8966526921416 ], [ -72.008398062361806, -36.896670268465598 ], [ -72.007592010703107, -36.898065751273798 ] ] ] } },
{ "type": "Feature", "properties": { "id": "monoparte.29", "Name": null, "description": null, "timestamp": null, "begin": null, "end": null, "altitudeMode": null, "tessellate": -1, "extrude": 0, "visibility": -1, "drawOrder": null, "icon": null, "REG": "Ñuble", "COM": "El Carmen", "LOC": "El Carmen", "ZONA": "ZER", "NOM": "ZER Zona de Extensión Residencial", "UPERM": "Residencial; Equipamiento científico, comercio, culto y cultura, deporte, esparcimiento, salud, seguridad, servicios y social.", "UPROH": "Actividades productivas, discotecas, estadios, canchas, zoológicos, parques de entretención, cementerio, crematorios, cárceles y centros de detención.", "P_DO": "28/12/2009", "N_DOC": "147", "T_DO": "Resolución", "OBS": null }, "geometry": { "type": "Polygon", "coordinates": [ [ [ -72.041266670245406, -36.894127426682502 ], [ -72.037739790042295, -36.894265412492203 ], [ -72.034951874120495, -36.894324799337497 ], [ -72.032552278078299, -36.894445726594903 ], [ -72.032247431805004, -36.894448056533498 ], [ -72.0319430090086, -36.894443911253298 ], [ -72.031805334434907, -36.894404154601098 ], [ -72.031717716291595, -36.895565101055901 ], [ -72.030178657971902, -36.8956043965064 ], [ -72.030189553651994, -36.896104795296999 ], [ -72.029458920413006, -36.8960948330324 ], [ -72.029460027226406, -36.896699850361003 ], [ -72.029468619201893, -36.896700166350598 ], [ -72.033439923541096, -36.896837169933697 ], [ -72.035924342401799, -36.896907172024598 ], [ -72.037928753422307, -36.896425749445299 ], [ -72.039246494284399, -36.896120223666003 ], [ -72.041626594784006, -36.895995104377299 ], [ -72.0412703492307, -36.894127320716699 ], [ -72.041266670245406, -36.894127426682502 ] ] ] } },
{ "type": "Feature", "properties": { "id": "monoparte.30", "Name": null, "description": null, "timestamp": null, "begin": null, "end": null, "altitudeMode": null, "tessellate": -1, "extrude": 0, "visibility": -1, "drawOrder": null, "icon": null, "REG": "Ñuble", "COM": "El Carmen", "LOC": "El Carmen", "ZONA": "ZER", "NOM": "ZER Zona de Extensión Residencial", "UPERM": "Residencial; Equipamiento científico, comercio, culto y cultura, deporte, esparcimiento, salud, seguridad, servicios y social.", "UPROH": "Actividades productivas, discotecas, estadios, canchas, zoológicos, parques de entretención, cementerio, crematorios, cárceles y centros de detención.", "P_DO": "28/12/2009", "N_DOC": "147", "T_DO": "Resolución", "OBS": null }, "geometry": { "type": "Polygon", "coordinates": [ [ [ -72.027184655652604, -36.894214035964097 ], [ -72.026972018812003, -36.894279062516603 ], [ -72.026845989833504, -36.894282275967697 ], [ -72.026719960834996, -36.894285489285302 ], [ -72.026668066667597, -36.894286812373899 ], [ -72.026651826875195, -36.8942514642562 ], [ -72.026669715226404, -36.8939529856614 ], [ -72.026622058618301, -36.893685980405401 ], [ -72.026133940485195, -36.893640125228004 ], [ -72.026137902979897, -36.8936780571741 ], [ -72.026090292685097, -36.895357001780702 ], [ -72.027989361557403, -36.895414689547202 ], [ -72.028649194191203, -36.895436003739199 ], [ -72.028691792551498, -36.893360682974098 ], [ -72.028480349340001, -36.893388249821903 ], [ -72.028230413588105, -36.893448269282601 ], [ -72.027904344121097, -36.893647320612303 ], [ -72.027667469346994, -36.893850057093999 ], [ -72.027532970024097, -36.894014419237401 ], [ -72.027453775442396, -36.894076043395899 ], [ -72.027184655652604, -36.894214035964097 ] ] ] } },
{ "type": "Feature", "properties": { "id": "monoparte.31", "Name": null, "description": null, "timestamp": null, "begin": null, "end": null, "altitudeMode": null, "tessellate": -1, "extrude": 0, "visibility": -1, "drawOrder": null, "icon": null, "REG": "Ñuble", "COM": "El Carmen", "LOC": "El Carmen", "ZONA": "ZER", "NOM": "ZER Zona de Extensión Residencial", "UPERM": "Residencial; Equipamiento científico, comercio, culto y cultura, deporte, esparcimiento, salud, seguridad, servicios y social.", "UPROH": "Actividades productivas, discotecas, estadios, canchas, zoológicos, parques de entretención, cementerio, crematorios, cárceles y centros de detención.", "P_DO": "28/12/2009", "N_DOC": "147", "T_DO": "Resolución", "OBS": null }, "geometry": { "type": "Polygon", "coordinates": [ [ [ -72.013391792586603, -36.894108976967502 ], [ -72.013733455622798, -36.895851488502799 ], [ -72.015867414360898, -36.8962192950138 ], [ -72.016489649535103, -36.896280733807799 ], [ -72.016515273284696, -36.895800861196399 ], [ -72.016459643139299, -36.895745054447701 ], [ -72.016497994831596, -36.895136112667799 ], [ -72.021668892502703, -36.895246720781898 ], [ -72.023147030777494, -36.895278636578503 ], [ -72.0232292077051, -36.894347259413898 ], [ -72.023834525986004, -36.894341378826603 ], [ -72.024247137678401, -36.8944166984733 ], [ -72.024497171734495, -36.894434170875499 ], [ -72.024399777128394, -36.895305671265 ], [ -72.024405139991302, -36.895305786945897 ], [ -72.024918568518402, -36.895321393789402 ], [ -72.024985221240897, -36.8937530657319 ], [ -72.023833315278196, -36.893710886970197 ], [ -72.023186699839101, -36.893685631632103 ], [ -72.017978988398596, -36.893579719975897 ], [ -72.016998767193201, -36.893562911296598 ], [ -72.013923514742203, -36.893480945493998 ], [ -72.013985591837198, -36.894036681452498 ], [ -72.013391792586603, -36.894108976967502 ] ] ] } },
{ "type": "Feature", "properties": { "id": "monoparte.32", "Name": null, "description": null, "timestamp": null, "begin": null, "end": null, "altitudeMode": null, "tessellate": -1, "extrude": 0, "visibility": -1, "drawOrder": null, "icon": null, "REG": "Ñuble", "COM": "El Carmen", "LOC": "El Carmen", "ZONA": "ZER", "NOM": "ZER Zona de Extensión Residencial", "UPERM": "Residencial; Equipamiento científico, comercio, culto y cultura, deporte, esparcimiento, salud, seguridad, servicios y social.", "UPROH": "Actividades productivas, discotecas, estadios, canchas, zoológicos, parques de entretención, cementerio, crematorios, cárceles y centros de detención.", "P_DO": "28/12/2009", "N_DOC": "147", "T_DO": "Resolución", "OBS": null }, "geometry": { "type": "Polygon", "coordinates": [ [ [ -72.006830249601194, -36.8933261777469 ], [ -72.006122967101803, -36.895536354106298 ], [ -72.006675841247201, -36.895508311507598 ], [ -72.007271343558202, -36.895478922448497 ], [ -72.008363925625105, -36.895408324477401 ], [ -72.009342816437794, -36.895390666885397 ], [ -72.010082624576199, -36.8954076729352 ], [ -72.010581948981397, -36.895423621219301 ], [ -72.0118700618617, -36.8955697615676 ], [ -72.013079352351298, -36.895752598234701 ], [ -72.012731866056697, -36.893448470432098 ], [ -72.011984351321402, -36.893427980651303 ], [ -72.008136899736698, -36.893340759701701 ], [ -72.007215518893403, -36.893310458170802 ], [ -72.006830249601194, -36.8933261777469 ] ] ] } },
{ "type": "Feature", "properties": { "id": "monoparte.33", "Name": null, "description": null, "timestamp": null, "begin": null, "end": null, "altitudeMode": null, "tessellate": -1, "extrude": 0, "visibility": -1, "drawOrder": null, "icon": null, "REG": "Ñuble", "COM": "El Carmen", "LOC": "El Carmen", "ZONA": "ZPD", "NOM": "ZPD Zona de Protección Drenaje", "UPERM": "Sólo se permite el uso de espacio público sin cOnstrucciones. Se rige por lo señalado en los artículos 24 de la ordenanza local.", "UPROH": "Todos los usos de suelo no mencionados como permitidos.", "P_DO": "28/12/2009", "N_DOC": "147", "T_DO": "Resolución", "OBS": null }, "geometry": { "type": "Polygon", "coordinates": [ [ [ -72.025275586463493, -36.904311973884496 ], [ -72.024990157417093, -36.904751976500798 ], [ -72.024782548830103, -36.9049074694558 ], [ -72.024682486344304, -36.904967240289103 ], [ -72.024592874327695, -36.905066082469403 ], [ -72.024518020609605, -36.905200311574603 ], [ -72.024501496082095, -36.905232919174701 ], [ -72.0244534061476, -36.905255601606001 ], [ -72.024310211247894, -36.905306525643702 ], [ -72.024385171526902, -36.905466327047201 ], [ -72.024640682378603, -36.905358489150501 ], [ -72.024804629975407, -36.905187418777103 ], [ -72.025011181101306, -36.904967579628497 ], [ -72.025118634276097, -36.904869473717099 ], [ -72.025197841411796, -36.9048078506232 ], [ -72.025303176360794, -36.904656154893502 ], [ -72.025345074265104, -36.904589522689598 ], [ -72.025430519280206, -36.904497938237597 ], [ -72.025637417819595, -36.9044747831446 ], [ -72.025787119435094, -36.904506730243099 ], [ -72.0257434635799, -36.904339287901102 ], [ -72.025600339387296, -36.904303696626101 ], [ -72.025296981845301, -36.904289970590298 ], [ -72.025275586463493, -36.904311973884496 ] ] ] } },
{ "type": "Feature", "properties": { "id": "monoparte.34", "Name": null, "description": null, "timestamp": null, "begin": null, "end": null, "altitudeMode": null, "tessellate": -1, "extrude": 0, "visibility": -1, "drawOrder": null, "icon": null, "REG": "Ñuble", "COM": "El Carmen", "LOC": "El Carmen", "ZONA": "ZPD", "NOM": "ZPD Zona de Protección Drenaje", "UPERM": "Sólo se permite el uso de espacio público sin cOnstrucciones. Se rige por lo señalado en los artículos 24 de la ordenanza local.", "UPROH": "Todos los usos de suelo no mencionados como permitidos.", "P_DO": "28/12/2009", "N_DOC": "147", "T_DO": "Resolución", "OBS": null }, "geometry": { "type": "Polygon", "coordinates": [ [ [ -71.997822906326803, -36.899687811776097 ], [ -71.997752176896796, -36.899902489073597 ], [ -71.998002396048804, -36.899848486804999 ], [ -71.998158327086003, -36.899850508586098 ], [ -71.9982927159122, -36.899870956819498 ], [ -71.998352729376293, -36.899887321754498 ], [ -71.998434285117696, -36.89988526178 ], [ -71.998604812362601, -36.899880954338698 ], [ -71.998678954534199, -36.899879081464398 ], [ -71.998716492014395, -36.899890054026301 ], [ -71.998711875799401, -36.899961697227603 ], [ -71.998755709886595, -36.900133443737502 ], [ -71.998850744116098, -36.9002860151476 ], [ -71.998905909902305, -36.900368068892099 ], [ -71.998980567523901, -36.900568839040098 ], [ -71.999053359714495, -36.900721973074099 ], [ -71.999143963725004, -36.900761407230398 ], [ -71.999270240926407, -36.900764176711498 ], [ -71.999447950375398, -36.9007537266056 ], [ -71.999585555648395, -36.900666802208598 ], [ -71.999649952089996, -36.9006055701023 ], [ -71.999686090372194, -36.900580815320602 ], [ -71.999775061477393, -36.900578567025597 ], [ -71.999790589688402, -36.900596056262799 ], [ -71.999852937001407, -36.900671967210698 ], [ -71.999915050003693, -36.900741923196797 ], [ -71.999974364560799, -36.900740424211598 ], [ -72.000078165305396, -36.900737800909098 ], [ -72.000203834665598, -36.900725087456202 ], [ -72.000233491369798, -36.900724337909701 ], [ -72.000263848068201, -36.900741452302398 ], [ -72.000265714713507, -36.900789089193097 ], [ -72.0002379246163, -36.900837475640301 ], [ -72.000224962868899, -36.900885487307796 ], [ -72.000226829464495, -36.900933123298799 ], [ -72.000250005954797, -36.900956380013398 ], [ -72.000325315735694, -36.900984279007503 ], [ -72.000392510773594, -36.900994501420698 ], [ -72.000422634257902, -36.901005660817802 ], [ -72.000481948991506, -36.90100416157 ], [ -72.000534549024906, -36.901020713655903 ], [ -72.000564673658999, -36.901031872987197 ], [ -72.000587616908007, -36.901049174682697 ], [ -72.000620540753701, -36.901131788886701 ], [ -72.000682189228797, -36.901189835397297 ], [ -72.000720661105305, -36.901224626165003 ], [ -72.0007739614299, -36.901259041171897 ], [ -72.000849271684501, -36.901286939810099 ], [ -72.000990843829697, -36.901301242477302 ], [ -72.001080282453103, -36.901310902155501 ], [ -72.001155592858098, -36.901338800591702 ], [ -72.00120194662, -36.901385312713401 ], [ -72.001311582418893, -36.901531552888699 ], [ -72.0013827473487, -36.9016430023987 ], [ -72.001441183727096, -36.901808418591401 ], [ -72.001498920066496, -36.901955970817198 ], [ -72.001562203965804, -36.902055698687903 ], [ -72.001623152446598, -36.902095880743801 ], [ -72.001676221474497, -36.902124341227399 ], [ -72.0017730748594, -36.902133812865102 ], [ -72.001891939403507, -36.902136767852198 ], [ -72.0019730314539, -36.902122796336798 ], [ -72.002054589303597, -36.902120733770801 ], [ -72.002106723416105, -36.902125375231897 ], [ -72.002183902905898, -36.902200909755699 ], [ -72.002278012652496, -36.902329660005599 ], [ -72.002353149412301, -36.902542337333301 ], [ -72.002432255225003, -36.902856241310303 ], [ -72.002481179449404, -36.902968253526801 ], [ -72.002544464401296, -36.903067980791903 ], [ -72.002657783683304, -36.903118758369402 ], [ -72.002784531768, -36.9031334337934 ], [ -72.002917991927603, -36.903130057661002 ], [ -72.003049351106, -36.903073090569301 ], [ -72.003228640414704, -36.902913581827903 ], [ -72.003349547418097, -36.902779392434503 ], [ -72.003400046895507, -36.902742351494403 ], [ -72.003481139232903, -36.902728378932601 ], [ -72.003622714337695, -36.902742678313203 ], [ -72.0037740405877, -36.9028163355676 ], [ -72.003818527832806, -36.902815209825597 ], [ -72.003955491823504, -36.902901151055097 ], [ -72.004016910573796, -36.902953240713401 ], [ -72.004079264010002, -36.903029149138703 ], [ -72.004098298410597, -36.903135956222997 ], [ -72.004196556280206, -36.903181152631497 ], [ -72.004344612595503, -36.903171445548402 ], [ -72.004455830039802, -36.903168630633402 ], [ -72.004583979392606, -36.903219030981496 ], [ -72.004659993931597, -36.903264790910299 ], [ -72.004712830003996, -36.903287295049203 ], [ -72.004749902530705, -36.903286356638297 ], [ -72.004746628747796, -36.9031182033048 ], [ -72.004380825495403, -36.903041093659198 ], [ -72.004263478043995, -36.903001148307602 ], [ -72.004199233289697, -36.9029527059052 ], [ -72.004114109815106, -36.902826114186603 ], [ -72.004030109217098, -36.9027281042098 ], [ -72.003885509187498, -36.9026745430265 ], [ -72.003758702859102, -36.902620531403599 ], [ -72.0036410760042, -36.9025734394761 ], [ -72.003497876947506, -36.902555604696502 ], [ -72.003426698471003, -36.9025574056501 ], [ -72.003312155183806, -36.902588913960599 ], [ -72.0032254232664, -36.9026483296729 ], [ -72.003165665115702, -36.902714214111299 ], [ -72.003079774878998, -36.902795065651503 ], [ -72.002976368892007, -36.902883512353498 ], [ -72.002907151936398, -36.9029353317393 ], [ -72.002818178350694, -36.902937582502098 ], [ -72.002710569281803, -36.902918846469703 ], [ -72.002662719048402, -36.902834226155697 ], [ -72.002579210065605, -36.902521624993199 ], [ -72.002497663394394, -36.902259042482399 ], [ -72.002430058932603, -36.902124853339302 ], [ -72.002311591886595, -36.9020563240773 ], [ -72.002202303068898, -36.901994715575498 ], [ -72.002112208678, -36.901968383889901 ], [ -72.002005441643206, -36.901971084022698 ], [ -72.001818878872399, -36.901982954065502 ], [ -72.001756038342904, -36.901970238032497 ], [ -72.001709310369705, -36.901914199158703 ], [ -72.001680378073701, -36.901857710271699 ], [ -72.001549586577198, -36.901474778229499 ], [ -72.001398267905003, -36.901249721396702 ], [ -72.001152722044594, -36.901120031318001 ], [ -72.000938628892897, -36.901111138718498 ], [ -72.000884125692195, -36.901083906306297 ], [ -72.000837960108399, -36.901042157069298 ], [ -72.000743387711395, -36.9009014964805 ], [ -72.000642998308194, -36.900839660607701 ], [ -72.000517318355904, -36.900814227183503 ], [ -72.000490066368002, -36.900800610889497 ], [ -72.000466951863402, -36.900665296854797 ], [ -72.000374340645095, -36.900574653877797 ], [ -72.000239763540506, -36.9005494450264 ], [ -72.000070438015698, -36.9005465714623 ], [ -71.9999508567318, -36.9004494576306 ], [ -71.999815160158306, -36.900395666314203 ], [ -71.999681703259796, -36.900399038776698 ], [ -71.999540189561898, -36.9004240719213 ], [ -71.999462074587399, -36.900476114148198 ], [ -71.999402034735397, -36.900534851736303 ], [ -71.999385360162293, -36.900563883322803 ], [ -71.999314463189194, -36.900572827675198 ], [ -71.999233548898502, -36.900553413910302 ], [ -71.9991667903127, -36.900440659515603 ], [ -71.999115868025498, -36.900277436554298 ], [ -71.999011282630306, -36.900108417189799 ], [ -71.998925331370302, -36.899960384222801 ], [ -71.998922812599005, -36.899896074287199 ], [ -71.998884985588305, -36.899839809354098 ], [ -71.998828525013593, -36.899762556975404 ], [ -71.998773463799694, -36.899721032512197 ], [ -71.998665860080607, -36.899702293453899 ], [ -71.998586066170205, -36.899711461198898 ], [ -71.998514890014505, -36.899713259092003 ], [ -71.998345006660799, -36.8996960928744 ], [ -71.998219329208197, -36.899670656892297 ], [ -71.998067519781102, -36.8996601858993 ], [ -71.997822906326803, -36.899687811776097 ] ] ] } },
{ "type": "Feature", "properties": { "id": "monoparte.35", "Name": null, "description": null, "timestamp": null, "begin": null, "end": null, "altitudeMode": null, "tessellate": -1, "extrude": 0, "visibility": -1, "drawOrder": null, "icon": null, "REG": "Ñuble", "COM": "El Carmen", "LOC": "El Carmen", "ZONA": "ZPD", "NOM": "ZPD Zona de Protección Drenaje", "UPERM": "Sólo se permite el uso de espacio público sin cOnstrucciones. Se rige por lo señalado en los artículos 24 de la ordenanza local.", "UPROH": "Todos los usos de suelo no mencionados como permitidos.", "P_DO": "28/12/2009", "N_DOC": "147", "T_DO": "Resolución", "OBS": null }, "geometry": { "type": "Polygon", "coordinates": [ [ [ -72.028866595021796, -36.890006306987701 ], [ -72.028708215845896, -36.890129556635998 ], [ -72.028551720754507, -36.890300440898002 ], [ -72.028341570109305, -36.890615745016497 ], [ -72.028149655474195, -36.890829256156103 ], [ -72.027889138623294, -36.890996832944403 ], [ -72.0275480167182, -36.891190307166603 ], [ -72.026502518991805, -36.891586513055302 ], [ -72.025842386785499, -36.891782153964499 ], [ -72.025338520703897, -36.8918009553839 ], [ -72.025000568931503, -36.891887053297197 ], [ -72.024998799164095, -36.892102204965802 ], [ -72.025074458641399, -36.892080341896403 ], [ -72.025176834133902, -36.892041970969203 ], [ -72.025271795761498, -36.892003787984301 ], [ -72.025412177087603, -36.891988289792003 ], [ -72.025648695814596, -36.891964380454503 ], [ -72.025900040663501, -36.891940092751298 ], [ -72.026081230434102, -36.8919056720745 ], [ -72.026264209134993, -36.891841403257402 ], [ -72.026880332572404, -36.891658803724503 ], [ -72.027516339008798, -36.891416088571397 ], [ -72.027756267127899, -36.891290760641397 ], [ -72.027952185740105, -36.891178475462198 ], [ -72.028257182424795, -36.891009763934697 ], [ -72.028385910842601, -36.890887271226497 ], [ -72.028668780410499, -36.890534349714898 ], [ -72.028822450128203, -36.890292011263398 ], [ -72.0289449402907, -36.890199479382503 ], [ -72.029052839741496, -36.890113280469002 ], [ -72.029148032388207, -36.890081049367602 ], [ -72.029229575382899, -36.8900789687263 ], [ -72.029303941455495, -36.890083031070198 ], [ -72.029402195482703, -36.890128207668901 ], [ -72.029509275065095, -36.890208921120397 ], [ -72.029641656135794, -36.890366474796103 ], [ -72.029682490004504, -36.890460800253202 ], [ -72.029685787380302, -36.890544162020198 ], [ -72.029663436774399, -36.890729506667398 ], [ -72.029635668957894, -36.890777899066499 ], [ -72.029482112486207, -36.890835461377797 ], [ -72.029145347841194, -36.890951342905304 ], [ -72.029013088390698, -36.890984519774101 ], [ -72.028962609402896, -36.891021569869999 ], [ -72.028904716796006, -36.891058809995698 ], [ -72.028854708671602, -36.891107769653097 ], [ -72.028819997519903, -36.891168259737199 ], [ -72.028816351344403, -36.8912637194084 ], [ -72.028819412427893, -36.891341127329603 ], [ -72.028784465674903, -36.891395662605603 ], [ -72.028742106386005, -36.8914503878853 ], [ -72.028767641573495, -36.891533182343501 ], [ -72.028900495726006, -36.891702645454899 ], [ -72.029051114993507, -36.891758406964399 ], [ -72.029245742162999, -36.891801124628799 ], [ -72.029653705076598, -36.891796674826203 ], [ -72.029963411224898, -36.891747046795501 ], [ -72.030405141395903, -36.891658286680297 ], [ -72.030712725825694, -36.891555067216203 ], [ -72.030961475006393, -36.8914652707291 ], [ -72.031172686382604, -36.891364510575301 ], [ -72.031332712282193, -36.891282938565702 ], [ -72.031513327827497, -36.891159118540898 ], [ -72.031704998875497, -36.890939647542702 ], [ -72.031883490554307, -36.890762236670398 ], [ -72.032043279808505, -36.890674708973101 ], [ -72.032163961289001, -36.890666478683201 ], [ -72.032141801479895, -36.890450795855202 ], [ -72.031921767297206, -36.890516019970399 ], [ -72.031718443053705, -36.890628500698398 ], [ -72.031433702395404, -36.890933793255201 ], [ -72.031175313765303, -36.891154967342999 ], [ -72.030781600186003, -36.891331912018501 ], [ -72.029960275995705, -36.891579373561697 ], [ -72.029413583567404, -36.891641009173298 ], [ -72.029115171156405, -36.891600939970999 ], [ -72.028977495644497, -36.891497165415402 ], [ -72.028975140833197, -36.891437621009601 ], [ -72.029046070137596, -36.891354748769203 ], [ -72.029065247459101, -36.891276773444503 ], [ -72.029061715170798, -36.891187456839397 ], [ -72.029097132604093, -36.891144830193802 ], [ -72.029126079456006, -36.891126210073899 ], [ -72.029215037173699, -36.891123940229299 ], [ -72.029493204711002, -36.891027435353799 ], [ -72.029741482765999, -36.890925732736598 ], [ -72.029842910815603, -36.890863539693797 ], [ -72.029919038081303, -36.890724506300401 ], [ -72.029910793943699, -36.890516101031402 ], [ -72.029904198723102, -36.890349377529901 ], [ -72.0298478321114, -36.890237567046803 ], [ -72.029648026114202, -36.890063852763603 ], [ -72.029420453339299, -36.889938530445299 ], [ -72.029329848553004, -36.889899119480297 ], [ -72.029196178094793, -36.8898965703684 ], [ -72.029033562296604, -36.889912640263901 ], [ -72.028866595021796, -36.890006306987701 ] ] ] } }
]
}
