{
"type": "FeatureCollection",
"name": "IPT_16_PRC_San_Ignacio",
"crs": { "type": "name", "properties": { "name": "urn:ogc:def:crs:OGC:1.3:CRS84" } },
"features": [
{ "type": "Feature", "properties": { "id": "monoparte.1", "Name": null, "description": null, "timestamp": null, "begin": null, "end": null, "altitudeMode": null, "tessellate": -1, "extrude": 0, "visibility": -1, "drawOrder": null, "icon": null, "REG": "Ñuble", "COM": "San Ignacio", "LOC": "San Miguel", "ZONA": "ZR-2", "NOM": "ZR-2 Zona Residencial de densidad baja", "UPERM": "Residencial, infraestructura de transporte. Equipamiento científico, comercial, culto y cultura, deporte,  esparcimiento, educación, salud, seguridad, servicios y social.", "UPROH": "Todos los usos de suelo no mencionados como permitidos, además de estaciones o centros de servicio automotor, mercados, discotecas, estadios, zoológicos, cementerios, crematorios, cárceles y centros de detención.", "P_DO": "10/05/2013", "N_DOC": "23", "T_DO": "Resolución", "OBS": null }, "geometry": { "type": "Polygon", "coordinates": [ [ [ -71.968446816187594, -36.811181982811199 ], [ -71.968044673841703, -36.811211102284297 ], [ -71.967629209871006, -36.811202406574203 ], [ -71.967405543477597, -36.811246140224199 ], [ -71.967205943967102, -36.811298809978297 ], [ -71.966918981863898, -36.811239216741498 ], [ -71.966777893309001, -36.811271350534803 ], [ -71.966385315407507, -36.811548187258502 ], [ -71.966019009146905, -36.811891126103099 ], [ -71.9658230854359, -36.812039070937097 ], [ -71.965671616009104, -36.812109610940098 ], [ -71.965543110031604, -36.812160502521401 ], [ -71.965341299890795, -36.812156002718098 ], [ -71.965186151921799, -36.812131263884602 ], [ -71.9649735959444, -36.812155642459402 ], [ -71.964667346237704, -36.8122109684507 ], [ -71.964466271308297, -36.812225523004898 ], [ -71.964371842212003, -36.812237415627202 ], [ -71.964239290781094, -36.8121835009443 ], [ -71.964073396771099, -36.812187639580301 ], [ -71.963672716899694, -36.812254856255997 ], [ -71.963378682414501, -36.812319411801198 ], [ -71.963083177308604, -36.812345855807898 ], [ -71.962910578598695, -36.812483677611603 ], [ -71.962929410467396, -36.812664410621402 ], [ -71.963079970878098, -36.813185188689403 ], [ -71.963551237429897, -36.814587842110598 ], [ -71.9632133075892, -36.8146677985971 ], [ -71.9619874901543, -36.814984472778598 ], [ -71.960731806394705, -36.815295918652701 ], [ -71.959988817295297, -36.815445564402403 ], [ -71.960667646689103, -36.816900920832097 ], [ -71.959705010401194, -36.816871987185799 ], [ -71.960211353116406, -36.817847791298 ], [ -71.963317277088805, -36.817798975400798 ], [ -71.963420671473997, -36.820171099016299 ], [ -71.964384919079706, -36.8205666699698 ], [ -71.964300862826903, -36.817774438910597 ], [ -71.965687238708099, -36.817721540488698 ], [ -71.965252916211995, -36.81622826161 ], [ -71.965966962906805, -36.816097186519002 ], [ -71.968538466062995, -36.815496511535599 ], [ -71.969789923671996, -36.815243585812802 ], [ -71.974022703527893, -36.814279384344601 ], [ -71.974089662691398, -36.814264624806398 ], [ -71.973899315957794, -36.8136446069607 ], [ -71.975511279678599, -36.813308603560102 ], [ -71.976275228683207, -36.813127341289999 ], [ -71.9775198351266, -36.812800512623497 ], [ -71.978333387480902, -36.8126752156493 ], [ -71.979386544115798, -36.812510370597998 ], [ -71.976132794745993, -36.811093137988003 ], [ -71.976031944729797, -36.8111263077489 ], [ -71.973423896639702, -36.811773356714198 ], [ -71.971655670712906, -36.8122086095348 ], [ -71.971381983324306, -36.811419119284302 ], [ -71.9696615970024, -36.811834071874799 ], [ -71.969132238052396, -36.811947439194398 ], [ -71.968812305442597, -36.8111251661078 ], [ -71.968446816187594, -36.811181982811199 ] ], [ [ -71.970637312814205, -36.813032347564203 ], [ -71.970581537900003, -36.813027781097603 ], [ -71.970506671685001, -36.813008790872999 ], [ -71.970494296002897, -36.812976317272003 ], [ -71.9703012577762, -36.812489393627303 ], [ -71.970294676872498, -36.812415051137698 ], [ -71.970300815737602, -36.812382114658803 ], [ -71.970321076617097, -36.812330943166899 ], [ -71.970364822002097, -36.812311967576498 ], [ -71.970695556694196, -36.812238131879397 ], [ -71.970762324927406, -36.8122394434087 ], [ -71.970814281459099, -36.812241124346301 ], [ -71.970859408494604, -36.812257877966402 ], [ -71.970900831756396, -36.812274723278399 ], [ -71.970901607408507, -36.812275131919101 ], [ -71.970913437796099, -36.812313152034903 ], [ -71.971092588838303, -36.812824263910699 ], [ -71.971116418232697, -36.8128653920134 ], [ -71.971117109225901, -36.812883256699699 ], [ -71.971110740380993, -36.812910238909303 ], [ -71.971081921817003, -36.812931821543998 ], [ -71.9708246701517, -36.812988919085697 ], [ -71.970685452071706, -36.813031143960799 ], [ -71.970637312814205, -36.813032347564203 ] ], [ [ -71.971205940728197, -36.812975808649 ], [ -71.971901459571399, -36.812826332823697 ], [ -71.972249432427006, -36.8139838721331 ], [ -71.971536108455396, -36.8141328474982 ], [ -71.971527896709304, -36.814112190887897 ], [ -71.971205940728197, -36.812975808649 ] ], [ [ -71.971431271362604, -36.814105666478802 ], [ -71.971432538352005, -36.814138417787298 ], [ -71.971418762971197, -36.814165585241298 ], [ -71.971025644706501, -36.8142558840986 ], [ -71.971021596470607, -36.814247044346899 ], [ -71.971012232067096, -36.8141966135505 ], [ -71.970985291670999, -36.814075094397801 ], [ -71.9708942226342, -36.813726985477899 ], [ -71.971301636210697, -36.813629080938398 ], [ -71.971426762371095, -36.814084917257397 ], [ -71.971431271362604, -36.814105666478802 ] ], [ [ -71.963264972226398, -36.817305864177698 ], [ -71.961878661132502, -36.817345201186299 ], [ -71.961713218454506, -36.816438544703502 ], [ -71.9622733498489, -36.816353053364097 ], [ -71.962897184168199, -36.816227823324901 ], [ -71.962964774136097, -36.816209497515104 ], [ -71.963044672915004, -36.816515022261903 ], [ -71.963264972226398, -36.817305864177698 ] ] ] } },
{ "type": "Feature", "properties": { "id": "monoparte.2", "Name": null, "description": null, "timestamp": null, "begin": null, "end": null, "altitudeMode": null, "tessellate": -1, "extrude": 0, "visibility": -1, "drawOrder": null, "icon": null, "REG": "Ñuble", "COM": "San Ignacio", "LOC": "San Miguel", "ZONA": "ZM", "NOM": "ZM Zona Mixta", "UPERM": "Vivienda necesaria para el funcionamiento de la actividad. Infraestructura de tranporte, sanitaria y energética. Industria inofensiva. Equipamiento de comercio, seguridad y servicios.", "UPROH": "Todos los usos de suelo no mencionados como permitidos, además de rellenos sanitarios.", "P_DO": "10/05/2013", "N_DOC": "23", "T_DO": "Resolución", "OBS": null }, "geometry": { "type": "Polygon", "coordinates": [ [ [ -71.971381983324306, -36.811419119284302 ], [ -71.974956148221395, -36.810580590988202 ], [ -71.974500433158497, -36.8103820766257 ], [ -71.972873507731506, -36.8097170595913 ], [ -71.972769815598198, -36.809795949681202 ], [ -71.972653167381296, -36.809846553042902 ], [ -71.972404336376599, -36.8098527781653 ], [ -71.972217330389299, -36.809924214440997 ], [ -71.9719803477754, -36.809930142292203 ], [ -71.971780018182002, -36.809963764631703 ], [ -71.971513384541893, -36.810123023743401 ], [ -71.971386360223093, -36.810212032799797 ], [ -71.970973176490901, -36.8103256783048 ], [ -71.971381983324306, -36.811419119284302 ] ] ] } },
{ "type": "Feature", "properties": { "id": "monoparte.3", "Name": null, "description": null, "timestamp": null, "begin": null, "end": null, "altitudeMode": null, "tessellate": -1, "extrude": 0, "visibility": -1, "drawOrder": null, "icon": null, "REG": "Ñuble", "COM": "San Ignacio", "LOC": "San Miguel", "ZONA": "ZED", "NOM": "ZED Zona de Equipamiento Deportivo", "UPERM": "Equipamiento deportivo y de esparcimiento.", "UPROH": "Todos los usos de suelo no mencionados como permitidos, expresamente el uso residencial.", "P_DO": "10/05/2013", "N_DOC": "23", "T_DO": "Resolución", "OBS": null }, "geometry": { "type": "Polygon", "coordinates": [ [ [ -71.961713218454506, -36.816438544703502 ], [ -71.961878661132502, -36.817345201186299 ], [ -71.963264972226398, -36.817305864177698 ], [ -71.963044672915004, -36.816515022261903 ], [ -71.962964774136097, -36.816209497515104 ], [ -71.962897184168199, -36.816227823324901 ], [ -71.9622733498489, -36.816353053364097 ], [ -71.961713218454506, -36.816438544703502 ] ] ] } },
{ "type": "Feature", "properties": { "id": "monoparte.4", "Name": null, "description": null, "timestamp": null, "begin": null, "end": null, "altitudeMode": null, "tessellate": -1, "extrude": 0, "visibility": -1, "drawOrder": null, "icon": null, "REG": "Ñuble", "COM": "San Ignacio", "LOC": "San Miguel", "ZONA": "ZED", "NOM": "ZED Zona de Equipamiento Deportivo", "UPERM": "Equipamiento deportivo y de esparcimiento.", "UPROH": "Todos los usos de suelo no mencionados como permitidos, expresamente el uso residencial.", "P_DO": "10/05/2013", "N_DOC": "23", "T_DO": "Resolución", "OBS": null }, "geometry": { "type": "Polygon", "coordinates": [ [ [ -71.971527896709304, -36.814112190887897 ], [ -71.971536108455396, -36.8141328474982 ], [ -71.972249432427006, -36.8139838721331 ], [ -71.971901459571399, -36.812826332823697 ], [ -71.971205940728197, -36.812975808649 ], [ -71.971527896709304, -36.814112190887897 ] ] ] } },
{ "type": "Feature", "properties": { "id": "monoparte.5", "Name": null, "description": null, "timestamp": null, "begin": null, "end": null, "altitudeMode": null, "tessellate": -1, "extrude": 0, "visibility": -1, "drawOrder": null, "icon": null, "REG": "Ñuble", "COM": "San Ignacio", "LOC": "San Miguel", "ZONA": "ZEC", "NOM": "ZEC Zona de Equipamiento de Comercio y Servicios", "UPERM": "Residencial, infraestructura de transporte. Equipamiento científico, comercial, culto y cultura, salud, seguridad, servicios y social.", "UPROH": "Todos los usos de suelo no mencionados como permitidos, además de discotecas, estadios, zoológicos, cementerios, crematorios, cárceles y centros de detención.", "P_DO": "10/05/2013", "N_DOC": "23", "T_DO": "Resolución", "OBS": null }, "geometry": { "type": "Polygon", "coordinates": [ [ [ -71.971021596470607, -36.814247044346899 ], [ -71.971025644706501, -36.8142558840986 ], [ -71.971418762971197, -36.814165585241298 ], [ -71.971432538352005, -36.814138417787298 ], [ -71.971431271362604, -36.814105666478802 ], [ -71.971426762371095, -36.814084917257397 ], [ -71.971301636210697, -36.813629080938398 ], [ -71.9708942226342, -36.813726985477899 ], [ -71.970985291670999, -36.814075094397801 ], [ -71.971012232067096, -36.8141966135505 ], [ -71.971021596470607, -36.814247044346899 ] ] ] } },
{ "type": "Feature", "properties": { "id": "monoparte.6", "Name": null, "description": null, "timestamp": null, "begin": null, "end": null, "altitudeMode": null, "tessellate": -1, "extrude": 0, "visibility": -1, "drawOrder": null, "icon": null, "REG": "Ñuble", "COM": "San Ignacio", "LOC": "San Miguel", "ZONA": "EP", "NOM": "EP Zona de Espacio Público", "UPERM": "Área Verde", "UPROH": "ÁTodos los usos de suelo no mencionados como permitidos.", "P_DO": "10/05/2013", "N_DOC": "23", "T_DO": "Resolución", "OBS": null }, "geometry": { "type": "Polygon", "coordinates": [ [ [ -71.970637312814205, -36.813032347564203 ], [ -71.970685452071706, -36.813031143960799 ], [ -71.9708246701517, -36.812988919085697 ], [ -71.971081921817003, -36.812931821543998 ], [ -71.971110740380993, -36.812910238909303 ], [ -71.971117109225901, -36.812883256699699 ], [ -71.971116418232697, -36.8128653920134 ], [ -71.971092588838303, -36.812824263910699 ], [ -71.970913437796099, -36.812313152034903 ], [ -71.970901607408507, -36.812275131919101 ], [ -71.970900831756396, -36.812274723278399 ], [ -71.970859408494604, -36.812257877966402 ], [ -71.970814281459099, -36.812241124346301 ], [ -71.970762324927406, -36.8122394434087 ], [ -71.970695556694196, -36.812238131879397 ], [ -71.970364822002097, -36.812311967576498 ], [ -71.970321076617097, -36.812330943166899 ], [ -71.970300815737602, -36.812382114658803 ], [ -71.970294676872498, -36.812415051137698 ], [ -71.9703012577762, -36.812489393627303 ], [ -71.970494296002897, -36.812976317272003 ], [ -71.970506671685001, -36.813008790872999 ], [ -71.970581537900003, -36.813027781097603 ], [ -71.970637312814205, -36.813032347564203 ] ] ] } },
{ "type": "Feature", "properties": { "id": "monoparte.7", "Name": null, "description": null, "timestamp": null, "begin": null, "end": null, "altitudeMode": null, "tessellate": -1, "extrude": 0, "visibility": -1, "drawOrder": null, "icon": null, "REG": "Ñuble", "COM": "San Ignacio", "LOC": "Quiriquina", "ZONA": "ZM", "NOM": "ZM Zona Mixta", "UPERM": "Vivienda necesaria para el funcionamiento de la actividad. Infraestructura de tranporte, sanitaria y energética. Industria inofensiva. Equipamiento de comercio, seguridad y servicios.", "UPROH": "Todos los usos de suelo no mencionados como permitidos, además de rellenos sanitarios.", "P_DO": "10/05/2013", "N_DOC": "23", "T_DO": "Resolución", "OBS": null }, "geometry": { "type": "Polygon", "coordinates": [ [ [ -72.100032222939305, -36.834600471663499 ], [ -72.100023847879399, -36.834671990230099 ], [ -72.0999696048885, -36.835172303950301 ], [ -72.099923598508695, -36.836052659895103 ], [ -72.099931415009294, -36.836246167702697 ], [ -72.101271140724606, -36.8360995971845 ], [ -72.101348805370606, -36.835269077532303 ], [ -72.101541269919096, -36.833976611425001 ], [ -72.100032222939305, -36.834600471663499 ] ] ] } },
{ "type": "Feature", "properties": { "id": "monoparte.8", "Name": null, "description": null, "timestamp": null, "begin": null, "end": null, "altitudeMode": null, "tessellate": -1, "extrude": 0, "visibility": -1, "drawOrder": null, "icon": null, "REG": "Ñuble", "COM": "San Ignacio", "LOC": "Quiriquina", "ZONA": "ZED", "NOM": "ZED Zona de Equipamiento Deportivo", "UPERM": "Equipamiento deportivo y de esparcimiento.", "UPROH": "Todos los usos de suelo no mencionados como permitidos, expresamente el uso residencial.", "P_DO": "10/05/2013", "N_DOC": "23", "T_DO": "Resolución", "OBS": null }, "geometry": { "type": "Polygon", "coordinates": [ [ [ -72.099640400557504, -36.841372034423102 ], [ -72.099796260245398, -36.842476595638601 ], [ -72.101030931238796, -36.842199989627403 ], [ -72.100839019096298, -36.841047493597003 ], [ -72.100007185453805, -36.841273056025898 ], [ -72.099640400557504, -36.841372034423102 ] ] ] } },
{ "type": "Feature", "properties": { "id": "monoparte.9", "Name": null, "description": null, "timestamp": null, "begin": null, "end": null, "altitudeMode": null, "tessellate": -1, "extrude": 0, "visibility": -1, "drawOrder": null, "icon": null, "REG": "Ñuble", "COM": "San Ignacio", "LOC": "Pueblo Seco", "ZONA": "ZM", "NOM": "ZM Zona Mixta", "UPERM": "Vivienda necesaria para el funcionamiento de la actividad. Infraestructura de tranporte, sanitaria y energética. Industria inofensiva. Equipamiento de comercio, seguridad y servicios.", "UPROH": "Todos los usos de suelo no mencionados como permitidos, además de rellenos sanitarios.", "P_DO": "10/05/2013", "N_DOC": "23", "T_DO": "Resolución", "OBS": null }, "geometry": { "type": "Polygon", "coordinates": [ [ [ -72.091360855876005, -36.873909597488598 ], [ -72.091401260252198, -36.875914171731601 ], [ -72.092858064329803, -36.875833317162297 ], [ -72.092756457295806, -36.874746080989098 ], [ -72.092489487003206, -36.871889177320597 ], [ -72.092482008057502, -36.871809141577899 ], [ -72.092426832760907, -36.871324213252898 ], [ -72.092431240855007, -36.871263486482697 ], [ -72.092449720173903, -36.871008909821697 ], [ -72.092502454682901, -36.870663104681597 ], [ -72.092548276337894, -36.870362624281697 ], [ -72.092558846727698, -36.869788006293703 ], [ -72.091295855888802, -36.869870163694401 ], [ -72.091234838475103, -36.870343813014003 ], [ -72.091190454800099, -36.870788419560697 ], [ -72.091167850363504, -36.871110868365797 ], [ -72.091313550918002, -36.872516104205197 ], [ -72.091347764156794, -36.872922902711998 ], [ -72.091403222722406, -36.873414976155502 ], [ -72.091414174661907, -36.873686483821203 ], [ -72.091360855876005, -36.873909597488598 ] ] ] } },
{ "type": "Feature", "properties": { "id": "monoparte.10", "Name": null, "description": null, "timestamp": null, "begin": null, "end": null, "altitudeMode": null, "tessellate": -1, "extrude": 0, "visibility": -1, "drawOrder": null, "icon": null, "REG": "Ñuble", "COM": "San Ignacio", "LOC": "Pueblo Seco", "ZONA": "ZED", "NOM": "ZED Zona de Equipamiento Deportivo", "UPERM": "Equipamiento deportivo y de esparcimiento.", "UPROH": "Todos los usos de suelo no mencionados como permitidos, expresamente el uso residencial.", "P_DO": "10/05/2013", "N_DOC": "23", "T_DO": "Resolución", "OBS": null }, "geometry": { "type": "Polygon", "coordinates": [ [ [ -72.085067430298693, -36.880926294320098 ], [ -72.085089247678894, -36.881774383804903 ], [ -72.085633304698405, -36.881873901583397 ], [ -72.086033650319706, -36.8819397877811 ], [ -72.087437356331904, -36.882186614537098 ], [ -72.087226558412297, -36.8807115421398 ], [ -72.086561515217895, -36.880778900963399 ], [ -72.085067430298693, -36.880926294320098 ] ] ] } },
{ "type": "Feature", "properties": { "id": "monoparte.11", "Name": null, "description": null, "timestamp": null, "begin": null, "end": null, "altitudeMode": null, "tessellate": -1, "extrude": 0, "visibility": -1, "drawOrder": null, "icon": null, "REG": "Ñuble", "COM": "San Ignacio", "LOC": "San Ignacio", "ZONA": "ZR-1", "NOM": "ZR-1 Zona Residencial de densidad media", "UPERM": "Residencial, infraestructura de transporte. Equipamiento científico, comercial, culto y cultura, deporte, esparcimiento educación, salud, seguridad, servicios y social.", "UPROH": "Todos los usos de suelo no mencionados como permitidos, además de estaciones o centros de servicio automotor, mercados, discotecas, estadios, zoológicos, cementerios, crematorios, cárceles y centros de detención.", "P_DO": "10/05/2013", "N_DOC": "23", "T_DO": "Resolución", "OBS": null }, "geometry": { "type": "Polygon", "coordinates": [ [ [ -72.033093587680099, -36.794460950524602 ], [ -72.032159528467304, -36.794680292892401 ], [ -72.032067209204499, -36.794444227941298 ], [ -72.031599969571303, -36.793721814051302 ], [ -72.032496324780993, -36.793298396965099 ], [ -72.032840666802301, -36.793117876608001 ], [ -72.032698062273596, -36.793149154122297 ], [ -72.030509090633501, -36.793569781654803 ], [ -72.029803119806004, -36.793709377138299 ], [ -72.029765174741698, -36.793874854928802 ], [ -72.0297983068848, -36.794038520525 ], [ -72.029804503318204, -36.794195719817303 ], [ -72.029908148909101, -36.794343282305299 ], [ -72.0299900811562, -36.794391261899797 ], [ -72.030070887850499, -36.794410658823097 ], [ -72.030162268785702, -36.794472702570403 ], [ -72.030220083418101, -36.794585669953896 ], [ -72.030312028101903, -36.794662004406497 ], [ -72.030420052977206, -36.794695013101098 ], [ -72.030456718262997, -36.794722688476298 ], [ -72.030459535499205, -36.794794142649003 ], [ -72.030510156032506, -36.794950208946297 ], [ -72.030504371014004, -36.795029035545603 ], [ -72.030256575768504, -36.795285696193503 ], [ -72.030138387799994, -36.7954460672224 ], [ -72.030134291486902, -36.795567766356399 ], [ -72.030057145555702, -36.795641259531699 ], [ -72.029933041293901, -36.795651577037297 ], [ -72.029863653651404, -36.795696261863299 ], [ -72.029794829271296, -36.795755237493097 ], [ -72.029697941688497, -36.795779165122099 ], [ -72.029583566244, -36.795810691578801 ], [ -72.0294792026084, -36.795870573997597 ], [ -72.029419826358307, -36.795943613751298 ], [ -72.0294240509768, -36.7960507955409 ], [ -72.029473543857904, -36.796178280621298 ], [ -72.029406408603606, -36.796280128588798 ], [ -72.029213646786204, -36.796353707600801 ], [ -72.029125643645699, -36.796377409198001 ], [ -72.029048777536502, -36.796458046764897 ], [ -72.029009703457106, -36.796594942686099 ], [ -72.028932274971098, -36.796661290212498 ], [ -72.028747663863896, -36.796716063513202 ], [ -72.028473640849199, -36.796758810993303 ], [ -72.028344027624797, -36.796855098521903 ], [ -72.028070285335005, -36.796904990082801 ], [ -72.027895684418496, -36.796988117413001 ], [ -72.027889332564698, -36.797052653156598 ], [ -72.027829109418406, -36.797104256368002 ], [ -72.0277597192119, -36.797148940070798 ], [ -72.027633921980495, -36.7971163818276 ], [ -72.027489230318693, -36.797055695314299 ], [ -72.027373726109502, -36.797058638026002 ], [ -72.027241860431801, -36.797097760021401 ], [ -72.027099982315406, -36.797108527410103 ], [ -72.026939772574806, -36.797105455478203 ], [ -72.026814821066395, -36.797094333084203 ], [ -72.026708202193504, -36.797097048822103 ], [ -72.026654611375207, -36.797091261665798 ], [ -72.026555188529599, -36.797050878336499 ], [ -72.026511888978305, -36.797080591584098 ], [ -72.026418376132, -36.797190261917301 ], [ -72.026368724425794, -36.797284510811103 ], [ -72.026264917728398, -36.797358680608902 ], [ -72.026151383523199, -36.797411640672102 ], [ -72.026061689997704, -36.797392466535101 ], [ -72.025970870094596, -36.797344711481699 ], [ -72.025735196861604, -36.797458001306801 ], [ -72.025445085731803, -36.797544067169298 ], [ -72.025331831899706, -36.797604171482902 ], [ -72.024994764090494, -36.797627057812697 ], [ -72.024420895015695, -36.797734649624701 ], [ -72.023837295134001, -36.797821028023897 ], [ -72.023651271506495, -36.797840066843101 ], [ -72.023490777838205, -36.797829845339997 ], [ -72.023396416389602, -36.797918077589401 ], [ -72.023318699311503, -36.797977275841802 ], [ -72.023186266459106, -36.798002103499897 ], [ -72.023100507880699, -36.798082964490199 ], [ -72.023057207469407, -36.798112676532398 ], [ -72.022977241419895, -36.798114710880697 ], [ -72.022834799461805, -36.798111181428403 ], [ -72.022603505851905, -36.798109912828302 ], [ -72.022452045249594, -36.798180210124997 ], [ -72.023022093115898, -36.799973817575797 ], [ -72.023327258077302, -36.8009483477842 ], [ -72.022224034750096, -36.801231314927001 ], [ -72.022531729045298, -36.802164416163201 ], [ -72.022987241243499, -36.803458986204902 ], [ -72.021484457955793, -36.803861425320399 ], [ -72.021934360472301, -36.805067839777699 ], [ -72.022957452772602, -36.807559537895898 ], [ -72.026729193522002, -36.806662424220903 ], [ -72.029284163012903, -36.806039409070799 ], [ -72.028784938279003, -36.804657376458202 ], [ -72.028690857232704, -36.804379074710603 ], [ -72.027939547631505, -36.804575060375598 ], [ -72.027651169760105, -36.803802773325103 ], [ -72.027836080007802, -36.803755145946603 ], [ -72.028456258560098, -36.803607196825098 ], [ -72.028633907042803, -36.804210612171303 ], [ -72.029428595929204, -36.804041093929499 ], [ -72.029198059495997, -36.803407147667002 ], [ -72.029668473435194, -36.803287864786398 ], [ -72.030270725634097, -36.803147337107603 ], [ -72.031435789681197, -36.802900060545397 ], [ -72.032351203175693, -36.8027127891351 ], [ -72.033899644594499, -36.802413980848002 ], [ -72.034131040229894, -36.803057419246798 ], [ -72.036098797935097, -36.802692581941201 ], [ -72.036447909332296, -36.803649261149602 ], [ -72.039784069222193, -36.8029008994016 ], [ -72.039442435808198, -36.801910048564899 ], [ -72.039552372485204, -36.801878626061097 ], [ -72.039486139455505, -36.801665742056301 ], [ -72.040500218975595, -36.801421643816902 ], [ -72.040418877172897, -36.801051790268801 ], [ -72.0402209205118, -36.800094831525499 ], [ -72.040260621256806, -36.8000866636187 ], [ -72.040629556205005, -36.7999699343356 ], [ -72.0409629506524, -36.799854113479498 ], [ -72.041212641769903, -36.799758315703897 ], [ -72.041409870137102, -36.799685318423798 ], [ -72.041523078768805, -36.7999613716607 ], [ -72.042095610021093, -36.801393784671802 ], [ -72.043167438019594, -36.801128230247997 ], [ -72.0427746615118, -36.800347755425598 ], [ -72.043252904211897, -36.800296168124 ], [ -72.043584541234793, -36.8002483350717 ], [ -72.043934852972697, -36.800110615337303 ], [ -72.0435115706549, -36.799453882850301 ], [ -72.042989939841405, -36.798709067692698 ], [ -72.042704484978202, -36.798328230747899 ], [ -72.041471150653706, -36.798626834615 ], [ -72.040723948769397, -36.797425248521698 ], [ -72.040478160867906, -36.7976270422676 ], [ -72.039355341180695, -36.798471162990403 ], [ -72.037680561971598, -36.798852544952901 ], [ -72.037593202410505, -36.798592516430297 ], [ -72.036616792419807, -36.796090219696502 ], [ -72.035874033303102, -36.7937684132648 ], [ -72.034496295712003, -36.794695896190703 ], [ -72.033891301198295, -36.792887428640697 ], [ -72.033004335387005, -36.793081977455003 ], [ -72.033612280125695, -36.793932722363898 ], [ -72.033632117192198, -36.793984668928999 ], [ -72.033634561263099, -36.7940465951039 ], [ -72.033590749756797, -36.794138313398598 ], [ -72.033093587680099, -36.794460950524602 ] ], [ [ -72.031558735040207, -36.7983161400239 ], [ -72.032384940401002, -36.800881814363201 ], [ -72.032400996649599, -36.8009305441606 ], [ -72.029301638715296, -36.801614888890001 ], [ -72.029232030764106, -36.801448611867698 ], [ -72.028384282495907, -36.798895279085301 ], [ -72.031527642028394, -36.798237817216602 ], [ -72.031538630985594, -36.798234556880701 ], [ -72.031558735040207, -36.7983161400239 ] ] ] } },
{ "type": "Feature", "properties": { "id": "monoparte.12", "Name": null, "description": null, "timestamp": null, "begin": null, "end": null, "altitudeMode": null, "tessellate": -1, "extrude": 0, "visibility": -1, "drawOrder": null, "icon": null, "REG": "Ñuble", "COM": "San Ignacio", "LOC": "San Ignacio", "ZONA": "ZCU", "NOM": "ZCU Zona de Crecimiento Urbano", "UPERM": "Residencial, infraestructura de transporte y sanitaria. Equipamiento científico, comercial, culto y cultura, deporte, esparcimiento educación, salud, seguridad, servicios y social.", "UPROH": "Todos los usos de suelo no mencionados como permitidos, además de estaciones o centros de servicio automotor, mercados, discotecas, estadios, zoológicos, cementerios, crematorios, cárceles y centros de detención.", "P_DO": "10/05/2013", "N_DOC": "23", "T_DO": "Resolución", "OBS": null }, "geometry": { "type": "Polygon", "coordinates": [ [ [ -72.0181664233845, -36.805608503263102 ], [ -72.018305648131999, -36.805982624776 ], [ -72.021934360472301, -36.805067839777699 ], [ -72.021484457955793, -36.803861425320399 ], [ -72.021482117072793, -36.803862052549299 ], [ -72.018821636748797, -36.804516190626799 ], [ -72.017861185456098, -36.804766125365603 ], [ -72.0181664233845, -36.805608503263102 ] ] ] } },
{ "type": "Feature", "properties": { "id": "monoparte.13", "Name": null, "description": null, "timestamp": null, "begin": null, "end": null, "altitudeMode": null, "tessellate": -1, "extrude": 0, "visibility": -1, "drawOrder": null, "icon": null, "REG": "Ñuble", "COM": "San Ignacio", "LOC": "San Ignacio", "ZONA": "ZCU", "NOM": "ZCU Zona de Crecimiento Urbano", "UPERM": "Residencial, infraestructura de transporte y sanitaria. Equipamiento científico, comercial, culto y cultura, deporte, esparcimiento educación, salud, seguridad, servicios y social.", "UPROH": "Todos los usos de suelo no mencionados como permitidos, además de estaciones o centros de servicio automotor, mercados, discotecas, estadios, zoológicos, cementerios, crematorios, cárceles y centros de detención.", "P_DO": "10/05/2013", "N_DOC": "23", "T_DO": "Resolución", "OBS": null }, "geometry": { "type": "Polygon", "coordinates": [ [ [ -72.029198059495997, -36.803407147667002 ], [ -72.029428595929204, -36.804041093929499 ], [ -72.033432186338203, -36.803186983480501 ], [ -72.034131040229894, -36.803057419246798 ], [ -72.033899644594499, -36.802413980848002 ], [ -72.032351203175693, -36.8027127891351 ], [ -72.031435789681197, -36.802900060545397 ], [ -72.030270725634097, -36.803147337107603 ], [ -72.029668473435194, -36.803287864786398 ], [ -72.029198059495997, -36.803407147667002 ] ] ] } },
{ "type": "Feature", "properties": { "id": "monoparte.14", "Name": null, "description": null, "timestamp": null, "begin": null, "end": null, "altitudeMode": null, "tessellate": -1, "extrude": 0, "visibility": -1, "drawOrder": null, "icon": null, "REG": "Ñuble", "COM": "San Ignacio", "LOC": "San Ignacio", "ZONA": "ZCU", "NOM": "ZCU Zona de Crecimiento Urbano", "UPERM": "Residencial, infraestructura de transporte y sanitaria. Equipamiento científico, comercial, culto y cultura, deporte, esparcimiento educación, salud, seguridad, servicios y social.", "UPROH": "Todos los usos de suelo no mencionados como permitidos, además de estaciones o centros de servicio automotor, mercados, discotecas, estadios, zoológicos, cementerios, crematorios, cárceles y centros de detención.", "P_DO": "10/05/2013", "N_DOC": "23", "T_DO": "Resolución", "OBS": null }, "geometry": { "type": "Polygon", "coordinates": [ [ [ -72.039442435808198, -36.801910048564899 ], [ -72.039784069222193, -36.8029008994016 ], [ -72.040838427821896, -36.8026643650485 ], [ -72.040598436490598, -36.801769280155597 ], [ -72.041575941732503, -36.801522532148098 ], [ -72.042095610021093, -36.801393784671802 ], [ -72.041523078768805, -36.7999613716607 ], [ -72.041409870137102, -36.799685318423798 ], [ -72.041212641769903, -36.799758315703897 ], [ -72.0409629506524, -36.799854113479498 ], [ -72.040629556205005, -36.7999699343356 ], [ -72.040260621256806, -36.8000866636187 ], [ -72.0402209205118, -36.800094831525499 ], [ -72.040418877172897, -36.801051790268801 ], [ -72.040500218975595, -36.801421643816902 ], [ -72.039486139455505, -36.801665742056301 ], [ -72.039552372485204, -36.801878626061097 ], [ -72.039442435808198, -36.801910048564899 ] ] ] } },
{ "type": "Feature", "properties": { "id": "monoparte.15", "Name": null, "description": null, "timestamp": null, "begin": null, "end": null, "altitudeMode": null, "tessellate": -1, "extrude": 0, "visibility": -1, "drawOrder": null, "icon": null, "REG": "Ñuble", "COM": "San Ignacio", "LOC": "San Ignacio", "ZONA": "ZCU", "NOM": "ZCU Zona de Crecimiento Urbano", "UPERM": "Residencial, infraestructura de transporte y sanitaria. Equipamiento científico, comercial, culto y cultura, deporte, esparcimiento educación, salud, seguridad, servicios y social.", "UPROH": "Todos los usos de suelo no mencionados como permitidos, además de estaciones o centros de servicio automotor, mercados, discotecas, estadios, zoológicos, cementerios, crematorios, cárceles y centros de detención.", "P_DO": "10/05/2013", "N_DOC": "23", "T_DO": "Resolución", "OBS": null }, "geometry": { "type": "Polygon", "coordinates": [ [ [ -72.021845012359506, -36.8000818716623 ], [ -72.022224034750096, -36.801231314927001 ], [ -72.023327258077302, -36.8009483477842 ], [ -72.023022093115898, -36.799973817575797 ], [ -72.022452045249594, -36.798180210124997 ], [ -72.022358939278902, -36.7982234222928 ], [ -72.022248209733206, -36.798347833496301 ], [ -72.022164416677697, -36.798478711690997 ], [ -72.022104749281894, -36.7985446031782 ], [ -72.021980638701294, -36.7985549126291 ], [ -72.021772172175005, -36.798681808067002 ], [ -72.021461576974403, -36.798925742783801 ], [ -72.021845012359506, -36.8000818716623 ] ] ] } },
{ "type": "Feature", "properties": { "id": "monoparte.16", "Name": null, "description": null, "timestamp": null, "begin": null, "end": null, "altitudeMode": null, "tessellate": -1, "extrude": 0, "visibility": -1, "drawOrder": null, "icon": null, "REG": "Ñuble", "COM": "San Ignacio", "LOC": "San Ignacio", "ZONA": "ZCU", "NOM": "ZCU Zona de Crecimiento Urbano", "UPERM": "Residencial, infraestructura de transporte y sanitaria. Equipamiento científico, comercial, culto y cultura, deporte, esparcimiento educación, salud, seguridad, servicios y social.", "UPROH": "Todos los usos de suelo no mencionados como permitidos, además de estaciones o centros de servicio automotor, mercados, discotecas, estadios, zoológicos, cementerios, crematorios, cárceles y centros de detención.", "P_DO": "10/05/2013", "N_DOC": "23", "T_DO": "Resolución", "OBS": null }, "geometry": { "type": "Polygon", "coordinates": [ [ [ -72.036616792419807, -36.796090219696502 ], [ -72.037593202410505, -36.798592516430297 ], [ -72.037680561971598, -36.798852544952901 ], [ -72.039355341180695, -36.798471162990403 ], [ -72.040478160867906, -36.7976270422676 ], [ -72.040723948769397, -36.797425248521698 ], [ -72.041471150653706, -36.798626834615 ], [ -72.042704484978202, -36.798328230747899 ], [ -72.042989939841405, -36.798709067692698 ], [ -72.0435115706549, -36.799453882850301 ], [ -72.043934852972697, -36.800110615337303 ], [ -72.043584541234793, -36.8002483350717 ], [ -72.043252904211897, -36.800296168124 ], [ -72.0427746615118, -36.800347755425598 ], [ -72.043167438019594, -36.801128230247997 ], [ -72.045407344816894, -36.800573238944402 ], [ -72.044043250716996, -36.798469569143201 ], [ -72.043795998493195, -36.7980653437955 ], [ -72.043223572583003, -36.798208752543403 ], [ -72.040831423004605, -36.793720941127098 ], [ -72.039424852819096, -36.791173496118297 ], [ -72.0369075280326, -36.793072646589799 ], [ -72.035874033303102, -36.7937684132648 ], [ -72.036616792419807, -36.796090219696502 ] ] ] } },
{ "type": "Feature", "properties": { "id": "monoparte.17", "Name": null, "description": null, "timestamp": null, "begin": null, "end": null, "altitudeMode": null, "tessellate": -1, "extrude": 0, "visibility": -1, "drawOrder": null, "icon": null, "REG": "Ñuble", "COM": "San Ignacio", "LOC": "San Ignacio", "ZONA": "ZM", "NOM": "ZM Zona Mixta", "UPERM": "Vivienda necesaria para el funcionamiento de la actividad. Infraestructura de tranporte, sanitaria y energética. Industria inofensiva. Equipamiento de comercio, seguridad y servicios.", "UPROH": "Todos los usos de suelo no mencionados como permitidos, además de rellenos sanitarios.", "P_DO": "10/05/2013", "N_DOC": "23", "T_DO": "Resolución", "OBS": null }, "geometry": { "type": "Polygon", "coordinates": [ [ [ -72.017861185456098, -36.804766125365603 ], [ -72.018821636748797, -36.804516190626799 ], [ -72.021482117072793, -36.803862052549299 ], [ -72.021484457955793, -36.803861425320399 ], [ -72.022987241243499, -36.803458986204902 ], [ -72.022531729045298, -36.802164416163201 ], [ -72.018902879192296, -36.803072068209502 ], [ -72.017388291023806, -36.803461018069001 ], [ -72.017861185456098, -36.804766125365603 ] ] ] } },
{ "type": "Feature", "properties": { "id": "monoparte.18", "Name": null, "description": null, "timestamp": null, "begin": null, "end": null, "altitudeMode": null, "tessellate": -1, "extrude": 0, "visibility": -1, "drawOrder": null, "icon": null, "REG": "Ñuble", "COM": "San Ignacio", "LOC": "San Ignacio", "ZONA": "EP", "NOM": "EP Zona de Espacio Público", "UPERM": "Área Verde", "UPROH": "ÁTodos los usos de suelo no mencionados como permitidos.", "P_DO": "10/05/2013", "N_DOC": "23", "T_DO": "Resolución", "OBS": null }, "geometry": { "type": "Polygon", "coordinates": [ [ [ -72.029839311616598, -36.800626339083998 ], [ -72.029861525117497, -36.800625772674998 ], [ -72.031342944517206, -36.800319766451402 ], [ -72.031325631301101, -36.800257955540701 ], [ -72.0309639631881, -36.799149555205403 ], [ -72.030922349782301, -36.799051966226699 ], [ -72.029392926782606, -36.7993630996421 ], [ -72.029768962110893, -36.8004788568973 ], [ -72.029831907862402, -36.800626527867102 ], [ -72.029839311616598, -36.800626339083998 ] ] ] } },
{ "type": "Feature", "properties": { "id": "monoparte.19", "Name": null, "description": null, "timestamp": null, "begin": null, "end": null, "altitudeMode": null, "tessellate": -1, "extrude": 0, "visibility": -1, "drawOrder": null, "icon": null, "REG": "Ñuble", "COM": "San Ignacio", "LOC": "San Ignacio", "ZONA": "ZCH", "NOM": "ZCH Zona de Conservación Histórica", "UPERM": "Residencial. Equipamiento científico, comercial, culto y cultura, esparcimiento educación, salud, seguridad, servicios y social.", "UPROH": "Todos los usos de suelo no mencionados como permitidos, además de estaciones o centros de servicio automotor, mercados, discotecas, estadios, zoológicos, cementerios, crematorios, cárceles y centros de detención.", "P_DO": "10/05/2013", "N_DOC": "23", "T_DO": "Resolución", "OBS": null }, "geometry": { "type": "Polygon", "coordinates": [ [ [ -72.028384282495907, -36.798895279085301 ], [ -72.029232030764106, -36.801448611867698 ], [ -72.029301638715296, -36.801614888890001 ], [ -72.032400996649599, -36.8009305441606 ], [ -72.032384940401002, -36.800881814363201 ], [ -72.031558735040207, -36.7983161400239 ], [ -72.031538630985594, -36.798234556880701 ], [ -72.031527642028394, -36.798237817216602 ], [ -72.028384282495907, -36.798895279085301 ] ], [ [ -72.031342944517206, -36.800319766451402 ], [ -72.029861525117497, -36.800625772674998 ], [ -72.029839311616598, -36.800626339083998 ], [ -72.029831907862402, -36.800626527867102 ], [ -72.029768962110893, -36.8004788568973 ], [ -72.029392926782606, -36.7993630996421 ], [ -72.030922349782301, -36.799051966226699 ], [ -72.0309639631881, -36.799149555205403 ], [ -72.031325631301101, -36.800257955540701 ], [ -72.031342944517206, -36.800319766451402 ] ] ] } },
{ "type": "Feature", "properties": { "id": "monoparte.20", "Name": null, "description": null, "timestamp": null, "begin": null, "end": null, "altitudeMode": null, "tessellate": -1, "extrude": 0, "visibility": -1, "drawOrder": null, "icon": null, "REG": "Ñuble", "COM": "San Ignacio", "LOC": "San Ignacio", "ZONA": "ZE", "NOM": "ZE Zona de Equipamiento", "UPERM": "Residencial. Equipamiento comercial, deporte, esparcimiento y social.", "UPROH": "Todos los usos de suelo no mencionados como permitidos, además de estaciones o centros de servicio automotor, mercados, discotecas y zoológicos.", "P_DO": "10/05/2013", "N_DOC": "23", "T_DO": "Resolución", "OBS": null }, "geometry": { "type": "Polygon", "coordinates": [ [ [ -72.028690857232704, -36.804379074710603 ], [ -72.028633907042803, -36.804210612171303 ], [ -72.028456258560098, -36.803607196825098 ], [ -72.027836080007802, -36.803755145946603 ], [ -72.027651169760105, -36.803802773325103 ], [ -72.027939547631505, -36.804575060375598 ], [ -72.028690857232704, -36.804379074710603 ] ] ] } },
{ "type": "Feature", "properties": { "id": "monoparte.21", "Name": null, "description": null, "timestamp": null, "begin": null, "end": null, "altitudeMode": null, "tessellate": -1, "extrude": 0, "visibility": -1, "drawOrder": null, "icon": null, "REG": "Ñuble", "COM": "San Ignacio", "LOC": "San Ignacio", "ZONA": "ZED", "NOM": "ZED Zona de Equipamiento Deportivo", "UPERM": "Equipamiento deportivo y de esparcimiento.", "UPROH": "Todos los usos de suelo no mencionados como permitidos, expresamente el uso residencial.", "P_DO": "10/05/2013", "N_DOC": "23", "T_DO": "Resolución", "OBS": null }, "geometry": { "type": "Polygon", "coordinates": [ [ [ -72.032840666802301, -36.793117876608001 ], [ -72.032496324780993, -36.793298396965099 ], [ -72.031599969571303, -36.793721814051302 ], [ -72.032067209204499, -36.794444227941298 ], [ -72.032159528467304, -36.794680292892401 ], [ -72.033093587680099, -36.794460950524602 ], [ -72.033590749756797, -36.794138313398598 ], [ -72.033634561263099, -36.7940465951039 ], [ -72.033632117192198, -36.793984668928999 ], [ -72.033612280125695, -36.793932722363898 ], [ -72.033004335387005, -36.793081977455003 ], [ -72.032840666802301, -36.793117876608001 ] ] ] } },
{ "type": "Feature", "properties": { "id": "monoparte.22", "Name": null, "description": null, "timestamp": null, "begin": null, "end": null, "altitudeMode": null, "tessellate": -1, "extrude": 0, "visibility": -1, "drawOrder": null, "icon": null, "REG": "Ñuble", "COM": "San Ignacio", "LOC": "San Miguel", "ZONA": "ZCU", "NOM": "ZCU Zona de Crecimiento Urbano", "UPERM": "Residencial, infraestructura de transporte y sanitaria. Equipamiento científico, comercial, culto y cultura, deporte, esparcimiento educación, salud, seguridad, servicios y social.", "UPROH": "Todos los usos de suelo no mencionados como permitidos, además de estaciones o centros de servicio automotor, mercados, discotecas, estadios, zoológicos, cementerios, crematorios, cárceles y centros de detención.", "P_DO": "10/05/2013", "N_DOC": "23", "T_DO": "Resolución", "OBS": null }, "geometry": { "type": "Polygon", "coordinates": [ [ [ -71.965252916211995, -36.81622826161 ], [ -71.965687238708099, -36.817721540488698 ], [ -71.965745878873406, -36.817719302642601 ], [ -71.9695677796377, -36.816860882427598 ], [ -71.970191420353203, -36.816730850227103 ], [ -71.969789923671996, -36.815243585812802 ], [ -71.968538466062995, -36.815496511535599 ], [ -71.965966962906805, -36.816097186519002 ], [ -71.965252916211995, -36.81622826161 ] ] ] } },
{ "type": "Feature", "properties": { "id": "monoparte.23", "Name": null, "description": null, "timestamp": null, "begin": null, "end": null, "altitudeMode": null, "tessellate": -1, "extrude": 0, "visibility": -1, "drawOrder": null, "icon": null, "REG": "Ñuble", "COM": "San Ignacio", "LOC": "San Miguel", "ZONA": "ZCU", "NOM": "ZCU Zona de Crecimiento Urbano", "UPERM": "Residencial, infraestructura de transporte y sanitaria. Equipamiento científico, comercial, culto y cultura, deporte, esparcimiento educación, salud, seguridad, servicios y social.", "UPROH": "Todos los usos de suelo no mencionados como permitidos, además de estaciones o centros de servicio automotor, mercados, discotecas, estadios, zoológicos, cementerios, crematorios, cárceles y centros de detención.", "P_DO": "10/05/2013", "N_DOC": "23", "T_DO": "Resolución", "OBS": null }, "geometry": { "type": "Polygon", "coordinates": [ [ [ -71.959705010401194, -36.816871987185799 ], [ -71.960667646689103, -36.816900920832097 ], [ -71.959988817295297, -36.815445564402403 ], [ -71.960731806394705, -36.815295918652701 ], [ -71.9619874901543, -36.814984472778598 ], [ -71.9632133075892, -36.8146677985971 ], [ -71.963551237429897, -36.814587842110598 ], [ -71.963079970878098, -36.813185188689403 ], [ -71.961315365036299, -36.813562976959503 ], [ -71.958362707284607, -36.814199213604098 ], [ -71.959647561325596, -36.816761270952099 ], [ -71.959705010401194, -36.816871987185799 ] ] ] } },
{ "type": "Feature", "properties": { "id": "monoparte.24", "Name": null, "description": null, "timestamp": null, "begin": null, "end": null, "altitudeMode": null, "tessellate": -1, "extrude": 0, "visibility": -1, "drawOrder": null, "icon": null, "REG": "Ñuble", "COM": "San Ignacio", "LOC": "San Miguel", "ZONA": "ZCU", "NOM": "ZCU Zona de Crecimiento Urbano", "UPERM": "Residencial, infraestructura de transporte y sanitaria. Equipamiento científico, comercial, culto y cultura, deporte, esparcimiento educación, salud, seguridad, servicios y social.", "UPROH": "Todos los usos de suelo no mencionados como permitidos, además de estaciones o centros de servicio automotor, mercados, discotecas, estadios, zoológicos, cementerios, crematorios, cárceles y centros de detención.", "P_DO": "10/05/2013", "N_DOC": "23", "T_DO": "Resolución", "OBS": null }, "geometry": { "type": "Polygon", "coordinates": [ [ [ -71.975511279678599, -36.813308603560102 ], [ -71.973899315957794, -36.8136446069607 ], [ -71.974089662691398, -36.814264624806398 ], [ -71.976951138661406, -36.813633830338098 ], [ -71.977867654806602, -36.813410587699799 ], [ -71.978952276092301, -36.813240343929102 ], [ -71.979651769151403, -36.813232341340303 ], [ -71.979661772465903, -36.813232332875501 ], [ -71.979386544115798, -36.812510370597998 ], [ -71.978333387480902, -36.8126752156493 ], [ -71.9775198351266, -36.812800512623497 ], [ -71.976275228683207, -36.813127341289999 ], [ -71.975511279678599, -36.813308603560102 ] ] ] } },
{ "type": "Feature", "properties": { "id": "monoparte.25", "Name": null, "description": null, "timestamp": null, "begin": null, "end": null, "altitudeMode": null, "tessellate": -1, "extrude": 0, "visibility": -1, "drawOrder": null, "icon": null, "REG": "Ñuble", "COM": "San Ignacio", "LOC": "San Miguel", "ZONA": "ZCU", "NOM": "ZCU Zona de Crecimiento Urbano", "UPERM": "Residencial, infraestructura de transporte y sanitaria. Equipamiento científico, comercial, culto y cultura, deporte, esparcimiento educación, salud, seguridad, servicios y social.", "UPROH": "Todos los usos de suelo no mencionados como permitidos, además de estaciones o centros de servicio automotor, mercados, discotecas, estadios, zoológicos, cementerios, crematorios, cárceles y centros de detención.", "P_DO": "10/05/2013", "N_DOC": "23", "T_DO": "Resolución", "OBS": null }, "geometry": { "type": "Polygon", "coordinates": [ [ [ -71.971381983324306, -36.811419119284302 ], [ -71.971655670712906, -36.8122086095348 ], [ -71.973423896639702, -36.811773356714198 ], [ -71.976031944729797, -36.8111263077489 ], [ -71.976132794745993, -36.811093137988003 ], [ -71.974956148221395, -36.810580590988202 ], [ -71.971381983324306, -36.811419119284302 ] ] ] } },
{ "type": "Feature", "properties": { "id": "monoparte.26", "Name": null, "description": null, "timestamp": null, "begin": null, "end": null, "altitudeMode": null, "tessellate": -1, "extrude": 0, "visibility": -1, "drawOrder": null, "icon": null, "REG": "Ñuble", "COM": "San Ignacio", "LOC": "San Miguel", "ZONA": "ZCU", "NOM": "ZCU Zona de Crecimiento Urbano", "UPERM": "Residencial, infraestructura de transporte y sanitaria. Equipamiento científico, comercial, culto y cultura, deporte, esparcimiento educación, salud, seguridad, servicios y social.", "UPROH": "Todos los usos de suelo no mencionados como permitidos, además de estaciones o centros de servicio automotor, mercados, discotecas, estadios, zoológicos, cementerios, crematorios, cárceles y centros de detención.", "P_DO": "10/05/2013", "N_DOC": "23", "T_DO": "Resolución", "OBS": null }, "geometry": { "type": "Polygon", "coordinates": [ [ [ -71.971381983324306, -36.811419119284302 ], [ -71.970973176490901, -36.8103256783048 ], [ -71.970928663227198, -36.810337922052902 ], [ -71.970749083150096, -36.810294727195298 ], [ -71.970549857161004, -36.8103569297866 ], [ -71.970444688021104, -36.810397706495202 ], [ -71.970159200875401, -36.810376232541202 ], [ -71.969878871712993, -36.810488146348298 ], [ -71.969811458597306, -36.8105852012811 ], [ -71.969448550847801, -36.810708714731398 ], [ -71.969123400343705, -36.810888505193901 ], [ -71.968812305442597, -36.8111251661078 ], [ -71.969132238052396, -36.811947439194398 ], [ -71.9696615970024, -36.811834071874799 ], [ -71.971381983324306, -36.811419119284302 ] ] ] } },
{ "type": "Feature", "properties": { "id": "monoparte.27", "Name": null, "description": null, "timestamp": null, "begin": null, "end": null, "altitudeMode": null, "tessellate": -1, "extrude": 0, "visibility": -1, "drawOrder": null, "icon": null, "REG": "Ñuble", "COM": "San Ignacio", "LOC": "Quiriquina", "ZONA": "ZR-2", "NOM": "ZR-2 Zona Residencial de densidad baja", "UPERM": "Residencial, infraestructura de transporte. Equipamiento científico, comercial, culto y cultura, deporte,  esparcimiento, educación, salud, seguridad, servicios y social.", "UPROH": "Todos los usos de suelo no mencionados como permitidos, además de estaciones o centros de servicio automotor, mercados, discotecas, estadios, zoológicos, cementerios, crematorios, cárceles y centros de detención.", "P_DO": "10/05/2013", "N_DOC": "23", "T_DO": "Resolución", "OBS": null }, "geometry": { "type": "Polygon", "coordinates": [ [ [ -72.100857288098297, -36.837235243919899 ], [ -72.100737992896597, -36.838246852501698 ], [ -72.100709076925, -36.838412113750699 ], [ -72.099862805262106, -36.838402633590697 ], [ -72.099850204080397, -36.839100326214101 ], [ -72.099883061585999, -36.840005444561399 ], [ -72.100008228501693, -36.840453005694101 ], [ -72.100020293684196, -36.8405313679744 ], [ -72.099906752570604, -36.840584398883401 ], [ -72.099763368790803, -36.8405595313464 ], [ -72.099677591643101, -36.840418720440603 ], [ -72.099647749392204, -36.840340822955497 ], [ -72.099334592945496, -36.8404639305448 ], [ -72.099186138031499, -36.840588899656701 ], [ -72.099140593766094, -36.840783203282797 ], [ -72.098960553824895, -36.840952407377401 ], [ -72.098876277091705, -36.841069046101303 ], [ -72.098816937495499, -36.841142118649003 ], [ -72.098722039036204, -36.841216118900398 ], [ -72.098608495954906, -36.841269148651001 ], [ -72.098902536866504, -36.843035397213001 ], [ -72.098142066368197, -36.843155370928699 ], [ -72.098221144302201, -36.843571011027997 ], [ -72.097285757466494, -36.843767066492603 ], [ -72.097177546123902, -36.843281943325799 ], [ -72.096836540241398, -36.843446793140203 ], [ -72.096233463160701, -36.843600068607898 ], [ -72.096493855613502, -36.844431436302798 ], [ -72.097958888201504, -36.844128590621303 ], [ -72.0990643369324, -36.843956701226702 ], [ -72.100721745735001, -36.843570125596898 ], [ -72.100876874637805, -36.844545959208197 ], [ -72.100878203070593, -36.844578826132597 ], [ -72.098065722818205, -36.845231571943501 ], [ -72.098471011355599, -36.846452649685098 ], [ -72.098509457276506, -36.846523170942802 ], [ -72.098431177964699, -36.846568127755098 ], [ -72.098317915551704, -36.846628302015297 ], [ -72.0981501595802, -36.846661288012797 ], [ -72.098087928712701, -36.846662911381202 ], [ -72.097776741475698, -36.845347826734603 ], [ -72.097389335019201, -36.845450912881702 ], [ -72.0976700520322, -36.846626880606998 ], [ -72.098191102316704, -36.847306384101401 ], [ -72.098514987421595, -36.847106552168299 ], [ -72.098754958086701, -36.8470014889974 ], [ -72.099209512314502, -36.8468953142294 ], [ -72.099296969593397, -36.846857269373103 ], [ -72.099328777186798, -36.8467634582152 ], [ -72.099599159786905, -36.846730230532103 ], [ -72.099746004217195, -36.8466936153226 ], [ -72.099965848440803, -36.846628273497103 ], [ -72.100087800722704, -36.846548035098202 ], [ -72.100232357438998, -36.846570653785299 ], [ -72.100434789430395, -36.846624973011401 ], [ -72.100559008515503, -36.8465954506419 ], [ -72.100626085670598, -36.846493565511999 ], [ -72.100666493241206, -36.846392376629503 ], [ -72.100809824953899, -36.846195518583698 ], [ -72.100835499818302, -36.845988673694499 ], [ -72.100967760043702, -36.845919601962997 ], [ -72.100981713839502, -36.8458447875364 ], [ -72.101070467099305, -36.845747103884698 ], [ -72.101083692254804, -36.845615630635102 ], [ -72.101138746649298, -36.845509887099801 ], [ -72.101333274860394, -36.845495216305402 ], [ -72.101399163959499, -36.845507510418599 ], [ -72.101580630657594, -36.845150799301699 ], [ -72.102550037748003, -36.844915674265202 ], [ -72.102621746674103, -36.844341606301398 ], [ -72.1027153813707, -36.843576233007099 ], [ -72.102772622619398, -36.843084557618603 ], [ -72.103184377871401, -36.8428303067423 ], [ -72.104028683557004, -36.842389306963199 ], [ -72.104745110293607, -36.842011047889798 ], [ -72.104260481256702, -36.841001035919 ], [ -72.103034894121606, -36.841648171585 ], [ -72.102878227822799, -36.840708142744298 ], [ -72.102632135936702, -36.839757098068098 ], [ -72.102293617996096, -36.839894684197397 ], [ -72.101440100073901, -36.840060024193299 ], [ -72.101412737034806, -36.839970140979901 ], [ -72.101401185583498, -36.8396843445664 ], [ -72.101388136901207, -36.839508258414597 ], [ -72.102017996512799, -36.839386907325597 ], [ -72.102039646085899, -36.838895207305399 ], [ -72.102870453595102, -36.838902115694097 ], [ -72.103656841118607, -36.838690837654198 ], [ -72.103861124648404, -36.838461390360997 ], [ -72.104054371469203, -36.838399119881203 ], [ -72.104162558234606, -36.838350643101798 ], [ -72.104102079045603, -36.838044429299799 ], [ -72.102210160858704, -36.838129620101903 ], [ -72.102380937500001, -36.835968816826004 ], [ -72.101271140724606, -36.8360995971845 ], [ -72.100851200959596, -36.836145298251303 ], [ -72.100862940245094, -36.836934693314099 ], [ -72.100857288098297, -36.837235243919899 ] ], [ [ -72.100839019096298, -36.841047493597003 ], [ -72.101030931238796, -36.842199989627403 ], [ -72.099796260245398, -36.842476595638601 ], [ -72.099640400557504, -36.841372034423102 ], [ -72.100007185453805, -36.841273056025898 ], [ -72.100839019096298, -36.841047493597003 ] ] ] } },
{ "type": "Feature", "properties": { "id": "monoparte.28", "Name": null, "description": null, "timestamp": null, "begin": null, "end": null, "altitudeMode": null, "tessellate": -1, "extrude": 0, "visibility": -1, "drawOrder": null, "icon": null, "REG": "Ñuble", "COM": "San Ignacio", "LOC": "Quiriquina", "ZONA": "ZR-2", "NOM": "ZR-2 Zona Residencial de densidad baja", "UPERM": "Residencial, infraestructura de transporte. Equipamiento científico, comercial, culto y cultura, deporte,  esparcimiento, educación, salud, seguridad, servicios y social.", "UPROH": "Todos los usos de suelo no mencionados como permitidos, además de estaciones o centros de servicio automotor, mercados, discotecas, estadios, zoológicos, cementerios, crematorios, cárceles y centros de detención.", "P_DO": "10/05/2013", "N_DOC": "23", "T_DO": "Resolución", "OBS": null }, "geometry": { "type": "Polygon", "coordinates": [ [ [ -72.100936015821205, -36.832797239752502 ], [ -72.100790142294699, -36.834287141444399 ], [ -72.101541269919096, -36.833976611425001 ], [ -72.101365659615297, -36.835155890790702 ], [ -72.102177345847196, -36.835110828950498 ], [ -72.102451944407207, -36.835070350605797 ], [ -72.102539830881597, -36.833958286961597 ], [ -72.1025860588406, -36.833356932109197 ], [ -72.102143588753407, -36.833395124213197 ], [ -72.102107682818399, -36.833167183198 ], [ -72.102217650312795, -36.831705212085097 ], [ -72.101708707892499, -36.831661283488302 ], [ -72.101621806043099, -36.832593371011299 ], [ -72.1009428830167, -36.832746993876697 ], [ -72.100936015821205, -36.832797239752502 ] ] ] } },
{ "type": "Feature", "properties": { "id": "monoparte.29", "Name": null, "description": null, "timestamp": null, "begin": null, "end": null, "altitudeMode": null, "tessellate": -1, "extrude": 0, "visibility": -1, "drawOrder": null, "icon": null, "REG": "Ñuble", "COM": "San Ignacio", "LOC": "Quiriquina", "ZONA": "ZCU", "NOM": "ZCU Zona de Crecimiento Urbano", "UPERM": "Residencial, infraestructura de transporte y sanitaria. Equipamiento científico, comercial, culto y cultura, deporte, esparcimiento educación, salud, seguridad, servicios y social.", "UPROH": "Todos los usos de suelo no mencionados como permitidos, además de estaciones o centros de servicio automotor, mercados, discotecas, estadios, zoológicos, cementerios, crematorios, cárceles y centros de detención.", "P_DO": "10/05/2013", "N_DOC": "23", "T_DO": "Resolución", "OBS": null }, "geometry": { "type": "Polygon", "coordinates": [ [ [ -72.095407996436705, -36.8437715615988 ], [ -72.096992563079198, -36.845768700523898 ], [ -72.0976700520322, -36.846626880606998 ], [ -72.097389335019201, -36.845450912881702 ], [ -72.097776741475698, -36.845347826734603 ], [ -72.098087928712701, -36.846662911381202 ], [ -72.0981501595802, -36.846661288012797 ], [ -72.098317915551704, -36.846628302015297 ], [ -72.098431177964699, -36.846568127755098 ], [ -72.098509457276506, -36.846523170942802 ], [ -72.098471011355599, -36.846452649685098 ], [ -72.098065722818205, -36.845231571943501 ], [ -72.100878203070593, -36.844578826132597 ], [ -72.100876874637805, -36.844545959208197 ], [ -72.100721745735001, -36.843570125596898 ], [ -72.0990643369324, -36.843956701226702 ], [ -72.097958888201504, -36.844128590621303 ], [ -72.096493855613502, -36.844431436302798 ], [ -72.096233463160701, -36.843600068607898 ], [ -72.096052565704298, -36.843646043681701 ], [ -72.095407996436705, -36.8437715615988 ] ] ] } },
{ "type": "Feature", "properties": { "id": "monoparte.30", "Name": null, "description": null, "timestamp": null, "begin": null, "end": null, "altitudeMode": null, "tessellate": -1, "extrude": 0, "visibility": -1, "drawOrder": null, "icon": null, "REG": "Ñuble", "COM": "San Ignacio", "LOC": "Quiriquina", "ZONA": "ZCU", "NOM": "ZCU Zona de Crecimiento Urbano", "UPERM": "Residencial, infraestructura de transporte y sanitaria. Equipamiento científico, comercial, culto y cultura, deporte, esparcimiento educación, salud, seguridad, servicios y social.", "UPROH": "Todos los usos de suelo no mencionados como permitidos, además de estaciones o centros de servicio automotor, mercados, discotecas, estadios, zoológicos, cementerios, crematorios, cárceles y centros de detención.", "P_DO": "10/05/2013", "N_DOC": "23", "T_DO": "Resolución", "OBS": null }, "geometry": { "type": "Polygon", "coordinates": [ [ [ -72.102621746674103, -36.844341606301398 ], [ -72.102550037748003, -36.844915674265202 ], [ -72.101580630657594, -36.845150799301699 ], [ -72.101399163959499, -36.845507510418599 ], [ -72.101467779037307, -36.845520313611701 ], [ -72.101601127838705, -36.845516831242797 ], [ -72.101681136212505, -36.845514741773101 ], [ -72.101994882664798, -36.8455709198184 ], [ -72.102057112416901, -36.845569294445802 ], [ -72.102171623038799, -36.8455603968075 ], [ -72.102317500759099, -36.845499963520602 ], [ -72.102507029569395, -36.845471713074097 ], [ -72.102636621674506, -36.845375345747399 ], [ -72.102712758796898, -36.8452775138189 ], [ -72.102776364351101, -36.845089889173302 ], [ -72.102850882778398, -36.844952045890203 ], [ -72.102919111428207, -36.844878739135602 ], [ -72.103006564439895, -36.844840691727001 ], [ -72.103111862025997, -36.844803068295697 ], [ -72.1032267867337, -36.8447848712837 ], [ -72.1034074726212, -36.844851674242399 ], [ -72.103470857827702, -36.844878627628603 ], [ -72.103586713582501, -36.844882752125898 ], [ -72.103735817223296, -36.844828789184398 ], [ -72.103893231686698, -36.844760303120303 ], [ -72.103184377871401, -36.8428303067423 ], [ -72.102772622619398, -36.843084557618603 ], [ -72.1027153813707, -36.843576233007099 ], [ -72.102621746674103, -36.844341606301398 ] ] ] } },
{ "type": "Feature", "properties": { "id": "monoparte.31", "Name": null, "description": null, "timestamp": null, "begin": null, "end": null, "altitudeMode": null, "tessellate": -1, "extrude": 0, "visibility": -1, "drawOrder": null, "icon": null, "REG": "Ñuble", "COM": "San Ignacio", "LOC": "Quiriquina", "ZONA": "ZCU", "NOM": "ZCU Zona de Crecimiento Urbano", "UPERM": "Residencial, infraestructura de transporte y sanitaria. Equipamiento científico, comercial, culto y cultura, deporte, esparcimiento educación, salud, seguridad, servicios y social.", "UPROH": "Todos los usos de suelo no mencionados como permitidos, además de estaciones o centros de servicio automotor, mercados, discotecas, estadios, zoológicos, cementerios, crematorios, cárceles y centros de detención.", "P_DO": "10/05/2013", "N_DOC": "23", "T_DO": "Resolución", "OBS": null }, "geometry": { "type": "Polygon", "coordinates": [ [ [ -72.097177546123902, -36.843281943325799 ], [ -72.097285757466494, -36.843767066492603 ], [ -72.098221144302201, -36.843571011027997 ], [ -72.098142066368197, -36.843155370928699 ], [ -72.098902536866504, -36.843035397213001 ], [ -72.098608495954906, -36.841269148651001 ], [ -72.098558044817196, -36.841341989184798 ], [ -72.098499680518202, -36.841879944709703 ], [ -72.098322576072107, -36.8423423214956 ], [ -72.098129944895206, -36.8426405975599 ], [ -72.097818862967799, -36.842870437677199 ], [ -72.097211875798294, -36.843265347430403 ], [ -72.097177546123902, -36.843281943325799 ] ] ] } },
{ "type": "Feature", "properties": { "id": "monoparte.32", "Name": null, "description": null, "timestamp": null, "begin": null, "end": null, "altitudeMode": null, "tessellate": -1, "extrude": 0, "visibility": -1, "drawOrder": null, "icon": null, "REG": "Ñuble", "COM": "San Ignacio", "LOC": "Quiriquina", "ZONA": "ZCU", "NOM": "ZCU Zona de Crecimiento Urbano", "UPERM": "Residencial, infraestructura de transporte y sanitaria. Equipamiento científico, comercial, culto y cultura, deporte, esparcimiento educación, salud, seguridad, servicios y social.", "UPROH": "Todos los usos de suelo no mencionados como permitidos, además de estaciones o centros de servicio automotor, mercados, discotecas, estadios, zoológicos, cementerios, crematorios, cárceles y centros de detención.", "P_DO": "10/05/2013", "N_DOC": "23", "T_DO": "Resolución", "OBS": null }, "geometry": { "type": "Polygon", "coordinates": [ [ [ -72.103656841118607, -36.838690837654198 ], [ -72.102870453595102, -36.838902115694097 ], [ -72.102039646085899, -36.838895207305399 ], [ -72.102017996512799, -36.839386907325597 ], [ -72.101388136901207, -36.839508258414597 ], [ -72.101401185583498, -36.8396843445664 ], [ -72.101412737034806, -36.839970140979901 ], [ -72.101440100073901, -36.840060024193299 ], [ -72.102293617996096, -36.839894684197397 ], [ -72.102632135936702, -36.839757098068098 ], [ -72.102878227822799, -36.840708142744298 ], [ -72.103034894121606, -36.841648171585 ], [ -72.104260481256702, -36.841001035919 ], [ -72.104745110293607, -36.842011047889798 ], [ -72.104952235845005, -36.841901688660897 ], [ -72.104281127463395, -36.838950970042703 ], [ -72.104162558234606, -36.838350643101798 ], [ -72.104054371469203, -36.838399119881203 ], [ -72.103861124648404, -36.838461390360997 ], [ -72.103656841118607, -36.838690837654198 ] ] ] } },
{ "type": "Feature", "properties": { "id": "monoparte.33", "Name": null, "description": null, "timestamp": null, "begin": null, "end": null, "altitudeMode": null, "tessellate": -1, "extrude": 0, "visibility": -1, "drawOrder": null, "icon": null, "REG": "Ñuble", "COM": "San Ignacio", "LOC": "Quiriquina", "ZONA": "ZCU", "NOM": "ZCU Zona de Crecimiento Urbano", "UPERM": "Residencial, infraestructura de transporte y sanitaria. Equipamiento científico, comercial, culto y cultura, deporte, esparcimiento educación, salud, seguridad, servicios y social.", "UPROH": "Todos los usos de suelo no mencionados como permitidos, además de estaciones o centros de servicio automotor, mercados, discotecas, estadios, zoológicos, cementerios, crematorios, cárceles y centros de detención.", "P_DO": "10/05/2013", "N_DOC": "23", "T_DO": "Resolución", "OBS": null }, "geometry": { "type": "Polygon", "coordinates": [ [ [ -72.099862805262106, -36.838402633590697 ], [ -72.100709076925, -36.838412113750699 ], [ -72.100737992896597, -36.838246852501698 ], [ -72.100857288098297, -36.837235243919899 ], [ -72.100862940245094, -36.836934693314099 ], [ -72.100851200959596, -36.836145298251303 ], [ -72.099931415009294, -36.836246167702697 ], [ -72.099852966868397, -36.8377919522786 ], [ -72.099862805262106, -36.838402633590697 ] ] ] } },
{ "type": "Feature", "properties": { "id": "monoparte.34", "Name": null, "description": null, "timestamp": null, "begin": null, "end": null, "altitudeMode": null, "tessellate": -1, "extrude": 0, "visibility": -1, "drawOrder": null, "icon": null, "REG": "Ñuble", "COM": "San Ignacio", "LOC": "Quiriquina", "ZONA": "ZCU", "NOM": "ZCU Zona de Crecimiento Urbano", "UPERM": "Residencial, infraestructura de transporte y sanitaria. Equipamiento científico, comercial, culto y cultura, deporte, esparcimiento educación, salud, seguridad, servicios y social.", "UPROH": "Todos los usos de suelo no mencionados como permitidos, además de estaciones o centros de servicio automotor, mercados, discotecas, estadios, zoológicos, cementerios, crematorios, cárceles y centros de detención.", "P_DO": "10/05/2013", "N_DOC": "23", "T_DO": "Resolución", "OBS": null }, "geometry": { "type": "Polygon", "coordinates": [ [ [ -72.101348805370606, -36.835269077532303 ], [ -72.101271140724606, -36.8360995971845 ], [ -72.102380937500001, -36.835968816826004 ], [ -72.102451944407207, -36.835070350605797 ], [ -72.102177345847196, -36.835110828950498 ], [ -72.101365659615297, -36.835155890790702 ], [ -72.101348805370606, -36.835269077532303 ] ] ] } },
{ "type": "Feature", "properties": { "id": "monoparte.35", "Name": null, "description": null, "timestamp": null, "begin": null, "end": null, "altitudeMode": null, "tessellate": -1, "extrude": 0, "visibility": -1, "drawOrder": null, "icon": null, "REG": "Ñuble", "COM": "San Ignacio", "LOC": "Quiriquina", "ZONA": "ZCU", "NOM": "ZCU Zona de Crecimiento Urbano", "UPERM": "Residencial, infraestructura de transporte y sanitaria. Equipamiento científico, comercial, culto y cultura, deporte, esparcimiento educación, salud, seguridad, servicios y social.", "UPROH": "Todos los usos de suelo no mencionados como permitidos, además de estaciones o centros de servicio automotor, mercados, discotecas, estadios, zoológicos, cementerios, crematorios, cárceles y centros de detención.", "P_DO": "10/05/2013", "N_DOC": "23", "T_DO": "Resolución", "OBS": null }, "geometry": { "type": "Polygon", "coordinates": [ [ [ -72.100394328173905, -36.831508089258499 ], [ -72.100032222939305, -36.834600471663499 ], [ -72.100790142294699, -36.834287141444399 ], [ -72.100936015821205, -36.832797239752502 ], [ -72.1009428830167, -36.832746993876697 ], [ -72.101621806043099, -36.832593371011299 ], [ -72.101708707892499, -36.831661283488302 ], [ -72.102217650312795, -36.831705212085097 ], [ -72.102107682818399, -36.833167183198 ], [ -72.102143588753407, -36.833395124213197 ], [ -72.1025860588406, -36.833356932109197 ], [ -72.102767026204603, -36.831002746949302 ], [ -72.100394328173905, -36.831508089258499 ] ] ] } },
{ "type": "Feature", "properties": { "id": "monoparte.36", "Name": null, "description": null, "timestamp": null, "begin": null, "end": null, "altitudeMode": null, "tessellate": -1, "extrude": 0, "visibility": -1, "drawOrder": null, "icon": null, "REG": "Ñuble", "COM": "San Ignacio", "LOC": "Pueblo Seco", "ZONA": "ZR-2", "NOM": "ZR-2 Zona Residencial de densidad baja", "UPERM": "Residencial, infraestructura de transporte. Equipamiento científico, comercial, culto y cultura, deporte,  esparcimiento, educación, salud, seguridad, servicios y social.", "UPROH": "Todos los usos de suelo no mencionados como permitidos, además de estaciones o centros de servicio automotor, mercados, discotecas, estadios, zoológicos, cementerios, crematorios, cárceles y centros de detención.", "P_DO": "10/05/2013", "N_DOC": "23", "T_DO": "Resolución", "OBS": null }, "geometry": { "type": "Polygon", "coordinates": [ [ [ -72.090176620575903, -36.875313061383601 ], [ -72.090158819077004, -36.876343474875597 ], [ -72.087500321367102, -36.876540187087599 ], [ -72.087264048609299, -36.876742702548597 ], [ -72.086959863476295, -36.877015251895799 ], [ -72.085680266891202, -36.879065502240401 ], [ -72.0851286531433, -36.879959587878801 ], [ -72.085047768153103, -36.880161957585102 ], [ -72.085067430298693, -36.880926294320098 ], [ -72.086561515217895, -36.880778900963399 ], [ -72.087226558412297, -36.8807115421398 ], [ -72.087437356331904, -36.882186614537098 ], [ -72.086033650319706, -36.8819397877811 ], [ -72.086196823406397, -36.882822448255801 ], [ -72.086782546778593, -36.882922137158097 ], [ -72.087640350131693, -36.883071489129101 ], [ -72.088255609081102, -36.883167541550797 ], [ -72.088290019577201, -36.883284899425597 ], [ -72.088555248779898, -36.8846369613698 ], [ -72.089024283355201, -36.884712971532402 ], [ -72.089021744471097, -36.884686812225603 ], [ -72.088659696076604, -36.882884283455503 ], [ -72.088771835547604, -36.882905207077599 ], [ -72.089728968571194, -36.8830889142139 ], [ -72.090580897262498, -36.883239589754098 ], [ -72.090718636699293, -36.883343290638798 ], [ -72.090755936834896, -36.883348280301803 ], [ -72.090830296852999, -36.8833523042275 ], [ -72.090941476586494, -36.883349409682701 ], [ -72.090978296290004, -36.8833424912482 ], [ -72.091021806562594, -36.8833175164526 ], [ -72.091058866452002, -36.883316551557002 ], [ -72.091118883212602, -36.883332870181803 ], [ -72.091851022942606, -36.883456853549099 ], [ -72.092350228780802, -36.883545177545599 ], [ -72.092457275908799, -36.884358957670202 ], [ -72.092474264123794, -36.884412158886597 ], [ -72.092585282177694, -36.884772848054098 ], [ -72.092720942932303, -36.885192498659002 ], [ -72.092752554456993, -36.885424129479098 ], [ -72.092829880057195, -36.885869140624301 ], [ -72.093827546227104, -36.885769237016298 ], [ -72.093796699152705, -36.884711483252403 ], [ -72.093780339544693, -36.883424473909201 ], [ -72.093679948012394, -36.882702311311597 ], [ -72.093895334867199, -36.882744381523899 ], [ -72.094861303239796, -36.882852716242297 ], [ -72.0973564006798, -36.883197718690198 ], [ -72.098597834489297, -36.8833655919534 ], [ -72.098503701314499, -36.882212218644703 ], [ -72.098527419447905, -36.882211599627098 ], [ -72.099902754950193, -36.882461793458603 ], [ -72.101587588841596, -36.882732494555597 ], [ -72.101488572614997, -36.8817528179341 ], [ -72.100130794270498, -36.881349599753896 ], [ -72.099661173774095, -36.878251038559803 ], [ -72.098766794723204, -36.878150410579899 ], [ -72.098706311724698, -36.876654749772797 ], [ -72.098095003850005, -36.876508581314901 ], [ -72.098075361450199, -36.876022729494203 ], [ -72.099357945361106, -36.876036938334501 ], [ -72.099328663080101, -36.875312924488803 ], [ -72.098199472212301, -36.875275639099002 ], [ -72.095122515278604, -36.875212842408402 ], [ -72.095089320421394, -36.875566560584403 ], [ -72.094123828043195, -36.875467749616497 ], [ -72.092833981710598, -36.875575631283802 ], [ -72.092858064329803, -36.875833317162297 ], [ -72.091401260252198, -36.875914171731601 ], [ -72.091388105884207, -36.875261559596801 ], [ -72.090176620575903, -36.875313061383601 ] ], [ [ -72.089481205299805, -36.879085080026798 ], [ -72.088290575020494, -36.879144666135304 ], [ -72.0882175637892, -36.878216748798899 ], [ -72.089384647604504, -36.878137996536097 ], [ -72.089481205299805, -36.879085080026798 ] ], [ [ -72.092260108059904, -36.881538971514701 ], [ -72.091088097023004, -36.881619559199002 ], [ -72.091029748190095, -36.881056036387498 ], [ -72.092206231619798, -36.880973108170203 ], [ -72.092260108059904, -36.881538971514701 ] ] ] } },
{ "type": "Feature", "properties": { "id": "monoparte.37", "Name": null, "description": null, "timestamp": null, "begin": null, "end": null, "altitudeMode": null, "tessellate": -1, "extrude": 0, "visibility": -1, "drawOrder": null, "icon": null, "REG": "Ñuble", "COM": "San Ignacio", "LOC": "Pueblo Seco", "ZONA": "ZR-2", "NOM": "ZR-2 Zona Residencial de densidad baja", "UPERM": "Residencial, infraestructura de transporte. Equipamiento científico, comercial, culto y cultura, deporte,  esparcimiento, educación, salud, seguridad, servicios y social.", "UPROH": "Todos los usos de suelo no mencionados como permitidos, además de estaciones o centros de servicio automotor, mercados, discotecas, estadios, zoológicos, cementerios, crematorios, cárceles y centros de detención.", "P_DO": "10/05/2013", "N_DOC": "23", "T_DO": "Resolución", "OBS": null }, "geometry": { "type": "Polygon", "coordinates": [ [ [ -72.092756457295806, -36.874746080989098 ], [ -72.093557357010496, -36.8747410429349 ], [ -72.093503630335604, -36.874145214621201 ], [ -72.093376485332499, -36.873200830235398 ], [ -72.093250468499207, -36.871916675686499 ], [ -72.092489487003206, -36.871889177320597 ], [ -72.092756457295806, -36.874746080989098 ] ] ] } },
{ "type": "Feature", "properties": { "id": "monoparte.38", "Name": null, "description": null, "timestamp": null, "begin": null, "end": null, "altitudeMode": null, "tessellate": -1, "extrude": 0, "visibility": -1, "drawOrder": null, "icon": null, "REG": "Ñuble", "COM": "San Ignacio", "LOC": "Pueblo Seco", "ZONA": "ZR-2", "NOM": "ZR-2 Zona Residencial de densidad baja", "UPERM": "Residencial, infraestructura de transporte. Equipamiento científico, comercial, culto y cultura, deporte,  esparcimiento, educación, salud, seguridad, servicios y social.", "UPROH": "Todos los usos de suelo no mencionados como permitidos, además de estaciones o centros de servicio automotor, mercados, discotecas, estadios, zoológicos, cementerios, crematorios, cárceles y centros de detención.", "P_DO": "10/05/2013", "N_DOC": "23", "T_DO": "Resolución", "OBS": null }, "geometry": { "type": "Polygon", "coordinates": [ [ [ -72.092921393818102, -36.871299410992201 ], [ -72.093219267648493, -36.871327412985202 ], [ -72.093231446920697, -36.8712615322478 ], [ -72.0932251602962, -36.870921955515499 ], [ -72.093260734457701, -36.870700495502497 ], [ -72.093156502774505, -36.870691289406103 ], [ -72.092502454682901, -36.870663104681597 ], [ -72.092449720173903, -36.871008909821697 ], [ -72.092431240855007, -36.871263486482697 ], [ -72.092713892188996, -36.871304815988303 ], [ -72.092921393818102, -36.871299410992201 ] ] ] } },
{ "type": "Feature", "properties": { "id": "monoparte.39", "Name": null, "description": null, "timestamp": null, "begin": null, "end": null, "altitudeMode": null, "tessellate": -1, "extrude": 0, "visibility": -1, "drawOrder": null, "icon": null, "REG": "Ñuble", "COM": "San Ignacio", "LOC": "Pueblo Seco", "ZONA": "ZCU", "NOM": "ZCU Zona de Crecimiento Urbano", "UPERM": "Residencial, infraestructura de transporte y sanitaria. Equipamiento científico, comercial, culto y cultura, deporte, esparcimiento educación, salud, seguridad, servicios y social.", "UPROH": "Todos los usos de suelo no mencionados como permitidos, además de estaciones o centros de servicio automotor, mercados, discotecas, estadios, zoológicos, cementerios, crematorios, cárceles y centros de detención.", "P_DO": "10/05/2013", "N_DOC": "23", "T_DO": "Resolución", "OBS": null }, "geometry": { "type": "Polygon", "coordinates": [ [ [ -72.087797603952296, -36.876285376422402 ], [ -72.087500321367102, -36.876540187087599 ], [ -72.090158819077004, -36.876343474875597 ], [ -72.090176620575903, -36.875313061383601 ], [ -72.091388105884207, -36.875261559596801 ], [ -72.091360855876005, -36.873909597488598 ], [ -72.090628804112995, -36.874300581925901 ], [ -72.089849742237107, -36.8746298431575 ], [ -72.089280060944503, -36.875073813266702 ], [ -72.088914347297404, -36.875498169627399 ], [ -72.088429269994094, -36.875832647941202 ], [ -72.087797603952296, -36.876285376422402 ] ] ] } },
{ "type": "Feature", "properties": { "id": "monoparte.40", "Name": null, "description": null, "timestamp": null, "begin": null, "end": null, "altitudeMode": null, "tessellate": -1, "extrude": 0, "visibility": -1, "drawOrder": null, "icon": null, "REG": "Ñuble", "COM": "San Ignacio", "LOC": "Pueblo Seco", "ZONA": "ZCU", "NOM": "ZCU Zona de Crecimiento Urbano", "UPERM": "Residencial, infraestructura de transporte y sanitaria. Equipamiento científico, comercial, culto y cultura, deporte, esparcimiento educación, salud, seguridad, servicios y social.", "UPROH": "Todos los usos de suelo no mencionados como permitidos, además de estaciones o centros de servicio automotor, mercados, discotecas, estadios, zoológicos, cementerios, crematorios, cárceles y centros de detención.", "P_DO": "10/05/2013", "N_DOC": "23", "T_DO": "Resolución", "OBS": null }, "geometry": { "type": "Polygon", "coordinates": [ [ [ -72.093231446920697, -36.8712615322478 ], [ -72.093219267648493, -36.871327412985202 ], [ -72.092921393818102, -36.871299410992201 ], [ -72.092713892188996, -36.871304815988303 ], [ -72.092431240855007, -36.871263486482697 ], [ -72.092426832760907, -36.871324213252898 ], [ -72.092482008057502, -36.871809141577899 ], [ -72.092489487003206, -36.871889177320597 ], [ -72.093250468499207, -36.871916675686499 ], [ -72.093376485332499, -36.873200830235398 ], [ -72.093503630335604, -36.874145214621201 ], [ -72.093557357010496, -36.8747410429349 ], [ -72.092756457295806, -36.874746080989098 ], [ -72.092833981710598, -36.875575631283802 ], [ -72.094123828043195, -36.875467749616497 ], [ -72.095089320421394, -36.875566560584403 ], [ -72.095122515278604, -36.875212842408402 ], [ -72.098199472212301, -36.875275639099002 ], [ -72.099328663080101, -36.875312924488803 ], [ -72.099357945361106, -36.876036938334501 ], [ -72.098075361450199, -36.876022729494203 ], [ -72.098095003850005, -36.876508581314901 ], [ -72.098706311724698, -36.876654749772797 ], [ -72.098766794723204, -36.878150410579899 ], [ -72.099661173774095, -36.878251038559803 ], [ -72.100130794270498, -36.881349599753896 ], [ -72.101488572614997, -36.8817528179341 ], [ -72.101587588841596, -36.882732494555597 ], [ -72.099902754950193, -36.882461793458603 ], [ -72.098527419447905, -36.882211599627098 ], [ -72.098503701314499, -36.882212218644703 ], [ -72.098597834489297, -36.8833655919534 ], [ -72.0973564006798, -36.883197718690198 ], [ -72.094861303239796, -36.882852716242297 ], [ -72.093895334867199, -36.882744381523899 ], [ -72.093679948012394, -36.882702311311597 ], [ -72.093780339544693, -36.883424473909201 ], [ -72.093796699152705, -36.884711483252403 ], [ -72.093827546227104, -36.885769237016298 ], [ -72.092829880057195, -36.885869140624301 ], [ -72.092752554456993, -36.885424129479098 ], [ -72.092720942932303, -36.885192498659002 ], [ -72.092585282177694, -36.884772848054098 ], [ -72.092474264123794, -36.884412158886597 ], [ -72.092457275908799, -36.884358957670202 ], [ -72.092350228780802, -36.883545177545599 ], [ -72.091851022942606, -36.883456853549099 ], [ -72.091118883212602, -36.883332870181803 ], [ -72.091058866452002, -36.883316551557002 ], [ -72.091021806562594, -36.8833175164526 ], [ -72.090978296290004, -36.8833424912482 ], [ -72.090941476586494, -36.883349409682701 ], [ -72.090830296852999, -36.8833523042275 ], [ -72.090755936834896, -36.883348280301803 ], [ -72.090718636699293, -36.883343290638798 ], [ -72.090580897262498, -36.883239589754098 ], [ -72.089728968571194, -36.8830889142139 ], [ -72.088771835547604, -36.882905207077599 ], [ -72.088659696076604, -36.882884283455503 ], [ -72.089021744471097, -36.884686812225603 ], [ -72.089024283355201, -36.884712971532402 ], [ -72.088555248779898, -36.8846369613698 ], [ -72.088290019577201, -36.883284899425597 ], [ -72.088255609081102, -36.883167541550797 ], [ -72.087640350131693, -36.883071489129101 ], [ -72.086782546778593, -36.882922137158097 ], [ -72.086196823406397, -36.882822448255801 ], [ -72.086033650319706, -36.8819397877811 ], [ -72.085633304698405, -36.881873901583397 ], [ -72.085089247678894, -36.881774383804903 ], [ -72.085095024414599, -36.881998906752301 ], [ -72.085133463201103, -36.882953473419299 ], [ -72.0851441089915, -36.883217836860602 ], [ -72.085009878970197, -36.883643318308998 ], [ -72.090812260133603, -36.885337726151 ], [ -72.092948260680203, -36.885975881428998 ], [ -72.094660469936699, -36.886481996417899 ], [ -72.0946917189722, -36.886373896255797 ], [ -72.094639971676699, -36.883550040148201 ], [ -72.099429950439998, -36.884204697536703 ], [ -72.102295293043298, -36.884559001210398 ], [ -72.102402893900802, -36.884577647013401 ], [ -72.102068785960498, -36.8816038239842 ], [ -72.101641395402297, -36.877864267696097 ], [ -72.101281623364301, -36.874666473954697 ], [ -72.095792267259796, -36.874695342332302 ], [ -72.095035468059194, -36.8746936149875 ], [ -72.094876657029801, -36.872745142132203 ], [ -72.094778716830206, -36.870981045585097 ], [ -72.0947866427653, -36.870515930683197 ], [ -72.094973189464497, -36.869624167041302 ], [ -72.092762640375398, -36.869774747897097 ], [ -72.092558846727698, -36.869788006293703 ], [ -72.092548276337894, -36.870362624281697 ], [ -72.092502454682901, -36.870663104681597 ], [ -72.093156502774505, -36.870691289406103 ], [ -72.093260734457701, -36.870700495502497 ], [ -72.0932251602962, -36.870921955515499 ], [ -72.093231446920697, -36.8712615322478 ] ] ] } },
{ "type": "Feature", "properties": { "id": "monoparte.41", "Name": null, "description": null, "timestamp": null, "begin": null, "end": null, "altitudeMode": null, "tessellate": -1, "extrude": 0, "visibility": -1, "drawOrder": null, "icon": null, "REG": "Ñuble", "COM": "San Ignacio", "LOC": "Pueblo Seco", "ZONA": "EP", "NOM": "EP Zona de Espacio Público", "UPERM": "Área Verde", "UPROH": "ÁTodos los usos de suelo no mencionados como permitidos.", "P_DO": "10/05/2013", "N_DOC": "23", "T_DO": "Resolución", "OBS": null }, "geometry": { "type": "Polygon", "coordinates": [ [ [ -72.091029748190095, -36.881056036387498 ], [ -72.091088097023004, -36.881619559199002 ], [ -72.092260108059904, -36.881538971514701 ], [ -72.092206231619798, -36.880973108170203 ], [ -72.091029748190095, -36.881056036387498 ] ] ] } },
{ "type": "Feature", "properties": { "id": "monoparte.42", "Name": null, "description": null, "timestamp": null, "begin": null, "end": null, "altitudeMode": null, "tessellate": -1, "extrude": 0, "visibility": -1, "drawOrder": null, "icon": null, "REG": "Ñuble", "COM": "San Ignacio", "LOC": "Pueblo Seco", "ZONA": "EP", "NOM": "EP Zona de Espacio Público", "UPERM": "Área Verde", "UPROH": "ÁTodos los usos de suelo no mencionados como permitidos.", "P_DO": "10/05/2013", "N_DOC": "23", "T_DO": "Resolución", "OBS": null }, "geometry": { "type": "Polygon", "coordinates": [ [ [ -72.0882175637892, -36.878216748798899 ], [ -72.088290575020494, -36.879144666135304 ], [ -72.089481205299805, -36.879085080026798 ], [ -72.089384647604504, -36.878137996536097 ], [ -72.0882175637892, -36.878216748798899 ] ] ] } }
]
}
