{
"type": "FeatureCollection",
"name": "IPT_16_PRC_San_Fabian",
"crs": { "type": "name", "properties": { "name": "urn:ogc:def:crs:OGC:1.3:CRS84" } },
"features": [
{ "type": "Feature", "properties": { "id": "monoparte.1", "Name": null, "description": null, "timestamp": null, "begin": null, "end": null, "altitudeMode": null, "tessellate": -1, "extrude": 0, "visibility": -1, "drawOrder": null, "icon": null, "REG": "Ñuble", "COM": "San Fabián", "LOC": "San Fabián", "ZONA": "Zona de Equipamiento", "NOM": "Zona de Equipamiento Urbano", "UPERM": "Equipamiento", "UPROH": "Todos los usos de suelo no mencionados como permitidos.", "P_DO": "12/01/1967", "N_DOC": "643", "T_DO": "Decreto", "OBS": null }, "geometry": { "type": "Polygon", "coordinates": [ [ [ -71.547060343990907, -36.559929384178901 ], [ -71.548002515125802, -36.560825382229702 ], [ -71.548957254182298, -36.560172882892601 ], [ -71.548113357507702, -36.559233960642203 ], [ -71.548112521471197, -36.559233030407 ], [ -71.547060343990907, -36.559929384178901 ] ] ] } },
{ "type": "Feature", "properties": { "id": "monoparte.2", "Name": null, "description": null, "timestamp": null, "begin": null, "end": null, "altitudeMode": null, "tessellate": -1, "extrude": 0, "visibility": -1, "drawOrder": null, "icon": null, "REG": "Ñuble", "COM": "San Fabián", "LOC": "San Fabián", "ZONA": "Zona Comercial", "NOM": "Zona Comercial", "UPERM": "Vivienda, comercio y talleres inofensivos.", "UPROH": "Todos los usos de suelo no mencionados como permitidos.", "P_DO": "12/01/1967", "N_DOC": "643", "T_DO": "Decreto", "OBS": null }, "geometry": { "type": "Polygon", "coordinates": [ [ [ -71.550286508242607, -36.557920566707402 ], [ -71.550250292359394, -36.557942802361097 ], [ -71.550168074121899, -36.557869448355902 ], [ -71.550152039383207, -36.557853296876999 ], [ -71.549183607275197, -36.558509161621998 ], [ -71.548113357507702, -36.559233960642203 ], [ -71.548957254182298, -36.560172882892601 ], [ -71.551517809651799, -36.558422829540802 ], [ -71.553773396044406, -36.556917301303599 ], [ -71.552848609429006, -36.556026961581303 ], [ -71.551271712026093, -36.557094981420803 ], [ -71.550228403085995, -36.5578015792427 ], [ -71.5501960781219, -36.557823472044703 ], [ -71.550261859734803, -36.557890094908601 ], [ -71.550286508242607, -36.557920566707402 ] ], [ [ -71.550379774621604, -36.557999713508899 ], [ -71.550380783932795, -36.558001054593703 ], [ -71.550563961077998, -36.558178360430098 ], [ -71.550563071894004, -36.558196262937699 ], [ -71.550548773844, -36.558210876311897 ], [ -71.550503919328406, -36.558195144400798 ], [ -71.550337261732594, -36.558025831360197 ], [ -71.550339745426498, -36.5580114708794 ], [ -71.550355677154201, -36.5580015919709 ], [ -71.550370445387898, -36.558001275877103 ], [ -71.550379774621604, -36.557999713508899 ] ] ] } },
{ "type": "Feature", "properties": { "id": "monoparte.3", "Name": null, "description": null, "timestamp": null, "begin": null, "end": null, "altitudeMode": null, "tessellate": -1, "extrude": 0, "visibility": -1, "drawOrder": null, "icon": null, "REG": "Ñuble", "COM": "San Fabián", "LOC": "San Fabián", "ZONA": "Zona de Equipamiento", "NOM": "Zona de Equipamiento Urbano", "UPERM": "Equipamiento.", "UPROH": "Todos los usos de suelo no mencionados como permitidos.", "P_DO": "12/01/1967", "N_DOC": "643", "T_DO": "Decreto", "OBS": null }, "geometry": { "type": "Polygon", "coordinates": [ [ [ -71.550832521070802, -36.556695599409601 ], [ -71.549813722095806, -36.557368225369999 ], [ -71.549807107056395, -36.557372592879702 ], [ -71.550228403085995, -36.5578015792427 ], [ -71.551271712026093, -36.557094981420803 ], [ -71.550848558712801, -36.556685010691702 ], [ -71.550832521070802, -36.556695599409601 ] ] ] } },
{ "type": "Feature", "properties": { "id": "monoparte.4", "Name": null, "description": null, "timestamp": null, "begin": null, "end": null, "altitudeMode": null, "tessellate": -1, "extrude": 0, "visibility": -1, "drawOrder": null, "icon": null, "REG": "Ñuble", "COM": "San Fabián", "LOC": "San Fabián", "ZONA": "Área Verde", "NOM": "Área Verde", "UPERM": "Área Verde", "UPROH": "Todos los usos de suelo no mencionados como permitidos.", "P_DO": "12/01/1967", "N_DOC": "643", "T_DO": "Decreto", "OBS": null }, "geometry": { "type": "Polygon", "coordinates": [ [ [ -71.549968954299004, -36.555822516134299 ], [ -71.548929806226496, -36.556531895744897 ], [ -71.548928255833999, -36.5565329545312 ], [ -71.549789150041306, -36.557365823024398 ], [ -71.549813722095806, -36.557368225369999 ], [ -71.550832521070802, -36.556695599409601 ], [ -71.550830601778998, -36.556678240990003 ], [ -71.550023340959001, -36.5558585395896 ], [ -71.549977626132602, -36.555816595911402 ], [ -71.549968954299004, -36.555822516134299 ] ] ] } },
{ "type": "Feature", "properties": { "id": "monoparte.5", "Name": null, "description": null, "timestamp": null, "begin": null, "end": null, "altitudeMode": null, "tessellate": -1, "extrude": 0, "visibility": -1, "drawOrder": null, "icon": null, "REG": "Ñuble", "COM": "San Fabián", "LOC": "San Fabián", "ZONA": "Zona de Equipamiento", "NOM": "Zona de Equipamiento Urbano", "UPERM": "Equipamiento", "UPROH": "Todos los usos de suelo no mencionados como permitidos.", "P_DO": "12/01/1967", "N_DOC": "643", "T_DO": "Decreto", "OBS": null }, "geometry": { "type": "Polygon", "coordinates": [ [ [ -71.548929806226496, -36.556531895744897 ], [ -71.549968954299004, -36.555822516134299 ], [ -71.549968530835301, -36.555809636435399 ], [ -71.549519311191403, -36.555361413389001 ], [ -71.548470076039095, -36.556041177070497 ], [ -71.548468766726501, -36.556042025209898 ], [ -71.548929806226496, -36.556531895744897 ] ] ] } },
{ "type": "Feature", "properties": { "id": "monoparte.6", "Name": null, "description": null, "timestamp": null, "begin": null, "end": null, "altitudeMode": null, "tessellate": -1, "extrude": 0, "visibility": -1, "drawOrder": null, "icon": null, "REG": "Ñuble", "COM": "San Fabián", "LOC": "San Fabián", "ZONA": "Zona Residencial", "NOM": "Zona Residencial Exclusiva", "UPERM": "Viviendas, comercio, equipamiento y talleres inofensivos.", "UPROH": "Todos los usos de suelo no mencionados como permitidos.", "P_DO": "12/01/1967", "N_DOC": "643", "T_DO": "Decreto", "OBS": null }, "geometry": { "type": "Polygon", "coordinates": [ [ [ -71.550152039383207, -36.557853296876999 ], [ -71.550064209657194, -36.557766989378401 ], [ -71.550069606962097, -36.557751374195597 ], [ -71.550084023681293, -36.5577403353943 ], [ -71.550101745729094, -36.557739956119498 ], [ -71.550119702827701, -36.557746725022298 ], [ -71.550196039849297, -36.557823497197496 ], [ -71.550228403085995, -36.5578015792427 ], [ -71.549807107056395, -36.557372592879702 ], [ -71.549813722095806, -36.557368225369999 ], [ -71.549789150041306, -36.557365823024398 ], [ -71.548928255833999, -36.5565329545312 ], [ -71.548929806226496, -36.556531895744897 ], [ -71.548468766726501, -36.556042025209898 ], [ -71.548470076039095, -36.556041177070497 ], [ -71.549519311191403, -36.555361413389001 ], [ -71.549968530835301, -36.555809636435399 ], [ -71.549968954299004, -36.555822516134299 ], [ -71.549977626132602, -36.555816595911402 ], [ -71.550023340959001, -36.5558585395896 ], [ -71.550830601778998, -36.556678240990003 ], [ -71.550832521070802, -36.556695599409601 ], [ -71.550848558712801, -36.556685010691702 ], [ -71.551271712026093, -36.557094981420803 ], [ -71.552848609429006, -36.556026961581303 ], [ -71.553773396044406, -36.556917301303599 ], [ -71.556168391523002, -36.555318614455601 ], [ -71.555744888512194, -36.554879033103703 ], [ -71.555216299919906, -36.555225077343401 ], [ -71.554325968536403, -36.554307035633997 ], [ -71.5529637921871, -36.555216129058401 ], [ -71.550196885465297, -36.552506904228601 ], [ -71.547707000597001, -36.5541768962023 ], [ -71.547705559787303, -36.554189928434099 ], [ -71.547597981254398, -36.555163283397199 ], [ -71.547597632597203, -36.5551664425209 ], [ -71.548055278200394, -36.555625292546097 ], [ -71.546961869443507, -36.556327484383203 ], [ -71.549183607275197, -36.558509161621998 ], [ -71.550152039383207, -36.557853296876999 ] ], [ [ -71.5498027297307, -36.557500507056702 ], [ -71.549824099417705, -36.557485525244097 ], [ -71.549833313162907, -36.557486737631997 ], [ -71.549861529194004, -36.557490902339303 ], [ -71.550005210185304, -36.557635670221302 ], [ -71.550017572964606, -36.557652097677597 ], [ -71.550013847359494, -36.557673638843099 ], [ -71.549999431757996, -36.557684677612002 ], [ -71.549978677506701, -36.557682737057398 ], [ -71.5498027297307, -36.557500507056702 ] ], [ [ -71.549452902203001, -36.557153885451498 ], [ -71.549466926099697, -36.5571309316068 ], [ -71.549492150123001, -36.557133968970199 ], [ -71.549664711598894, -36.557303156952997 ], [ -71.549657992887703, -36.557323569802897 ], [ -71.549636153507194, -36.557333575026298 ], [ -71.549455895211906, -36.557155013766 ], [ -71.549452662661096, -36.557154822468 ], [ -71.549452902203001, -36.557153885451498 ] ], [ [ -71.549188212523703, -36.556902015615101 ], [ -71.549212927349203, -36.556889564253403 ], [ -71.549242541750402, -36.556891315392498 ], [ -71.549434692607804, -36.557072007258398 ], [ -71.549417636536404, -36.557092641269797 ], [ -71.549397156629794, -36.557099041206797 ], [ -71.549187897165694, -36.556904282694099 ], [ -71.549188212523703, -36.556902015615101 ] ], [ [ -71.548938171947697, -36.556656254088203 ], [ -71.548942992451302, -36.556635422243197 ], [ -71.548975483368693, -36.556634727213002 ], [ -71.549155386872599, -36.556802566574603 ], [ -71.549168023453404, -36.556827333834597 ], [ -71.549146420239893, -36.556844488029299 ], [ -71.549130017556394, -36.556840070424798 ], [ -71.548939267664196, -36.556656962463599 ], [ -71.548938171947697, -36.556656254088203 ] ], [ [ -71.548592702928104, -36.556274500483198 ], [ -71.5486177689112, -36.556272772007702 ], [ -71.548816529201503, -36.556474785017798 ], [ -71.548803825490296, -36.55649294114 ], [ -71.548780156918994, -36.556492255060199 ], [ -71.548597183650202, -36.556320902795299 ], [ -71.548578087435601, -36.556304543490903 ], [ -71.548578365670906, -36.556287922110499 ], [ -71.548592702928104, -36.556274500483198 ] ], [ [ -71.548342487559296, -36.556035672860702 ], [ -71.548361372936299, -36.5560257301508 ], [ -71.548379212069307, -36.556028925693496 ], [ -71.548562419042796, -36.556207426537298 ], [ -71.548564757275997, -36.556233606482699 ], [ -71.548534136042704, -36.556246184034499 ], [ -71.548331947624902, -36.556049850508799 ], [ -71.548342487559296, -36.556035672860702 ] ], [ [ -71.548052224852697, -36.555747386998199 ], [ -71.548072704533794, -36.555740987300801 ], [ -71.548092177070401, -36.555748917370899 ], [ -71.548116354262007, -36.555765091499801 ], [ -71.548305898204404, -36.555956572234201 ], [ -71.548297780626598, -36.555979399636698 ], [ -71.548268558044597, -36.555989562502702 ], [ -71.548051687391606, -36.555776013157299 ], [ -71.548042852113198, -36.555769720302699 ], [ -71.548052224852697, -36.555747386998199 ] ] ] } },
{ "type": "Feature", "properties": { "id": "monoparte.7", "Name": null, "description": null, "timestamp": null, "begin": null, "end": null, "altitudeMode": null, "tessellate": -1, "extrude": 0, "visibility": -1, "drawOrder": null, "icon": null, "REG": "Ñuble", "COM": "San Fabián", "LOC": "San Fabián", "ZONA": "Área Verde", "NOM": "Área Verde", "UPERM": "Área Verde", "UPROH": "Todos los usos de suelo no mencionados como permitidos.", "P_DO": "12/01/1967", "N_DOC": "643", "T_DO": "Decreto", "OBS": null }, "geometry": { "type": "Polygon", "coordinates": [ [ [ -71.547597981254398, -36.555163283397199 ], [ -71.547705559787303, -36.554189928434099 ], [ -71.547030658129998, -36.554642037316398 ], [ -71.547579676307393, -36.5551596732032 ], [ -71.547597981254398, -36.555163283397199 ] ] ] } },
{ "type": "Feature", "properties": { "id": "monoparte.8", "Name": null, "description": null, "timestamp": null, "begin": null, "end": null, "altitudeMode": null, "tessellate": -1, "extrude": 0, "visibility": -1, "drawOrder": null, "icon": null, "REG": "Ñuble", "COM": "San Fabián", "LOC": "San Fabián", "ZONA": "Áreas Deportivas", "NOM": "Area Verde de Uso Público", "UPERM": "Equipamiento deportivo.", "UPROH": "Todos los usos de suelo no mencionados como permitidos.", "P_DO": "12/01/1967", "N_DOC": "643", "T_DO": "Decreto", "OBS": null }, "geometry": { "type": "Polygon", "coordinates": [ [ [ -71.547501027410206, -36.551623402415103 ], [ -71.548388272050303, -36.552512689292598 ], [ -71.550271033823094, -36.551256284000601 ], [ -71.549383125219407, -36.550381440838301 ], [ -71.547501027410206, -36.551623402415103 ] ] ] } },
{ "type": "Feature", "properties": { "id": "monoparte.9", "Name": null, "description": null, "timestamp": null, "begin": null, "end": null, "altitudeMode": null, "tessellate": -1, "extrude": 0, "visibility": -1, "drawOrder": null, "icon": null, "REG": "Ñuble", "COM": "San Fabián", "LOC": "San Fabián", "ZONA": "Área Verde", "NOM": "Área Verde", "UPERM": "Área Verde", "UPROH": "Todos los usos de suelo no mencionados como permitidos.", "P_DO": "12/01/1967", "N_DOC": "643", "T_DO": "Decreto", "OBS": null }, "geometry": { "type": "Polygon", "coordinates": [ [ [ -71.539881767985406, -36.554802731543496 ], [ -71.540043828422398, -36.5550052833092 ], [ -71.540180966828899, -36.555221739773799 ], [ -71.540304418826594, -36.555381258399699 ], [ -71.540464874647398, -36.555587679467202 ], [ -71.540945312730003, -36.556178345452601 ], [ -71.541984880856802, -36.5554312657124 ], [ -71.542205606516404, -36.555312098023201 ], [ -71.5422086548907, -36.555310149374002 ], [ -71.541311087260894, -36.554359255458202 ], [ -71.541457971860098, -36.554241663939102 ], [ -71.541411794010997, -36.554185419378598 ], [ -71.541111662251893, -36.553955748203599 ], [ -71.539881767985406, -36.554802731543496 ] ] ] } },
{ "type": "Feature", "properties": { "id": "monoparte.10", "Name": null, "description": null, "timestamp": null, "begin": null, "end": null, "altitudeMode": null, "tessellate": -1, "extrude": 0, "visibility": -1, "drawOrder": null, "icon": null, "REG": "Ñuble", "COM": "San Fabián", "LOC": "San Fabián", "ZONA": "Zona Residencial Mixta", "NOM": "Zona Residencial Mixta", "UPERM": "Vivienda,comercio, industria y bodegas inofensivas.", "UPROH": "Todos los usos de suelo no mencionados como permitidos.", "P_DO": "12/01/1967", "N_DOC": "643", "T_DO": "Decreto", "OBS": null }, "geometry": { "type": "Polygon", "coordinates": [ [ [ -71.547286688296495, -36.554364199579403 ], [ -71.547302685008901, -36.554365288801698 ], [ -71.547547860062707, -36.554216973142701 ], [ -71.547543752290807, -36.554199892157897 ], [ -71.547527332991905, -36.554185935848501 ], [ -71.547496993997498, -36.554190864494601 ], [ -71.547282204931193, -36.554335680743399 ], [ -71.547275492047106, -36.554347270114697 ], [ -71.547286688296495, -36.554364199579403 ] ] ] } },
{ "type": "Feature", "properties": { "id": "monoparte.11", "Name": null, "description": null, "timestamp": null, "begin": null, "end": null, "altitudeMode": null, "tessellate": -1, "extrude": 0, "visibility": -1, "drawOrder": null, "icon": null, "REG": "Ñuble", "COM": "San Fabián", "LOC": "San Fabián", "ZONA": "Área Verde", "NOM": "Área Verde", "UPERM": "Área Verde", "UPROH": "Todos los usos de suelo no mencionados como permitidos.", "P_DO": "12/01/1967", "N_DOC": "643", "T_DO": "Decreto", "OBS": null }, "geometry": { "type": "Polygon", "coordinates": [ [ [ -71.547642513656299, -36.555370984969798 ], [ -71.547879059662705, -36.555607721738298 ], [ -71.547921744193502, -36.555581128841197 ], [ -71.547689517015002, -36.555344226817503 ], [ -71.547661350415495, -36.555350551966001 ], [ -71.547642513656299, -36.555370984969798 ] ] ] } },
{ "type": "Feature", "properties": { "id": "monoparte.12", "Name": null, "description": null, "timestamp": null, "begin": null, "end": null, "altitudeMode": null, "tessellate": -1, "extrude": 0, "visibility": -1, "drawOrder": null, "icon": null, "REG": "Ñuble", "COM": "San Fabián", "LOC": "San Fabián", "ZONA": "Área Verde", "NOM": "Área Verde", "UPERM": "Área Verde", "UPROH": "Todos los usos de suelo no mencionados como permitidos.", "P_DO": "12/01/1967", "N_DOC": "643", "T_DO": "Decreto", "OBS": null }, "geometry": { "type": "Polygon", "coordinates": [ [ [ -71.547323545270999, -36.555054457435901 ], [ -71.547574501361396, -36.555298040920697 ], [ -71.547616020294399, -36.555271503695799 ], [ -71.547366722521801, -36.555019196801602 ], [ -71.547338462093407, -36.555022662410799 ], [ -71.547326432166003, -36.555034365449899 ], [ -71.547323545270999, -36.555054457435901 ] ] ] } },
{ "type": "Feature", "properties": { "id": "monoparte.13", "Name": null, "description": null, "timestamp": null, "begin": null, "end": null, "altitudeMode": null, "tessellate": -1, "extrude": 0, "visibility": -1, "drawOrder": null, "icon": null, "REG": "Ñuble", "COM": "San Fabián", "LOC": "San Fabián", "ZONA": "Área Verde", "NOM": "Área Verde", "UPERM": "Área Verde", "UPROH": "Todos los usos de suelo no mencionados como permitidos.", "P_DO": "12/01/1967", "N_DOC": "643", "T_DO": "Decreto", "OBS": null }, "geometry": { "type": "Polygon", "coordinates": [ [ [ -71.547010037363705, -36.5547421049232 ], [ -71.547236389282901, -36.554965270032397 ], [ -71.547265369316605, -36.554956980898297 ], [ -71.547270309546505, -36.554945429421601 ], [ -71.547275250891403, -36.554933877920803 ], [ -71.547271377896095, -36.554923945127101 ], [ -71.547069727835606, -36.554723660235297 ], [ -71.547039366154195, -36.5547171560004 ], [ -71.547021926460005, -36.554726113174901 ], [ -71.547010037363705, -36.5547421049232 ] ] ] } },
{ "type": "Feature", "properties": { "id": "monoparte.14", "Name": null, "description": null, "timestamp": null, "begin": null, "end": null, "altitudeMode": null, "tessellate": -1, "extrude": 0, "visibility": -1, "drawOrder": null, "icon": null, "REG": "Ñuble", "COM": "San Fabián", "LOC": "San Fabián", "ZONA": "Área Verde", "NOM": "Área Verde", "UPERM": "Área Verde", "UPROH": "Todos los usos de suelo no mencionados como permitidos.", "P_DO": "12/01/1967", "N_DOC": "643", "T_DO": "Decreto", "OBS": null }, "geometry": { "type": "Polygon", "coordinates": [ [ [ -71.546922146302606, -36.554603771616598 ], [ -71.546945418264102, -36.554610427419497 ], [ -71.546971672252894, -36.554599851573499 ], [ -71.547179727236994, -36.554455191532298 ], [ -71.547177486127893, -36.554440932099901 ], [ -71.547166524669905, -36.554431151725801 ], [ -71.547140020464497, -36.554429887837699 ], [ -71.546910809232301, -36.554582552474898 ], [ -71.546920091913805, -36.554595231123599 ], [ -71.546922146302606, -36.554603771616598 ] ] ] } },
{ "type": "Feature", "properties": { "id": "monoparte.15", "Name": null, "description": null, "timestamp": null, "begin": null, "end": null, "altitudeMode": null, "tessellate": -1, "extrude": 0, "visibility": -1, "drawOrder": null, "icon": null, "REG": "Ñuble", "COM": "San Fabián", "LOC": "San Fabián", "ZONA": "Área Verde", "NOM": "Área Verde", "UPERM": "Área Verde", "UPROH": "Todos los usos de suelo no mencionados como permitidos.", "P_DO": "12/01/1967", "N_DOC": "643", "T_DO": "Decreto", "OBS": null }, "geometry": { "type": "Polygon", "coordinates": [ [ [ -71.547682329050502, -36.554099639539203 ], [ -71.547700332074498, -36.554107839031602 ], [ -71.547745702893707, -36.554085408422502 ], [ -71.547957394320903, -36.553943530778099 ], [ -71.547963684381699, -36.553919074258602 ], [ -71.547958085661307, -36.553910609571197 ], [ -71.547919861914494, -36.553910285001002 ], [ -71.547677892538303, -36.554072550901999 ], [ -71.547672952417997, -36.554084102392601 ], [ -71.547682329050502, -36.554099639539203 ] ] ] } },
{ "type": "Feature", "properties": { "id": "monoparte.16", "Name": null, "description": null, "timestamp": null, "begin": null, "end": null, "altitudeMode": null, "tessellate": -1, "extrude": 0, "visibility": -1, "drawOrder": null, "icon": null, "REG": "Ñuble", "COM": "San Fabián", "LOC": "San Fabián", "ZONA": "Área Verde", "NOM": "Área Verde", "UPERM": "Área Verde", "UPROH": "Todos los usos de suelo no mencionados como permitidos.", "P_DO": "12/01/1967", "N_DOC": "643", "T_DO": "Decreto", "OBS": null }, "geometry": { "type": "Polygon", "coordinates": [ [ [ -71.548144180293903, -36.553799324783597 ], [ -71.548179622643005, -36.553798566877802 ], [ -71.548356620692303, -36.553680323072797 ], [ -71.5483629575685, -36.553657295815697 ], [ -71.548346774218601, -36.553650487790499 ], [ -71.548325508852699, -36.553650942563401 ], [ -71.548292135351105, -36.553658839227502 ], [ -71.548129157898501, -36.553773892816103 ], [ -71.548136856989302, -36.553792328167503 ], [ -71.548144180293903, -36.553799324783597 ] ] ] } },
{ "type": "Feature", "properties": { "id": "monoparte.17", "Name": null, "description": null, "timestamp": null, "begin": null, "end": null, "altitudeMode": null, "tessellate": -1, "extrude": 0, "visibility": -1, "drawOrder": null, "icon": null, "REG": "Ñuble", "COM": "San Fabián", "LOC": "San Fabián", "ZONA": "Área Verde", "NOM": "Área Verde", "UPERM": "Área Verde", "UPROH": "Todos los usos de suelo no mencionados como permitidos.", "P_DO": "12/01/1967", "N_DOC": "643", "T_DO": "Decreto", "OBS": null }, "geometry": { "type": "Polygon", "coordinates": [ [ [ -71.548433923691903, -36.553604271714697 ], [ -71.548455282994098, -36.553606676380802 ], [ -71.548488389979696, -36.553588799527098 ], [ -71.548641235212102, -36.553491101230797 ], [ -71.548635401575396, -36.553475488382801 ], [ -71.5486157210171, -36.553470186376501 ], [ -71.548583324604806, -36.553472017542298 ], [ -71.548424265099499, -36.553580155355199 ], [ -71.548424828797593, -36.553597312103001 ], [ -71.548433923691903, -36.553604271714697 ] ] ] } },
{ "type": "Feature", "properties": { "id": "monoparte.18", "Name": null, "description": null, "timestamp": null, "begin": null, "end": null, "altitudeMode": null, "tessellate": -1, "extrude": 0, "visibility": -1, "drawOrder": null, "icon": null, "REG": "Ñuble", "COM": "San Fabián", "LOC": "San Fabián", "ZONA": "Área Verde", "NOM": "Área Verde", "UPERM": "Área Verde", "UPROH": "Todos los usos de suelo no mencionados como permitidos.", "P_DO": "12/01/1967", "N_DOC": "643", "T_DO": "Decreto", "OBS": null }, "geometry": { "type": "Polygon", "coordinates": [ [ [ -71.548733552858295, -36.553413298265298 ], [ -71.548758503295304, -36.553417056350099 ], [ -71.548980541757501, -36.553266372122998 ], [ -71.548978205281401, -36.5532492533005 ], [ -71.548965143334101, -36.553229502437901 ], [ -71.548957377124296, -36.553229526165801 ], [ -71.548720396981693, -36.553390687917599 ], [ -71.548727955212101, -36.553404833591401 ], [ -71.548733552858295, -36.553413298265298 ] ] ] } },
{ "type": "Feature", "properties": { "id": "monoparte.19", "Name": null, "description": null, "timestamp": null, "begin": null, "end": null, "altitudeMode": null, "tessellate": -1, "extrude": 0, "visibility": -1, "drawOrder": null, "icon": null, "REG": "Ñuble", "COM": "San Fabián", "LOC": "San Fabián", "ZONA": "Área Verde", "NOM": "Área Verde", "UPERM": "Área Verde", "UPROH": "Todos los usos de suelo no mencionados como permitidos.", "P_DO": "12/01/1967", "N_DOC": "643", "T_DO": "Decreto", "OBS": null }, "geometry": { "type": "Polygon", "coordinates": [ [ [ -71.549159028080794, -36.553139510922001 ], [ -71.549173345837701, -36.553143496379398 ], [ -71.549380091141103, -36.553013168854498 ], [ -71.549377707581996, -36.552994619864002 ], [ -71.549368518729395, -36.552984801768702 ], [ -71.549349575424898, -36.552969402733403 ], [ -71.549147408725005, -36.5531097136342 ], [ -71.549147878598504, -36.553124010917202 ], [ -71.549151751726797, -36.553133943646699 ], [ -71.549159028080794, -36.553139510922001 ] ] ] } },
{ "type": "Feature", "properties": { "id": "monoparte.20", "Name": null, "description": null, "timestamp": null, "begin": null, "end": null, "altitudeMode": null, "tessellate": -1, "extrude": 0, "visibility": -1, "drawOrder": null, "icon": null, "REG": "Ñuble", "COM": "San Fabián", "LOC": "San Fabián", "ZONA": "Área Verde", "NOM": "Área Verde", "UPERM": "Área Verde", "UPROH": "Todos los usos de suelo no mencionados como permitidos.", "P_DO": "12/01/1967", "N_DOC": "643", "T_DO": "Decreto", "OBS": null }, "geometry": { "type": "Polygon", "coordinates": [ [ [ -71.549441584011106, -36.552941746858103 ], [ -71.549462990157593, -36.552945581527901 ], [ -71.549487752495594, -36.552943620552902 ], [ -71.549687173354698, -36.552806295099003 ], [ -71.549686421407003, -36.552783419454698 ], [ -71.549677278408794, -36.552775030684799 ], [ -71.549655919091805, -36.552769085226103 ], [ -71.549654100797298, -36.552771234857197 ], [ -71.549440597184699, -36.552911723020102 ], [ -71.549439482424603, -36.5529317771378 ], [ -71.549441584011106, -36.552941746858103 ] ] ] } },
{ "type": "Feature", "properties": { "id": "monoparte.21", "Name": null, "description": null, "timestamp": null, "begin": null, "end": null, "altitudeMode": null, "tessellate": -1, "extrude": 0, "visibility": -1, "drawOrder": null, "icon": null, "REG": "Ñuble", "COM": "San Fabián", "LOC": "San Fabián", "ZONA": "Área Verde", "NOM": "Área Verde", "UPERM": "Área Verde", "UPROH": "Todos los usos de suelo no mencionados como permitidos.", "P_DO": "12/01/1967", "N_DOC": "643", "T_DO": "Decreto", "OBS": null }, "geometry": { "type": "Polygon", "coordinates": [ [ [ -71.549805936124997, -36.552712604245002 ], [ -71.549836109233297, -36.552713389788302 ], [ -71.5500338972208, -36.552580390459497 ], [ -71.550031467653994, -36.5525604121854 ], [ -71.550018780475, -36.552552099285798 ], [ -71.549992676738995, -36.552553688018001 ], [ -71.549992246753206, -36.552554098275401 ], [ -71.549802801645001, -36.5526711804999 ], [ -71.549796230256405, -36.552687058728502 ], [ -71.549798612784997, -36.552705607731802 ], [ -71.549805936124997, -36.552712604245002 ] ] ] } },
{ "type": "Feature", "properties": { "id": "monoparte.22", "Name": null, "description": null, "timestamp": null, "begin": null, "end": null, "altitudeMode": null, "tessellate": -1, "extrude": 0, "visibility": -1, "drawOrder": null, "icon": null, "REG": "Ñuble", "COM": "San Fabián", "LOC": "San Fabián", "ZONA": "Área Verde", "NOM": "Área Verde", "UPERM": "Área Verde", "UPROH": "Todos los usos de suelo no mencionados como permitidos.", "P_DO": "12/01/1967", "N_DOC": "643", "T_DO": "Decreto", "OBS": null }, "geometry": { "type": "Polygon", "coordinates": [ [ [ -71.550140899340704, -36.552490826326498 ], [ -71.550160392831998, -36.552490409153997 ], [ -71.550197184105301, -36.552476744740098 ], [ -71.550386250935503, -36.552348224133702 ], [ -71.550392775152901, -36.552330915700097 ], [ -71.550381766597795, -36.552319705445598 ], [ -71.550346084271595, -36.552319869800698 ], [ -71.550139583213806, -36.552450793960901 ], [ -71.550129843777398, -36.552478185870797 ], [ -71.550140899340704, -36.552490826326498 ] ] ] } },
{ "type": "Feature", "properties": { "id": "monoparte.23", "Name": null, "description": null, "timestamp": null, "begin": null, "end": null, "altitudeMode": null, "tessellate": -1, "extrude": 0, "visibility": -1, "drawOrder": null, "icon": null, "REG": "Ñuble", "COM": "San Fabián", "LOC": "San Fabián", "ZONA": "Área Verde", "NOM": "Área Verde", "UPERM": "Área Verde", "UPROH": "Todos los usos de suelo no mencionados como permitidos.", "P_DO": "12/01/1967", "N_DOC": "643", "T_DO": "Decreto", "OBS": null }, "geometry": { "type": "Polygon", "coordinates": [ [ [ -71.550556026055602, -36.552218562402203 ], [ -71.550569316361901, -36.552218277936397 ], [ -71.550703870436294, -36.552130746221202 ], [ -71.550694579654504, -36.552117830112799 ], [ -71.550670879947802, -36.552095400611798 ], [ -71.550532934574093, -36.552190441985097 ], [ -71.550545414060593, -36.5522104439722 ], [ -71.550556026055602, -36.552218562402203 ] ] ] } },
{ "type": "Feature", "properties": { "id": "monoparte.24", "Name": null, "description": null, "timestamp": null, "begin": null, "end": null, "altitudeMode": null, "tessellate": -1, "extrude": 0, "visibility": -1, "drawOrder": null, "icon": null, "REG": "Ñuble", "COM": "San Fabián", "LOC": "San Fabián", "ZONA": "Área Verde", "NOM": "Área Verde", "UPERM": "Área Verde", "UPROH": "Todos los usos de suelo no mencionados como permitidos.", "P_DO": "12/01/1967", "N_DOC": "643", "T_DO": "Decreto", "OBS": null }, "geometry": { "type": "Polygon", "coordinates": [ [ [ -71.550736267956694, -36.552082361337199 ], [ -71.550743926337802, -36.552090543875103 ], [ -71.550768874468602, -36.552085240434401 ], [ -71.550920796179298, -36.551986606439897 ], [ -71.550915777987399, -36.551968829474902 ], [ -71.550908199085796, -36.551963029951999 ], [ -71.550885761281094, -36.551954924071403 ], [ -71.550723866836904, -36.552064743299503 ], [ -71.550736267956694, -36.552082361337199 ] ] ] } },
{ "type": "Feature", "properties": { "id": "monoparte.25", "Name": null, "description": null, "timestamp": null, "begin": null, "end": null, "altitudeMode": null, "tessellate": -1, "extrude": 0, "visibility": -1, "drawOrder": null, "icon": null, "REG": "Ñuble", "COM": "San Fabián", "LOC": "San Fabián", "ZONA": "Área Verde", "NOM": "Área Verde", "UPERM": "Área Verde", "UPROH": "Todos los usos de suelo no mencionados como permitidos.", "P_DO": "12/01/1967", "N_DOC": "643", "T_DO": "Decreto", "OBS": null }, "geometry": { "type": "Polygon", "coordinates": [ [ [ -71.551077488393105, -36.551853292802598 ], [ -71.551092609244805, -36.551863700264697 ], [ -71.551127697943798, -36.551852217893497 ], [ -71.551325894887299, -36.551722785682401 ], [ -71.551334245215003, -36.551707107216103 ], [ -71.551332298149106, -36.551692841573299 ], [ -71.551310428294499, -36.551686753224999 ], [ -71.551075503298904, -36.551837835616503 ], [ -71.551077488393105, -36.551853292802598 ] ] ] } },
{ "type": "Feature", "properties": { "id": "monoparte.26", "Name": null, "description": null, "timestamp": null, "begin": null, "end": null, "altitudeMode": null, "tessellate": -1, "extrude": 0, "visibility": -1, "drawOrder": null, "icon": null, "REG": "Ñuble", "COM": "San Fabián", "LOC": "San Fabián", "ZONA": "Área Verde", "NOM": "Área Verde", "UPERM": "Área Verde", "UPROH": "Todos los usos de suelo no mencionados como permitidos.", "P_DO": "12/01/1967", "N_DOC": "643", "T_DO": "Decreto", "OBS": null }, "geometry": { "type": "Polygon", "coordinates": [ [ [ -71.551422444218105, -36.551647989489901 ], [ -71.551454931868605, -36.551647293888998 ], [ -71.551684636584596, -36.551487378554697 ], [ -71.551681095097507, -36.5514695709035 ], [ -71.551670404678404, -36.551459068646302 ], [ -71.551657005471498, -36.551452269042898 ], [ -71.551652566502298, -36.551455873558602 ], [ -71.551418158175807, -36.551607543973603 ], [ -71.551406971793895, -36.551626859324699 ], [ -71.5514073245144, -36.5516375829461 ], [ -71.551422444218105, -36.551647989489901 ] ] ] } },
{ "type": "Feature", "properties": { "id": "monoparte.27", "Name": null, "description": null, "timestamp": null, "begin": null, "end": null, "altitudeMode": null, "tessellate": -1, "extrude": 0, "visibility": -1, "drawOrder": null, "icon": null, "REG": "Ñuble", "COM": "San Fabián", "LOC": "San Fabián", "ZONA": "Área Verde", "NOM": "Área Verde", "UPERM": "Área Verde", "UPROH": "Todos los usos de suelo no mencionados como permitidos.", "P_DO": "12/01/1967", "N_DOC": "643", "T_DO": "Decreto", "OBS": null }, "geometry": { "type": "Polygon", "coordinates": [ [ [ -71.552060921713704, -36.551747583542401 ], [ -71.552083309455298, -36.551747104073399 ], [ -71.552093372770003, -36.551738542984602 ], [ -71.552095777600996, -36.551721799448401 ], [ -71.551955816672404, -36.551510186051097 ], [ -71.551923054729301, -36.551502542095399 ], [ -71.551901060496405, -36.551507782515998 ], [ -71.551889755568496, -36.551523524292797 ], [ -71.552060921713704, -36.551747583542401 ] ] ] } },
{ "type": "Feature", "properties": { "id": "monoparte.28", "Name": null, "description": null, "timestamp": null, "begin": null, "end": null, "altitudeMode": null, "tessellate": -1, "extrude": 0, "visibility": -1, "drawOrder": null, "icon": null, "REG": "Ñuble", "COM": "San Fabián", "LOC": "San Fabián", "ZONA": "Área Verde", "NOM": "Área Verde", "UPERM": "Área Verde", "UPROH": "Todos los usos de suelo no mencionados como permitidos.", "P_DO": "12/01/1967", "N_DOC": "643", "T_DO": "Decreto", "OBS": null }, "geometry": { "type": "Polygon", "coordinates": [ [ [ -71.552292866761306, -36.552075262340701 ], [ -71.552326909770798, -36.552076916988597 ], [ -71.552339925621396, -36.552068292639198 ], [ -71.552346996100397, -36.552058603280003 ], [ -71.552164392734198, -36.551808558582998 ], [ -71.552140804011401, -36.551810256141501 ], [ -71.552114888834296, -36.551831079356703 ], [ -71.552292866761306, -36.552075262340701 ] ] ] } },
{ "type": "Feature", "properties": { "id": "monoparte.29", "Name": null, "description": null, "timestamp": null, "begin": null, "end": null, "altitudeMode": null, "tessellate": -1, "extrude": 0, "visibility": -1, "drawOrder": null, "icon": null, "REG": "Ñuble", "COM": "San Fabián", "LOC": "San Fabián", "ZONA": "Área Verde", "NOM": "Área Verde", "UPERM": "Área Verde", "UPROH": "Todos los usos de suelo no mencionados como permitidos.", "P_DO": "12/01/1967", "N_DOC": "643", "T_DO": "Decreto", "OBS": null }, "geometry": { "type": "Polygon", "coordinates": [ [ [ -71.552540121354895, -36.552403804148902 ], [ -71.552553450882201, -36.5524047109731 ], [ -71.552573968488801, -36.5523995020596 ], [ -71.552580960545001, -36.552387429662403 ], [ -71.552575785134195, -36.552364887635903 ], [ -71.552408292126302, -36.552151890856798 ], [ -71.552383090688096, -36.552167519365099 ], [ -71.552373342124497, -36.552185612554702 ], [ -71.552540121354895, -36.552403804148902 ] ] ] } },
{ "type": "Feature", "properties": { "id": "monoparte.30", "Name": null, "description": null, "timestamp": null, "begin": null, "end": null, "altitudeMode": null, "tessellate": -1, "extrude": 0, "visibility": -1, "drawOrder": null, "icon": null, "REG": "Ñuble", "COM": "San Fabián", "LOC": "San Fabián", "ZONA": "Área Verde", "NOM": "Área Verde", "UPERM": "Área Verde", "UPROH": "Todos los usos de suelo no mencionados como permitidos.", "P_DO": "12/01/1967", "N_DOC": "643", "T_DO": "Decreto", "OBS": null }, "geometry": { "type": "Polygon", "coordinates": [ [ [ -71.552822035600997, -36.552707757640597 ], [ -71.552845742217102, -36.552709634473203 ], [ -71.552863110172297, -36.552698532125802 ], [ -71.552870023776293, -36.552684076688998 ], [ -71.552862012211406, -36.552665171592899 ], [ -71.552657281848397, -36.552467894918799 ], [ -71.552641572480695, -36.552477936986698 ], [ -71.552628594694497, -36.552487752906003 ], [ -71.5526231590039, -36.5525021766707 ], [ -71.552635599860295, -36.5525209869026 ], [ -71.552822035600997, -36.552707757640597 ] ] ] } },
{ "type": "Feature", "properties": { "id": "monoparte.31", "Name": null, "description": null, "timestamp": null, "begin": null, "end": null, "altitudeMode": null, "tessellate": -1, "extrude": 0, "visibility": -1, "drawOrder": null, "icon": null, "REG": "Ñuble", "COM": "San Fabián", "LOC": "San Fabián", "ZONA": "Área Verde", "NOM": "Área Verde", "UPERM": "Área Verde", "UPROH": "Todos los usos de suelo no mencionados como permitidos.", "P_DO": "12/01/1967", "N_DOC": "643", "T_DO": "Decreto", "OBS": null }, "geometry": { "type": "Polygon", "coordinates": [ [ [ -71.553120117740093, -36.5530089793019 ], [ -71.553155874466896, -36.553017751999903 ], [ -71.553171765574902, -36.5530066803491 ], [ -71.553177005120006, -36.552986299905903 ], [ -71.552946357014804, -36.552772183178199 ], [ -71.552922128212799, -36.552785496383898 ], [ -71.552924310876307, -36.552806910156399 ], [ -71.553120117740093, -36.5530089793019 ] ] ] } },
{ "type": "Feature", "properties": { "id": "monoparte.32", "Name": null, "description": null, "timestamp": null, "begin": null, "end": null, "altitudeMode": null, "tessellate": -1, "extrude": 0, "visibility": -1, "drawOrder": null, "icon": null, "REG": "Ñuble", "COM": "San Fabián", "LOC": "San Fabián", "ZONA": "Área Verde", "NOM": "Área Verde", "UPERM": "Área Verde", "UPROH": "Todos los usos de suelo no mencionados como permitidos.", "P_DO": "12/01/1967", "N_DOC": "643", "T_DO": "Decreto", "OBS": null }, "geometry": { "type": "Polygon", "coordinates": [ [ [ -71.553450474654099, -36.553336573960998 ], [ -71.553471881036302, -36.5533404069973 ], [ -71.553494729502106, -36.553334194454102 ], [ -71.553494117635694, -36.553315608500299 ], [ -71.553310681874393, -36.5531242701637 ], [ -71.553305144166998, -36.553123647094097 ], [ -71.553273339468205, -36.553127190041501 ], [ -71.553259680387299, -36.553143220316301 ], [ -71.553272838627805, -36.553165830089398 ], [ -71.553450474654099, -36.553336573960998 ] ] ] } },
{ "type": "Feature", "properties": { "id": "monoparte.33", "Name": null, "description": null, "timestamp": null, "begin": null, "end": null, "altitudeMode": null, "tessellate": -1, "extrude": 0, "visibility": -1, "drawOrder": null, "icon": null, "REG": "Ñuble", "COM": "San Fabián", "LOC": "San Fabián", "ZONA": "Área Verde", "NOM": "Área Verde", "UPERM": "Área Verde", "UPROH": "Todos los usos de suelo no mencionados como permitidos.", "P_DO": "12/01/1967", "N_DOC": "643", "T_DO": "Decreto", "OBS": null }, "geometry": { "type": "Polygon", "coordinates": [ [ [ -71.553570226296301, -36.553472789251501 ], [ -71.553766196665805, -36.553661737883701 ], [ -71.553792684674505, -36.553658308746002 ], [ -71.553799302360801, -36.553643859600598 ], [ -71.553794910819207, -36.553618200544598 ], [ -71.553604479619594, -36.553432122695703 ], [ -71.553600807268893, -36.553432072515001 ], [ -71.553569096601294, -36.553438474992099 ], [ -71.553566117229494, -36.553455707622199 ], [ -71.553570226296301, -36.553472789251501 ] ] ] } },
{ "type": "Feature", "properties": { "id": "monoparte.34", "Name": null, "description": null, "timestamp": null, "begin": null, "end": null, "altitudeMode": null, "tessellate": -1, "extrude": 0, "visibility": -1, "drawOrder": null, "icon": null, "REG": "Ñuble", "COM": "San Fabián", "LOC": "San Fabián", "ZONA": "Área Verde", "NOM": "Área Verde", "UPERM": "Área Verde", "UPROH": "Todos los usos de suelo no mencionados como permitidos.", "P_DO": "12/01/1967", "N_DOC": "643", "T_DO": "Decreto", "OBS": null }, "geometry": { "type": "Polygon", "coordinates": [ [ [ -71.554059998030397, -36.553967341409397 ], [ -71.554097729742494, -36.553982271169097 ], [ -71.554109805518095, -36.553971996762698 ], [ -71.554109052234907, -36.553949121201697 ], [ -71.554099579088302, -36.553930725189304 ], [ -71.553902024744005, -36.553738227724402 ], [ -71.553877308577995, -36.553750924301902 ], [ -71.553876101934307, -36.553768118944497 ], [ -71.554059998030397, -36.553967341409397 ] ] ] } },
{ "type": "Feature", "properties": { "id": "monoparte.35", "Name": null, "description": null, "timestamp": null, "begin": null, "end": null, "altitudeMode": null, "tessellate": -1, "extrude": 0, "visibility": -1, "drawOrder": null, "icon": null, "REG": "Ñuble", "COM": "San Fabián", "LOC": "San Fabián", "ZONA": "Área Verde", "NOM": "Área Verde", "UPERM": "Área Verde", "UPROH": "Todos los usos de suelo no mencionados como permitidos.", "P_DO": "12/01/1967", "N_DOC": "643", "T_DO": "Decreto", "OBS": null }, "geometry": { "type": "Polygon", "coordinates": [ [ [ -71.554341670563204, -36.554254604192003 ], [ -71.554364754656106, -36.554255540536303 ], [ -71.554382099163305, -36.554243722878702 ], [ -71.5543869452205, -36.554229311680402 ], [ -71.5542134951164, -36.554043742363298 ], [ -71.554182346113805, -36.554047701399703 ], [ -71.554168640009706, -36.554062302503397 ], [ -71.554172749218594, -36.554079383203302 ], [ -71.554341670563204, -36.554254604192003 ] ] ] } },
{ "type": "Feature", "properties": { "id": "monoparte.36", "Name": null, "description": null, "timestamp": null, "begin": null, "end": null, "altitudeMode": null, "tessellate": -1, "extrude": 0, "visibility": -1, "drawOrder": null, "icon": null, "REG": "Ñuble", "COM": "San Fabián", "LOC": "San Fabián", "ZONA": "Área Verde", "NOM": "Área Verde", "UPERM": "Área Verde", "UPROH": "Todos los usos de suelo no mencionados como permitidos.", "P_DO": "12/01/1967", "N_DOC": "643", "T_DO": "Decreto", "OBS": null }, "geometry": { "type": "Polygon", "coordinates": [ [ [ -71.554571001752294, -36.554487190300698 ], [ -71.554605002288596, -36.554496476055 ], [ -71.554615211236296, -36.554483381057999 ], [ -71.554621640465697, -36.554463212984501 ], [ -71.554615853748899, -36.554449029729298 ], [ -71.554454679055695, -36.554293673328203 ], [ -71.554454640543199, -36.554293487595402 ], [ -71.554444046335306, -36.5542939012632 ], [ -71.5544230163121, -36.554301505290702 ], [ -71.554417983028301, -36.554310197577799 ], [ -71.554422280654407, -36.554332997154297 ], [ -71.554571001752294, -36.554487190300698 ] ] ] } },
{ "type": "Feature", "properties": { "id": "monoparte.37", "Name": null, "description": null, "timestamp": null, "begin": null, "end": null, "altitudeMode": null, "tessellate": -1, "extrude": 0, "visibility": -1, "drawOrder": null, "icon": null, "REG": "Ñuble", "COM": "San Fabián", "LOC": "San Fabián", "ZONA": "Área Verde", "NOM": "Área Verde", "UPERM": "Área Verde", "UPROH": "Todos los usos de suelo no mencionados como permitidos.", "P_DO": "12/01/1967", "N_DOC": "643", "T_DO": "Decreto", "OBS": null }, "geometry": { "type": "Polygon", "coordinates": [ [ [ -71.554846664314198, -36.554780303568698 ], [ -71.554884162190007, -36.554788083974302 ], [ -71.554896236859406, -36.554777809512402 ], [ -71.554901177039596, -36.5547662577398 ], [ -71.5549006589968, -36.554750531253802 ], [ -71.554729002392705, -36.554573939474103 ], [ -71.554726372390107, -36.554573995860203 ], [ -71.5546927956199, -36.554577577188098 ], [ -71.554685989666396, -36.554586307490602 ], [ -71.554683057592797, -36.554604969409098 ], [ -71.554846664314198, -36.554780303568698 ] ] ] } },
{ "type": "Feature", "properties": { "id": "monoparte.38", "Name": null, "description": null, "timestamp": null, "begin": null, "end": null, "altitudeMode": null, "tessellate": -1, "extrude": 0, "visibility": -1, "drawOrder": null, "icon": null, "REG": "Ñuble", "COM": "San Fabián", "LOC": "San Fabián", "ZONA": "Área Verde", "NOM": "Área Verde", "UPERM": "Área Verde", "UPROH": "Todos los usos de suelo no mencionados como permitidos.", "P_DO": "12/01/1967", "N_DOC": "643", "T_DO": "Decreto", "OBS": null }, "geometry": { "type": "Polygon", "coordinates": [ [ [ -71.555154791553704, -36.555089888779698 ], [ -71.555181562577999, -36.555095037643703 ], [ -71.555195409976406, -36.555084726039503 ], [ -71.555195080246705, -36.5550747175417 ], [ -71.555196476124706, -36.555063241760102 ], [ -71.555003297157498, -36.554864738439903 ], [ -71.554991354822903, -36.5548659065688 ], [ -71.554958250034105, -36.5548837851657 ], [ -71.554956995429393, -36.554899550560499 ], [ -71.555154791553704, -36.555089888779698 ] ] ] } },
{ "type": "Feature", "properties": { "id": "monoparte.39", "Name": null, "description": null, "timestamp": null, "begin": null, "end": null, "altitudeMode": null, "tessellate": -1, "extrude": 0, "visibility": -1, "drawOrder": null, "icon": null, "REG": "Ñuble", "COM": "San Fabián", "LOC": "San Fabián", "ZONA": "Área Verde", "NOM": "Área Verde", "UPERM": "Área Verde", "UPROH": "Todos los usos de suelo no mencionados como permitidos.", "P_DO": "12/01/1967", "N_DOC": "643", "T_DO": "Decreto", "OBS": null }, "geometry": { "type": "Polygon", "coordinates": [ [ [ -71.548051687391606, -36.555776013157299 ], [ -71.548268558044597, -36.555989562502702 ], [ -71.548297780626598, -36.555979399636698 ], [ -71.548305898204404, -36.555956572234201 ], [ -71.548116354262007, -36.555765091499801 ], [ -71.548092177070401, -36.555748917370899 ], [ -71.548072704533794, -36.555740987300801 ], [ -71.548052224852697, -36.555747386998199 ], [ -71.548042852113198, -36.555769720302699 ], [ -71.548051687391606, -36.555776013157299 ] ] ] } },
{ "type": "Feature", "properties": { "id": "monoparte.40", "Name": null, "description": null, "timestamp": null, "begin": null, "end": null, "altitudeMode": null, "tessellate": -1, "extrude": 0, "visibility": -1, "drawOrder": null, "icon": null, "REG": "Ñuble", "COM": "San Fabián", "LOC": "San Fabián", "ZONA": "Área Verde", "NOM": "Área Verde", "UPERM": "Área Verde", "UPROH": "Todos los usos de suelo no mencionados como permitidos.", "P_DO": "12/01/1967", "N_DOC": "643", "T_DO": "Decreto", "OBS": null }, "geometry": { "type": "Polygon", "coordinates": [ [ [ -71.548331947624902, -36.556049850508799 ], [ -71.548534136042704, -36.556246184034499 ], [ -71.548564757275997, -36.556233606482699 ], [ -71.548562419042796, -36.556207426537298 ], [ -71.548379212069307, -36.556028925693496 ], [ -71.548361372936299, -36.5560257301508 ], [ -71.548342487559296, -36.556035672860702 ], [ -71.548331947624902, -36.556049850508799 ] ] ] } },
{ "type": "Feature", "properties": { "id": "monoparte.41", "Name": null, "description": null, "timestamp": null, "begin": null, "end": null, "altitudeMode": null, "tessellate": -1, "extrude": 0, "visibility": -1, "drawOrder": null, "icon": null, "REG": "Ñuble", "COM": "San Fabián", "LOC": "San Fabián", "ZONA": "Área Verde", "NOM": "Área Verde", "UPERM": "Área Verde", "UPROH": "Todos los usos de suelo no mencionados como permitidos.", "P_DO": "12/01/1967", "N_DOC": "643", "T_DO": "Decreto", "OBS": null }, "geometry": { "type": "Polygon", "coordinates": [ [ [ -71.548780156918994, -36.556492255060199 ], [ -71.548803825490296, -36.55649294114 ], [ -71.548816529201503, -36.556474785017798 ], [ -71.5486177689112, -36.556272772007702 ], [ -71.548592702928104, -36.556274500483198 ], [ -71.548578365670906, -36.556287922110499 ], [ -71.548578087435601, -36.556304543490903 ], [ -71.548597183650202, -36.556320902795299 ], [ -71.548780156918994, -36.556492255060199 ] ] ] } },
{ "type": "Feature", "properties": { "id": "monoparte.42", "Name": null, "description": null, "timestamp": null, "begin": null, "end": null, "altitudeMode": null, "tessellate": -1, "extrude": 0, "visibility": -1, "drawOrder": null, "icon": null, "REG": "Ñuble", "COM": "San Fabián", "LOC": "San Fabián", "ZONA": "Área Verde", "NOM": "Área Verde", "UPERM": "Área Verde", "UPROH": "Todos los usos de suelo no mencionados como permitidos.", "P_DO": "12/01/1967", "N_DOC": "643", "T_DO": "Decreto", "OBS": null }, "geometry": { "type": "Polygon", "coordinates": [ [ [ -71.549130017556394, -36.556840070424798 ], [ -71.549146420239893, -36.556844488029299 ], [ -71.549168023453404, -36.556827333834597 ], [ -71.549155386872599, -36.556802566574603 ], [ -71.548975483368693, -36.556634727213002 ], [ -71.548942992451302, -36.556635422243197 ], [ -71.548938171947697, -36.556656254088203 ], [ -71.548939267664196, -36.556656962463599 ], [ -71.549130017556394, -36.556840070424798 ] ] ] } },
{ "type": "Feature", "properties": { "id": "monoparte.43", "Name": null, "description": null, "timestamp": null, "begin": null, "end": null, "altitudeMode": null, "tessellate": -1, "extrude": 0, "visibility": -1, "drawOrder": null, "icon": null, "REG": "Ñuble", "COM": "San Fabián", "LOC": "San Fabián", "ZONA": "Área Verde", "NOM": "Área Verde", "UPERM": "Área Verde", "UPROH": "Todos los usos de suelo no mencionados como permitidos.", "P_DO": "12/01/1967", "N_DOC": "643", "T_DO": "Decreto", "OBS": null }, "geometry": { "type": "Polygon", "coordinates": [ [ [ -71.549187897165694, -36.556904282694099 ], [ -71.549397156629794, -36.557099041206797 ], [ -71.549417636536404, -36.557092641269797 ], [ -71.549434692607804, -36.557072007258398 ], [ -71.549242541750402, -36.556891315392498 ], [ -71.549212927349203, -36.556889564253403 ], [ -71.549188212523703, -36.556902015615101 ], [ -71.549187897165694, -36.556904282694099 ] ] ] } },
{ "type": "Feature", "properties": { "id": "monoparte.44", "Name": null, "description": null, "timestamp": null, "begin": null, "end": null, "altitudeMode": null, "tessellate": -1, "extrude": 0, "visibility": -1, "drawOrder": null, "icon": null, "REG": "Ñuble", "COM": "San Fabián", "LOC": "San Fabián", "ZONA": "Área Verde", "NOM": "Área Verde", "UPERM": "Área Verde", "UPROH": "Todos los usos de suelo no mencionados como permitidos.", "P_DO": "12/01/1967", "N_DOC": "643", "T_DO": "Decreto", "OBS": null }, "geometry": { "type": "Polygon", "coordinates": [ [ [ -71.549455895211906, -36.557155013766 ], [ -71.549636153507194, -36.557333575026298 ], [ -71.549657992887703, -36.557323569802897 ], [ -71.549664711598894, -36.557303156952997 ], [ -71.549492150123001, -36.557133968970199 ], [ -71.549466926099697, -36.5571309316068 ], [ -71.549452902203001, -36.557153885451498 ], [ -71.549452662661096, -36.557154822468 ], [ -71.549455895211906, -36.557155013766 ] ] ] } },
{ "type": "Feature", "properties": { "id": "monoparte.45", "Name": null, "description": null, "timestamp": null, "begin": null, "end": null, "altitudeMode": null, "tessellate": -1, "extrude": 0, "visibility": -1, "drawOrder": null, "icon": null, "REG": "Ñuble", "COM": "San Fabián", "LOC": "San Fabián", "ZONA": "Área Verde", "NOM": "Área Verde", "UPERM": "Área Verde", "UPROH": "Todos los usos de suelo no mencionados como permitidos.", "P_DO": "12/01/1967", "N_DOC": "643", "T_DO": "Decreto", "OBS": null }, "geometry": { "type": "Polygon", "coordinates": [ [ [ -71.549978677506701, -36.557682737057398 ], [ -71.549999431757996, -36.557684677612002 ], [ -71.550013847359494, -36.557673638843099 ], [ -71.550017572964606, -36.557652097677597 ], [ -71.550005210185304, -36.557635670221302 ], [ -71.549861529194004, -36.557490902339303 ], [ -71.549833313162907, -36.557486737631997 ], [ -71.549824099417705, -36.557485525244097 ], [ -71.5498027297307, -36.557500507056702 ], [ -71.549978677506701, -36.557682737057398 ] ] ] } },
{ "type": "Feature", "properties": { "id": "monoparte.46", "Name": null, "description": null, "timestamp": null, "begin": null, "end": null, "altitudeMode": null, "tessellate": -1, "extrude": 0, "visibility": -1, "drawOrder": null, "icon": null, "REG": "Ñuble", "COM": "San Fabián", "LOC": "San Fabián", "ZONA": "Área Verde", "NOM": "Área Verde", "UPERM": "Área Verde", "UPROH": "Todos los usos de suelo no mencionados como permitidos.", "P_DO": "12/01/1967", "N_DOC": "643", "T_DO": "Decreto", "OBS": null }, "geometry": { "type": "Polygon", "coordinates": [ [ [ -71.550064209657194, -36.557766989378401 ], [ -71.550152039383207, -36.557853296876999 ], [ -71.550168074121899, -36.557869448355902 ], [ -71.550250292359394, -36.557942802361097 ], [ -71.550286508242607, -36.557920566707402 ], [ -71.550261859734803, -36.557890094908601 ], [ -71.5501960781219, -36.557823472044703 ], [ -71.550196039849297, -36.557823497197496 ], [ -71.550119702827701, -36.557746725022298 ], [ -71.550101745729094, -36.557739956119498 ], [ -71.550084023681293, -36.5577403353943 ], [ -71.550069606962097, -36.557751374195597 ], [ -71.550064209657194, -36.557766989378401 ] ] ] } },
{ "type": "Feature", "properties": { "id": "monoparte.47", "Name": null, "description": null, "timestamp": null, "begin": null, "end": null, "altitudeMode": null, "tessellate": -1, "extrude": 0, "visibility": -1, "drawOrder": null, "icon": null, "REG": "Ñuble", "COM": "San Fabián", "LOC": "San Fabián", "ZONA": "Área Verde", "NOM": "Área Verde", "UPERM": "Área Verde", "UPROH": "Todos los usos de suelo no mencionados como permitidos.", "P_DO": "12/01/1967", "N_DOC": "643", "T_DO": "Decreto", "OBS": null }, "geometry": { "type": "Polygon", "coordinates": [ [ [ -71.550379774621604, -36.557999713508899 ], [ -71.550370445387898, -36.558001275877103 ], [ -71.550355677154201, -36.5580015919709 ], [ -71.550339745426498, -36.5580114708794 ], [ -71.550337261732594, -36.558025831360197 ], [ -71.550503919328406, -36.558195144400798 ], [ -71.550548773844, -36.558210876311897 ], [ -71.550563071894004, -36.558196262937699 ], [ -71.550563961077998, -36.558178360430098 ], [ -71.550380783932795, -36.558001054593703 ], [ -71.550379774621604, -36.557999713508899 ] ] ] } },
{ "type": "Feature", "properties": { "id": "monoparte.48", "Name": null, "description": null, "timestamp": null, "begin": null, "end": null, "altitudeMode": null, "tessellate": -1, "extrude": 0, "visibility": -1, "drawOrder": null, "icon": null, "REG": "Ñuble", "COM": "San Fabián", "LOC": "San Fabián", "ZONA": "Zona Residencial Mixta", "NOM": "Zona Residencial Mixta", "UPERM": "Vivienda,comercio, industria y bodegas inofensivas.", "UPROH": "Todos los usos de suelo no mencionados como permitidos.", "P_DO": "12/01/1967", "N_DOC": "643", "T_DO": "Decreto", "OBS": null }, "geometry": { "type": "Polygon", "coordinates": [ [ [ -71.545288516775798, -36.556667484792101 ], [ -71.545759172115595, -36.557120458170303 ], [ -71.545782028850098, -36.557141431297303 ], [ -71.5447781697805, -36.557758930419403 ], [ -71.547060343990907, -36.559929384178901 ], [ -71.548112521471197, -36.559233030407 ], [ -71.548113357507702, -36.559233960642203 ], [ -71.549183607275197, -36.558509161621998 ], [ -71.546961869443507, -36.556327484383203 ], [ -71.548055278200394, -36.555625292546097 ], [ -71.547597632597203, -36.5551664425209 ], [ -71.547597981254398, -36.555163283397199 ], [ -71.547579676307393, -36.5551596732032 ], [ -71.547030658129998, -36.554642037316398 ], [ -71.547705559787303, -36.554189928434099 ], [ -71.547707000597001, -36.5541768962023 ], [ -71.550196885465297, -36.552506904228601 ], [ -71.5529637921871, -36.555216129058401 ], [ -71.554325968536403, -36.554307035633997 ], [ -71.555216299919906, -36.555225077343401 ], [ -71.555744888512194, -36.554879033103703 ], [ -71.553377455729404, -36.552421600357199 ], [ -71.553205472779098, -36.552224982010202 ], [ -71.553070500753506, -36.552075262720599 ], [ -71.552910960188598, -36.551897454065802 ], [ -71.552750793006396, -36.5517005818689 ], [ -71.552613314656696, -36.551474609667899 ], [ -71.552478345098393, -36.551324888693799 ], [ -71.552377562620904, -36.551136282731498 ], [ -71.552181330333397, -36.550921106330001 ], [ -71.552032354336205, -36.550704917547101 ], [ -71.551883379194905, -36.550488728538497 ], [ -71.551771725666796, -36.550328969459301 ], [ -71.551623692545107, -36.550141373680098 ], [ -71.551462279591902, -36.549906374567598 ], [ -71.551312993053898, -36.549680652609801 ], [ -71.551212842662395, -36.549511108745101 ], [ -71.551028432025603, -36.549295677176602 ], [ -71.549383125219407, -36.550381440838301 ], [ -71.550271033823094, -36.551256284000601 ], [ -71.548388272050303, -36.552512689292598 ], [ -71.547501027410206, -36.551623402415103 ], [ -71.546203272291606, -36.552479727603703 ], [ -71.546489624011699, -36.552559452725198 ], [ -71.546692652004296, -36.552621882077702 ], [ -71.546850614453604, -36.552752041567601 ], [ -71.547314571714395, -36.553199960345601 ], [ -71.545764647198695, -36.5542441367284 ], [ -71.547120162088007, -36.555560062058198 ], [ -71.546911570911504, -36.555688518206203 ], [ -71.546702980150798, -36.555816973989302 ], [ -71.545288516775798, -36.556667484792101 ] ], [ [ -71.547661350415495, -36.555350551966001 ], [ -71.547689517015002, -36.555344226817503 ], [ -71.547921744193502, -36.555581128841197 ], [ -71.547879059662705, -36.555607721738298 ], [ -71.547642513656299, -36.555370984969798 ], [ -71.547661350415495, -36.555350551966001 ] ], [ [ -71.547338462093407, -36.555022662410799 ], [ -71.547366722521801, -36.555019196801602 ], [ -71.547616020294399, -36.555271503695799 ], [ -71.547574501361396, -36.555298040920697 ], [ -71.547323545270999, -36.555054457435901 ], [ -71.547326432166003, -36.555034365449899 ], [ -71.547338462093407, -36.555022662410799 ] ], [ [ -71.547021926460005, -36.554726113174901 ], [ -71.547039366154195, -36.5547171560004 ], [ -71.547069727835606, -36.554723660235297 ], [ -71.547271377896095, -36.554923945127101 ], [ -71.547275250891403, -36.554933877920803 ], [ -71.547270309546505, -36.554945429421601 ], [ -71.547265369316605, -36.554956980898297 ], [ -71.547236389282901, -36.554965270032397 ], [ -71.547010037363705, -36.5547421049232 ], [ -71.547021926460005, -36.554726113174901 ] ], [ [ -71.546910809232301, -36.554582552474898 ], [ -71.547140020464497, -36.554429887837699 ], [ -71.547166524669905, -36.554431151725801 ], [ -71.547177486127893, -36.554440932099901 ], [ -71.547179727236994, -36.554455191532298 ], [ -71.546971672252894, -36.554599851573499 ], [ -71.546945418264102, -36.554610427419497 ], [ -71.546922146302606, -36.554603771616598 ], [ -71.546920091913805, -36.554595231123599 ], [ -71.546910809232301, -36.554582552474898 ] ], [ [ -71.547496993997498, -36.554190864494601 ], [ -71.547527332991905, -36.554185935848501 ], [ -71.547543752290807, -36.554199892157897 ], [ -71.547547860062707, -36.554216973142701 ], [ -71.547302685008901, -36.554365288801698 ], [ -71.547286688296495, -36.554364199579403 ], [ -71.547275492047106, -36.554347270114697 ], [ -71.547282204931193, -36.554335680743399 ], [ -71.547496993997498, -36.554190864494601 ] ], [ [ -71.547677892538303, -36.554072550901999 ], [ -71.547919861914494, -36.553910285001002 ], [ -71.547958085661307, -36.553910609571197 ], [ -71.547963684381699, -36.553919074258602 ], [ -71.547957394320903, -36.553943530778099 ], [ -71.547745702893707, -36.554085408422502 ], [ -71.547700332074498, -36.554107839031602 ], [ -71.547682329050502, -36.554099639539203 ], [ -71.547672952417997, -36.554084102392601 ], [ -71.547677892538303, -36.554072550901999 ] ], [ [ -71.548292135351105, -36.553658839227502 ], [ -71.548325508852699, -36.553650942563401 ], [ -71.548346774218601, -36.553650487790499 ], [ -71.5483629575685, -36.553657295815697 ], [ -71.548356620692303, -36.553680323072797 ], [ -71.548179622643005, -36.553798566877802 ], [ -71.548144180293903, -36.553799324783597 ], [ -71.548136856989302, -36.553792328167503 ], [ -71.548129157898501, -36.553773892816103 ], [ -71.548292135351105, -36.553658839227502 ] ], [ [ -71.548583324604806, -36.553472017542298 ], [ -71.5486157210171, -36.553470186376501 ], [ -71.548635401575396, -36.553475488382801 ], [ -71.548641235212102, -36.553491101230797 ], [ -71.548488389979696, -36.553588799527098 ], [ -71.548455282994098, -36.553606676380802 ], [ -71.548433923691903, -36.553604271714697 ], [ -71.548424828797593, -36.553597312103001 ], [ -71.548424265099499, -36.553580155355199 ], [ -71.548583324604806, -36.553472017542298 ] ], [ [ -71.548720396981693, -36.553390687917599 ], [ -71.548957377124296, -36.553229526165801 ], [ -71.548965143334101, -36.553229502437901 ], [ -71.548978205281401, -36.5532492533005 ], [ -71.548980541757501, -36.553266372122998 ], [ -71.548758503295304, -36.553417056350099 ], [ -71.548733552858295, -36.553413298265298 ], [ -71.548727955212101, -36.553404833591401 ], [ -71.548720396981693, -36.553390687917599 ] ], [ [ -71.549147408725005, -36.5531097136342 ], [ -71.549349575424898, -36.552969402733403 ], [ -71.549368518729395, -36.552984801768702 ], [ -71.549377707581996, -36.552994619864002 ], [ -71.549380091141103, -36.553013168854498 ], [ -71.549173345837701, -36.553143496379398 ], [ -71.549159028080794, -36.553139510922001 ], [ -71.549151751726797, -36.553133943646699 ], [ -71.549147878598504, -36.553124010917202 ], [ -71.549147408725005, -36.5531097136342 ] ], [ [ -71.549654100797298, -36.552771234857197 ], [ -71.549655919091805, -36.552769085226103 ], [ -71.549677278408794, -36.552775030684799 ], [ -71.549686421407003, -36.552783419454698 ], [ -71.549687173354698, -36.552806295099003 ], [ -71.549487752495594, -36.552943620552902 ], [ -71.549462990157593, -36.552945581527901 ], [ -71.549441584011106, -36.552941746858103 ], [ -71.549439482424603, -36.5529317771378 ], [ -71.549440597184699, -36.552911723020102 ], [ -71.549654100797298, -36.552771234857197 ] ], [ [ -71.549992676738995, -36.552553688018001 ], [ -71.550018780475, -36.552552099285798 ], [ -71.550031467653994, -36.5525604121854 ], [ -71.5500338972208, -36.552580390459497 ], [ -71.549836109233297, -36.552713389788302 ], [ -71.549805936124997, -36.552712604245002 ], [ -71.549798612784997, -36.552705607731802 ], [ -71.549796230256405, -36.552687058728502 ], [ -71.549802801645001, -36.5526711804999 ], [ -71.549992246753206, -36.552554098275401 ], [ -71.549992676738995, -36.552553688018001 ] ], [ [ -71.550129843777398, -36.552478185870797 ], [ -71.550139583213806, -36.552450793960901 ], [ -71.550346084271595, -36.552319869800698 ], [ -71.550381766597795, -36.552319705445598 ], [ -71.550392775152901, -36.552330915700097 ], [ -71.550386250935503, -36.552348224133702 ], [ -71.550197184105301, -36.552476744740098 ], [ -71.550160392831998, -36.552490409153997 ], [ -71.550140899340704, -36.552490826326498 ], [ -71.550129843777398, -36.552478185870797 ] ], [ [ -71.552540121354895, -36.552403804148902 ], [ -71.552373342124497, -36.552185612554702 ], [ -71.552383090688096, -36.552167519365099 ], [ -71.552408292126302, -36.552151890856798 ], [ -71.552575785134195, -36.552364887635903 ], [ -71.552580960545001, -36.552387429662403 ], [ -71.552573968488801, -36.5523995020596 ], [ -71.552553450882201, -36.5524047109731 ], [ -71.552540121354895, -36.552403804148902 ] ], [ [ -71.550703870436294, -36.552130746221202 ], [ -71.550569316361901, -36.552218277936397 ], [ -71.550556026055602, -36.552218562402203 ], [ -71.550545414060593, -36.5522104439722 ], [ -71.550532934574093, -36.552190441985097 ], [ -71.550670879947802, -36.552095400611798 ], [ -71.550694579654504, -36.552117830112799 ], [ -71.550703870436294, -36.552130746221202 ] ], [ [ -71.552292866761306, -36.552075262340701 ], [ -71.552114888834296, -36.551831079356703 ], [ -71.552140804011401, -36.551810256141501 ], [ -71.552164392734198, -36.551808558582998 ], [ -71.552346996100397, -36.552058603280003 ], [ -71.552339925621396, -36.552068292639198 ], [ -71.552326909770798, -36.552076916988597 ], [ -71.552292866761306, -36.552075262340701 ] ], [ [ -71.551127697943798, -36.551852217893497 ], [ -71.551092609244805, -36.551863700264697 ], [ -71.551077488393105, -36.551853292802598 ], [ -71.551075503298904, -36.551837835616503 ], [ -71.551310428294499, -36.551686753224999 ], [ -71.551332298149106, -36.551692841573299 ], [ -71.551334245215003, -36.551707107216103 ], [ -71.551325894887299, -36.551722785682401 ], [ -71.551127697943798, -36.551852217893497 ] ], [ [ -71.552060921713704, -36.551747583542401 ], [ -71.551889755568496, -36.551523524292797 ], [ -71.551901060496405, -36.551507782515998 ], [ -71.551923054729301, -36.551502542095399 ], [ -71.551955816672404, -36.551510186051097 ], [ -71.552095777600996, -36.551721799448401 ], [ -71.552093372770003, -36.551738542984602 ], [ -71.552083309455298, -36.551747104073399 ], [ -71.552060921713704, -36.551747583542401 ] ], [ [ -71.551684636584596, -36.551487378554697 ], [ -71.551454931868605, -36.551647293888998 ], [ -71.551422444218105, -36.551647989489901 ], [ -71.5514073245144, -36.5516375829461 ], [ -71.551406971793895, -36.551626859324699 ], [ -71.551418158175807, -36.551607543973603 ], [ -71.551652566502298, -36.551455873558602 ], [ -71.551657005471498, -36.551452269042898 ], [ -71.551670404678404, -36.551459068646302 ], [ -71.551681095097507, -36.5514695709035 ], [ -71.551684636584596, -36.551487378554697 ] ], [ [ -71.550768874468602, -36.552085240434401 ], [ -71.550743926337802, -36.552090543875103 ], [ -71.550736267956694, -36.552082361337199 ], [ -71.550723866836904, -36.552064743299503 ], [ -71.550885761281094, -36.551954924071403 ], [ -71.550908199085796, -36.551963029951999 ], [ -71.550915777987399, -36.551968829474902 ], [ -71.550920796179298, -36.551986606439897 ], [ -71.550768874468602, -36.552085240434401 ] ], [ [ -71.552863110172297, -36.552698532125802 ], [ -71.552845742217102, -36.552709634473203 ], [ -71.552822035600997, -36.552707757640597 ], [ -71.552635599860295, -36.5525209869026 ], [ -71.5526231590039, -36.5525021766707 ], [ -71.552628594694497, -36.552487752906003 ], [ -71.552641572480695, -36.552477936986698 ], [ -71.552657281848397, -36.552467894918799 ], [ -71.552862012211406, -36.552665171592899 ], [ -71.552870023776293, -36.552684076688998 ], [ -71.552863110172297, -36.552698532125802 ] ], [ [ -71.553171765574902, -36.5530066803491 ], [ -71.553155874466896, -36.553017751999903 ], [ -71.553120117740093, -36.5530089793019 ], [ -71.552924310876307, -36.552806910156399 ], [ -71.552922128212799, -36.552785496383898 ], [ -71.552946357014804, -36.552772183178199 ], [ -71.553177005120006, -36.552986299905903 ], [ -71.553171765574902, -36.5530066803491 ] ], [ [ -71.553494729502106, -36.553334194454102 ], [ -71.553471881036302, -36.5533404069973 ], [ -71.553450474654099, -36.553336573960998 ], [ -71.553272838627805, -36.553165830089398 ], [ -71.553259680387299, -36.553143220316301 ], [ -71.553273339468205, -36.553127190041501 ], [ -71.553305144166998, -36.553123647094097 ], [ -71.553310681874393, -36.5531242701637 ], [ -71.553494117635694, -36.553315608500299 ], [ -71.553494729502106, -36.553334194454102 ] ], [ [ -71.553792684674505, -36.553658308746002 ], [ -71.553766196665805, -36.553661737883701 ], [ -71.553570226296301, -36.553472789251501 ], [ -71.553566117229494, -36.553455707622199 ], [ -71.553569096601294, -36.553438474992099 ], [ -71.553600807268893, -36.553432072515001 ], [ -71.553604479619594, -36.553432122695703 ], [ -71.553794910819207, -36.553618200544598 ], [ -71.553799302360801, -36.553643859600598 ], [ -71.553792684674505, -36.553658308746002 ] ], [ [ -71.554109805518095, -36.553971996762698 ], [ -71.554097729742494, -36.553982271169097 ], [ -71.554059998030397, -36.553967341409397 ], [ -71.553876101934307, -36.553768118944497 ], [ -71.553877308577995, -36.553750924301902 ], [ -71.553902024744005, -36.553738227724402 ], [ -71.554099579088302, -36.553930725189304 ], [ -71.554109052234907, -36.553949121201697 ], [ -71.554109805518095, -36.553971996762698 ] ], [ [ -71.554382099163305, -36.554243722878702 ], [ -71.554364754656106, -36.554255540536303 ], [ -71.554341670563204, -36.554254604192003 ], [ -71.554172749218594, -36.554079383203302 ], [ -71.554168640009706, -36.554062302503397 ], [ -71.554182346113805, -36.554047701399703 ], [ -71.5542134951164, -36.554043742363298 ], [ -71.5543869452205, -36.554229311680402 ], [ -71.554382099163305, -36.554243722878702 ] ], [ [ -71.554615211236296, -36.554483381057999 ], [ -71.554605002288596, -36.554496476055 ], [ -71.554571001752294, -36.554487190300698 ], [ -71.554422280654407, -36.554332997154297 ], [ -71.554417983028301, -36.554310197577799 ], [ -71.5544230163121, -36.554301505290702 ], [ -71.554444046335306, -36.5542939012632 ], [ -71.554454640543199, -36.554293487595402 ], [ -71.554454679055695, -36.554293673328203 ], [ -71.554615853748899, -36.554449029729298 ], [ -71.554621640465697, -36.554463212984501 ], [ -71.554615211236296, -36.554483381057999 ] ], [ [ -71.554896236859406, -36.554777809512402 ], [ -71.554884162190007, -36.554788083974302 ], [ -71.554846664314198, -36.554780303568698 ], [ -71.554683057592797, -36.554604969409098 ], [ -71.554685989666396, -36.554586307490602 ], [ -71.5546927956199, -36.554577577188098 ], [ -71.554726372390107, -36.554573995860203 ], [ -71.554729002392705, -36.554573939474103 ], [ -71.5549006589968, -36.554750531253802 ], [ -71.554901177039596, -36.5547662577398 ], [ -71.554896236859406, -36.554777809512402 ] ], [ [ -71.555195409976406, -36.555084726039503 ], [ -71.555181562577999, -36.555095037643703 ], [ -71.555154791553704, -36.555089888779698 ], [ -71.554956995429393, -36.554899550560499 ], [ -71.554958250034105, -36.5548837851657 ], [ -71.554991354822903, -36.5548659065688 ], [ -71.555003297157498, -36.554864738439903 ], [ -71.555196476124706, -36.555063241760102 ], [ -71.555195080246705, -36.5550747175417 ], [ -71.555195409976406, -36.555084726039503 ] ] ] } },
{ "type": "Feature", "properties": { "id": "monoparte.49", "Name": null, "description": null, "timestamp": null, "begin": null, "end": null, "altitudeMode": null, "tessellate": -1, "extrude": 0, "visibility": -1, "drawOrder": null, "icon": null, "REG": "Ñuble", "COM": "San Fabián", "LOC": "San Fabián", "ZONA": "Zona de Balneario", "NOM": "Zona de Balneario", "UPERM": "Balneario y construcciones complementarias y viviendas.", "UPROH": "Todos los usos de suelo no mencionados como permitidos.", "P_DO": "12/01/1967", "N_DOC": "643", "T_DO": "Decreto", "OBS": null }, "geometry": { "type": "Polygon", "coordinates": [ [ [ -71.5447781697805, -36.557758930419403 ], [ -71.545782028850098, -36.557141431297303 ], [ -71.545759172115595, -36.557120458170303 ], [ -71.545288516775798, -36.556667484792101 ], [ -71.543129819927998, -36.554653313669299 ], [ -71.542519106776595, -36.554055898305101 ], [ -71.541982100302505, -36.553542750531797 ], [ -71.541749822348706, -36.553309248736497 ], [ -71.541366149365899, -36.553145743621698 ], [ -71.541112171862196, -36.553332387079102 ], [ -71.540870006869099, -36.553518777233798 ], [ -71.540674473755999, -36.5536850976913 ], [ -71.540571580450006, -36.553792211508302 ], [ -71.540351480651495, -36.5539304395976 ], [ -71.539484138004099, -36.554521223310402 ], [ -71.539700540751397, -36.554631070162202 ], [ -71.539871247779203, -36.554789582114097 ], [ -71.539881767985406, -36.554802731543496 ], [ -71.541111662251893, -36.553955748203599 ], [ -71.541411794010997, -36.554185419378598 ], [ -71.541457971860098, -36.554241663939102 ], [ -71.541311087260894, -36.554359255458202 ], [ -71.5422086548907, -36.555310149374002 ], [ -71.542211303906498, -36.555312955230399 ], [ -71.542211338332606, -36.5553175499726 ], [ -71.5447781697805, -36.557758930419403 ] ] ] } }
]
}
