{
"type": "FeatureCollection",
"name": "IPT_16_PRC_Niquen",
"crs": { "type": "name", "properties": { "name": "urn:ogc:def:crs:OGC:1.3:CRS84" } },
"features": [
{ "type": "Feature", "properties": { "id": "monoparte.1", "Name": null, "description": null, "timestamp": null, "begin": null, "end": null, "altitudeMode": null, "tessellate": -1, "extrude": 0, "visibility": -1, "drawOrder": null, "icon": null, "REG": "Ñuble", "COM": "Niquén", "LOC": "Estación", "ZONA": "ZH-1", "NOM": "ZH-1 Zona Habitacional", "UPERM": "Residencial. Actividades productivas inofensivas. Equipamiento: científico, comercio, culto y cultura, deporte, educación, esparcimiento, salud, seguridad, servicios y social.", "UPROH": "Todos los usos de suelo no mencionados como permitidos.", "P_DO": "24/09/2009", "N_DOC": "121", "T_DO": "Resolución", "OBS": null }, "geometry": { "type": "Polygon", "coordinates": [ [ [ -71.896520231176893, -36.291069005885603 ], [ -71.898458892237301, -36.291522720159399 ], [ -71.899572529586905, -36.293558234402298 ], [ -71.900191301761396, -36.294756891186601 ], [ -71.900802023324701, -36.294545348528601 ], [ -71.901080270048695, -36.295098933895702 ], [ -71.901865576972199, -36.294829495795703 ], [ -71.901382577053894, -36.293917258453497 ], [ -71.902059281132097, -36.293698145631801 ], [ -71.902718720140001, -36.294999524315301 ], [ -71.903570455794195, -36.294734421603899 ], [ -71.9025769877599, -36.292964277802703 ], [ -71.901581360867695, -36.291134565031498 ], [ -71.901132318225606, -36.290343108292802 ], [ -71.899756003933902, -36.290758030678901 ], [ -71.899955584767199, -36.2911764233939 ], [ -71.899357616096793, -36.291334002341998 ], [ -71.899161565198199, -36.291010900767297 ], [ -71.899040326874001, -36.290918464876 ], [ -71.898699046290801, -36.290849251300202 ], [ -71.896826595356202, -36.2903784426369 ], [ -71.896520231176893, -36.291069005885603 ] ], [ [ -71.899668269925996, -36.291848654617603 ], [ -71.899829608356896, -36.291791089214101 ], [ -71.899976618474497, -36.291745161655101 ], [ -71.900290480762806, -36.292305669446698 ], [ -71.899967008218994, -36.292399361202399 ], [ -71.899668269925996, -36.291848654617603 ] ] ] } },
{ "type": "Feature", "properties": { "id": "monoparte.2", "Name": null, "description": null, "timestamp": null, "begin": null, "end": null, "altitudeMode": null, "tessellate": -1, "extrude": 0, "visibility": -1, "drawOrder": null, "icon": null, "REG": "Ñuble", "COM": "Niquén", "LOC": "Estación", "ZONA": "ZE", "NOM": "ZE Zona de Equipamiento y Servicios", "UPERM": "Residencial (vivienda complementaria a la actividad). Actividades productivas inofensivas. Equipamiento: científico, comercio, culto y cultura, deporte, educación, esparcimiento, salud, seguridad, servicios y social.", "UPROH": "Todos los usos de suelo no mencionados como permitidos.", "P_DO": "24/09/2009", "N_DOC": "121", "T_DO": "Resolución", "OBS": null }, "geometry": { "type": "Polygon", "coordinates": [ [ [ -71.901865576972199, -36.294829495795703 ], [ -71.902958392990698, -36.2969328885114 ], [ -71.903105312087106, -36.296861909394998 ], [ -71.903244188960997, -36.296794155383402 ], [ -71.903592437541207, -36.296653354857597 ], [ -71.903664125557498, -36.296622974098597 ], [ -71.902718720140001, -36.294999524315301 ], [ -71.902059281132097, -36.293698145631801 ], [ -71.901382577053894, -36.293917258453497 ], [ -71.901865576972199, -36.294829495795703 ] ] ] } },
{ "type": "Feature", "properties": { "id": "monoparte.3", "Name": null, "description": null, "timestamp": null, "begin": null, "end": null, "altitudeMode": null, "tessellate": -1, "extrude": 0, "visibility": -1, "drawOrder": null, "icon": null, "REG": "Ñuble", "COM": "Niquén", "LOC": "Estación", "ZONA": "ZED", "NOM": "ZED Zona de Equipamiento Deportivo", "UPERM": "Residencial (vivienda complementaria a la actividad). Equipamiento: científico, deporte y esparcimiento.", "UPROH": "Todos los usos de suelo no mencionados como permitidos.", "P_DO": "24/09/2009", "N_DOC": "121", "T_DO": "Resolución", "OBS": null }, "geometry": { "type": "Polygon", "coordinates": [ [ [ -71.901080270048695, -36.295098933895702 ], [ -71.900922731851296, -36.295537441289703 ], [ -71.900849395121597, -36.295625061496303 ], [ -71.900321491098794, -36.296005082374897 ], [ -71.900161806125297, -36.296147255605 ], [ -71.900133965852405, -36.296190851180903 ], [ -71.900109655766101, -36.2963297388158 ], [ -71.900206682561006, -36.296881525851603 ], [ -71.900299616625901, -36.2973227743161 ], [ -71.900338402093595, -36.297574582718497 ], [ -71.900280865569599, -36.297705000969998 ], [ -71.900432103250495, -36.297670784771199 ], [ -71.900873110139202, -36.297552777095198 ], [ -71.901639417044805, -36.297366063938803 ], [ -71.902366916130205, -36.297205325930001 ], [ -71.902519169782295, -36.297140823716397 ], [ -71.902723336267101, -36.297046446824801 ], [ -71.902958392990698, -36.2969328885114 ], [ -71.901865576972199, -36.294829495795703 ], [ -71.901080270048695, -36.295098933895702 ] ] ] } },
{ "type": "Feature", "properties": { "id": "monoparte.4", "Name": null, "description": null, "timestamp": null, "begin": null, "end": null, "altitudeMode": null, "tessellate": -1, "extrude": 0, "visibility": -1, "drawOrder": null, "icon": null, "REG": "Ñuble", "COM": "Niquén", "LOC": "San Gregorio", "ZONA": "ZEXH", "NOM": "ZEXH Zona de Extensión Habitacional", "UPERM": "Residencial. Actividades productivas (talleres inofensivos). Equipamiento: comercio, culto y cultura, deporte, esparcimiento, salud, seguridad, servicios y social.", "UPROH": "Todos los usos de suelo no mencionados como permitidos.", "P_DO": "24/09/2009", "N_DOC": "121", "T_DO": "Resolución", "OBS": null }, "geometry": { "type": "Polygon", "coordinates": [ [ [ -71.820162350396899, -36.287050776689497 ], [ -71.820036126361302, -36.286638034119299 ], [ -71.819912093893805, -36.286383437386498 ], [ -71.819710744326002, -36.285944674605602 ], [ -71.819591344770799, -36.285818729300502 ], [ -71.819275923831199, -36.285647336428703 ], [ -71.817839847736195, -36.284984941685003 ], [ -71.816370755484996, -36.284278371443897 ], [ -71.815135699853897, -36.284654646083901 ], [ -71.813197190751197, -36.285212967723098 ], [ -71.812956553369105, -36.2852782454286 ], [ -71.811828355362493, -36.282771277421503 ], [ -71.811237789280497, -36.281497546564502 ], [ -71.810942513876896, -36.280860679185402 ], [ -71.810450650737295, -36.279751536523001 ], [ -71.811713767661402, -36.279250884066499 ], [ -71.811541026730396, -36.2789509259377 ], [ -71.811773434496104, -36.278861999559403 ], [ -71.811585982029598, -36.278562387638601 ], [ -71.812513081850398, -36.278136398215302 ], [ -71.813500797505696, -36.279603454696399 ], [ -71.814877872998096, -36.279201426708603 ], [ -71.814811528257493, -36.277355007739303 ], [ -71.814763209635601, -36.276351184810103 ], [ -71.812899790226098, -36.276586514924503 ], [ -71.809585236754501, -36.2770364735917 ], [ -71.8072382926279, -36.277311050304597 ], [ -71.808115833152499, -36.278622092128103 ], [ -71.810530220622795, -36.2823018325698 ], [ -71.806718894596301, -36.283607511807404 ], [ -71.801786829573402, -36.285285108227903 ], [ -71.802764096373906, -36.287491693777397 ], [ -71.808117850340906, -36.285661075018801 ], [ -71.811318548002404, -36.284572400987201 ], [ -71.813403336876604, -36.2889060250954 ], [ -71.8160132217658, -36.288176885697297 ], [ -71.820162350396899, -36.287050776689497 ] ] ] } },
{ "type": "Feature", "properties": { "id": "monoparte.5", "Name": null, "description": null, "timestamp": null, "begin": null, "end": null, "altitudeMode": null, "tessellate": -1, "extrude": 0, "visibility": -1, "drawOrder": null, "icon": null, "REG": "Ñuble", "COM": "Niquén", "LOC": "San Gregorio", "ZONA": "ZES", "NOM": "ZES Zona de Equipamiento de Salud de Cementerio", "UPERM": "Residencial (vivienda complementaria a la actividad). Equipamiento: Culto y cultura, y salud (sólo cementerios y crematorios).", "UPROH": "Todos los usos de suelo no mencionados como permitidos.", "P_DO": "24/09/2009", "N_DOC": "121", "T_DO": "Resolución", "OBS": null }, "geometry": { "type": "Polygon", "coordinates": [ [ [ -71.823950819449095, -36.276312667886003 ], [ -71.824573958913902, -36.276101030425203 ], [ -71.825398615462902, -36.275695247951703 ], [ -71.824586148804698, -36.274233688257397 ], [ -71.824490272678403, -36.274073440683203 ], [ -71.823428070945496, -36.274567022747704 ], [ -71.822946170294003, -36.274759628253797 ], [ -71.822205341554195, -36.274958348177002 ], [ -71.823950819449095, -36.276312667886003 ] ] ] } },
{ "type": "Feature", "properties": { "id": "monoparte.6", "Name": null, "description": null, "timestamp": null, "begin": null, "end": null, "altitudeMode": null, "tessellate": -1, "extrude": 0, "visibility": -1, "drawOrder": null, "icon": null, "REG": "Ñuble", "COM": "Niquén", "LOC": "San Gregorio", "ZONA": "ZPD", "NOM": "ZPD Zona de Protección de Drenajes", "UPERM": "Sólo se permite el uso de espacio público.", "UPROH": "Todos los usos de suelo no mencionados como permitidos.", "P_DO": "24/09/2009", "N_DOC": "121", "T_DO": "Resolución", "OBS": null }, "geometry": { "type": "Polygon", "coordinates": [ [ [ -71.805062792189403, -36.274060634158701 ], [ -71.805179272140506, -36.274049196798401 ], [ -71.805778315565107, -36.274001750910102 ], [ -71.806283715047798, -36.273970807208599 ], [ -71.806589224096399, -36.273982708671497 ], [ -71.806718345656606, -36.273970137476198 ], [ -71.807019146223993, -36.273982148424501 ], [ -71.807155006323796, -36.273993264011402 ], [ -71.807350565965606, -36.274026821610001 ], [ -71.807612394553104, -36.2741017437259 ], [ -71.808018017293705, -36.274244821262499 ], [ -71.808214260993395, -36.274297437594399 ], [ -71.808518650771703, -36.274409509084897 ], [ -71.808724444673999, -36.274399902996898 ], [ -71.808889045352899, -36.274391264823898 ], [ -71.809246815359003, -36.274349471575398 ], [ -71.8094799816391, -36.274281993791 ], [ -71.809718690755304, -36.2742048466638 ], [ -71.809880385765894, -36.274115202118502 ], [ -71.809996882312305, -36.274079080518803 ], [ -71.810120801819394, -36.274085704206897 ], [ -71.810410518602495, -36.274117042554103 ], [ -71.811151039683907, -36.27420454256 ], [ -71.811493888959902, -36.274239397623298 ], [ -71.811753327621702, -36.274247600429902 ], [ -71.811870849409601, -36.2742400667805 ], [ -71.812151774776595, -36.274190535351202 ], [ -71.812449497348595, -36.274116762437103 ], [ -71.813120586988006, -36.2739435900072 ], [ -71.813906542790704, -36.273689020513899 ], [ -71.814560858649997, -36.273459006433598 ], [ -71.815389087603407, -36.273201047054897 ], [ -71.815926700369502, -36.2730834630269 ], [ -71.816179222499102, -36.2730632044888 ], [ -71.816405576368098, -36.2731341739172 ], [ -71.816632615789104, -36.273224202954701 ], [ -71.816802008798504, -36.273348972602697 ], [ -71.817782464204797, -36.274147077091399 ], [ -71.819603410576306, -36.275649275120401 ], [ -71.821348246653997, -36.277112423396602 ], [ -71.821454605774505, -36.277013108261102 ], [ -71.821470973188895, -36.276976954992001 ], [ -71.819135271534094, -36.2750839528779 ], [ -71.817875208864706, -36.274028728747801 ], [ -71.816933969076999, -36.273240192642703 ], [ -71.8167964270461, -36.273100365485398 ], [ -71.816482777568297, -36.272976610293703 ], [ -71.816097712935502, -36.272914150471102 ], [ -71.815555532580703, -36.272986538321298 ], [ -71.813940534440405, -36.273525321971199 ], [ -71.812134262228398, -36.274068586367299 ], [ -71.811900158672202, -36.274109862090697 ], [ -71.811576502684701, -36.2741174774523 ], [ -71.810644113117604, -36.273984419105901 ], [ -71.809994236860106, -36.273928166749798 ], [ -71.809615578801001, -36.2740443727171 ], [ -71.809238200874404, -36.274196314346099 ], [ -71.808901113509407, -36.274240006045702 ], [ -71.808709860740805, -36.274244501372301 ], [ -71.8085021895197, -36.274201692102402 ], [ -71.807996440876096, -36.274058585264697 ], [ -71.807459990520897, -36.273880429673198 ], [ -71.807119915636406, -36.273840728480003 ], [ -71.806589442420702, -36.273829343690402 ], [ -71.806000548867601, -36.273831249742102 ], [ -71.805266670811903, -36.273896169893803 ], [ -71.804973289767702, -36.273926902172803 ], [ -71.805062792189403, -36.274060634158701 ] ] ] } },
{ "type": "Feature", "properties": { "id": "monoparte.7", "Name": null, "description": null, "timestamp": null, "begin": null, "end": null, "altitudeMode": null, "tessellate": -1, "extrude": 0, "visibility": -1, "drawOrder": null, "icon": null, "REG": "Ñuble", "COM": "Niquén", "LOC": "San Gregorio", "ZONA": "ZE", "NOM": "ZE Zona de Equipamiento y Servicios", "UPERM": "Residencial (vivienda complementaria a la actividad). Actividades productivas inofensivas. Equipamiento: científico, comercio, culto y cultura, deporte, educación, esparcimiento, salud, seguridad, servicios y social.", "UPROH": "Todos los usos de suelo no mencionados como permitidos.", "P_DO": "24/09/2009", "N_DOC": "121", "T_DO": "Resolución", "OBS": null }, "geometry": { "type": "Polygon", "coordinates": [ [ [ -71.819135271534094, -36.2750839528779 ], [ -71.821470973188895, -36.276976954992001 ], [ -71.823265616034504, -36.276519666343702 ], [ -71.823849551654504, -36.276347061600703 ], [ -71.823950819449095, -36.276312667886003 ], [ -71.822205341554195, -36.274958348177002 ], [ -71.822946170294003, -36.274759628253797 ], [ -71.823428070945496, -36.274567022747704 ], [ -71.824490272678403, -36.274073440683203 ], [ -71.824048056279096, -36.273334301527797 ], [ -71.8230337977418, -36.273763905628599 ], [ -71.822364794975698, -36.2739943117274 ], [ -71.821416698438895, -36.274243227145597 ], [ -71.820832524710795, -36.274376242823102 ], [ -71.820175648256793, -36.274534816039299 ], [ -71.819623894751402, -36.274750517610798 ], [ -71.819135271534094, -36.2750839528779 ] ] ] } },
{ "type": "Feature", "properties": { "id": "monoparte.8", "Name": null, "description": null, "timestamp": null, "begin": null, "end": null, "altitudeMode": null, "tessellate": -1, "extrude": 0, "visibility": -1, "drawOrder": null, "icon": null, "REG": "Ñuble", "COM": "Niquén", "LOC": "San Gregorio", "ZONA": "ZE", "NOM": "ZE Zona de Equipamiento y Servicios", "UPERM": "Residencial (vivienda complementaria a la actividad). Actividades productivas inofensivas. Equipamiento: científico, comercio, culto y cultura, deporte, educación, esparcimiento, salud, seguridad, servicios y social.", "UPROH": "Todos los usos de suelo no mencionados como permitidos.", "P_DO": "24/09/2009", "N_DOC": "121", "T_DO": "Resolución", "OBS": null }, "geometry": { "type": "Polygon", "coordinates": [ [ [ -71.815264872191506, -36.274792523372902 ], [ -71.815406308559503, -36.276269961585903 ], [ -71.815440306990297, -36.277437959461402 ], [ -71.816086574702396, -36.277392924790199 ], [ -71.817122545747793, -36.2795860829169 ], [ -71.817885457558404, -36.281350500255002 ], [ -71.818288112515305, -36.282350835496501 ], [ -71.818393606593602, -36.282622563095501 ], [ -71.818685008627796, -36.283552854236 ], [ -71.819149061613501, -36.284413972147803 ], [ -71.817839847736195, -36.284984941685003 ], [ -71.819275923831199, -36.285647336428703 ], [ -71.819591344770799, -36.285818729300502 ], [ -71.819710744326002, -36.285944674605602 ], [ -71.819912093893805, -36.286383437386498 ], [ -71.820036126361302, -36.286638034119299 ], [ -71.820162350396899, -36.287050776689497 ], [ -71.820254652516198, -36.287025723233498 ], [ -71.820213474077207, -36.286900910812498 ], [ -71.821065902176997, -36.286690028672801 ], [ -71.821103336679698, -36.2867953609571 ], [ -71.821550626936002, -36.286673948070501 ], [ -71.821503113110793, -36.286562865336698 ], [ -71.822419071691002, -36.286317090390199 ], [ -71.822463168552105, -36.286426240127703 ], [ -71.823421881519394, -36.2861659905764 ], [ -71.821430315758803, -36.281980570701798 ], [ -71.819589786579598, -36.277894081160902 ], [ -71.820770815804096, -36.277651603308399 ], [ -71.821348246653997, -36.277112423396602 ], [ -71.819603410576306, -36.275649275120401 ], [ -71.817782464204797, -36.274147077091399 ], [ -71.816802008798504, -36.273348972602697 ], [ -71.816632615789104, -36.273224202954701 ], [ -71.816405576368098, -36.2731341739172 ], [ -71.816179222499102, -36.2730632044888 ], [ -71.815926700369502, -36.2730834630269 ], [ -71.815389087603407, -36.273201047054897 ], [ -71.815063157858305, -36.273302561740103 ], [ -71.815338949768801, -36.273903746565999 ], [ -71.8152669557157, -36.274112893654298 ], [ -71.8152022468458, -36.274278948277001 ], [ -71.815264872191506, -36.274792523372902 ] ], [ [ -71.817289984510097, -36.277127778407099 ], [ -71.816989168852501, -36.277238595607102 ], [ -71.8161600354359, -36.275574593467802 ], [ -71.817908971929199, -36.275178168577298 ], [ -71.818290378080405, -36.2750976393624 ], [ -71.818734052253305, -36.276256767725698 ], [ -71.818454667530702, -36.276349199131602 ], [ -71.8182370740696, -36.2764401726104 ], [ -71.8179714004619, -36.276668195713803 ], [ -71.817784141614396, -36.276865755373798 ], [ -71.817573400727099, -36.277024524633703 ], [ -71.817289984510097, -36.277127778407099 ] ], [ [ -71.820378053146698, -36.285337095369897 ], [ -71.821029789473798, -36.2865800707388 ], [ -71.820176642334502, -36.286777787405398 ], [ -71.820009376086702, -36.286385909769002 ], [ -71.819989489048993, -36.286324383198398 ], [ -71.819987627895799, -36.286190895819999 ], [ -71.820029994380405, -36.286058749230399 ], [ -71.820082904179003, -36.285974042826197 ], [ -71.820151299540498, -36.285910431690098 ], [ -71.8202597782618, -36.285814876893802 ], [ -71.820319001397607, -36.285741944534799 ], [ -71.820356425040202, -36.2856361436627 ], [ -71.820379117969793, -36.285530213745801 ], [ -71.820340483898605, -36.285357057423802 ], [ -71.820378053146698, -36.285337095369897 ] ], [ [ -71.821338362318102, -36.286077459208698 ], [ -71.821099353098305, -36.285595123675698 ], [ -71.821337712767402, -36.285650651607099 ], [ -71.821768039812994, -36.285659565840902 ], [ -71.8219786904519, -36.285702279907298 ], [ -71.822138004405801, -36.285791512336999 ], [ -71.822352105679499, -36.286175126640401 ], [ -71.821984751938004, -36.286279182365298 ], [ -71.821481405150806, -36.2864508298372 ], [ -71.821474746774797, -36.286429527187401 ], [ -71.821338362318102, -36.286077459208698 ] ] ] } },
{ "type": "Feature", "properties": { "id": "monoparte.9", "Name": null, "description": null, "timestamp": null, "begin": null, "end": null, "altitudeMode": null, "tessellate": -1, "extrude": 0, "visibility": -1, "drawOrder": null, "icon": null, "REG": "Ñuble", "COM": "Niquén", "LOC": "San Gregorio", "ZONA": "ZPI", "NOM": "ZPI Zona Productiva Inofensiva", "UPERM": "Residencial (vivienda complementaria a la actividad). Actividades productivas inofensivas. Equipamiento: científico, comercio, deporte, educación, salud, seguridad y servicios.", "UPROH": "Todos los usos de suelo no mencionados como permitidos.", "P_DO": "24/09/2009", "N_DOC": "121", "T_DO": "Resolución", "OBS": null }, "geometry": { "type": "Polygon", "coordinates": [ [ [ -71.8072382926279, -36.277311050304597 ], [ -71.809585236754501, -36.2770364735917 ], [ -71.812899790226098, -36.276586514924503 ], [ -71.813964936445203, -36.276452002360998 ], [ -71.814652610001602, -36.276365153478999 ], [ -71.814763209635601, -36.276351184810103 ], [ -71.815112134667999, -36.276307116447903 ], [ -71.815406308559503, -36.276269961585903 ], [ -71.815264872191506, -36.274792523372902 ], [ -71.8152022468458, -36.274278948277001 ], [ -71.8152669557157, -36.274112893654298 ], [ -71.815338949768801, -36.273903746565999 ], [ -71.815063157858305, -36.273302561740103 ], [ -71.814560858649997, -36.273459006433598 ], [ -71.813906542790704, -36.273689020513899 ], [ -71.813120586988006, -36.2739435900072 ], [ -71.812449497348595, -36.274116762437103 ], [ -71.812151774776595, -36.274190535351202 ], [ -71.811870849409601, -36.2742400667805 ], [ -71.811753327621702, -36.274247600429902 ], [ -71.811493888959902, -36.274239397623298 ], [ -71.811151039683907, -36.27420454256 ], [ -71.810410518602495, -36.274117042554103 ], [ -71.810120801819394, -36.274085704206897 ], [ -71.809996882312305, -36.274079080518803 ], [ -71.809880385765894, -36.274115202118502 ], [ -71.809718690755304, -36.2742048466638 ], [ -71.8094799816391, -36.274281993791 ], [ -71.809246815359003, -36.274349471575398 ], [ -71.808889045352899, -36.274391264823898 ], [ -71.808724444673999, -36.274399902996898 ], [ -71.808518650771703, -36.274409509084897 ], [ -71.808214260993395, -36.274297437594399 ], [ -71.808018017293705, -36.274244821262499 ], [ -71.807612394553104, -36.2741017437259 ], [ -71.807350565965606, -36.274026821610001 ], [ -71.807155006323796, -36.273993264011402 ], [ -71.807019146223993, -36.273982148424501 ], [ -71.806718345656606, -36.273970137476198 ], [ -71.806589224096399, -36.273982708671497 ], [ -71.806283715047798, -36.273970807208599 ], [ -71.805778315565107, -36.274001750910102 ], [ -71.805179272140506, -36.274049196798401 ], [ -71.805062792189403, -36.274060634158701 ], [ -71.8072382926279, -36.277311050304597 ] ] ] } },
{ "type": "Feature", "properties": { "id": "monoparte.10", "Name": null, "description": null, "timestamp": null, "begin": null, "end": null, "altitudeMode": null, "tessellate": -1, "extrude": 0, "visibility": -1, "drawOrder": null, "icon": null, "REG": "Ñuble", "COM": "Niquén", "LOC": "San Gregorio", "ZONA": "Bien Nacional Uso Público", "NOM": "Bien Nacional Uso Público", "UPERM": "Sin información.", "UPROH": "Sin información.", "P_DO": "24/09/2009", "N_DOC": "121", "T_DO": "Resolución", "OBS": null }, "geometry": { "type": "Polygon", "coordinates": [ [ [ -71.814033528217607, -36.282597755307002 ], [ -71.814366461977201, -36.283564574436497 ], [ -71.815582182805301, -36.283178260736101 ], [ -71.815223394549406, -36.282246854204502 ], [ -71.814900080676296, -36.282329953150096 ], [ -71.814062633222605, -36.282588127924498 ], [ -71.814033528217607, -36.282597755307002 ] ] ] } },
{ "type": "Feature", "properties": { "id": "monoparte.11", "Name": null, "description": null, "timestamp": null, "begin": null, "end": null, "altitudeMode": null, "tessellate": -1, "extrude": 0, "visibility": -1, "drawOrder": null, "icon": null, "REG": "Ñuble", "COM": "Niquén", "LOC": "San Gregorio", "ZONA": "ZHMC", "NOM": "ZHMC Zona Habitacional Mixta Comercial", "UPERM": "Residencial. Actividades productivas inofensivas. Equipamiento: científico, comercio, culto y cultura, deporte, educación, esparcimiento, salud, seguridad, servicios y social. Más detalle en Ordenanza.", "UPROH": "Todos los usos de suelo no mencionados como permitidos.", "P_DO": "24/09/2009", "N_DOC": "121", "T_DO": "Resolución", "OBS": null }, "geometry": { "type": "Polygon", "coordinates": [ [ [ -71.813058298239795, -36.282179587599302 ], [ -71.813794265293396, -36.2839744723914 ], [ -71.813947497903996, -36.284304692249599 ], [ -71.815050249646603, -36.284011654893902 ], [ -71.816911062408593, -36.283505209349698 ], [ -71.815951379814393, -36.281374471149 ], [ -71.814189081673803, -36.281847745441397 ], [ -71.813058298239795, -36.282179587599302 ] ], [ [ -71.814033528217607, -36.282597755307002 ], [ -71.814062633222605, -36.282588127924498 ], [ -71.814900080676296, -36.282329953150096 ], [ -71.815223394549406, -36.282246854204502 ], [ -71.815582182805301, -36.283178260736101 ], [ -71.814366461977201, -36.283564574436497 ], [ -71.814033528217607, -36.282597755307002 ] ] ] } },
{ "type": "Feature", "properties": { "id": "monoparte.12", "Name": null, "description": null, "timestamp": null, "begin": null, "end": null, "altitudeMode": null, "tessellate": -1, "extrude": 0, "visibility": -1, "drawOrder": null, "icon": null, "REG": "Ñuble", "COM": "Niquén", "LOC": "San Gregorio", "ZONA": "ZH-1", "NOM": "ZH-1 Zona Habitacional", "UPERM": "Residencial. Actividades productivas inofensivas. Equipamiento: científico, comercio, culto y cultura, deporte, educación, esparcimiento, salud, seguridad, servicios y social.", "UPROH": "Todos los usos de suelo no mencionados como permitidos.", "P_DO": "24/09/2009", "N_DOC": "121", "T_DO": "Resolución", "OBS": null }, "geometry": { "type": "Polygon", "coordinates": [ [ [ -71.814811528257493, -36.277355007739303 ], [ -71.814877872998096, -36.279201426708603 ], [ -71.813500797505696, -36.279603454696399 ], [ -71.812513081850398, -36.278136398215302 ], [ -71.811585982029598, -36.278562387638601 ], [ -71.811773434496104, -36.278861999559403 ], [ -71.811541026730396, -36.2789509259377 ], [ -71.811713767661402, -36.279250884066499 ], [ -71.810450650737295, -36.279751536523001 ], [ -71.810942513876896, -36.280860679185402 ], [ -71.811237789280497, -36.281497546564502 ], [ -71.811828355362493, -36.282771277421503 ], [ -71.812956553369105, -36.2852782454286 ], [ -71.813197190751197, -36.285212967723098 ], [ -71.815135699853897, -36.284654646083901 ], [ -71.817298811678796, -36.283995617909099 ], [ -71.818685008627796, -36.283552854236 ], [ -71.818393606593602, -36.282622563095501 ], [ -71.818288112515305, -36.282350835496501 ], [ -71.817885457558404, -36.281350500255002 ], [ -71.817122545747793, -36.2795860829169 ], [ -71.816086574702396, -36.277392924790199 ], [ -71.815440306990297, -36.277437959461402 ], [ -71.815406308559503, -36.276269961585903 ], [ -71.814763209635601, -36.276351184810103 ], [ -71.814811528257493, -36.277355007739303 ] ], [ [ -71.813794265293396, -36.2839744723914 ], [ -71.813058298239795, -36.282179587599302 ], [ -71.814189081673803, -36.281847745441397 ], [ -71.815951379814393, -36.281374471149 ], [ -71.816911062408593, -36.283505209349698 ], [ -71.815050249646603, -36.284011654893902 ], [ -71.813947497903996, -36.284304692249599 ], [ -71.813794265293396, -36.2839744723914 ] ] ] } },
{ "type": "Feature", "properties": { "id": "monoparte.13", "Name": null, "description": null, "timestamp": null, "begin": null, "end": null, "altitudeMode": null, "tessellate": -1, "extrude": 0, "visibility": -1, "drawOrder": null, "icon": null, "REG": "Ñuble", "COM": "Niquén", "LOC": "Chacay", "ZONA": "ZH-2", "NOM": "ZH-2 Zona Habitacional", "UPERM": "Residencial. Actividades productivas inofensivas y molesta. Equipamiento: científico, comercio, culto y cultura, deporte, educación, esparcimiento, salud, seguridad, servicios y social. Mayor detalle en ordenanza.", "UPROH": "Todos los usos de suelo no mencionados como permitidos.", "P_DO": "24/09/2009", "N_DOC": "121", "T_DO": "Resolución", "OBS": null }, "geometry": { "type": "Polygon", "coordinates": [ [ [ -71.782586363578702, -36.362559871683501 ], [ -71.779782113867697, -36.362959025644699 ], [ -71.773219477661797, -36.364122672382102 ], [ -71.765701823501203, -36.365298550570998 ], [ -71.765858108040007, -36.366048430603698 ], [ -71.765243785338896, -36.367350289273197 ], [ -71.768599634138894, -36.368531523891903 ], [ -71.768906399503905, -36.368867776425802 ], [ -71.772294036244901, -36.368283643496802 ], [ -71.773609140716204, -36.370112998722199 ], [ -71.774878784036403, -36.371615527196802 ], [ -71.776039855886694, -36.372965574526397 ], [ -71.776336049593596, -36.373417700067797 ], [ -71.776459778148194, -36.373373094038001 ], [ -71.7769518624619, -36.372879583621 ], [ -71.777165194706797, -36.372660017429297 ], [ -71.776967341238901, -36.372485783544803 ], [ -71.773975006590803, -36.368764017382802 ], [ -71.773481806255305, -36.3689900802528 ], [ -71.772835225407803, -36.368218217941802 ], [ -71.773402919358702, -36.368014271773603 ], [ -71.772291970713994, -36.366204017796903 ], [ -71.771947977226802, -36.3652343635097 ], [ -71.776017544691797, -36.364576468449002 ], [ -71.779112047137701, -36.364046651674897 ], [ -71.781944948625707, -36.3636230005458 ], [ -71.782823076667896, -36.363445158509897 ], [ -71.784578981785103, -36.362831940434603 ], [ -71.784773491498001, -36.362832319713299 ], [ -71.784784795116096, -36.362578557013002 ], [ -71.784646688187195, -36.362343329690802 ], [ -71.784607262195294, -36.362229794195898 ], [ -71.784921321560105, -36.362108013603397 ], [ -71.785001082109005, -36.362029849358699 ], [ -71.784942652682901, -36.361835366199898 ], [ -71.784895929826305, -36.361847902488698 ], [ -71.782586363578702, -36.362559871683501 ] ], [ [ -71.770391107447594, -36.366624893236903 ], [ -71.770149638788993, -36.366134522329901 ], [ -71.771505059764294, -36.365945686827999 ], [ -71.7717182614563, -36.3664700942388 ], [ -71.770391023674904, -36.366630949602303 ], [ -71.770391107447594, -36.366624893236903 ] ] ] } },
{ "type": "Feature", "properties": { "id": "monoparte.14", "Name": null, "description": null, "timestamp": null, "begin": null, "end": null, "altitudeMode": null, "tessellate": -1, "extrude": 0, "visibility": -1, "drawOrder": null, "icon": null, "REG": "Ñuble", "COM": "Niquén", "LOC": "Chacay", "ZONA": "AV", "NOM": "AV Áreas verdes", "UPERM": "Áreas verdes.", "UPROH": "Todos los usos de suelo no mencionados como permitidos.", "P_DO": "24/09/2009", "N_DOC": "121", "T_DO": "Resolución", "OBS": null }, "geometry": { "type": "Polygon", "coordinates": [ [ [ -71.770391107447594, -36.366624893236903 ], [ -71.770391023674904, -36.366630949602303 ], [ -71.7717182614563, -36.3664700942388 ], [ -71.771505059764294, -36.365945686827999 ], [ -71.770149638788993, -36.366134522329901 ], [ -71.770391107447594, -36.366624893236903 ] ] ] } },
{ "type": "Feature", "properties": { "id": "monoparte.15", "Name": null, "description": null, "timestamp": null, "begin": null, "end": null, "altitudeMode": null, "tessellate": -1, "extrude": 0, "visibility": -1, "drawOrder": null, "icon": null, "REG": "Ñuble", "COM": "Niquén", "LOC": "Chacay", "ZONA": "AV", "NOM": "AV Áreas verdes", "UPERM": "Áreas verdes.", "UPROH": "Todos los usos de suelo no mencionados como permitidos.", "P_DO": "24/09/2009", "N_DOC": "121", "T_DO": "Resolución", "OBS": null }, "geometry": { "type": "Polygon", "coordinates": [ [ [ -71.765019947869604, -36.369347160764399 ], [ -71.765278807449505, -36.369458961294498 ], [ -71.765781411678105, -36.3686652038907 ], [ -71.765435286786598, -36.368549229090597 ], [ -71.765019947869604, -36.369347160764399 ] ] ] } },
{ "type": "Feature", "properties": { "id": "monoparte.16", "Name": null, "description": null, "timestamp": null, "begin": null, "end": null, "altitudeMode": null, "tessellate": -1, "extrude": 0, "visibility": -1, "drawOrder": null, "icon": null, "REG": "Ñuble", "COM": "Niquén", "LOC": "Chacay", "ZONA": "ZED", "NOM": "ZED Zona de Equipamiento Deportivo", "UPERM": "Residencial (vivienda complementaria a la actividad). Equipamiento: científico, deporte y esparcimiento.", "UPROH": "Todos los usos de suelo no mencionados como permitidos.", "P_DO": "24/09/2009", "N_DOC": "121", "T_DO": "Resolución", "OBS": null }, "geometry": { "type": "Polygon", "coordinates": [ [ [ -71.780787751628495, -36.361892917044898 ], [ -71.780945775696196, -36.362399072819102 ], [ -71.782096426452696, -36.362257808768398 ], [ -71.781375565210595, -36.360462843238103 ], [ -71.780285135633505, -36.360693302764403 ], [ -71.780787751628495, -36.361892917044898 ] ] ] } },
{ "type": "Feature", "properties": { "id": "monoparte.17", "Name": null, "description": null, "timestamp": null, "begin": null, "end": null, "altitudeMode": null, "tessellate": -1, "extrude": 0, "visibility": -1, "drawOrder": null, "icon": null, "REG": "Ñuble", "COM": "Niquén", "LOC": "Chacay", "ZONA": "ZED", "NOM": "ZED Zona de Equipamiento Deportivo", "UPERM": "Residencial (vivienda complementaria a la actividad). Equipamiento: científico, deporte y esparcimiento.", "UPROH": "Todos los usos de suelo no mencionados como permitidos.", "P_DO": "24/09/2009", "N_DOC": "121", "T_DO": "Resolución", "OBS": null }, "geometry": { "type": "Polygon", "coordinates": [ [ [ -71.773975006590803, -36.368764017382802 ], [ -71.774878888295802, -36.368322043632702 ], [ -71.774785475230402, -36.368203631294698 ], [ -71.774314620123306, -36.367481821804198 ], [ -71.773402919358702, -36.368014271773603 ], [ -71.772835225407803, -36.368218217941802 ], [ -71.773481806255305, -36.3689900802528 ], [ -71.773975006590803, -36.368764017382802 ] ] ] } },
{ "type": "Feature", "properties": { "id": "monoparte.18", "Name": null, "description": null, "timestamp": null, "begin": null, "end": null, "altitudeMode": null, "tessellate": -1, "extrude": 0, "visibility": -1, "drawOrder": null, "icon": null, "REG": "Ñuble", "COM": "Niquén", "LOC": "Chacay", "ZONA": "ZPD", "NOM": "ZPD Zona de Protección de Drenajes", "UPERM": "Sólo se permite el uso de espacio público.", "UPROH": "Todos los usos de suelo no mencionados como permitidos.", "P_DO": "24/09/2009", "N_DOC": "121", "T_DO": "Resolución", "OBS": null }, "geometry": { "type": "Polygon", "coordinates": [ [ [ -71.784942652682901, -36.361835366199898 ], [ -71.785001082109005, -36.362029849358699 ], [ -71.784921321560105, -36.362108013603397 ], [ -71.784607262195294, -36.362229794195898 ], [ -71.784646688187195, -36.362343329690802 ], [ -71.784784795116096, -36.362578557013002 ], [ -71.784752046073507, -36.363313742966199 ], [ -71.784888712937004, -36.363743473625398 ], [ -71.785059802941802, -36.363634158663899 ], [ -71.784968146180603, -36.363378772957702 ], [ -71.784961689102303, -36.363197702489501 ], [ -71.784988541829406, -36.3629586274646 ], [ -71.784980045760705, -36.362720377024097 ], [ -71.784963164566093, -36.362577701992102 ], [ -71.784888389413396, -36.3624649911905 ], [ -71.784885670803305, -36.362388750929902 ], [ -71.784966792093996, -36.362348706350502 ], [ -71.785094704410795, -36.362298032560297 ], [ -71.785138096985307, -36.362192103750701 ], [ -71.785165288868598, -36.361962558382103 ], [ -71.785131187641397, -36.361667677725002 ], [ -71.785032847406498, -36.361555516717203 ], [ -71.784946290902795, -36.361443080746803 ], [ -71.784943912145806, -36.361376370172998 ], [ -71.784903806673597, -36.361243774464 ], [ -71.784946519377002, -36.361118785427898 ], [ -71.785078057168207, -36.360839116057598 ], [ -71.784876276998304, -36.360897345552303 ], [ -71.784724961121398, -36.3611870956681 ], [ -71.784712044177297, -36.361320928184803 ], [ -71.784822220874204, -36.361599727641 ], [ -71.784942652682901, -36.361835366199898 ] ] ] } },
{ "type": "Feature", "properties": { "id": "monoparte.19", "Name": null, "description": null, "timestamp": null, "begin": null, "end": null, "altitudeMode": null, "tessellate": -1, "extrude": 0, "visibility": -1, "drawOrder": null, "icon": null, "REG": "Ñuble", "COM": "Niquén", "LOC": "Chacay", "ZONA": "ZPD", "NOM": "ZPD Zona de Protección de Drenajes", "UPERM": "Sólo se permite el uso de espacio público.", "UPROH": "Todos los usos de suelo no mencionados como permitidos.", "P_DO": "24/09/2009", "N_DOC": "121", "T_DO": "Resolución", "OBS": null }, "geometry": { "type": "Polygon", "coordinates": [ [ [ -71.777165194706797, -36.372660017429297 ], [ -71.7769518624619, -36.372879583621 ], [ -71.776459778148194, -36.373373094038001 ], [ -71.777092919062397, -36.374800980444299 ], [ -71.777373810855593, -36.375444217812003 ], [ -71.776712488228497, -36.376410770559097 ], [ -71.776893656331495, -36.376743287590699 ], [ -71.777627259987, -36.375730419923499 ], [ -71.777834214016394, -36.375303153194501 ], [ -71.7769237729662, -36.373333290133402 ], [ -71.777353827955594, -36.372989456648099 ], [ -71.777968172685803, -36.3724386530453 ], [ -71.778106353403004, -36.372320284726499 ], [ -71.777898433946802, -36.3720688609231 ], [ -71.777165194706797, -36.372660017429297 ] ] ] } },
{ "type": "Feature", "properties": { "id": "monoparte.20", "Name": null, "description": null, "timestamp": null, "begin": null, "end": null, "altitudeMode": null, "tessellate": -1, "extrude": 0, "visibility": -1, "drawOrder": null, "icon": null, "REG": "Ñuble", "COM": "Niquén", "LOC": "Chacay", "ZONA": "ZH-2", "NOM": "ZH-2 Zona Habitacional", "UPERM": "Residencial. Actividades productivas inofensivas y molesta. Equipamiento: científico, comercio, culto y cultura, deporte, educación, esparcimiento, salud, seguridad, servicios y social. Mayor detalle en ordenanza.", "UPROH": "Todos los usos de suelo no mencionados como permitidos.", "P_DO": "24/09/2009", "N_DOC": "121", "T_DO": "Resolución", "OBS": null }, "geometry": { "type": "Polygon", "coordinates": [ [ [ -71.777627259987, -36.375730419923499 ], [ -71.778822174361693, -36.377619672898597 ], [ -71.779250142191401, -36.376674385702103 ], [ -71.779313670713904, -36.376577205957702 ], [ -71.778090363519595, -36.3746295361005 ], [ -71.777353827955594, -36.372989456648099 ], [ -71.7769237729662, -36.373333290133402 ], [ -71.777834214016394, -36.375303153194501 ], [ -71.777627259987, -36.375730419923499 ] ] ] } },
{ "type": "Feature", "properties": { "id": "monoparte.21", "Name": null, "description": null, "timestamp": null, "begin": null, "end": null, "altitudeMode": null, "tessellate": -1, "extrude": 0, "visibility": -1, "drawOrder": null, "icon": null, "REG": "Ñuble", "COM": "Niquén", "LOC": "Chacay", "ZONA": "ZPU", "NOM": "ZPU Zona de Parcelas Urbanas", "UPERM": "Residencial. Act. productiva molesta e  inofensiva, solo asociada a la act. agrícola. Equipamiento: científico, comercio, culto y cultura, deporte, educación, esparcimiento, salud, seguridad, servicios y social. Más detalle en Ordenanza.", "UPROH": "Todos los usos de suelo no mencionados como permitidos.", "P_DO": "24/09/2009", "N_DOC": "121", "T_DO": "Resolución", "OBS": null }, "geometry": { "type": "Polygon", "coordinates": [ [ [ -71.773975006590803, -36.368764017382802 ], [ -71.776967341238901, -36.372485783544803 ], [ -71.777165194706797, -36.372660017429297 ], [ -71.777898433946802, -36.3720688609231 ], [ -71.776514511490504, -36.370395311660602 ], [ -71.774878888295802, -36.368322043632702 ], [ -71.773975006590803, -36.368764017382802 ] ] ] } },
{ "type": "Feature", "properties": { "id": "monoparte.22", "Name": null, "description": null, "timestamp": null, "begin": null, "end": null, "altitudeMode": null, "tessellate": -1, "extrude": 0, "visibility": -1, "drawOrder": null, "icon": null, "REG": "Ñuble", "COM": "Niquén", "LOC": "Chacay", "ZONA": "ZPU", "NOM": "ZPU Zona de Parcelas Urbanas", "UPERM": "Residencial. Act. productiva molesta e  inofensiva, solo asociada a la act. agrícola. Equipamiento: científico, comercio, culto y cultura, deporte, educación, esparcimiento, salud, seguridad, servicios y social. Más detalle en Ordenanza.", "UPROH": "Todos los usos de suelo no mencionados como permitidos.", "P_DO": "24/09/2009", "N_DOC": "121", "T_DO": "Resolución", "OBS": null }, "geometry": { "type": "Polygon", "coordinates": [ [ [ -71.776893656331495, -36.376743287590699 ], [ -71.777499332572503, -36.377854920358601 ], [ -71.778276912840695, -36.3788240012545 ], [ -71.778822174361693, -36.377619672898597 ], [ -71.777627259987, -36.375730419923499 ], [ -71.776893656331495, -36.376743287590699 ] ] ] } },
{ "type": "Feature", "properties": { "id": "monoparte.23", "Name": null, "description": null, "timestamp": null, "begin": null, "end": null, "altitudeMode": null, "tessellate": -1, "extrude": 0, "visibility": -1, "drawOrder": null, "icon": null, "REG": "Ñuble", "COM": "Niquén", "LOC": "Chacay", "ZONA": "ZPU", "NOM": "ZPU Zona de Parcelas Urbanas", "UPERM": "Residencial. Act. productiva molesta e  inofensiva, solo asociada a la act. agrícola. Equipamiento: científico, comercio, culto y cultura, deporte, educación, esparcimiento, salud, seguridad, servicios y social. Más detalle en Ordenanza.", "UPROH": "Todos los usos de suelo no mencionados como permitidos.", "P_DO": "24/09/2009", "N_DOC": "121", "T_DO": "Resolución", "OBS": null }, "geometry": { "type": "Polygon", "coordinates": [ [ [ -71.779313670713904, -36.376577205957702 ], [ -71.779921271840394, -36.375647736522197 ], [ -71.778511044932898, -36.372809648780702 ], [ -71.778106353403004, -36.372320284726499 ], [ -71.777968172685803, -36.3724386530453 ], [ -71.777353827955594, -36.372989456648099 ], [ -71.778090363519595, -36.3746295361005 ], [ -71.779313670713904, -36.376577205957702 ] ] ] } },
{ "type": "Feature", "properties": { "id": "monoparte.24", "Name": null, "description": null, "timestamp": null, "begin": null, "end": null, "altitudeMode": null, "tessellate": -1, "extrude": 0, "visibility": -1, "drawOrder": null, "icon": null, "REG": "Ñuble", "COM": "Niquén", "LOC": "Chacay", "ZONA": "ZPU", "NOM": "ZPU Zona de Parcelas Urbanas", "UPERM": "Residencial. Act. productiva molesta e  inofensiva, solo asociada a la act. agrícola. Equipamiento: científico, comercio, culto y cultura, deporte, educación, esparcimiento, salud, seguridad, servicios y social. Más detalle en Ordenanza.", "UPROH": "Todos los usos de suelo no mencionados como permitidos.", "P_DO": "24/09/2009", "N_DOC": "121", "T_DO": "Resolución", "OBS": null }, "geometry": { "type": "Polygon", "coordinates": [ [ [ -71.761715704915702, -36.358129357170199 ], [ -71.761818074103104, -36.359023561967 ], [ -71.764354004008595, -36.358707347643602 ], [ -71.767544021541099, -36.358547604191003 ], [ -71.767601317573593, -36.359166245182003 ], [ -71.767992735180798, -36.361226913967897 ], [ -71.768666930121995, -36.362947193290097 ], [ -71.765001414092893, -36.363671187259001 ], [ -71.765114657866505, -36.365204180207002 ], [ -71.765262527024902, -36.366049636305497 ], [ -71.762799010681206, -36.371085501391299 ], [ -71.764442465924105, -36.371533892096402 ], [ -71.764961318451398, -36.3715314134949 ], [ -71.766071865192998, -36.369254724542202 ], [ -71.766535393841593, -36.368356951648401 ], [ -71.766593976159996, -36.3683460554942 ], [ -71.768062320660405, -36.368846145162003 ], [ -71.768520587608094, -36.369131195681803 ], [ -71.768867393946607, -36.369266221766303 ], [ -71.769355081336101, -36.369216757999098 ], [ -71.771446861066806, -36.368839155000302 ], [ -71.771853494151003, -36.369330457257597 ], [ -71.7751901567282, -36.373616551409398 ], [ -71.776712488228497, -36.376410770559097 ], [ -71.777373810855593, -36.375444217812003 ], [ -71.777092919062397, -36.374800980444299 ], [ -71.776459778148194, -36.373373094038001 ], [ -71.776336049593596, -36.373417700067797 ], [ -71.776039855886694, -36.372965574526397 ], [ -71.774878784036403, -36.371615527196802 ], [ -71.773609140716204, -36.370112998722199 ], [ -71.772294036244901, -36.368283643496802 ], [ -71.768906399503905, -36.368867776425802 ], [ -71.768599634138894, -36.368531523891903 ], [ -71.765243785338896, -36.367350289273197 ], [ -71.765858108040007, -36.366048430603698 ], [ -71.765701823501203, -36.365298550570998 ], [ -71.773219477661797, -36.364122672382102 ], [ -71.779782113867697, -36.362959025644699 ], [ -71.782586363578702, -36.362559871683501 ], [ -71.784895929826305, -36.361847902488698 ], [ -71.784942652682901, -36.361835366199898 ], [ -71.784822220874204, -36.361599727641 ], [ -71.784712044177297, -36.361320928184803 ], [ -71.784724961121398, -36.3611870956681 ], [ -71.784876276998304, -36.360897345552303 ], [ -71.782848623915299, -36.361482455259598 ], [ -71.782415317207693, -36.360243083524402 ], [ -71.781375565210595, -36.360462843238103 ], [ -71.782096426452696, -36.362257808768398 ], [ -71.780945775696196, -36.362399072819102 ], [ -71.780787751628495, -36.361892917044898 ], [ -71.771303406732898, -36.363467839818597 ], [ -71.770208585690298, -36.361194596567998 ], [ -71.769796698998803, -36.3575606435097 ], [ -71.761715704915702, -36.358129357170199 ] ], [ [ -71.765019947869604, -36.369347160764399 ], [ -71.765435286786598, -36.368549229090597 ], [ -71.765781411678105, -36.3686652038907 ], [ -71.765278807449505, -36.369458961294498 ], [ -71.765019947869604, -36.369347160764399 ] ] ] } },
{ "type": "Feature", "properties": { "id": "monoparte.25", "Name": null, "description": null, "timestamp": null, "begin": null, "end": null, "altitudeMode": null, "tessellate": -1, "extrude": 0, "visibility": -1, "drawOrder": null, "icon": null, "REG": "Ñuble", "COM": "Niquén", "LOC": "Chacay", "ZONA": "ZPU", "NOM": "ZPU Zona de Parcelas Urbanas", "UPERM": "Residencial. Act. productiva molesta e  inofensiva, solo asociada a la act. agrícola. Equipamiento: científico, comercio, culto y cultura, deporte, educación, esparcimiento, salud, seguridad, servicios y social. Más detalle en Ordenanza.", "UPROH": "Todos los usos de suelo no mencionados como permitidos.", "P_DO": "24/09/2009", "N_DOC": "121", "T_DO": "Resolución", "OBS": null }, "geometry": { "type": "Polygon", "coordinates": [ [ [ -71.773402919358702, -36.368014271773603 ], [ -71.774314620123306, -36.367481821804198 ], [ -71.773363588102896, -36.366023864629099 ], [ -71.773969898797304, -36.365828556592398 ], [ -71.779962747227501, -36.364887970462 ], [ -71.782672118285205, -36.364471946343997 ], [ -71.784564005422197, -36.363950937433302 ], [ -71.784888712937004, -36.363743473625398 ], [ -71.784752046073507, -36.363313742966199 ], [ -71.784773491498001, -36.362832319713299 ], [ -71.784578981785103, -36.362831940434603 ], [ -71.782823076667896, -36.363445158509897 ], [ -71.781944948625707, -36.3636230005458 ], [ -71.779112047137701, -36.364046651674897 ], [ -71.776017544691797, -36.364576468449002 ], [ -71.771947977226802, -36.3652343635097 ], [ -71.772291970713994, -36.366204017796903 ], [ -71.773402919358702, -36.368014271773603 ] ] ] } },
{ "type": "Feature", "properties": { "id": "monoparte.26", "Name": null, "description": null, "timestamp": null, "begin": null, "end": null, "altitudeMode": null, "tessellate": -1, "extrude": 0, "visibility": -1, "drawOrder": null, "icon": null, "REG": "Ñuble", "COM": "Niquén", "LOC": "San Gregorio", "ZONA": "AV", "NOM": "AV Áreas verdes", "UPERM": "Áreas verdes.", "UPROH": "Todos los usos de suelo no mencionados como permitidos.", "P_DO": "24/09/2009", "N_DOC": "121", "T_DO": "Resolución", "OBS": null }, "geometry": { "type": "Polygon", "coordinates": [ [ [ -71.820213474077207, -36.286900910812498 ], [ -71.820254652516198, -36.287025723233498 ], [ -71.821103336679698, -36.2867953609571 ], [ -71.821065902176997, -36.286690028672801 ], [ -71.820213474077207, -36.286900910812498 ] ] ] } },
{ "type": "Feature", "properties": { "id": "monoparte.27", "Name": null, "description": null, "timestamp": null, "begin": null, "end": null, "altitudeMode": null, "tessellate": -1, "extrude": 0, "visibility": -1, "drawOrder": null, "icon": null, "REG": "Ñuble", "COM": "Niquén", "LOC": "San Gregorio", "ZONA": "AV", "NOM": "AV Áreas verdes", "UPERM": "Áreas verdes.", "UPROH": "Todos los usos de suelo no mencionados como permitidos.", "P_DO": "24/09/2009", "N_DOC": "121", "T_DO": "Resolución", "OBS": null }, "geometry": { "type": "Polygon", "coordinates": [ [ [ -71.821503113110793, -36.286562865336698 ], [ -71.821550626936002, -36.286673948070501 ], [ -71.822463168552105, -36.286426240127703 ], [ -71.822419071691002, -36.286317090390199 ], [ -71.821503113110793, -36.286562865336698 ] ] ] } },
{ "type": "Feature", "properties": { "id": "monoparte.28", "Name": null, "description": null, "timestamp": null, "begin": null, "end": null, "altitudeMode": null, "tessellate": -1, "extrude": 0, "visibility": -1, "drawOrder": null, "icon": null, "REG": "Ñuble", "COM": "Niquén", "LOC": "San Gregorio", "ZONA": "AV", "NOM": "AV Áreas verdes", "UPERM": "Áreas verdes.", "UPROH": "Todos los usos de suelo no mencionados como permitidos.", "P_DO": "24/09/2009", "N_DOC": "121", "T_DO": "Resolución", "OBS": null }, "geometry": { "type": "Polygon", "coordinates": [ [ [ -71.821474746774797, -36.286429527187401 ], [ -71.821481405150806, -36.2864508298372 ], [ -71.821984751938004, -36.286279182365298 ], [ -71.822352105679499, -36.286175126640401 ], [ -71.822138004405801, -36.285791512336999 ], [ -71.8219786904519, -36.285702279907298 ], [ -71.821768039812994, -36.285659565840902 ], [ -71.821337712767402, -36.285650651607099 ], [ -71.821099353098305, -36.285595123675698 ], [ -71.821338362318102, -36.286077459208698 ], [ -71.821474746774797, -36.286429527187401 ] ] ] } },
{ "type": "Feature", "properties": { "id": "monoparte.29", "Name": null, "description": null, "timestamp": null, "begin": null, "end": null, "altitudeMode": null, "tessellate": -1, "extrude": 0, "visibility": -1, "drawOrder": null, "icon": null, "REG": "Ñuble", "COM": "Niquén", "LOC": "San Gregorio", "ZONA": "AV", "NOM": "AV Áreas verdes", "UPERM": "Áreas verdes.", "UPROH": "Todos los usos de suelo no mencionados como permitidos.", "P_DO": "24/09/2009", "N_DOC": "121", "T_DO": "Resolución", "OBS": null }, "geometry": { "type": "Polygon", "coordinates": [ [ [ -71.820009376086702, -36.286385909769002 ], [ -71.820176642334502, -36.286777787405398 ], [ -71.821029789473798, -36.2865800707388 ], [ -71.820378053146698, -36.285337095369897 ], [ -71.820340483898605, -36.285357057423802 ], [ -71.820379117969793, -36.285530213745801 ], [ -71.820356425040202, -36.2856361436627 ], [ -71.820319001397607, -36.285741944534799 ], [ -71.8202597782618, -36.285814876893802 ], [ -71.820151299540498, -36.285910431690098 ], [ -71.820082904179003, -36.285974042826197 ], [ -71.820029994380405, -36.286058749230399 ], [ -71.819987627895799, -36.286190895819999 ], [ -71.819989489048993, -36.286324383198398 ], [ -71.820009376086702, -36.286385909769002 ] ] ] } },
{ "type": "Feature", "properties": { "id": "monoparte.30", "Name": null, "description": null, "timestamp": null, "begin": null, "end": null, "altitudeMode": null, "tessellate": -1, "extrude": 0, "visibility": -1, "drawOrder": null, "icon": null, "REG": "Ñuble", "COM": "Niquén", "LOC": "San Gregorio", "ZONA": "ZED", "NOM": "ZED Zona de Equipamiento Deportivo", "UPERM": "Residencial (vivienda complementaria a la actividad). Equipamiento: científico, deporte y esparcimiento.", "UPROH": "Todos los usos de suelo no mencionados como permitidos.", "P_DO": "24/09/2009", "N_DOC": "121", "T_DO": "Resolución", "OBS": null }, "geometry": { "type": "Polygon", "coordinates": [ [ [ -71.816370755484996, -36.284278371443897 ], [ -71.817839847736195, -36.284984941685003 ], [ -71.819149061613501, -36.284413972147803 ], [ -71.818685008627796, -36.283552854236 ], [ -71.817298811678796, -36.283995617909099 ], [ -71.816370755484996, -36.284278371443897 ] ] ] } },
{ "type": "Feature", "properties": { "id": "monoparte.31", "Name": null, "description": null, "timestamp": null, "begin": null, "end": null, "altitudeMode": null, "tessellate": -1, "extrude": 0, "visibility": -1, "drawOrder": null, "icon": null, "REG": "Ñuble", "COM": "Niquén", "LOC": "San Gregorio", "ZONA": "ZED", "NOM": "ZED Zona de Equipamiento Deportivo", "UPERM": "Residencial (vivienda complementaria a la actividad). Equipamiento: científico, deporte y esparcimiento.", "UPROH": "Todos los usos de suelo no mencionados como permitidos.", "P_DO": "24/09/2009", "N_DOC": "121", "T_DO": "Resolución", "OBS": null }, "geometry": { "type": "Polygon", "coordinates": [ [ [ -71.8161600354359, -36.275574593467802 ], [ -71.816989168852501, -36.277238595607102 ], [ -71.817289984510097, -36.277127778407099 ], [ -71.817573400727099, -36.277024524633703 ], [ -71.817784141614396, -36.276865755373798 ], [ -71.8179714004619, -36.276668195713803 ], [ -71.8182370740696, -36.2764401726104 ], [ -71.818454667530702, -36.276349199131602 ], [ -71.818734052253305, -36.276256767725698 ], [ -71.818290378080405, -36.2750976393624 ], [ -71.817908971929199, -36.275178168577298 ], [ -71.8161600354359, -36.275574593467802 ] ] ] } },
{ "type": "Feature", "properties": { "id": "monoparte.32", "Name": null, "description": null, "timestamp": null, "begin": null, "end": null, "altitudeMode": null, "tessellate": -1, "extrude": 0, "visibility": -1, "drawOrder": null, "icon": null, "REG": "Ñuble", "COM": "Niquén", "LOC": "Estación", "ZONA": "AV", "NOM": "AV Áreas verdes", "UPERM": "Áreas verdes.", "UPROH": "Todos los usos de suelo no mencionados como permitidos.", "P_DO": "24/09/2009", "N_DOC": "121", "T_DO": "Resolución", "OBS": null }, "geometry": { "type": "Polygon", "coordinates": [ [ [ -71.899668269925996, -36.291848654617603 ], [ -71.899967008218994, -36.292399361202399 ], [ -71.900290480762806, -36.292305669446698 ], [ -71.899976618474497, -36.291745161655101 ], [ -71.899829608356896, -36.291791089214101 ], [ -71.899668269925996, -36.291848654617603 ] ] ] } },
{ "type": "Feature", "properties": { "id": "monoparte.33", "Name": null, "description": null, "timestamp": null, "begin": null, "end": null, "altitudeMode": null, "tessellate": -1, "extrude": 0, "visibility": -1, "drawOrder": null, "icon": null, "REG": "Ñuble", "COM": "Niquén", "LOC": "Estación", "ZONA": "AV", "NOM": "AV Áreas verdes", "UPERM": "Áreas verdes.", "UPROH": "Todos los usos de suelo no mencionados como permitidos.", "P_DO": "24/09/2009", "N_DOC": "121", "T_DO": "Resolución", "OBS": null }, "geometry": { "type": "Polygon", "coordinates": [ [ [ -71.899236893464106, -36.290977120664998 ], [ -71.899405833310695, -36.291321296799303 ], [ -71.899836035584897, -36.291207928425102 ], [ -71.898511130954802, -36.288677058190203 ], [ -71.898342340319999, -36.288354195708202 ], [ -71.8981745066896, -36.288425325553298 ], [ -71.898806082080299, -36.289603409358399 ], [ -71.899162669998006, -36.290285050956498 ], [ -71.899289334473906, -36.290961541476698 ], [ -71.899236893464106, -36.290977120664998 ] ] ] } },
{ "type": "Feature", "properties": { "id": "monoparte.34", "Name": null, "description": null, "timestamp": null, "begin": null, "end": null, "altitudeMode": null, "tessellate": -1, "extrude": 0, "visibility": -1, "drawOrder": null, "icon": null, "REG": "Ñuble", "COM": "Niquén", "LOC": "Estación", "ZONA": "ZEXH", "NOM": "ZEXH Zona de Extensión Habitacional", "UPERM": "Residencial. Actividades productivas (talleres inofensivos). Equipamiento: comercio, culto y cultura, deporte, esparcimiento, salud, seguridad, servicios y social.", "UPROH": "Todos los usos de suelo no mencionados como permitidos.", "P_DO": "24/09/2009", "N_DOC": "121", "T_DO": "Resolución", "OBS": null }, "geometry": { "type": "Polygon", "coordinates": [ [ [ -71.896545989715904, -36.289105989137703 ], [ -71.894558221075002, -36.289959150703801 ], [ -71.893290187590097, -36.289598816755102 ], [ -71.892611804101904, -36.289891838888202 ], [ -71.891318298680005, -36.290404806013498 ], [ -71.890730938106799, -36.290655376087599 ], [ -71.895065569686494, -36.291643224423503 ], [ -71.897632720986905, -36.292246246763199 ], [ -71.898847005807696, -36.294494402114097 ], [ -71.898869426423104, -36.294622617321203 ], [ -71.898863413220795, -36.294937508931298 ], [ -71.898149947656293, -36.295477009784904 ], [ -71.898073398995095, -36.295557553424899 ], [ -71.898049294533607, -36.295622518237103 ], [ -71.898337133943102, -36.297907454044903 ], [ -71.898366061781203, -36.298199823924101 ], [ -71.898681130272493, -36.298113868600403 ], [ -71.899407585739496, -36.297924559675202 ], [ -71.900007076458607, -36.297766942611403 ], [ -71.900280865569599, -36.297705000969998 ], [ -71.900338402093595, -36.297574582718497 ], [ -71.900299616625901, -36.2973227743161 ], [ -71.900206682561006, -36.296881525851603 ], [ -71.900109655766101, -36.2963297388158 ], [ -71.900133965852405, -36.296190851180903 ], [ -71.900161806125297, -36.296147255605 ], [ -71.900321491098794, -36.296005082374897 ], [ -71.900849395121597, -36.295625061496303 ], [ -71.900922731851296, -36.295537441289703 ], [ -71.901080270048695, -36.295098933895702 ], [ -71.900802023324701, -36.294545348528601 ], [ -71.900191301761396, -36.294756891186601 ], [ -71.899572529586905, -36.293558234402298 ], [ -71.898458892237301, -36.291522720159399 ], [ -71.896520231176893, -36.291069005885603 ], [ -71.896826595356202, -36.2903784426369 ], [ -71.898699046290801, -36.290849251300202 ], [ -71.899040326874001, -36.290918464876 ], [ -71.899161565198199, -36.291010900767297 ], [ -71.899357616096793, -36.291334002341998 ], [ -71.899405833310695, -36.291321296799303 ], [ -71.899236893464106, -36.290977120664998 ], [ -71.899289334473906, -36.290961541476698 ], [ -71.899162669998006, -36.290285050956498 ], [ -71.898806082080299, -36.289603409358399 ], [ -71.8981745066896, -36.288425325553298 ], [ -71.898002050991593, -36.288498414747004 ], [ -71.896545989715904, -36.289105989137703 ] ] ] } },
{ "type": "Feature", "properties": { "id": "monoparte.35", "Name": null, "description": null, "timestamp": null, "begin": null, "end": null, "altitudeMode": null, "tessellate": -1, "extrude": 0, "visibility": -1, "drawOrder": null, "icon": null, "REG": "Ñuble", "COM": "Niquén", "LOC": "Estación", "ZONA": "ZEXH", "NOM": "ZEXH Zona de Extensión Habitacional", "UPERM": "Residencial. Actividades productivas (talleres inofensivos). Equipamiento: comercio, culto y cultura, deporte, esparcimiento, salud, seguridad, servicios y social.", "UPROH": "Todos los usos de suelo no mencionados como permitidos.", "P_DO": "24/09/2009", "N_DOC": "121", "T_DO": "Resolución", "OBS": null }, "geometry": { "type": "Polygon", "coordinates": [ [ [ -71.898511130954802, -36.288677058190203 ], [ -71.899836035584897, -36.291207928425102 ], [ -71.899955584767199, -36.2911764233939 ], [ -71.899756003933902, -36.290758030678901 ], [ -71.901132318225606, -36.290343108292802 ], [ -71.901581360867695, -36.291134565031498 ], [ -71.9025769877599, -36.292964277802703 ], [ -71.903570455794195, -36.294734421603899 ], [ -71.902718720140001, -36.294999524315301 ], [ -71.903664125557498, -36.296622974098597 ], [ -71.904362385813002, -36.296327047270402 ], [ -71.9048619515751, -36.296096725842503 ], [ -71.905246172968901, -36.295972930213701 ], [ -71.905780348783495, -36.295841909225501 ], [ -71.9059710746577, -36.295817880683899 ], [ -71.905124839095706, -36.2941230162834 ], [ -71.9031884266238, -36.290277263519997 ], [ -71.901798724031906, -36.287642394129101 ], [ -71.901334126940398, -36.287649756978603 ], [ -71.900625077364495, -36.2875906711757 ], [ -71.900294093476703, -36.287560554779198 ], [ -71.898825593239707, -36.288149383458403 ], [ -71.898342340319999, -36.288354195708202 ], [ -71.898511130954802, -36.288677058190203 ] ] ] } },
{ "type": "Feature", "properties": { "id": "monoparte.36", "Name": null, "description": null, "timestamp": null, "begin": null, "end": null, "altitudeMode": null, "tessellate": -1, "extrude": 0, "visibility": -1, "drawOrder": null, "icon": null, "REG": "Ñuble", "COM": "Niquén", "LOC": "Estación", "ZONA": "ZPD", "NOM": "ZPD Zona de Protección de Drenajes", "UPERM": "Sólo se permite el uso de espacio público.", "UPROH": "Todos los usos de suelo no mencionados como permitidos.", "P_DO": "24/09/2009", "N_DOC": "121", "T_DO": "Resolución", "OBS": null }, "geometry": { "type": "Polygon", "coordinates": [ [ [ -71.898366061781203, -36.298199823924101 ], [ -71.898379498921301, -36.298335624436497 ], [ -71.900226803602493, -36.297868745981297 ], [ -71.901671133000704, -36.297497468238099 ], [ -71.902450547695594, -36.2973068555726 ], [ -71.902773241624502, -36.297191715396998 ], [ -71.902997491447294, -36.297043200664604 ], [ -71.903180512350403, -36.296974373102699 ], [ -71.903589106209694, -36.296792764149998 ], [ -71.904050937086893, -36.296617012537801 ], [ -71.904450963841796, -36.296442761787397 ], [ -71.904807374836395, -36.296283876816702 ], [ -71.905111872830702, -36.296154866333701 ], [ -71.905435883968906, -36.296075453917297 ], [ -71.906031727798805, -36.295939355128603 ], [ -71.9059710746577, -36.295817880683899 ], [ -71.905780348783495, -36.295841909225501 ], [ -71.905246172968901, -36.295972930213701 ], [ -71.9048619515751, -36.296096725842503 ], [ -71.904362385813002, -36.296327047270402 ], [ -71.903592437541207, -36.296653354857597 ], [ -71.903244188960997, -36.296794155383402 ], [ -71.903105312087106, -36.296861909394998 ], [ -71.902723336267101, -36.297046446824801 ], [ -71.902519169782295, -36.297140823716397 ], [ -71.902366916130205, -36.297205325930001 ], [ -71.901639417044805, -36.297366063938803 ], [ -71.900873110139202, -36.297552777095198 ], [ -71.900432103250495, -36.297670784771199 ], [ -71.900007076458607, -36.297766942611403 ], [ -71.899407585739496, -36.297924559675202 ], [ -71.898681130272493, -36.298113868600403 ], [ -71.898366061781203, -36.298199823924101 ] ] ] } },
{ "type": "Feature", "properties": { "id": "monoparte.37", "Name": null, "description": null, "timestamp": null, "begin": null, "end": null, "altitudeMode": null, "tessellate": -1, "extrude": 0, "visibility": -1, "drawOrder": null, "icon": null, "REG": "Ñuble", "COM": "Niquén", "LOC": "Estación", "ZONA": "ZPD", "NOM": "ZPD Zona de Protección de Drenajes", "UPERM": "Sólo se permite el uso de espacio público.", "UPROH": "Todos los usos de suelo no mencionados como permitidos.", "P_DO": "24/09/2009", "N_DOC": "121", "T_DO": "Resolución", "OBS": null }, "geometry": { "type": "Polygon", "coordinates": [ [ [ -71.900226489073205, -36.287412053721603 ], [ -71.897972351699096, -36.288339454589 ], [ -71.895301283862196, -36.289462904157403 ], [ -71.894565344609404, -36.289824095878799 ], [ -71.893252293289905, -36.289441008083898 ], [ -71.890623671369696, -36.290520407077402 ], [ -71.890440652806504, -36.290589215269499 ], [ -71.890730938106799, -36.290655376087599 ], [ -71.891318298680005, -36.290404806013498 ], [ -71.892611804101904, -36.289891838888202 ], [ -71.893290187590097, -36.289598816755102 ], [ -71.894558221075002, -36.289959150703801 ], [ -71.896545989715904, -36.289105989137703 ], [ -71.898002050991593, -36.288498414747004 ], [ -71.898825593239707, -36.288149383458403 ], [ -71.900294093476703, -36.287560554779198 ], [ -71.900625077364495, -36.2875906711757 ], [ -71.901334126940398, -36.287649756978603 ], [ -71.901798724031906, -36.287642394129101 ], [ -71.901711711369003, -36.287477411940998 ], [ -71.901704438478802, -36.287476314276901 ], [ -71.900226489073205, -36.287412053721603 ] ] ] } }
]
}
