{
"type": "FeatureCollection",
"name": "IPT_16_PRC_Yungay",
"crs": { "type": "name", "properties": { "name": "urn:ogc:def:crs:OGC:1.3:CRS84" } },
"features": [
{ "type": "Feature", "properties": { "id": "monoparte.1", "Name": null, "description": null, "timestamp": null, "begin": null, "end": null, "altitudeMode": null, "tessellate": -1, "extrude": 0, "visibility": -1, "drawOrder": null, "icon": null, "REG": "Ñuble", "COM": "Yungay", "LOC": "Yungay", "ZONA": "ZU-2", "NOM": "Zona ZU-2", "UPERM": "Vivienda, Equipamiento de todo tipo  de escala vecinal, industria, almacenamiento y taleres inofensivos. Actividades complementarias a vialidad y transporte.", "UPROH": "Todos los usos de suelo no mencionados como permitidos.", "P_DO": "06/04/1993", "N_DOC": "2", "T_DO": "Resolución", "OBS": null }, "geometry": { "type": "Polygon", "coordinates": [ [ [ -72.011004907381306, -37.119760149109702 ], [ -72.010729250123504, -37.119790996905301 ], [ -72.010072377717407, -37.119593120647501 ], [ -72.009699518543798, -37.119500077961703 ], [ -72.009529426472497, -37.119339895048299 ], [ -72.0094321309344, -37.1192136246163 ], [ -72.009341206938501, -37.119173019610798 ], [ -72.009268977375896, -37.119153398022398 ], [ -72.009068283412105, -37.1192224528086 ], [ -72.008841915271006, -37.119345440557403 ], [ -72.008950913976193, -37.119616845624599 ], [ -72.009036258657204, -37.1199675278461 ], [ -72.009016423736, -37.120218364675701 ], [ -72.008950981618199, -37.120520427010497 ], [ -72.008856171858, -37.120670965576103 ], [ -72.008824216428806, -37.120702456527603 ], [ -72.008316129911293, -37.120953774324498 ], [ -72.007999626446306, -37.121081018618597 ], [ -72.007586434861494, -37.121172570668797 ], [ -72.007265968547301, -37.1211997806261 ], [ -72.006923695025506, -37.121127409374999 ], [ -72.006666502801195, -37.120947976780201 ], [ -72.006323873681595, -37.120565676515902 ], [ -72.006308925371897, -37.120508321599203 ], [ -72.005684805600296, -37.120496475529301 ], [ -72.005396302131302, -37.121749105531002 ], [ -72.005283851887697, -37.122377301775799 ], [ -72.004537525528605, -37.122477296199897 ], [ -72.004417990267598, -37.123519806529401 ], [ -72.004505159875194, -37.123570541365801 ], [ -72.004505797776204, -37.123559870755599 ], [ -72.004579872325394, -37.123571435940299 ], [ -72.004628441748196, -37.123594998138799 ], [ -72.004801994451398, -37.123586781187299 ], [ -72.005379576290693, -37.123495835196501 ], [ -72.006295912290099, -37.1233293266123 ], [ -72.006325066256693, -37.123794746547603 ], [ -72.006865164563393, -37.1236294068121 ], [ -72.008250759846405, -37.123106223749502 ], [ -72.009228995418198, -37.122810180985802 ], [ -72.009529291045197, -37.122322627701998 ], [ -72.0107268066659, -37.122059618832502 ], [ -72.010919610806297, -37.122061653559797 ], [ -72.010926844852605, -37.122061730083701 ], [ -72.012400504804404, -37.121955361814102 ], [ -72.012405184219006, -37.122298556477702 ], [ -72.012419792386893, -37.123342429676804 ], [ -72.012483971714602, -37.124284909099899 ], [ -72.012500557503998, -37.124928200298299 ], [ -72.012348360989094, -37.125820156092999 ], [ -72.012209619218694, -37.126509509701798 ], [ -72.012194585638497, -37.126584205246303 ], [ -72.011972159860903, -37.1276893370027 ], [ -72.011404785729894, -37.127692961922698 ], [ -72.011404593471596, -37.127693165049202 ], [ -72.011393884903399, -37.128153111284199 ], [ -72.012482893269706, -37.128201360073298 ], [ -72.012399151405205, -37.128942567017397 ], [ -72.012381829672194, -37.129181419626697 ], [ -72.012344072640602, -37.129497928252398 ], [ -72.012405567992502, -37.129499427854299 ], [ -72.013850761350497, -37.129534664239202 ], [ -72.013939853356305, -37.128430784373698 ], [ -72.014215877996193, -37.126846430656101 ], [ -72.014220971335902, -37.126846204619603 ], [ -72.014222429367507, -37.126713623689803 ], [ -72.013542777999106, -37.126773922379698 ], [ -72.013853481914495, -37.125216140085001 ], [ -72.014420419049401, -37.125205727024102 ], [ -72.015251609455404, -37.125147734678102 ], [ -72.015276565646502, -37.125146742528202 ], [ -72.015222343162606, -37.1241564554932 ], [ -72.016290493695095, -37.124137715566903 ], [ -72.016290497234905, -37.1241330163326 ], [ -72.016396476338898, -37.122914821341098 ], [ -72.016407224090699, -37.122791292175201 ], [ -72.016408844797198, -37.1226327180647 ], [ -72.016409890374803, -37.122530439305997 ], [ -72.016410881170401, -37.122433581051098 ], [ -72.016399372078894, -37.121918904607398 ], [ -72.016401409997997, -37.121893008761703 ], [ -72.016402273445195, -37.121876782606002 ], [ -72.016019752302796, -37.1218737451252 ], [ -72.0141038627265, -37.121911690180902 ], [ -72.014014522835794, -37.118909971088598 ], [ -72.014041401549505, -37.118086765586 ], [ -72.014146664193305, -37.117738389125599 ], [ -72.014370796713706, -37.117488456842601 ], [ -72.014266338010103, -37.117444468673803 ], [ -72.014051702876998, -37.1173247635124 ], [ -72.013693190957696, -37.117105925657697 ], [ -72.013621582041793, -37.117063917912198 ], [ -72.012749473579504, -37.117593920015302 ], [ -72.012406179712102, -37.117945964819299 ], [ -72.012206130373897, -37.118547363374702 ], [ -72.012177010772106, -37.118611493327002 ], [ -72.012142670804707, -37.118758499848099 ], [ -72.012044950818193, -37.1189970128721 ], [ -72.011753815062903, -37.119388259423403 ], [ -72.011592548414001, -37.119525870628301 ], [ -72.011263734241496, -37.119717807203102 ], [ -72.011004907381306, -37.119760149109702 ] ] ] } },
{ "type": "Feature", "properties": { "id": "monoparte.2", "Name": null, "description": null, "timestamp": null, "begin": null, "end": null, "altitudeMode": null, "tessellate": -1, "extrude": 0, "visibility": -1, "drawOrder": null, "icon": null, "REG": "Ñuble", "COM": "Yungay", "LOC": "Yungay", "ZONA": "ZR-3", "NOM": "Zona ZR-3", "UPERM": "Planta de tratamiento de aguas servidas.", "UPROH": "Todos los usos de suelo no mencionados como permitidos.", "P_DO": "06/04/1993", "N_DOC": "2", "T_DO": "Resolución", "OBS": null }, "geometry": { "type": "Polygon", "coordinates": [ [ [ -72.027718426320405, -37.115145214197398 ], [ -72.027363772003895, -37.115200060855102 ], [ -72.026734605434299, -37.115215233415803 ], [ -72.026223303278798, -37.115267944676603 ], [ -72.025648369502804, -37.115482897700801 ], [ -72.025593001878903, -37.115515553321202 ], [ -72.025608009305699, -37.115535410979298 ], [ -72.025556570771201, -37.115814679531802 ], [ -72.025532192123407, -37.115944060395996 ], [ -72.025501275406199, -37.116108145785901 ], [ -72.025526781043695, -37.116187958159998 ], [ -72.025719459127103, -37.116260520568702 ], [ -72.026241770115902, -37.116387244383603 ], [ -72.0262927074576, -37.116451505662702 ], [ -72.026331964051494, -37.116537593071499 ], [ -72.026315708801405, -37.116554011570699 ], [ -72.026284195124703, -37.116659717833102 ], [ -72.026112391508093, -37.116695517822997 ], [ -72.026051090556194, -37.116744765466599 ], [ -72.026084745294895, -37.116842250565298 ], [ -72.026259547633103, -37.116933149762602 ], [ -72.026361345131306, -37.116966310146701 ], [ -72.026542794785598, -37.1169437939514 ], [ -72.026650011527707, -37.116926153254703 ], [ -72.026781905171006, -37.116967485684597 ], [ -72.026924833123104, -37.117005555218498 ], [ -72.027328245855202, -37.116932514265699 ], [ -72.027337068189098, -37.116933212396503 ], [ -72.027391454228606, -37.1169297913751 ], [ -72.027862775268503, -37.116914350945002 ], [ -72.028425285145104, -37.116686354326397 ], [ -72.028919402304197, -37.116475361956603 ], [ -72.030207188451698, -37.116543273185002 ], [ -72.030783608348798, -37.116626870723998 ], [ -72.031006011309699, -37.116616112303497 ], [ -72.031100269830802, -37.1165889665942 ], [ -72.031347443829603, -37.116534958895599 ], [ -72.031735687883696, -37.116391245579898 ], [ -72.031741195922095, -37.115710084804903 ], [ -72.031310095836105, -37.115462397061997 ], [ -72.030858676972798, -37.115340438047902 ], [ -72.030311143162706, -37.1151970953795 ], [ -72.029938380585307, -37.115106498366799 ], [ -72.029543726241897, -37.115064141624003 ], [ -72.0289245705453, -37.1150656707159 ], [ -72.028151524578703, -37.115061945994398 ], [ -72.027718426320405, -37.115145214197398 ] ] ] } },
{ "type": "Feature", "properties": { "id": "monoparte.3", "Name": null, "description": null, "timestamp": null, "begin": null, "end": null, "altitudeMode": null, "tessellate": -1, "extrude": 0, "visibility": -1, "drawOrder": null, "icon": null, "REG": "Ñuble", "COM": "Yungay", "LOC": "Yungay", "ZONA": "ZE-1", "NOM": "Zona ZE-1", "UPERM": "Vivienda, equipamiento de escala vecinal de todo tipo. Talleres inofensivos.", "UPROH": "Todo los usos de suelo no mencionados precedentemente y los señalados en el artículo 18 de la Ordenanza.", "P_DO": "06/04/1993", "N_DOC": "2", "T_DO": "Resolución", "OBS": null }, "geometry": { "type": "Polygon", "coordinates": [ [ [ -72.021129078442598, -37.116485877001999 ], [ -72.021143139155996, -37.116680031355799 ], [ -72.021147803357906, -37.116694665810599 ], [ -72.021163626134594, -37.117165233469599 ], [ -72.023375578328697, -37.117089722917903 ], [ -72.023626537107305, -37.117111926496499 ], [ -72.023757094562299, -37.118148068579202 ], [ -72.024972616345195, -37.118169483150197 ], [ -72.025015716769403, -37.1181658170727 ], [ -72.025148206210403, -37.118154548095802 ], [ -72.025773726723401, -37.118101339310201 ], [ -72.026808486654801, -37.117976242035901 ], [ -72.026968238224697, -37.117956927878197 ], [ -72.027424034532899, -37.117901820163901 ], [ -72.028506063100295, -37.117796312247897 ], [ -72.028607686400093, -37.118283854691903 ], [ -72.028733625914498, -37.119053086317301 ], [ -72.028763755634003, -37.119510065439698 ], [ -72.028697952694699, -37.119950425282497 ], [ -72.029503651156901, -37.120444788956199 ], [ -72.030001677421694, -37.120689533508802 ], [ -72.031998346015499, -37.121472492156897 ], [ -72.031946874512698, -37.121225027199998 ], [ -72.031946953757597, -37.121212748870398 ], [ -72.031946971729397, -37.121209901000498 ], [ -72.031825412776101, -37.120283351184703 ], [ -72.031712904939695, -37.119030996838603 ], [ -72.031692549172504, -37.117327474778001 ], [ -72.031731749551895, -37.116878061829603 ], [ -72.031733380217403, -37.116676540497501 ], [ -72.031735687883696, -37.116391245579898 ], [ -72.031347443829603, -37.116534958895599 ], [ -72.031100269830802, -37.1165889665942 ], [ -72.031006011309699, -37.116616112303497 ], [ -72.030783608348798, -37.116626870723998 ], [ -72.030207188451698, -37.116543273185002 ], [ -72.028919402304197, -37.116475361956603 ], [ -72.028425285145104, -37.116686354326397 ], [ -72.027862775268503, -37.116914350945002 ], [ -72.027391454228606, -37.1169297913751 ], [ -72.027337068189098, -37.116933212396503 ], [ -72.027328245855202, -37.116932514265699 ], [ -72.026924833123104, -37.117005555218498 ], [ -72.026781905171006, -37.116967485684597 ], [ -72.026650011527707, -37.116926153254703 ], [ -72.026542794785598, -37.1169437939514 ], [ -72.026361345131306, -37.116966310146701 ], [ -72.026259547633103, -37.116933149762602 ], [ -72.026084745294895, -37.116842250565298 ], [ -72.026051090556194, -37.116744765466599 ], [ -72.026112391508093, -37.116695517822997 ], [ -72.026284195124703, -37.116659717833102 ], [ -72.026315708801405, -37.116554011570699 ], [ -72.026331964051494, -37.116537593071499 ], [ -72.0262927074576, -37.116451505662702 ], [ -72.026241770115902, -37.116387244383603 ], [ -72.025719459127103, -37.116260520568702 ], [ -72.025526781043695, -37.116187958159998 ], [ -72.025501275406199, -37.116108145785901 ], [ -72.025532192123407, -37.115944060395996 ], [ -72.025462474377704, -37.115981482470303 ], [ -72.025333855225099, -37.115965607831299 ], [ -72.024723459531501, -37.116243448472503 ], [ -72.023987692140395, -37.116503626696002 ], [ -72.023563372899403, -37.116594922297402 ], [ -72.023108955885107, -37.116678044012801 ], [ -72.022797509571902, -37.116706853187502 ], [ -72.022381379141606, -37.116723432379999 ], [ -72.022061430704397, -37.116725634958499 ], [ -72.021679987615499, -37.116678742965298 ], [ -72.021339718380602, -37.116600402428297 ], [ -72.021255237383102, -37.1165544700903 ], [ -72.021129078442598, -37.116485877001999 ] ] ] } },
{ "type": "Feature", "properties": { "id": "monoparte.4", "Name": null, "description": null, "timestamp": null, "begin": null, "end": null, "altitudeMode": null, "tessellate": -1, "extrude": 0, "visibility": -1, "drawOrder": null, "icon": null, "REG": "Ñuble", "COM": "Yungay", "LOC": "Yungay", "ZONA": "ZE-3", "NOM": "Zona ZE-3", "UPERM": "Vivienda, equipamiento de escala vecinal de todo tipo, con excepción esparcimiento y turismo.", "UPROH": "Todos los usos de suelo no mencionados como permitidos.", "P_DO": "06/04/1993", "N_DOC": "2", "T_DO": "Resolución", "OBS": null }, "geometry": { "type": "Polygon", "coordinates": [ [ [ -72.023771550714898, -37.123367690430399 ], [ -72.022571614285297, -37.123569402133903 ], [ -72.022280837241794, -37.123611024412803 ], [ -72.021779285137598, -37.123613611020097 ], [ -72.020820868726304, -37.123471170068399 ], [ -72.020480071773093, -37.123424826830899 ], [ -72.0204738985624, -37.123554674199603 ], [ -72.020408879514704, -37.124922309388602 ], [ -72.020521683885505, -37.124921250200003 ], [ -72.021164529073104, -37.124914390835499 ], [ -72.023890444540697, -37.124954498256599 ], [ -72.028758066096998, -37.125177899273098 ], [ -72.028775063802996, -37.125162742778699 ], [ -72.029071958698196, -37.125137397219902 ], [ -72.031360589624697, -37.123138677154898 ], [ -72.030848167259407, -37.123175972790598 ], [ -72.030484896127106, -37.123249639196402 ], [ -72.028280989530799, -37.123195145611 ], [ -72.027081809767907, -37.123193613386398 ], [ -72.024941736946005, -37.123284049819802 ], [ -72.023771550714898, -37.123367690430399 ] ] ] } },
{ "type": "Feature", "properties": { "id": "monoparte.5", "Name": null, "description": null, "timestamp": null, "begin": null, "end": null, "altitudeMode": null, "tessellate": -1, "extrude": 0, "visibility": -1, "drawOrder": null, "icon": null, "REG": "Ñuble", "COM": "Yungay", "LOC": "Yungay", "ZONA": "ZR-1", "NOM": "Zona ZR-1", "UPERM": "Equipamiento de áreas verdes y deportes (sólo canchas) de escala vecinal.", "UPROH": "Todos los usos de suelo no mencionados como permitidos.", "P_DO": "06/04/1993", "N_DOC": "2", "T_DO": "Resolución", "OBS": null }, "geometry": { "type": "Polygon", "coordinates": [ [ [ -72.016396476338898, -37.122914821341098 ], [ -72.017488213885699, -37.123014924898797 ], [ -72.017946819881999, -37.123073571935201 ], [ -72.019196880221998, -37.123250324579502 ], [ -72.020480071773093, -37.123424826830899 ], [ -72.020820868726304, -37.123471170068399 ], [ -72.021779285137598, -37.123613611020097 ], [ -72.022280837241794, -37.123611024412803 ], [ -72.022571614285297, -37.123569402133903 ], [ -72.023771550714898, -37.123367690430399 ], [ -72.024941736946005, -37.123284049819802 ], [ -72.027081809767907, -37.123193613386398 ], [ -72.028280989530799, -37.123195145611 ], [ -72.030484896127106, -37.123249639196402 ], [ -72.030848167259407, -37.123175972790598 ], [ -72.031360589624697, -37.123138677154898 ], [ -72.032193589521, -37.122411161653702 ], [ -72.032192980870406, -37.122408233410503 ], [ -72.031660491843596, -37.122644229486497 ], [ -72.031447676172206, -37.122683053292903 ], [ -72.031083349919797, -37.122506417003102 ], [ -72.030704427299199, -37.122859424427403 ], [ -72.030559606663005, -37.122851659198197 ], [ -72.030553130294706, -37.122851311288997 ], [ -72.030171222307999, -37.122830831218899 ], [ -72.030142106381106, -37.122829269324498 ], [ -72.029482244923997, -37.122856876796 ], [ -72.028249611446, -37.1228562119705 ], [ -72.026972717707295, -37.122864263310099 ], [ -72.026190543472893, -37.122960541673002 ], [ -72.024596701130093, -37.1230107886946 ], [ -72.024292921923106, -37.123031850927703 ], [ -72.023251854310701, -37.123164177290903 ], [ -72.022914245417596, -37.123255405215403 ], [ -72.022745202931802, -37.123301082565199 ], [ -72.022481379483906, -37.123327027968799 ], [ -72.022029181166104, -37.1233714981378 ], [ -72.022026758797907, -37.123372016790803 ], [ -72.021251540959796, -37.123344111717003 ], [ -72.019667842542304, -37.123050720703702 ], [ -72.016408844797198, -37.1226327180647 ], [ -72.016407224090699, -37.122791292175201 ], [ -72.016396476338898, -37.122914821341098 ] ] ] } },
{ "type": "Feature", "properties": { "id": "monoparte.6", "Name": null, "description": null, "timestamp": null, "begin": null, "end": null, "altitudeMode": null, "tessellate": -1, "extrude": 0, "visibility": -1, "drawOrder": null, "icon": null, "REG": "Ñuble", "COM": "Yungay", "LOC": "Yungay", "ZONA": "ZE-1", "NOM": "Zona ZE-1", "UPERM": "Vivienda, equipamiento de escala vecinal de todo tipo. Talleres inofensivos.", "UPROH": "Todo los usos de suelo no mencionados precedentemente y los señalados en el artículo 18 de la Ordenanza.", "P_DO": "06/04/1993", "N_DOC": "2", "T_DO": "Resolución", "OBS": null }, "geometry": { "type": "Polygon", "coordinates": [ [ [ -72.016399372078894, -37.121918904607398 ], [ -72.016410881170401, -37.122433581051098 ], [ -72.016409890374803, -37.122530439305997 ], [ -72.016408844797198, -37.1226327180647 ], [ -72.019667842542304, -37.123050720703702 ], [ -72.021251540959796, -37.123344111717003 ], [ -72.022026758797907, -37.123372016790803 ], [ -72.022029181166104, -37.1233714981378 ], [ -72.022481379483906, -37.123327027968799 ], [ -72.022745202931802, -37.123301082565199 ], [ -72.022914245417596, -37.123255405215403 ], [ -72.023015911741595, -37.123160722712399 ], [ -72.023293063426294, -37.122924177728102 ], [ -72.023453568161401, -37.122842596825599 ], [ -72.023634226475096, -37.1227353827108 ], [ -72.023829697952706, -37.122516737362901 ], [ -72.023639295052206, -37.122583435626197 ], [ -72.023504635029596, -37.122593776286102 ], [ -72.023416084140294, -37.122600577196302 ], [ -72.021931275734204, -37.122599178034001 ], [ -72.020626688725599, -37.122585964664701 ], [ -72.020634531646806, -37.121884834967098 ], [ -72.020469605830598, -37.121880033591701 ], [ -72.019590689702298, -37.121870919842699 ], [ -72.018370578230204, -37.121885330113201 ], [ -72.018280970576797, -37.121878076492003 ], [ -72.017980712042402, -37.121889303744901 ], [ -72.016402273445195, -37.121876782606002 ], [ -72.016401409997997, -37.121893008761703 ], [ -72.016399372078894, -37.121918904607398 ] ] ] } },
{ "type": "Feature", "properties": { "id": "monoparte.7", "Name": null, "description": null, "timestamp": null, "begin": null, "end": null, "altitudeMode": null, "tessellate": -1, "extrude": 0, "visibility": -1, "drawOrder": null, "icon": null, "REG": "Ñuble", "COM": "Yungay", "LOC": "Yungay", "ZONA": "ZE-1", "NOM": "Zona ZE-1", "UPERM": "Vivienda, equipamiento de escala vecinal de todo tipo. Talleres inofensivos.", "UPROH": "Todo los usos de suelo no mencionados precedentemente y los señalados en el artículo 18 de la Ordenanza.", "P_DO": "06/04/1993", "N_DOC": "2", "T_DO": "Resolución", "OBS": null }, "geometry": { "type": "Polygon", "coordinates": [ [ [ -72.024225004899506, -37.122099287851597 ], [ -72.024122827696004, -37.122260566150999 ], [ -72.024097268733399, -37.122300907713097 ], [ -72.023925033438701, -37.122461702891499 ], [ -72.023844626582303, -37.122510084722997 ], [ -72.024172666929502, -37.1224244148979 ], [ -72.024731708108007, -37.122257557382298 ], [ -72.025205882828203, -37.1222025326554 ], [ -72.025756373895902, -37.122269531667001 ], [ -72.026335973539105, -37.122469293811299 ], [ -72.026989743206997, -37.122662389966301 ], [ -72.027474992638503, -37.122735815785397 ], [ -72.0287988009934, -37.122783031859598 ], [ -72.029804485201694, -37.122766846996001 ], [ -72.030171222307999, -37.122830831218899 ], [ -72.030553130294706, -37.122851311288997 ], [ -72.030559606663005, -37.122851659198197 ], [ -72.030704427299199, -37.122859424427403 ], [ -72.030699421425993, -37.122854107293598 ], [ -72.030352771842203, -37.122721861347799 ], [ -72.030110060599597, -37.1226292673947 ], [ -72.029584731770996, -37.122428134961297 ], [ -72.029483535088204, -37.122383712199401 ], [ -72.029186997503899, -37.122253539340797 ], [ -72.028857848401302, -37.1221189094138 ], [ -72.028628843769198, -37.121975759081103 ], [ -72.028628393155699, -37.121975379534497 ], [ -72.027943657221698, -37.121971621472802 ], [ -72.027501759824105, -37.121940002443601 ], [ -72.026779808727298, -37.121903619107897 ], [ -72.025977647814798, -37.121871664774297 ], [ -72.025240667300395, -37.121869032888704 ], [ -72.0251284367191, -37.121866891115097 ], [ -72.025068716163503, -37.121865751872903 ], [ -72.024713487365901, -37.121858973725701 ], [ -72.024376174240899, -37.121837648659699 ], [ -72.024307424734701, -37.121840470048497 ], [ -72.024264172374501, -37.121886578886198 ], [ -72.024259537815496, -37.121949637708298 ], [ -72.024225004899506, -37.122099287851597 ] ] ] } },
{ "type": "Feature", "properties": { "id": "monoparte.8", "Name": null, "description": null, "timestamp": null, "begin": null, "end": null, "altitudeMode": null, "tessellate": -1, "extrude": 0, "visibility": -1, "drawOrder": null, "icon": null, "REG": "Ñuble", "COM": "Yungay", "LOC": "Yungay", "ZONA": "ZR-2", "NOM": "Zona ZR-2", "UPERM": "Equipamiento de áreas verdes y deportes de escala vecinal.", "UPROH": "Todos los usos de suelo no mencionados como permitidos.", "P_DO": "06/04/1993", "N_DOC": "2", "T_DO": "Resolución", "OBS": null }, "geometry": { "type": "Polygon", "coordinates": [ [ [ -72.023293063426294, -37.122924177728102 ], [ -72.023015911741595, -37.123160722712399 ], [ -72.022914245417596, -37.123255405215403 ], [ -72.023251854310701, -37.123164177290903 ], [ -72.024292921923106, -37.123031850927703 ], [ -72.024596701130093, -37.1230107886946 ], [ -72.026190543472893, -37.122960541673002 ], [ -72.026972717707295, -37.122864263310099 ], [ -72.028249611446, -37.1228562119705 ], [ -72.029482244923997, -37.122856876796 ], [ -72.030142106381106, -37.122829269324498 ], [ -72.030171222307999, -37.122830831218899 ], [ -72.029804485201694, -37.122766846996001 ], [ -72.0287988009934, -37.122783031859598 ], [ -72.027474992638503, -37.122735815785397 ], [ -72.026989743206997, -37.122662389966301 ], [ -72.026335973539105, -37.122469293811299 ], [ -72.025756373895902, -37.122269531667001 ], [ -72.025205882828203, -37.1222025326554 ], [ -72.024731708108007, -37.122257557382298 ], [ -72.024172666929502, -37.1224244148979 ], [ -72.023844626582303, -37.122510084722997 ], [ -72.023838966989203, -37.122513490220001 ], [ -72.023829697952706, -37.122516737362901 ], [ -72.023634226475096, -37.1227353827108 ], [ -72.023453568161401, -37.122842596825599 ], [ -72.023293063426294, -37.122924177728102 ] ] ] } },
{ "type": "Feature", "properties": { "id": "monoparte.9", "Name": null, "description": null, "timestamp": null, "begin": null, "end": null, "altitudeMode": null, "tessellate": -1, "extrude": 0, "visibility": -1, "drawOrder": null, "icon": null, "REG": "Ñuble", "COM": "Yungay", "LOC": "Yungay", "ZONA": "ZU-3", "NOM": "Zona ZU-3", "UPERM": "Vivienda, equipamiento de escala vecinal de comercio, servicios artesanales y áreas verdes. Talleres inofensivos.", "UPROH": "Todos los usos de suelo no mencionados como permitidos.", "P_DO": "06/04/1993", "N_DOC": "2", "T_DO": "Resolución", "OBS": null }, "geometry": { "type": "Polygon", "coordinates": [ [ [ -72.026968238224697, -37.117956927878197 ], [ -72.026977879346902, -37.118134745829501 ], [ -72.026791365010496, -37.118160969450699 ], [ -72.026808486654801, -37.117976242035901 ], [ -72.025773726723401, -37.118101339310201 ], [ -72.025148206210403, -37.118154548095802 ], [ -72.025015716769403, -37.1181658170727 ], [ -72.025040748434094, -37.118293902627499 ], [ -72.0251087838666, -37.118993095193197 ], [ -72.025149902440006, -37.120183506325702 ], [ -72.025142150332201, -37.1215812632704 ], [ -72.0251284367191, -37.121866891115097 ], [ -72.025240667300395, -37.121869032888704 ], [ -72.025977647814798, -37.121871664774297 ], [ -72.026779808727298, -37.121903619107897 ], [ -72.027501759824105, -37.121940002443601 ], [ -72.027943657221698, -37.121971621472802 ], [ -72.028628393155699, -37.121975379534497 ], [ -72.028628843769198, -37.121975759081103 ], [ -72.028857848401302, -37.1221189094138 ], [ -72.029186997503899, -37.122253539340797 ], [ -72.029483535088204, -37.122383712199401 ], [ -72.029584731770996, -37.122428134961297 ], [ -72.030110060599597, -37.1226292673947 ], [ -72.030352771842203, -37.122721861347799 ], [ -72.030699421425993, -37.122854107293598 ], [ -72.030704427299199, -37.122859424427403 ], [ -72.031083349919797, -37.122506417003102 ], [ -72.031447676172206, -37.122683053292903 ], [ -72.031660491843596, -37.122644229486497 ], [ -72.032192980870406, -37.122408233410503 ], [ -72.032182747035307, -37.122359034275199 ], [ -72.031998346015499, -37.121472492156897 ], [ -72.030001677421694, -37.120689533508802 ], [ -72.029503651156901, -37.120444788956199 ], [ -72.028697952694699, -37.119950425282497 ], [ -72.028763755634003, -37.119510065439698 ], [ -72.028733625914498, -37.119053086317301 ], [ -72.028607686400093, -37.118283854691903 ], [ -72.028506063100295, -37.117796312247897 ], [ -72.027424034532899, -37.117901820163901 ], [ -72.026968238224697, -37.117956927878197 ] ], [ [ -72.027033595703799, -37.118412264080199 ], [ -72.026778381498701, -37.118464573397397 ], [ -72.026802248481303, -37.118284665609998 ], [ -72.027012175527702, -37.118248307518897 ], [ -72.027033595703799, -37.118412264080199 ] ], [ [ -72.0268707127792, -37.119049192247303 ], [ -72.026720549408196, -37.119073510103298 ], [ -72.026743332228506, -37.118748688535497 ], [ -72.026811452058595, -37.118739795976097 ], [ -72.0268707127792, -37.119049192247303 ] ], [ [ -72.025457809078105, -37.120460661950297 ], [ -72.026170229828296, -37.120430957787597 ], [ -72.026168893766496, -37.120523557214 ], [ -72.025461603800395, -37.120555929989003 ], [ -72.025457809078105, -37.120460661950297 ] ] ] } },
{ "type": "Feature", "properties": { "id": "monoparte.10", "Name": null, "description": null, "timestamp": null, "begin": null, "end": null, "altitudeMode": null, "tessellate": -1, "extrude": 0, "visibility": -1, "drawOrder": null, "icon": null, "REG": "Ñuble", "COM": "Yungay", "LOC": "Yungay", "ZONA": "ZE-2", "NOM": "Zona ZE-2", "UPERM": "Vivienda, equipamiento de escala vecinal de todo tipo con excepción esparcimiento y turismo.", "UPROH": "Todos los usos de suelo no mencionados como permitidos.", "P_DO": "06/04/1993", "N_DOC": "2", "T_DO": "Resolución", "OBS": null }, "geometry": { "type": "Polygon", "coordinates": [ [ [ -72.007305465731307, -37.127092682951698 ], [ -72.007282671536203, -37.127657795318797 ], [ -72.007401528463305, -37.127651911967 ], [ -72.008393721637106, -37.1276027915886 ], [ -72.011404593471596, -37.127693165049202 ], [ -72.011404785729894, -37.127692961922698 ], [ -72.011972159860903, -37.1276893370027 ], [ -72.012194585638497, -37.126584205246303 ], [ -72.012209619218694, -37.126509509701798 ], [ -72.012051760450603, -37.126492358716497 ], [ -72.010384104385196, -37.126311158964199 ], [ -72.009325072751096, -37.126212904248597 ], [ -72.008101587897499, -37.126238023832201 ], [ -72.007348298417099, -37.1263078153886 ], [ -72.007305465731307, -37.127092682951698 ] ] ] } },
{ "type": "Feature", "properties": { "id": "monoparte.11", "Name": null, "description": null, "timestamp": null, "begin": null, "end": null, "altitudeMode": null, "tessellate": -1, "extrude": 0, "visibility": -1, "drawOrder": null, "icon": null, "REG": "Ñuble", "COM": "Yungay", "LOC": "Yungay", "ZONA": "ZE-1", "NOM": "Zona ZE-1", "UPERM": "Vivienda, equipamiento de escala vecinal de todo tipo. Talleres inofensivos.", "UPROH": "Todo los usos de suelo no mencionados precedentemente y los señalados en el artículo 18 de la Ordenanza.", "P_DO": "06/04/1993", "N_DOC": "2", "T_DO": "Resolución", "OBS": null }, "geometry": { "type": "Polygon", "coordinates": [ [ [ -72.008250759846405, -37.123106223749502 ], [ -72.006865164563393, -37.1236294068121 ], [ -72.006325066256693, -37.123794746547603 ], [ -72.006295912290099, -37.1233293266123 ], [ -72.005379576290693, -37.123495835196501 ], [ -72.004801994451398, -37.123586781187299 ], [ -72.004628441748196, -37.123594998138799 ], [ -72.004579872325394, -37.123571435940299 ], [ -72.004505797776204, -37.123559870755599 ], [ -72.004505159875194, -37.123570541365801 ], [ -72.004500709250493, -37.123645037927098 ], [ -72.004497603386994, -37.123697006591499 ], [ -72.004384778960102, -37.126805183465599 ], [ -72.004409226359797, -37.126807724339102 ], [ -72.004311326529603, -37.1278041625634 ], [ -72.0059584667774, -37.127723216693703 ], [ -72.005970929885706, -37.127645287299302 ], [ -72.006107440259299, -37.125907310176103 ], [ -72.006866633827201, -37.1257987183822 ], [ -72.007032385791305, -37.125775009124297 ], [ -72.006988554215496, -37.125272223892097 ], [ -72.006886619452203, -37.124389705407097 ], [ -72.007104394788897, -37.124250070091101 ], [ -72.007600845680003, -37.124005013240698 ], [ -72.008346513630897, -37.123756604739597 ], [ -72.008961044000301, -37.123580066733801 ], [ -72.009083264735096, -37.123565040463397 ], [ -72.009118844924203, -37.123805529735101 ], [ -72.009190959270896, -37.123934824270897 ], [ -72.010575288099503, -37.123726368723503 ], [ -72.010677886421107, -37.123716469322801 ], [ -72.010998611999298, -37.123685521874101 ], [ -72.010919610806297, -37.122061653559797 ], [ -72.0107268066659, -37.122059618832502 ], [ -72.009529291045197, -37.122322627701998 ], [ -72.009228995418198, -37.122810180985802 ], [ -72.008250759846405, -37.123106223749502 ] ] ] } },
{ "type": "Feature", "properties": { "id": "monoparte.12", "Name": null, "description": null, "timestamp": null, "begin": null, "end": null, "altitudeMode": null, "tessellate": -1, "extrude": 0, "visibility": -1, "drawOrder": null, "icon": null, "REG": "Ñuble", "COM": "Yungay", "LOC": "Yungay", "ZONA": "ZU-5", "NOM": "ZU-5 Zona de equipamiento deportivo", "UPERM": "Equipamiento de deportes y de áreas verdes.", "UPROH": "Todos los usos de suelo no mencionados como permitidos.", "P_DO": "06/04/1993", "N_DOC": "2", "T_DO": "Resolución", "OBS": null }, "geometry": { "type": "Polygon", "coordinates": [ [ [ -72.008346513630897, -37.123756604739597 ], [ -72.007600845680003, -37.124005013240698 ], [ -72.007104394788897, -37.124250070091101 ], [ -72.006886619452203, -37.124389705407097 ], [ -72.006988554215496, -37.125272223892097 ], [ -72.007032385791305, -37.125775009124297 ], [ -72.007931214921697, -37.125646436829598 ], [ -72.009216151140294, -37.125584679657102 ], [ -72.009264957949298, -37.125586333020898 ], [ -72.009348365256102, -37.124779572225499 ], [ -72.009903369535905, -37.124726136542499 ], [ -72.0106947748762, -37.124725826705301 ], [ -72.010694266507201, -37.124721575700299 ], [ -72.010735033147498, -37.124693670049801 ], [ -72.010699803264203, -37.123898865540298 ], [ -72.010685226657102, -37.123812811326502 ], [ -72.010677886421107, -37.123716469322801 ], [ -72.010575288099503, -37.123726368723503 ], [ -72.009190959270896, -37.123934824270897 ], [ -72.009118844924203, -37.123805529735101 ], [ -72.009083264735096, -37.123565040463397 ], [ -72.008961044000301, -37.123580066733801 ], [ -72.008346513630897, -37.123756604739597 ] ] ] } },
{ "type": "Feature", "properties": { "id": "monoparte.13", "Name": null, "description": null, "timestamp": null, "begin": null, "end": null, "altitudeMode": null, "tessellate": -1, "extrude": 0, "visibility": -1, "drawOrder": null, "icon": null, "REG": "Ñuble", "COM": "Yungay", "LOC": "Yungay", "ZONA": "ZE-3", "NOM": "Zona ZE-3", "UPERM": "Vivienda, equipamiento de escala vecinal de todo tipo, con excepción esparcimiento y turismo.", "UPROH": "Todos los usos de suelo no mencionados como permitidos.", "P_DO": "06/04/1993", "N_DOC": "2", "T_DO": "Resolución", "OBS": null }, "geometry": { "type": "Polygon", "coordinates": [ [ [ -72.012400504804404, -37.121955361814102 ], [ -72.010926844852605, -37.122061730083701 ], [ -72.010919610806297, -37.122061653559797 ], [ -72.010998611999298, -37.123685521874101 ], [ -72.010677886421107, -37.123716469322801 ], [ -72.010685226657102, -37.123812811326502 ], [ -72.010699803264203, -37.123898865540298 ], [ -72.010735033147498, -37.124693670049801 ], [ -72.010694266507201, -37.124721575700299 ], [ -72.0106947748762, -37.124725826705301 ], [ -72.009903369535905, -37.124726136542499 ], [ -72.009348365256102, -37.124779572225499 ], [ -72.009264957949298, -37.125586333020898 ], [ -72.009216151140294, -37.125584679657102 ], [ -72.007931214921697, -37.125646436829598 ], [ -72.007032385791305, -37.125775009124297 ], [ -72.006866633827201, -37.1257987183822 ], [ -72.006107440259299, -37.125907310176103 ], [ -72.005970929885706, -37.127645287299302 ], [ -72.0059584667774, -37.127723216693703 ], [ -72.006005360437698, -37.127720911910998 ], [ -72.006317252402198, -37.127705581629399 ], [ -72.007282671536203, -37.127657795318797 ], [ -72.007305465731307, -37.127092682951698 ], [ -72.007348298417099, -37.1263078153886 ], [ -72.008101587897499, -37.126238023832201 ], [ -72.009325072751096, -37.126212904248597 ], [ -72.010384104385196, -37.126311158964199 ], [ -72.012051760450603, -37.126492358716497 ], [ -72.012209619218694, -37.126509509701798 ], [ -72.012348360989094, -37.125820156092999 ], [ -72.012500557503998, -37.124928200298299 ], [ -72.012483971714602, -37.124284909099899 ], [ -72.012419792386893, -37.123342429676804 ], [ -72.012405184219006, -37.122298556477702 ], [ -72.012400504804404, -37.121955361814102 ] ] ] } },
{ "type": "Feature", "properties": { "id": "monoparte.14", "Name": null, "description": null, "timestamp": null, "begin": null, "end": null, "altitudeMode": null, "tessellate": -1, "extrude": 0, "visibility": -1, "drawOrder": null, "icon": null, "REG": "Ñuble", "COM": "Yungay", "LOC": "Yungay", "ZONA": "ZE-1", "NOM": "Zona ZE-1", "UPERM": "Vivienda, equipamiento de escala vecinal de todo tipo. Talleres inofensivos.", "UPROH": "Todo los usos de suelo no mencionados precedentemente y los señalados en el artículo 18 de la Ordenanza.", "P_DO": "06/04/1993", "N_DOC": "2", "T_DO": "Resolución", "OBS": null }, "geometry": { "type": "Polygon", "coordinates": [ [ [ -72.005273085070698, -37.119245787755403 ], [ -72.004834284196093, -37.120797064934301 ], [ -72.002275478938103, -37.120456414881701 ], [ -72.002275096853097, -37.120638341183998 ], [ -72.002255711856805, -37.120891107721398 ], [ -72.002274441249398, -37.123639474998598 ], [ -72.002277664428206, -37.123718078789302 ], [ -72.004343931526805, -37.123650190570501 ], [ -72.004500709250493, -37.123645037927098 ], [ -72.004505159875194, -37.123570541365801 ], [ -72.004417990267598, -37.123519806529401 ], [ -72.004537525528605, -37.122477296199897 ], [ -72.005283851887697, -37.122377301775799 ], [ -72.005396302131302, -37.121749105531002 ], [ -72.005684805600296, -37.120496475529301 ], [ -72.006308925371897, -37.120508321599203 ], [ -72.006185798268902, -37.120035881842497 ], [ -72.006183788112494, -37.120035187661799 ], [ -72.006123589919099, -37.119416842798898 ], [ -72.006121549042803, -37.119390720774597 ], [ -72.005273085070698, -37.119245787755403 ] ] ] } },
{ "type": "Feature", "properties": { "id": "monoparte.15", "Name": null, "description": null, "timestamp": null, "begin": null, "end": null, "altitudeMode": null, "tessellate": -1, "extrude": 0, "visibility": -1, "drawOrder": null, "icon": null, "REG": "Ñuble", "COM": "Yungay", "LOC": "Yungay", "ZONA": "ZR-1", "NOM": "Zona ZR-1", "UPERM": "Equipamiento de áreas verdes y deportes (sólo canchas) de escala vecinal.", "UPROH": "Todos los usos de suelo no mencionados como permitidos.", "P_DO": "06/04/1993", "N_DOC": "2", "T_DO": "Resolución", "OBS": null }, "geometry": { "type": "Polygon", "coordinates": [ [ [ -72.016307686116306, -37.117356419876202 ], [ -72.016331470335402, -37.116557369920201 ], [ -72.016095017802897, -37.116470695469197 ], [ -72.015929389947601, -37.116460607929803 ], [ -72.015498300679198, -37.1166253592543 ], [ -72.014620700082304, -37.116764265132097 ], [ -72.014246194485906, -37.116685054271997 ], [ -72.013859371831998, -37.116624156546798 ], [ -72.013620088021597, -37.116494668358101 ], [ -72.013558620332205, -37.116461406181003 ], [ -72.012173291854495, -37.117276126586397 ], [ -72.012333836120803, -37.117369744865002 ], [ -72.012469792671098, -37.1174580257602 ], [ -72.012315600666099, -37.117604995031598 ], [ -72.012160405915793, -37.117820532360597 ], [ -72.011817226323402, -37.118612796264202 ], [ -72.011628135650597, -37.119038048022098 ], [ -72.011456206265805, -37.119254009962198 ], [ -72.011172596519302, -37.119422149150601 ], [ -72.011003822329002, -37.119483061829101 ], [ -72.010837350318994, -37.119508154431003 ], [ -72.010600536068907, -37.119448610807602 ], [ -72.010255318413698, -37.119376920451103 ], [ -72.009958666899706, -37.119309954733097 ], [ -72.009822766128096, -37.119167381031701 ], [ -72.009780634240101, -37.119043284674497 ], [ -72.009652994780396, -37.118921361845501 ], [ -72.009427572314095, -37.118867486138498 ], [ -72.009175418566102, -37.118796407969398 ], [ -72.008892462607704, -37.118699290010603 ], [ -72.008705762754204, -37.118692266045002 ], [ -72.008525540304305, -37.1187372194292 ], [ -72.0084354603229, -37.118868250696302 ], [ -72.008409114768696, -37.1189547481343 ], [ -72.008381914115901, -37.119170009751002 ], [ -72.008410613096203, -37.119293255682599 ], [ -72.008470563044, -37.119453853490803 ], [ -72.008610573104505, -37.119831757064503 ], [ -72.008685529498607, -37.120220849925701 ], [ -72.008628134761196, -37.120400495418899 ], [ -72.008578036230702, -37.120457224259802 ], [ -72.008312401115305, -37.120628475714 ], [ -72.008053566924801, -37.120745910514401 ], [ -72.007602041851698, -37.1208467810199 ], [ -72.007211562124397, -37.120910338650702 ], [ -72.007053998418101, -37.120878576569801 ], [ -72.006902953858599, -37.120785854395699 ], [ -72.006762747826301, -37.120628484291899 ], [ -72.006550814289099, -37.120351345868301 ], [ -72.006455238512103, -37.119967543351201 ], [ -72.006443515581296, -37.1194457171053 ], [ -72.006121549042803, -37.119390720774597 ], [ -72.006123589919099, -37.119416842798898 ], [ -72.006183788112494, -37.120035187661799 ], [ -72.006185798268902, -37.120035881842497 ], [ -72.006308925371897, -37.120508321599203 ], [ -72.006323873681595, -37.120565676515902 ], [ -72.006666502801195, -37.120947976780201 ], [ -72.006923695025506, -37.121127409374999 ], [ -72.007265968547301, -37.1211997806261 ], [ -72.007586434861494, -37.121172570668797 ], [ -72.007999626446306, -37.121081018618597 ], [ -72.008316129911293, -37.120953774324498 ], [ -72.008824216428806, -37.120702456527603 ], [ -72.008856171858, -37.120670965576103 ], [ -72.008950981618199, -37.120520427010497 ], [ -72.009016423736, -37.120218364675701 ], [ -72.009036258657204, -37.1199675278461 ], [ -72.008950913976193, -37.119616845624599 ], [ -72.008841915271006, -37.119345440557403 ], [ -72.009068283412105, -37.1192224528086 ], [ -72.009268977375896, -37.119153398022398 ], [ -72.009341206938501, -37.119173019610798 ], [ -72.0094321309344, -37.1192136246163 ], [ -72.009529426472497, -37.119339895048299 ], [ -72.009699518543798, -37.119500077961703 ], [ -72.010072377717407, -37.119593120647501 ], [ -72.010729250123504, -37.119790996905301 ], [ -72.011004907381306, -37.119760149109702 ], [ -72.011263734241496, -37.119717807203102 ], [ -72.011592548414001, -37.119525870628301 ], [ -72.011753815062903, -37.119388259423403 ], [ -72.012044950818193, -37.1189970128721 ], [ -72.012142670804707, -37.118758499848099 ], [ -72.012177010772106, -37.118611493327002 ], [ -72.012206130373897, -37.118547363374702 ], [ -72.012406179712102, -37.117945964819299 ], [ -72.012749473579504, -37.117593920015302 ], [ -72.013621582041793, -37.117063917912198 ], [ -72.013693190957696, -37.117105925657697 ], [ -72.014051702876998, -37.1173247635124 ], [ -72.014266338010103, -37.117444468673803 ], [ -72.014370796713706, -37.117488456842601 ], [ -72.014535955306002, -37.117558005645598 ], [ -72.014819586414006, -37.117653304210997 ], [ -72.015044957605497, -37.117630878920203 ], [ -72.015994014395403, -37.117400602516398 ], [ -72.016172316973396, -37.117365844672101 ], [ -72.016307154668198, -37.117347937998403 ], [ -72.016307686116306, -37.117356419876202 ] ] ] } },
{ "type": "Feature", "properties": { "id": "monoparte.16", "Name": null, "description": null, "timestamp": null, "begin": null, "end": null, "altitudeMode": null, "tessellate": -1, "extrude": 0, "visibility": -1, "drawOrder": null, "icon": null, "REG": "Ñuble", "COM": "Yungay", "LOC": "Yungay", "ZONA": "ZU-4", "NOM": "Zona ZU-4", "UPERM": "Vivienda, equipamiento de todo tipo de escala vecinal, industria, almacenamiento y talleres inofensivos y molestos. Actividades complementarias a la vialidad y transporte.", "UPROH": "Todos los usos de suelo no mencionados como permitidos.", "P_DO": "06/04/1993", "N_DOC": "2", "T_DO": "Resolución", "OBS": null }, "geometry": { "type": "Polygon", "coordinates": [ [ [ -72.007192284838197, -37.111201076864603 ], [ -72.007365437153695, -37.111450419668998 ], [ -72.007451402689199, -37.111546833102302 ], [ -72.009061603376907, -37.113377004345701 ], [ -72.010251588070602, -37.114511450282102 ], [ -72.010261152843398, -37.114524194551599 ], [ -72.010703287677501, -37.1149519258311 ], [ -72.011041461857602, -37.115315849323899 ], [ -72.011229343860805, -37.115737235796701 ], [ -72.011460809142093, -37.116379658196799 ], [ -72.011474600593203, -37.116403614321499 ], [ -72.011503930619696, -37.116491965157898 ], [ -72.011609362318893, -37.116687184378797 ], [ -72.011746502748295, -37.116954891461297 ], [ -72.012004672471704, -37.117177798902503 ], [ -72.012115308450205, -37.117242314604503 ], [ -72.012173291854495, -37.117276126586397 ], [ -72.013558620332205, -37.116461406181003 ], [ -72.013477298934802, -37.116417399023597 ], [ -72.013234601130307, -37.1162280748024 ], [ -72.013060090155804, -37.115831384680398 ], [ -72.012641467049605, -37.114846661431201 ], [ -72.012374745752595, -37.114501786552196 ], [ -72.011730733004597, -37.113838686970503 ], [ -72.0112122967262, -37.113339279578497 ], [ -72.010557051487993, -37.112749055455801 ], [ -72.009198650888393, -37.1112601141485 ], [ -72.008969659810205, -37.111341030981599 ], [ -72.008639971288503, -37.111256546219501 ], [ -72.008410582120206, -37.111220209330597 ], [ -72.008291626408194, -37.111223230275499 ], [ -72.007951516362795, -37.111279549641502 ], [ -72.007646808337796, -37.111327816381397 ], [ -72.007428677892904, -37.111307129229402 ], [ -72.007192284838197, -37.111201076864603 ] ] ] } },
{ "type": "Feature", "properties": { "id": "monoparte.17", "Name": null, "description": null, "timestamp": null, "begin": null, "end": null, "altitudeMode": null, "tessellate": -1, "extrude": 0, "visibility": -1, "drawOrder": null, "icon": null, "REG": "Ñuble", "COM": "Yungay", "LOC": "Yungay", "ZONA": "ZU-1", "NOM": "Zona ZU-1", "UPERM": "Vivienda, equipamiento de todo tipo, actividades complementarias a la vialidad y el transporte.", "UPROH": "Todos los usos de suelo no mencionados como permitidos.", "P_DO": "06/04/1993", "N_DOC": "2", "T_DO": "Resolución", "OBS": null }, "geometry": { "type": "Polygon", "coordinates": [ [ [ -72.018753842051396, -37.117001419688201 ], [ -72.018544342792396, -37.1172508924829 ], [ -72.018229441366898, -37.1174925602838 ], [ -72.017856691512307, -37.117552123558497 ], [ -72.017740607751605, -37.117552697662703 ], [ -72.017603136292493, -37.117539510924999 ], [ -72.017343201096494, -37.117441231227602 ], [ -72.0170692883855, -37.117290856732097 ], [ -72.016591972457206, -37.1173411589251 ], [ -72.016591951049904, -37.1173427733099 ], [ -72.016586996308007, -37.1177074335002 ], [ -72.016329567086302, -37.117705459468802 ], [ -72.016307686116306, -37.117356419876202 ], [ -72.016307154668198, -37.117347937998403 ], [ -72.016172316973396, -37.117365844672101 ], [ -72.015994014395403, -37.117400602516398 ], [ -72.015044957605497, -37.117630878920203 ], [ -72.014819586414006, -37.117653304210997 ], [ -72.014535955306002, -37.117558005645598 ], [ -72.014370796713706, -37.117488456842601 ], [ -72.014146664193305, -37.117738389125599 ], [ -72.014041401549505, -37.118086765586 ], [ -72.014014522835794, -37.118909971088598 ], [ -72.0141038627265, -37.121911690180902 ], [ -72.016019752302796, -37.1218737451252 ], [ -72.016402273445195, -37.121876782606002 ], [ -72.017980712042402, -37.121889303744901 ], [ -72.018280970576797, -37.121878076492003 ], [ -72.018370578230204, -37.121885330113201 ], [ -72.019590689702298, -37.121870919842699 ], [ -72.020469605830598, -37.121880033591701 ], [ -72.020634531646806, -37.121884834967098 ], [ -72.020626688725599, -37.122585964664701 ], [ -72.021931275734204, -37.122599178034001 ], [ -72.023416084140294, -37.122600577196302 ], [ -72.023504635029596, -37.122593776286102 ], [ -72.023639295052206, -37.122583435626197 ], [ -72.023829697952706, -37.122516737362901 ], [ -72.023838966989203, -37.122513490220001 ], [ -72.023844626582303, -37.122510084722997 ], [ -72.023925033438701, -37.122461702891499 ], [ -72.024097268733399, -37.122300907713097 ], [ -72.024122827696004, -37.122260566150999 ], [ -72.024225004899506, -37.122099287851597 ], [ -72.024259537815496, -37.121949637708298 ], [ -72.024264172374501, -37.121886578886198 ], [ -72.024307424734701, -37.121840470048497 ], [ -72.024376174240899, -37.121837648659699 ], [ -72.024713487365901, -37.121858973725701 ], [ -72.025068716163503, -37.121865751872903 ], [ -72.0251284367191, -37.121866891115097 ], [ -72.025142150332201, -37.1215812632704 ], [ -72.025149902440006, -37.120183506325702 ], [ -72.0251087838666, -37.118993095193197 ], [ -72.025040748434094, -37.118293902627499 ], [ -72.025015716769403, -37.1181658170727 ], [ -72.024972616345195, -37.118169483150197 ], [ -72.023757094562299, -37.118148068579202 ], [ -72.023626537107305, -37.117111926496499 ], [ -72.023375578328697, -37.117089722917903 ], [ -72.021163626134594, -37.117165233469599 ], [ -72.021147803357906, -37.116694665810599 ], [ -72.021143139155996, -37.116680031355799 ], [ -72.021129078442598, -37.116485877001999 ], [ -72.0209776933509, -37.116403569293098 ], [ -72.020881770984701, -37.116314067401397 ], [ -72.020802940410107, -37.116165879096002 ], [ -72.020787768238193, -37.116008913644002 ], [ -72.020776914309707, -37.115848262568903 ], [ -72.020714137754098, -37.115342572193001 ], [ -72.020630690557297, -37.115055541051497 ], [ -72.020582285923595, -37.114988983349299 ], [ -72.020452477280799, -37.1148988358295 ], [ -72.020277508429004, -37.114870872647103 ], [ -72.020114026191294, -37.114892206513098 ], [ -72.019911005752604, -37.114937435652202 ], [ -72.019764146211202, -37.115017471585602 ], [ -72.019492443668895, -37.115192239734803 ], [ -72.019114533466194, -37.115496192062999 ], [ -72.018793375361099, -37.115748749904498 ], [ -72.018665340371001, -37.115898039558701 ], [ -72.018624110015693, -37.116077899304102 ], [ -72.018586006339405, -37.116242778153001 ], [ -72.018747535432993, -37.116468133235102 ], [ -72.018811461671902, -37.116672134715103 ], [ -72.018815434445898, -37.116865742783297 ], [ -72.018753842051396, -37.117001419688201 ] ], [ [ -72.018240887301005, -37.120030234008901 ], [ -72.018168593583795, -37.119990354216398 ], [ -72.018130233159098, -37.119961530166599 ], [ -72.018174101410096, -37.118911400201597 ], [ -72.018205550006599, -37.118859936411702 ], [ -72.018285327506106, -37.118807241133503 ], [ -72.018586459902593, -37.118799567461899 ], [ -72.019465921540501, -37.1187970866429 ], [ -72.019468379602301, -37.1187979502958 ], [ -72.019555424951406, -37.1188344733783 ], [ -72.0195905413199, -37.118875300084298 ], [ -72.019624054742593, -37.1199055764653 ], [ -72.019559384588504, -37.119963848179097 ], [ -72.019493766399094, -37.119998302297098 ], [ -72.018240887301005, -37.120030234008901 ] ] ] } },
{ "type": "Feature", "properties": { "id": "monoparte.18", "Name": null, "description": null, "timestamp": null, "begin": null, "end": null, "altitudeMode": null, "tessellate": -1, "extrude": 0, "visibility": -1, "drawOrder": null, "icon": null, "REG": "Ñuble", "COM": "Yungay", "LOC": "Yungay", "ZONA": "ZE-2", "NOM": "Zona ZE-2", "UPERM": "Vivienda, equipamiento de escala vecinal de todo tipo con excepción esparcimiento y turismo.", "UPROH": "Todos los usos de suelo no mencionados como permitidos.", "P_DO": "06/04/1993", "N_DOC": "2", "T_DO": "Resolución", "OBS": null }, "geometry": { "type": "Polygon", "coordinates": [ [ [ -72.016290497234905, -37.1241330163326 ], [ -72.016290493695095, -37.124137715566903 ], [ -72.015222343162606, -37.1241564554932 ], [ -72.015276565646502, -37.125146742528202 ], [ -72.015251609455404, -37.125147734678102 ], [ -72.014420419049401, -37.125205727024102 ], [ -72.013853481914495, -37.125216140085001 ], [ -72.013542777999106, -37.126773922379698 ], [ -72.014222429367507, -37.126713623689803 ], [ -72.014222547044099, -37.126702923043901 ], [ -72.017843109616507, -37.126402117493903 ], [ -72.017889952181307, -37.12495853355 ], [ -72.018529182693698, -37.124932902954697 ], [ -72.018583773790994, -37.124939438502103 ], [ -72.020408879514704, -37.124922309388602 ], [ -72.0204738985624, -37.123554674199603 ], [ -72.020480071773093, -37.123424826830899 ], [ -72.019196880221998, -37.123250324579502 ], [ -72.017946819881999, -37.123073571935201 ], [ -72.017488213885699, -37.123014924898797 ], [ -72.016396476338898, -37.122914821341098 ], [ -72.016290497234905, -37.1241330163326 ] ] ] } },
{ "type": "Feature", "properties": { "id": "monoparte.19", "Name": null, "description": null, "timestamp": null, "begin": null, "end": null, "altitudeMode": null, "tessellate": -1, "extrude": 0, "visibility": -1, "drawOrder": null, "icon": null, "REG": "Ñuble", "COM": "Yungay", "LOC": "Yungay", "ZONA": "ZU-6", "NOM": "ZU-6 Zona de equipamiento de Cementerio", "UPERM": "Cementerio.", "UPROH": "Todos los usos de suelo no mencionados como permitidos.", "P_DO": "06/04/1993", "N_DOC": "2", "T_DO": "Resolución", "OBS": null }, "geometry": { "type": "Polygon", "coordinates": [ [ [ -72.011266694672798, -37.129471648601097 ], [ -72.012344072640602, -37.129497928252398 ], [ -72.012381829672194, -37.129181419626697 ], [ -72.012399151405205, -37.128942567017397 ], [ -72.012482893269706, -37.128201360073298 ], [ -72.011393884903399, -37.128153111284199 ], [ -72.011391215254307, -37.128267804120902 ], [ -72.011390190426596, -37.128311826453199 ], [ -72.011372150893905, -37.128400791283703 ], [ -72.0112621593331, -37.129353739178697 ], [ -72.011266694672798, -37.129471648601097 ] ] ] } },
{ "type": "Feature", "properties": { "id": "monoparte.20", "Name": null, "description": null, "timestamp": null, "begin": null, "end": null, "altitudeMode": null, "tessellate": -1, "extrude": 0, "visibility": -1, "drawOrder": null, "icon": null, "REG": "Ñuble", "COM": "Yungay", "LOC": "Yungay", "ZONA": "Área Verde", "NOM": "Área Verde", "UPERM": "Área Verde", "UPROH": "Todos los usos de suelo no mencionados como permitidos.", "P_DO": "06/04/1993", "N_DOC": "2", "T_DO": "Resolución", "OBS": null }, "geometry": { "type": "Polygon", "coordinates": [ [ [ -72.026743332228506, -37.118748688535497 ], [ -72.026720549408196, -37.119073510103298 ], [ -72.0268707127792, -37.119049192247303 ], [ -72.026811452058595, -37.118739795976097 ], [ -72.026743332228506, -37.118748688535497 ] ] ] } },
{ "type": "Feature", "properties": { "id": "monoparte.21", "Name": null, "description": null, "timestamp": null, "begin": null, "end": null, "altitudeMode": null, "tessellate": -1, "extrude": 0, "visibility": -1, "drawOrder": null, "icon": null, "REG": "Ñuble", "COM": "Yungay", "LOC": "Yungay", "ZONA": "Área Verde", "NOM": "Área Verde", "UPERM": "Área Verde", "UPROH": "Todos los usos de suelo no mencionados como permitidos.", "P_DO": "06/04/1993", "N_DOC": "2", "T_DO": "Resolución", "OBS": null }, "geometry": { "type": "Polygon", "coordinates": [ [ [ -72.026802248481303, -37.118284665609998 ], [ -72.026778381498701, -37.118464573397397 ], [ -72.027033595703799, -37.118412264080199 ], [ -72.027012175527702, -37.118248307518897 ], [ -72.026802248481303, -37.118284665609998 ] ] ] } },
{ "type": "Feature", "properties": { "id": "monoparte.22", "Name": null, "description": null, "timestamp": null, "begin": null, "end": null, "altitudeMode": null, "tessellate": -1, "extrude": 0, "visibility": -1, "drawOrder": null, "icon": null, "REG": "Ñuble", "COM": "Yungay", "LOC": "Yungay", "ZONA": "Área Verde", "NOM": "Área Verde", "UPERM": "Área Verde", "UPROH": "Todos los usos de suelo no mencionados como permitidos.", "P_DO": "06/04/1993", "N_DOC": "2", "T_DO": "Resolución", "OBS": null }, "geometry": { "type": "Polygon", "coordinates": [ [ [ -72.026808486654801, -37.117976242035901 ], [ -72.026791365010496, -37.118160969450699 ], [ -72.026977879346902, -37.118134745829501 ], [ -72.026968238224697, -37.117956927878197 ], [ -72.026808486654801, -37.117976242035901 ] ] ] } },
{ "type": "Feature", "properties": { "id": "monoparte.23", "Name": null, "description": null, "timestamp": null, "begin": null, "end": null, "altitudeMode": null, "tessellate": -1, "extrude": 0, "visibility": -1, "drawOrder": null, "icon": null, "REG": "Ñuble", "COM": "Yungay", "LOC": "Yungay", "ZONA": "Área Verde", "NOM": "Área Verde", "UPERM": "Área Verde", "UPROH": "Todos los usos de suelo no mencionados como permitidos.", "P_DO": "06/04/1993", "N_DOC": "2", "T_DO": "Resolución", "OBS": null }, "geometry": { "type": "Polygon", "coordinates": [ [ [ -72.025457809078105, -37.120460661950297 ], [ -72.025461603800395, -37.120555929989003 ], [ -72.026168893766496, -37.120523557214 ], [ -72.026170229828296, -37.120430957787597 ], [ -72.025457809078105, -37.120460661950297 ] ] ] } },
{ "type": "Feature", "properties": { "id": "monoparte.24", "Name": null, "description": null, "timestamp": null, "begin": null, "end": null, "altitudeMode": null, "tessellate": -1, "extrude": 0, "visibility": -1, "drawOrder": null, "icon": null, "REG": "Ñuble", "COM": "Yungay", "LOC": "Yungay", "ZONA": "Área Verde", "NOM": "Área Verde", "UPERM": "Área Verde", "UPROH": "Todos los usos de suelo no mencionados como permitidos.", "P_DO": "06/04/1993", "N_DOC": "2", "T_DO": "Resolución", "OBS": null }, "geometry": { "type": "Polygon", "coordinates": [ [ [ -72.018240887301005, -37.120030234008901 ], [ -72.019493766399094, -37.119998302297098 ], [ -72.019559384588504, -37.119963848179097 ], [ -72.019624054742593, -37.1199055764653 ], [ -72.0195905413199, -37.118875300084298 ], [ -72.019555424951406, -37.1188344733783 ], [ -72.019468379602301, -37.1187979502958 ], [ -72.019465921540501, -37.1187970866429 ], [ -72.018586459902593, -37.118799567461899 ], [ -72.018285327506106, -37.118807241133503 ], [ -72.018205550006599, -37.118859936411702 ], [ -72.018174101410096, -37.118911400201597 ], [ -72.018130233159098, -37.119961530166599 ], [ -72.018168593583795, -37.119990354216398 ], [ -72.018240887301005, -37.120030234008901 ] ] ] } },
{ "type": "Feature", "properties": { "id": "monoparte.25", "Name": null, "description": null, "timestamp": null, "begin": null, "end": null, "altitudeMode": null, "tessellate": -1, "extrude": 0, "visibility": -1, "drawOrder": null, "icon": null, "REG": "Ñuble", "COM": "Yungay", "LOC": "Yungay", "ZONA": "ZR-1", "NOM": "Zona ZR-1", "UPERM": "Equipamiento de áreas verdes y deportes (sólo canchas) de escala vecinal.", "UPROH": "Todos los usos de suelo no mencionados como permitidos.", "P_DO": "06/04/1993", "N_DOC": "2", "T_DO": "Resolución", "OBS": null }, "geometry": { "type": "Polygon", "coordinates": [ [ [ -72.016545893094403, -37.116699352006499 ], [ -72.016591951049904, -37.1173427733099 ], [ -72.016591972457206, -37.1173411589251 ], [ -72.0170692883855, -37.117290856732097 ], [ -72.017343201096494, -37.117441231227602 ], [ -72.017603136292493, -37.117539510924999 ], [ -72.017740607751605, -37.117552697662703 ], [ -72.017856691512307, -37.117552123558497 ], [ -72.018229441366898, -37.1174925602838 ], [ -72.018544342792396, -37.1172508924829 ], [ -72.018753842051396, -37.117001419688201 ], [ -72.018815434445898, -37.116865742783297 ], [ -72.018811461671902, -37.116672134715103 ], [ -72.018747535432993, -37.116468133235102 ], [ -72.018586006339405, -37.116242778153001 ], [ -72.018624110015693, -37.116077899304102 ], [ -72.018665340371001, -37.115898039558701 ], [ -72.018793375361099, -37.115748749904498 ], [ -72.019114533466194, -37.115496192062999 ], [ -72.019492443668895, -37.115192239734803 ], [ -72.019764146211202, -37.115017471585602 ], [ -72.019911005752604, -37.114937435652202 ], [ -72.020114026191294, -37.114892206513098 ], [ -72.020277508429004, -37.114870872647103 ], [ -72.020452477280799, -37.1148988358295 ], [ -72.020582285923595, -37.114988983349299 ], [ -72.020630690557297, -37.115055541051497 ], [ -72.020714137754098, -37.115342572193001 ], [ -72.020776914309707, -37.115848262568903 ], [ -72.020787768238193, -37.116008913644002 ], [ -72.020802940410107, -37.116165879096002 ], [ -72.020881770984701, -37.116314067401397 ], [ -72.0209776933509, -37.116403569293098 ], [ -72.021129078442598, -37.116485877001999 ], [ -72.021255237383102, -37.1165544700903 ], [ -72.021339718380602, -37.116600402428297 ], [ -72.021679987615499, -37.116678742965298 ], [ -72.022061430704397, -37.116725634958499 ], [ -72.022381379141606, -37.116723432379999 ], [ -72.022797509571902, -37.116706853187502 ], [ -72.023108955885107, -37.116678044012801 ], [ -72.023563372899403, -37.116594922297402 ], [ -72.023987692140395, -37.116503626696002 ], [ -72.024723459531501, -37.116243448472503 ], [ -72.025333855225099, -37.115965607831299 ], [ -72.025462474377704, -37.115981482470303 ], [ -72.025532192123407, -37.115944060395996 ], [ -72.025556570771201, -37.115814679531802 ], [ -72.025608009305699, -37.115535410979298 ], [ -72.025593001878903, -37.115515553321202 ], [ -72.025140389365404, -37.115782504928703 ], [ -72.024832128281602, -37.115944208798801 ], [ -72.024008865294604, -37.116240594844101 ], [ -72.023038292193704, -37.116426296604999 ], [ -72.022544535430299, -37.116474658899001 ], [ -72.021905607803703, -37.116465926763297 ], [ -72.021563297592394, -37.116392407448402 ], [ -72.021331377962994, -37.116287461237697 ], [ -72.021225855245504, -37.116158009933798 ], [ -72.0212222034653, -37.116136323921602 ], [ -72.021167685031003, -37.115813474464701 ], [ -72.021171032568105, -37.115600402108498 ], [ -72.021096974907394, -37.115221381873901 ], [ -72.0209975254418, -37.1150600095675 ], [ -72.020889226317607, -37.114863221446797 ], [ -72.020737383935199, -37.114638217898403 ], [ -72.020616340937707, -37.114588854369998 ], [ -72.020288824796907, -37.114587668558599 ], [ -72.019838673835395, -37.114646827939801 ], [ -72.019563284417202, -37.114758749604697 ], [ -72.018990903076002, -37.1151881757784 ], [ -72.018494893771305, -37.115591812313099 ], [ -72.018256240970899, -37.115879219673701 ], [ -72.018239072141498, -37.116046544876198 ], [ -72.018275058681994, -37.116202980392202 ], [ -72.018434927836495, -37.1164802328219 ], [ -72.018520960132903, -37.116697379331697 ], [ -72.018497275500394, -37.116850565903 ], [ -72.018425627514702, -37.116995439433197 ], [ -72.018253807237798, -37.117166705374302 ], [ -72.018039780897595, -37.117324742666803 ], [ -72.017845194308805, -37.117372614441301 ], [ -72.017653527283201, -37.117344119550502 ], [ -72.017483950571403, -37.117272148446801 ], [ -72.016996594696096, -37.117036807940401 ], [ -72.0166975294661, -37.116810586539899 ], [ -72.016545893094403, -37.116699352006499 ] ] ] } },
{ "type": "Feature", "properties": { "id": "monoparte.26", "Name": null, "description": null, "timestamp": null, "begin": null, "end": null, "altitudeMode": null, "tessellate": -1, "extrude": 0, "visibility": -1, "drawOrder": null, "icon": null, "REG": "Ñuble", "COM": "Yungay", "LOC": "Yungay", "ZONA": "Área Verde", "NOM": "Área Verde", "UPERM": "Área Verde", "UPROH": "Todos los usos de suelo no mencionados como permitidos.", "P_DO": "06/04/1993", "N_DOC": "2", "T_DO": "Resolución", "OBS": null }, "geometry": { "type": "Polygon", "coordinates": [ [ [ -72.016591951049904, -37.1173427733099 ], [ -72.016545893094403, -37.116699352006499 ], [ -72.016374119282503, -37.116573344991899 ], [ -72.016365983805898, -37.116570020814599 ], [ -72.016331470335402, -37.116557369920201 ], [ -72.016307686116306, -37.117356419876202 ], [ -72.016329567086302, -37.117705459468802 ], [ -72.016586996308007, -37.1177074335002 ], [ -72.016591951049904, -37.1173427733099 ] ] ] } }
]
}
