{
"type": "FeatureCollection",
"name": "IPT_06_PNSECC_Graneros_Estacion",
"crs": { "type": "name", "properties": { "name": "urn:ogc:def:crs:OGC:1.3:CRS84" } },
"features": [
{ "type": "Feature", "properties": { "id": "monoparte.1", "Name": null, "description": null, "timestamp": null, "begin": null, "end": null, "altitudeMode": null, "tessellate": -1, "extrude": 0, "visibility": -1, "drawOrder": null, "icon": null, "REG": "O'Higgins", "COM": "Graneros", "LOC": "Estación", "ZONA": "H-2", "NOM": "Zona H-2", "UPERM": "Vivienda, comercio, oficinas, equipamiento, talleres artesanales y bodegas inofensivas, áreas verdes y vialidad.", "UPROH": "Todo otro uso no señalado precedentemente como permitido.", "P_DO": "02/07/2016", "N_DOC": "481", "T_DO": "Decreto", "OBS": null }, "geometry": { "type": "Polygon", "coordinates": [ [ [ -70.724834786340793, -34.068161678060498 ], [ -70.724853184217295, -34.068226911431303 ], [ -70.725489690808104, -34.068104953392499 ], [ -70.725554719305904, -34.068072127069797 ], [ -70.725461134649393, -34.0677569003687 ], [ -70.7253661934771, -34.067457618949199 ], [ -70.725357232114106, -34.067439850885897 ], [ -70.725328396346399, -34.067502287519297 ], [ -70.725286952689501, -34.067579216125999 ], [ -70.725251193050198, -34.067653678932899 ], [ -70.725206908289707, -34.067731840393698 ], [ -70.725158179028796, -34.067802906321901 ], [ -70.725102501712499, -34.067884806667202 ], [ -70.7250509060448, -34.067955912799498 ], [ -70.725004583437297, -34.068004279931202 ], [ -70.724920318119601, -34.068090159616602 ], [ -70.724834786340793, -34.068161678060498 ] ] ] } },
{ "type": "Feature", "properties": { "id": "monoparte.2", "Name": null, "description": null, "timestamp": null, "begin": null, "end": null, "altitudeMode": null, "tessellate": -1, "extrude": 0, "visibility": -1, "drawOrder": null, "icon": null, "REG": "O'Higgins", "COM": "Graneros", "LOC": "Estación", "ZONA": "H-2", "NOM": "Zona H-2", "UPERM": "Vivienda, comercio, oficinas, equipamiento, talleres artesanales y bodegas inofensivas, áreas verdes y vialidad.", "UPROH": "Todo otro uso no señalado precedentemente como permitido.", "P_DO": "02/07/2016", "N_DOC": "481", "T_DO": "Decreto", "OBS": null }, "geometry": { "type": "Polygon", "coordinates": [ [ [ -70.724769430738306, -34.064075734771798 ], [ -70.724782605284602, -34.064125152158297 ], [ -70.725359054104999, -34.064010897706297 ], [ -70.725357296298895, -34.0640041981952 ], [ -70.725233017530599, -34.063530685081503 ], [ -70.725056382152701, -34.062857672442099 ], [ -70.7249434157076, -34.062422034127401 ], [ -70.724580443304703, -34.062489473674098 ], [ -70.724377532190701, -34.0625298197982 ], [ -70.724446461024797, -34.062850372205098 ], [ -70.7247234032357, -34.063855690745697 ], [ -70.724769430738306, -34.064075734771798 ] ] ] } },
{ "type": "Feature", "properties": { "id": "monoparte.3", "Name": null, "description": null, "timestamp": null, "begin": null, "end": null, "altitudeMode": null, "tessellate": -1, "extrude": 0, "visibility": -1, "drawOrder": null, "icon": null, "REG": "O'Higgins", "COM": "Graneros", "LOC": "Estación", "ZONA": "H-3", "NOM": "Zona H-3", "UPERM": "Vivienda, comercio, oficinas, equipamiento, áreas verdes y vialidad.", "UPROH": "Todo otro uso no señalado precedentemente como permitido.", "P_DO": "02/07/2016", "N_DOC": "481", "T_DO": "Decreto", "OBS": null }, "geometry": { "type": "Polygon", "coordinates": [ [ [ -70.724532352931703, -34.067089325050297 ], [ -70.724798758812497, -34.068033932760997 ], [ -70.724852294722794, -34.067987331020603 ], [ -70.724931046195906, -34.067912264771003 ], [ -70.724988590895904, -34.0678518111472 ], [ -70.725064089067004, -34.067757703599703 ], [ -70.725140850952897, -34.067655228257003 ], [ -70.725228157677606, -34.067507274005202 ], [ -70.725290539702698, -34.067402614509398 ], [ -70.725310808611894, -34.067271109443702 ], [ -70.725127252892705, -34.0667016841996 ], [ -70.724998099780706, -34.066199491502097 ], [ -70.724909832080399, -34.065875661026404 ], [ -70.724734235382101, -34.065203532638698 ], [ -70.7246508117817, -34.064906474766701 ], [ -70.7245557320703, -34.0646000374132 ], [ -70.724442764069593, -34.064188874403797 ], [ -70.724361205967796, -34.063842284237502 ], [ -70.724180277238304, -34.063154125553098 ], [ -70.724102331961902, -34.062773486526702 ], [ -70.724088952549906, -34.062591975768001 ], [ -70.723985604536296, -34.0626318890818 ], [ -70.723508356537096, -34.062758141686402 ], [ -70.723563781719207, -34.062973700896599 ], [ -70.723709396964907, -34.0635400246709 ], [ -70.723756252832999, -34.063722255214302 ], [ -70.723931623876197, -34.064404286777602 ], [ -70.724095853808393, -34.065042982102497 ], [ -70.724183593070507, -34.065384197004697 ], [ -70.724360524154804, -34.066072267202998 ], [ -70.724241061665396, -34.066109044382102 ], [ -70.7243558044824, -34.066525884157699 ], [ -70.724532352931703, -34.067089325050297 ] ] ] } },
{ "type": "Feature", "properties": { "id": "monoparte.4", "Name": null, "description": null, "timestamp": null, "begin": null, "end": null, "altitudeMode": null, "tessellate": -1, "extrude": 0, "visibility": -1, "drawOrder": null, "icon": null, "REG": "O'Higgins", "COM": "Graneros", "LOC": "Estación", "ZONA": "R-1", "NOM": "Protección de línea férrea", "UPERM": "Fajas de restricción de los trazados ferroviarios (ver detalle en ordenanza).", "UPROH": "Sin información.", "P_DO": "02/07/2016", "N_DOC": "481", "T_DO": "Decreto", "OBS": null }, "geometry": { "type": "Polygon", "coordinates": [ [ [ -70.725290539702698, -34.067402614509398 ], [ -70.725228157677606, -34.067507274005202 ], [ -70.725140850952897, -34.067655228257003 ], [ -70.725064089067004, -34.067757703599703 ], [ -70.724988590895904, -34.0678518111472 ], [ -70.724931046195906, -34.067912264771003 ], [ -70.724852294722794, -34.067987331020603 ], [ -70.724798758812497, -34.068033932760997 ], [ -70.724834786340793, -34.068161678060498 ], [ -70.724920318119601, -34.068090159616602 ], [ -70.725004583437297, -34.068004279931202 ], [ -70.7250509060448, -34.067955912799498 ], [ -70.725102501712499, -34.067884806667202 ], [ -70.725158179028796, -34.067802906321901 ], [ -70.725206908289707, -34.067731840393698 ], [ -70.725251193050198, -34.067653678932899 ], [ -70.725286952689501, -34.067579216125999 ], [ -70.725328396346399, -34.067502287519297 ], [ -70.725357232114106, -34.067439850885897 ], [ -70.7253661934771, -34.067457618949199 ], [ -70.725461134649393, -34.0677569003687 ], [ -70.725554719305904, -34.068072127069797 ], [ -70.725588876193598, -34.068054886033302 ], [ -70.725822150591796, -34.068009397906899 ], [ -70.725754173095197, -34.067646019243199 ], [ -70.725701659641999, -34.067389086986502 ], [ -70.725683399310896, -34.067336855638601 ], [ -70.725669703247405, -34.067297681234997 ], [ -70.7254472862287, -34.0665790918966 ], [ -70.725268237191997, -34.065878383028704 ], [ -70.724978858689298, -34.064861310953397 ], [ -70.724769430738306, -34.064075734771798 ], [ -70.7247234032357, -34.063855690745697 ], [ -70.724446461024797, -34.062850372205098 ], [ -70.724377532190701, -34.0625298197982 ], [ -70.724209268363595, -34.062563275338903 ], [ -70.724091073657405, -34.0625911569932 ], [ -70.724088952549906, -34.062591975768001 ], [ -70.724102331961902, -34.062773486526702 ], [ -70.724180277238304, -34.063154125553098 ], [ -70.724361205967796, -34.063842284237502 ], [ -70.724442764069593, -34.064188874403797 ], [ -70.7245557320703, -34.0646000374132 ], [ -70.7246508117817, -34.064906474766701 ], [ -70.724734235382101, -34.065203532638698 ], [ -70.724909832080399, -34.065875661026404 ], [ -70.724998099780706, -34.066199491502097 ], [ -70.725127252892705, -34.0667016841996 ], [ -70.725310808611894, -34.067271109443702 ], [ -70.725290539702698, -34.067402614509398 ] ] ] } },
{ "type": "Feature", "properties": { "id": "monoparte.5", "Name": null, "description": null, "timestamp": null, "begin": null, "end": null, "altitudeMode": null, "tessellate": -1, "extrude": 0, "visibility": -1, "drawOrder": null, "icon": null, "REG": "O'Higgins", "COM": "Graneros", "LOC": "Estación", "ZONA": "H-2", "NOM": "Zona H-2", "UPERM": "Vivienda, comercio, oficinas, equipamiento, talleres artesanales y bodegas inofensivas, áreas verdes y vialidad.", "UPROH": "Todo otro uso no señalado precedentemente como permitido.", "P_DO": "02/07/2016", "N_DOC": "481", "T_DO": "Decreto", "OBS": null }, "geometry": { "type": "Polygon", "coordinates": [ [ [ -70.725754173095197, -34.067646019243199 ], [ -70.725822150591796, -34.068009397906899 ], [ -70.726128007983306, -34.067949756890002 ], [ -70.726364426918394, -34.0679053714654 ], [ -70.726300000222594, -34.067645080236197 ], [ -70.726143187224693, -34.067035754562198 ], [ -70.726005972592503, -34.066502575691899 ], [ -70.725879772634997, -34.066012188515103 ], [ -70.725701841758806, -34.065320774904698 ], [ -70.725147268609206, -34.0654532184072 ], [ -70.725268237191997, -34.065878383028704 ], [ -70.7254472862287, -34.0665790918966 ], [ -70.725669703247405, -34.067297681234997 ], [ -70.725683399310896, -34.067336855638601 ], [ -70.725701659641999, -34.067389086986502 ], [ -70.725754173095197, -34.067646019243199 ] ] ] } },
{ "type": "Feature", "properties": { "id": "monoparte.6", "Name": null, "description": null, "timestamp": null, "begin": null, "end": null, "altitudeMode": null, "tessellate": -1, "extrude": 0, "visibility": -1, "drawOrder": null, "icon": null, "REG": "O'Higgins", "COM": "Graneros", "LOC": "Estación", "ZONA": "Z-3", "NOM": "Z-3 Zona de Equipamiento Urbano Exclusivo", "UPERM": "Equipamiento para movilización colectiva de pasajeros, turismo, áreas verdes y vialidad.", "UPROH": "Todo otro uso no señalado precedentemente como permitido.", "P_DO": "02/07/2016", "N_DOC": "481", "T_DO": "Decreto", "OBS": null }, "geometry": { "type": "Polygon", "coordinates": [ [ [ -70.724978858689298, -34.064861310953397 ], [ -70.725147268609206, -34.0654532184072 ], [ -70.725701841758806, -34.065320774904698 ], [ -70.725679694191896, -34.065234714764898 ], [ -70.725497470614101, -34.0645382698508 ], [ -70.725359054104999, -34.064010897706297 ], [ -70.724782605284602, -34.064125152158297 ], [ -70.724978858689298, -34.064861310953397 ] ] ] } }
]
}
