{
"type": "FeatureCollection",
"name": "IPT_06_PRC_Qta_Tilcoco",
"crs": { "type": "name", "properties": { "name": "urn:ogc:def:crs:OGC:1.3:CRS84" } },
"features": [
{ "type": "Feature", "properties": { "id": "monoparte.1", "Name": null, "description": null, "timestamp": null, "begin": null, "end": null, "altitudeMode": null, "tessellate": -1, "extrude": 0, "visibility": -1, "drawOrder": null, "icon": null, "REG": "O'higgins", "COM": "Quinta de Tilcoco", "LOC": "Quinta de Tilcoco", "ZONA": "ZU-4", "NOM": "ZU-4", "UPERM": "Vivienda; equipamiento de todo tipo vecinal.", "UPROH": "Todos los usos no mencionados precedentemente.", "P_DO": "18/12/1995", "N_DOC": "24", "T_DO": "Resolución", "OBS": null }, "geometry": { "type": "Polygon", "coordinates": [ [ [ -70.980765020160106, -34.364579445483201 ], [ -70.979822012838397, -34.364604250566501 ], [ -70.979212363390005, -34.364614113574902 ], [ -70.978568428391497, -34.364634070035002 ], [ -70.978126017421701, -34.364660308253001 ], [ -70.977149618492405, -34.364733343864003 ], [ -70.976367647294794, -34.364755519178999 ], [ -70.975817301015297, -34.364840746716297 ], [ -70.975411133450805, -34.364921053746997 ], [ -70.974223769685693, -34.365095485805 ], [ -70.973638462258094, -34.365162183532298 ], [ -70.973417379498798, -34.365198877596399 ], [ -70.973007589568098, -34.365264503191 ], [ -70.972801430194806, -34.365290190795697 ], [ -70.972424738592906, -34.365420314484602 ], [ -70.972016220747307, -34.365665459528003 ], [ -70.971863050183998, -34.365752299322899 ], [ -70.971964514349693, -34.365908113490001 ], [ -70.972095296256995, -34.366087311596203 ], [ -70.972190339673702, -34.366214601883101 ], [ -70.972314923415098, -34.366374814562803 ], [ -70.972626689431095, -34.366665603136902 ], [ -70.973210157696698, -34.3671333152732 ], [ -70.974014243026105, -34.367807397341799 ], [ -70.974372368988, -34.368111746787697 ], [ -70.974659574258197, -34.368336129839498 ], [ -70.974812813127798, -34.368491105813 ], [ -70.974995370542999, -34.368669464865398 ], [ -70.9751186549788, -34.368896492672398 ], [ -70.975226889049296, -34.369095135281498 ], [ -70.975311333512806, -34.369260764147498 ], [ -70.975372658961604, -34.369421994722899 ], [ -70.975488325380795, -34.369692084871403 ], [ -70.975575571137298, -34.369976948262597 ], [ -70.975624385280099, -34.370095440016598 ], [ -70.977348391105195, -34.369757461822999 ], [ -70.978409961289699, -34.369511282860898 ], [ -70.979206649856593, -34.369379117786004 ], [ -70.979939954854302, -34.369243202708702 ], [ -70.980125166343896, -34.370022680764301 ], [ -70.980305752203705, -34.3708499453722 ], [ -70.980355696274799, -34.371016128009799 ], [ -70.980528694558103, -34.371643125325797 ], [ -70.983807045520905, -34.371580469481898 ], [ -70.983836383098804, -34.371580100169702 ], [ -70.983828570766704, -34.371248840863899 ], [ -70.983822287882106, -34.370738425244198 ], [ -70.984860153097998, -34.370712587475701 ], [ -70.986021906818294, -34.370683655167802 ], [ -70.987912222465695, -34.370567073614701 ], [ -70.989364436644806, -34.370295367974698 ], [ -70.990497418618403, -34.370028839297497 ], [ -70.991183445947897, -34.369597812072001 ], [ -70.991249407491907, -34.370825257023903 ], [ -70.991827992692095, -34.370720157945797 ], [ -70.992139658833196, -34.3706387445582 ], [ -70.992715627370401, -34.370662763340299 ], [ -70.993120060986101, -34.3707325144672 ], [ -70.993186550632402, -34.369653145171497 ], [ -70.993253163364599, -34.368821874793703 ], [ -70.992300411872705, -34.3686799432624 ], [ -70.992040571650193, -34.3686412335909 ], [ -70.992066837316699, -34.368292510194301 ], [ -70.991445886425794, -34.368312160746697 ], [ -70.991221234654205, -34.368301503580497 ], [ -70.991123005983894, -34.368284017196601 ], [ -70.990841062417005, -34.3682838346216 ], [ -70.990363113108003, -34.368267754220398 ], [ -70.989896328356096, -34.3682371777508 ], [ -70.989472794300497, -34.368210666798703 ], [ -70.989138974533105, -34.368206552333497 ], [ -70.988926051498296, -34.368205242302203 ], [ -70.988667227512394, -34.368209449447797 ], [ -70.988455319006704, -34.368251063578597 ], [ -70.988197961152196, -34.368317270576298 ], [ -70.987720799381194, -34.368334566465798 ], [ -70.987191761003103, -34.368347930695897 ], [ -70.986927185393796, -34.368352227582001 ], [ -70.986698531395604, -34.368293915925001 ], [ -70.986478617198003, -34.368240232510999 ], [ -70.986172541432694, -34.368192717995598 ], [ -70.985917667697706, -34.368120516056798 ], [ -70.985580921287394, -34.367992388144401 ], [ -70.985307330666998, -34.367858463941197 ], [ -70.9849573954221, -34.3676589805943 ], [ -70.984764891248801, -34.367547594307297 ], [ -70.984727180380006, -34.3674879954118 ], [ -70.984654659021501, -34.3675151092704 ], [ -70.983803466321504, -34.367713797397499 ], [ -70.981748498886802, -34.368104938708697 ], [ -70.980691028683907, -34.368281323497399 ], [ -70.980465917156707, -34.368310589451397 ], [ -70.980164155747801, -34.368369201490303 ], [ -70.978335585557204, -34.368693954906099 ], [ -70.978313716812494, -34.368697283022797 ], [ -70.978030217952295, -34.368748184861701 ], [ -70.977031536242606, -34.368920784612598 ], [ -70.9769099476447, -34.368411373368701 ], [ -70.976783587145704, -34.367881965788598 ], [ -70.976536564642998, -34.366674072476997 ], [ -70.976458469530499, -34.3662888668606 ], [ -70.976426463145202, -34.366151019704098 ], [ -70.976776409864499, -34.366107196330198 ], [ -70.976993959644602, -34.366060740694302 ], [ -70.977240378445998, -34.366018589648 ], [ -70.977442354595297, -34.366043952703301 ], [ -70.977696655002006, -34.366092325321702 ], [ -70.977766121629202, -34.366110287521003 ], [ -70.977887015568299, -34.366113104798998 ], [ -70.978191397990301, -34.366089098982798 ], [ -70.978557700549004, -34.366006836902002 ], [ -70.978758218775795, -34.365970196530697 ], [ -70.979006992068193, -34.3660281978703 ], [ -70.979367052512202, -34.3658028987726 ], [ -70.979617648849498, -34.3656938781875 ], [ -70.979834746826896, -34.365628339808097 ], [ -70.9800176723665, -34.365577668505203 ], [ -70.980235667698494, -34.365550284082197 ], [ -70.980393678156901, -34.365418904707703 ], [ -70.980458654208903, -34.365246090362199 ], [ -70.980538051426194, -34.365197093062903 ], [ -70.980711269451106, -34.365222916230699 ], [ -70.980830028682902, -34.365135112367199 ], [ -70.980909537864093, -34.365090884504397 ], [ -70.980996146254896, -34.365103795867199 ], [ -70.981159769713798, -34.365210883572601 ], [ -70.981229348556496, -34.365233613473002 ], [ -70.981447230195002, -34.365201458169402 ], [ -70.981652261163006, -34.365112255499703 ], [ -70.981854572041001, -34.365151920312698 ], [ -70.982077418489396, -34.365086284892101 ], [ -70.982031765284802, -34.364858006718201 ], [ -70.982010241799202, -34.364677049789201 ], [ -70.981978859804201, -34.3645013486164 ], [ -70.980765020160106, -34.364579445483201 ] ] ] } },
{ "type": "Feature", "properties": { "id": "monoparte.2", "Name": null, "description": null, "timestamp": null, "begin": null, "end": null, "altitudeMode": null, "tessellate": -1, "extrude": 0, "visibility": -1, "drawOrder": null, "icon": null, "REG": "O'higgins", "COM": "Quinta de Tilcoco", "LOC": "Quinta de Tilcoco", "ZONA": "ZU-3", "NOM": "Zona ZU-3", "UPERM": "Vivienda; equipamiento de todo tipo comunal; almacenamiento inofensivo.", "UPROH": "Todos los usos no mencionados precedentemente.", "P_DO": "18/12/1995", "N_DOC": "24", "T_DO": "Resolución", "OBS": null }, "geometry": { "type": "Polygon", "coordinates": [ [ [ -70.971802293263494, -34.365614913233799 ], [ -70.971863050183998, -34.365752299322899 ], [ -70.972016220747307, -34.365665459528003 ], [ -70.972424738592906, -34.365420314484602 ], [ -70.972801430194806, -34.365290190795697 ], [ -70.973007589568098, -34.365264503191 ], [ -70.973259304850799, -34.364322284728999 ], [ -70.972553083525298, -34.363403287180603 ], [ -70.972210113751899, -34.363008034408097 ], [ -70.971802766819096, -34.362566105762397 ], [ -70.971395423149701, -34.362124176500799 ], [ -70.971034094400693, -34.361681503666397 ], [ -70.970218507445097, -34.3606354306554 ], [ -70.969613133754805, -34.359843613053599 ], [ -70.969488565320106, -34.359683396948597 ], [ -70.969388563568003, -34.359589581832097 ], [ -70.969501254146707, -34.3585047040361 ], [ -70.969527603413795, -34.357984349441502 ], [ -70.968191574497894, -34.358481721854197 ], [ -70.966960719786101, -34.358988176645397 ], [ -70.966606160718996, -34.3591906079848 ], [ -70.967832323691397, -34.360697683614099 ], [ -70.968787920942006, -34.3618274029158 ], [ -70.969575500315202, -34.362783283171296 ], [ -70.970212081847194, -34.363555512652098 ], [ -70.970354918095595, -34.363758374402799 ], [ -70.970586147120102, -34.364050465465198 ], [ -70.970933859217894, -34.364402705649297 ], [ -70.9711065728237, -34.3646527974241 ], [ -70.971343670573802, -34.3649495638752 ], [ -70.971569489856506, -34.3652560536446 ], [ -70.971689549589598, -34.365468822763098 ], [ -70.971802293263494, -34.365614913233799 ] ] ] } },
{ "type": "Feature", "properties": { "id": "monoparte.3", "Name": null, "description": null, "timestamp": null, "begin": null, "end": null, "altitudeMode": null, "tessellate": -1, "extrude": 0, "visibility": -1, "drawOrder": null, "icon": null, "REG": "O'higgins", "COM": "Quinta de Tilcoco", "LOC": "Quinta de Tilcoco", "ZONA": "ZU-3", "NOM": "Zona ZU-3", "UPERM": "Vivienda; equipamiento de todo tipo comunal; almacenamiento inofensivo.", "UPROH": "Todos los usos no mencionados precedentemente.", "P_DO": "18/12/1995", "N_DOC": "24", "T_DO": "Resolución", "OBS": null }, "geometry": { "type": "Polygon", "coordinates": [ [ [ -70.956265388752001, -34.343764581268097 ], [ -70.955239584367703, -34.343899060968901 ], [ -70.954933391965, -34.343903952048002 ], [ -70.955652357037906, -34.344771207772801 ], [ -70.956162572537906, -34.345377350993402 ], [ -70.956637133629997, -34.345995988914801 ], [ -70.957039693002301, -34.3465955693297 ], [ -70.957451064319002, -34.346673914177003 ], [ -70.958483337021605, -34.3468705025548 ], [ -70.958463194404601, -34.346814033679799 ], [ -70.958425364714202, -34.346671502404703 ], [ -70.958378826047905, -34.346525531827197 ], [ -70.958227701810401, -34.346334715016901 ], [ -70.957982935392707, -34.346012994501002 ], [ -70.957774417546901, -34.345765840585102 ], [ -70.957568550582806, -34.345447074642301 ], [ -70.957314581550307, -34.345100451147601 ], [ -70.957180130792807, -34.344884317565601 ], [ -70.956971536144906, -34.344633584729998 ], [ -70.956718485386602, -34.344326307557999 ], [ -70.956585700876403, -34.344181714976202 ], [ -70.956323446639601, -34.343849535337398 ], [ -70.956265388752001, -34.343764581268097 ] ] ] } },
{ "type": "Feature", "properties": { "id": "monoparte.4", "Name": null, "description": null, "timestamp": null, "begin": null, "end": null, "altitudeMode": null, "tessellate": -1, "extrude": 0, "visibility": -1, "drawOrder": null, "icon": null, "REG": "O'higgins", "COM": "Quinta de Tilcoco", "LOC": "Quinta de Tilcoco", "ZONA": "ZU-3", "NOM": "Zona ZU-3", "UPERM": "Vivienda; equipamiento de todo tipo comunal; almacenamiento inofensivo.", "UPROH": "Todos los usos no mencionados precedentemente.", "P_DO": "18/12/1995", "N_DOC": "24", "T_DO": "Resolución", "OBS": null }, "geometry": { "type": "Polygon", "coordinates": [ [ [ -70.945057943859794, -34.348699535684801 ], [ -70.944671220812495, -34.348767707564498 ], [ -70.944468852954103, -34.348723210333297 ], [ -70.944216163163603, -34.348741538533403 ], [ -70.944257715022403, -34.3490462386128 ], [ -70.944283071982895, -34.349895116563502 ], [ -70.944817430891106, -34.349867541800698 ], [ -70.946236818559996, -34.349802036729301 ], [ -70.946673748398197, -34.349790316018399 ], [ -70.946670227393099, -34.349513640325299 ], [ -70.946660065244899, -34.349322951517003 ], [ -70.946666272334497, -34.349093833682403 ], [ -70.946524636327993, -34.349013862308396 ], [ -70.946307753259106, -34.348963634599201 ], [ -70.946097093215897, -34.348871560240703 ], [ -70.946030471678398, -34.348789122285098 ], [ -70.945999790610003, -34.348706113721597 ], [ -70.945972236306702, -34.3485468741018 ], [ -70.945906887514397, -34.348457259432898 ], [ -70.945869739412899, -34.3483433404894 ], [ -70.945849291483995, -34.348205300147697 ], [ -70.945809608334002, -34.347981682523098 ], [ -70.945752491060304, -34.3472525901023 ], [ -70.945691608328303, -34.346609440538302 ], [ -70.945709760351505, -34.346399217057503 ], [ -70.945731677969803, -34.346103051485002 ], [ -70.945724183371098, -34.345778726081697 ], [ -70.945669235124498, -34.3456412332119 ], [ -70.945626339277595, -34.345527405492497 ], [ -70.945583552657197, -34.345418346651599 ], [ -70.945513337906405, -34.345366979513898 ], [ -70.9454530805301, -34.345248656162603 ], [ -70.945363852348294, -34.3451212510899 ], [ -70.945309235725304, -34.344998066462502 ], [ -70.945242677475207, -34.3448559872595 ], [ -70.945151356685599, -34.344637961485098 ], [ -70.945071315968704, -34.344410213289798 ], [ -70.945002666546102, -34.344177513367299 ], [ -70.944946068202995, -34.343968477771803 ], [ -70.944870567506598, -34.343688173949801 ], [ -70.944812537910394, -34.343417135525797 ], [ -70.944791343759903, -34.342997602199603 ], [ -70.944733811704097, -34.342125377999402 ], [ -70.944443998751794, -34.3420297864388 ], [ -70.943937914778303, -34.341784948992597 ], [ -70.943717543724006, -34.3417073371117 ], [ -70.943385061771707, -34.341507453001299 ], [ -70.943158282411005, -34.341401315295002 ], [ -70.943053682911099, -34.341355263146198 ], [ -70.942490106106405, -34.341111332213501 ], [ -70.942177885736797, -34.340927904695299 ], [ -70.942120092112802, -34.340979792119299 ], [ -70.941923121487406, -34.341043750897597 ], [ -70.941553463294795, -34.341289369892401 ], [ -70.940806568858903, -34.3417640270875 ], [ -70.941283124993106, -34.341975947004997 ], [ -70.941498898936601, -34.342103733806503 ], [ -70.942124230534702, -34.342406329982502 ], [ -70.943430686215606, -34.343060725030902 ], [ -70.9435950522643, -34.343141611580101 ], [ -70.9437293961753, -34.343230131991298 ], [ -70.943807284067603, -34.3433648757836 ], [ -70.943887883368305, -34.343492419147999 ], [ -70.943925631912606, -34.343632570984099 ], [ -70.944094385681595, -34.344090316114603 ], [ -70.944357626124798, -34.344903210720702 ], [ -70.944532857380494, -34.345329838982202 ], [ -70.944691787362402, -34.3456732285727 ], [ -70.944798392523097, -34.345930375157998 ], [ -70.944833467934203, -34.346328216701203 ], [ -70.944863101744502, -34.346988562892903 ], [ -70.944905679754697, -34.347586677860399 ], [ -70.944926810911696, -34.348127877871697 ], [ -70.944965775637101, -34.348320494067799 ], [ -70.945057943859794, -34.348699535684801 ] ] ] } },
{ "type": "Feature", "properties": { "id": "monoparte.5", "Name": null, "description": null, "timestamp": null, "begin": null, "end": null, "altitudeMode": null, "tessellate": -1, "extrude": 0, "visibility": -1, "drawOrder": null, "icon": null, "REG": "O'higgins", "COM": "Quinta de Tilcoco", "LOC": "Quinta de Tilcoco", "ZONA": "ZE-3", "NOM": "Zona ZE-3", "UPERM": "Vivienda; equipamiento de áreas verdes y deportes comunal; servicio artesanale vecinal.", "UPROH": "Todos los usos no mencionados precedentemente.", "P_DO": "18/12/1995", "N_DOC": "24", "T_DO": "Resolución", "OBS": null }, "geometry": { "type": "Polygon", "coordinates": [ [ [ -70.951500905179401, -34.342634625373101 ], [ -70.951360051054905, -34.3424150534969 ], [ -70.951392782647304, -34.342338191651201 ], [ -70.951502918764703, -34.342126500893897 ], [ -70.951568491965503, -34.341977546897603 ], [ -70.951667680365105, -34.341789887311997 ], [ -70.951767532657101, -34.341630844450101 ], [ -70.9518684889198, -34.341519495616197 ], [ -70.952015886108001, -34.341426491285503 ], [ -70.952153664115897, -34.341414751730603 ], [ -70.952218902981699, -34.341499593351699 ], [ -70.952552631160302, -34.342015923079501 ], [ -70.952698491451699, -34.3419403605185 ], [ -70.953268606745795, -34.341723833693699 ], [ -70.953432920533302, -34.341616244025403 ], [ -70.953562403552297, -34.341494896389001 ], [ -70.953748528023795, -34.341366680989601 ], [ -70.953850047375099, -34.341248761177901 ], [ -70.953888333910399, -34.341194473891903 ], [ -70.953949492652995, -34.3410414136195 ], [ -70.953971190199596, -34.3408919659433 ], [ -70.953974504893395, -34.340724920293802 ], [ -70.953919005547306, -34.340502153870197 ], [ -70.953860882501303, -34.340321178380201 ], [ -70.953774286487999, -34.340152585276897 ], [ -70.953620242164703, -34.340020853344797 ], [ -70.953175111184606, -34.3397387007738 ], [ -70.952942008270895, -34.339608228584297 ], [ -70.952750578381497, -34.339492001685201 ], [ -70.952565368816494, -34.339411459937097 ], [ -70.952369102229, -34.3393191663382 ], [ -70.952133927375002, -34.339254330577901 ], [ -70.951953348469601, -34.3392184439953 ], [ -70.951758050060306, -34.339167881264302 ], [ -70.951376575449004, -34.339150107659698 ], [ -70.951261441281801, -34.339145978716303 ], [ -70.950907610460106, -34.339080050316397 ], [ -70.950585568440601, -34.339067290459099 ], [ -70.950157790362098, -34.339068143278503 ], [ -70.949784538004394, -34.339094963680701 ], [ -70.949568852187497, -34.339095417495997 ], [ -70.949291523059202, -34.339072995865202 ], [ -70.949040732532296, -34.339032259562302 ], [ -70.948835413870597, -34.3390146537376 ], [ -70.948662369165405, -34.338993552901798 ], [ -70.948303835468096, -34.3390350450629 ], [ -70.947954588420103, -34.3391050149067 ], [ -70.947663168726805, -34.339188378231597 ], [ -70.947259793513496, -34.339280678415399 ], [ -70.946652737980003, -34.339426315223697 ], [ -70.946379143843203, -34.339534440805203 ], [ -70.946388443207994, -34.339376842063203 ], [ -70.946334146354303, -34.3390806951911 ], [ -70.946291697871004, -34.338923918387799 ], [ -70.946198838651497, -34.338639120556401 ], [ -70.946173970520803, -34.338496377881697 ], [ -70.945953216815496, -34.338464103785498 ], [ -70.945469544807594, -34.338815322431401 ], [ -70.945082409782799, -34.339050494522901 ], [ -70.944740056776496, -34.339263483788798 ], [ -70.9445187053567, -34.339392246217599 ], [ -70.944217647145393, -34.339618891744401 ], [ -70.943872803535996, -34.339817603583597 ], [ -70.943502743805297, -34.340045343213802 ], [ -70.943139480649293, -34.3402872875781 ], [ -70.942978167116493, -34.340400780426201 ], [ -70.942735742676902, -34.340551344359199 ], [ -70.942221528281493, -34.340888721560503 ], [ -70.942177885736797, -34.340927904695299 ], [ -70.942490106106405, -34.341111332213501 ], [ -70.943053682911099, -34.341355263146198 ], [ -70.943158282411005, -34.341401315295002 ], [ -70.943385061771707, -34.341507453001299 ], [ -70.943717543724006, -34.3417073371117 ], [ -70.943937914778303, -34.341784948992597 ], [ -70.944443998751794, -34.3420297864388 ], [ -70.944733811704097, -34.342125377999402 ], [ -70.944791343759903, -34.342997602199603 ], [ -70.944812537910394, -34.343417135525797 ], [ -70.944870567506598, -34.343688173949801 ], [ -70.944946068202995, -34.343968477771803 ], [ -70.945002666546102, -34.344177513367299 ], [ -70.945071315968704, -34.344410213289798 ], [ -70.945151356685599, -34.344637961485098 ], [ -70.945242677475207, -34.3448559872595 ], [ -70.945309235725304, -34.344998066462502 ], [ -70.945363852348294, -34.3451212510899 ], [ -70.9454530805301, -34.345248656162603 ], [ -70.945513337906405, -34.345366979513898 ], [ -70.945583552657197, -34.345418346651599 ], [ -70.945626339277595, -34.345527405492497 ], [ -70.945669235124498, -34.3456412332119 ], [ -70.945724183371098, -34.345778726081697 ], [ -70.945731677969803, -34.346103051485002 ], [ -70.945709760351505, -34.346399217057503 ], [ -70.945691608328303, -34.346609440538302 ], [ -70.945752491060304, -34.3472525901023 ], [ -70.945809608334002, -34.347981682523098 ], [ -70.945849291483995, -34.348205300147697 ], [ -70.945869739412899, -34.3483433404894 ], [ -70.945906887514397, -34.348457259432898 ], [ -70.945972236306702, -34.3485468741018 ], [ -70.946082707455105, -34.348597601679501 ], [ -70.946409049470901, -34.348530385677499 ], [ -70.946620712685302, -34.348479306601398 ], [ -70.946855376557906, -34.348427861281301 ], [ -70.947066819701305, -34.348367242779901 ], [ -70.947221749811206, -34.348350464164497 ], [ -70.947381658385197, -34.3483002072185 ], [ -70.947566787907803, -34.348096869625103 ], [ -70.947632372305407, -34.347947917478002 ], [ -70.947738650772095, -34.347817402897697 ], [ -70.947887679814102, -34.347694795139702 ], [ -70.948126988873796, -34.347595561786697 ], [ -70.948308903889099, -34.347502012286299 ], [ -70.948432541031096, -34.347375991415902 ], [ -70.948693203824902, -34.346956744265398 ], [ -70.949044112016395, -34.346211614254898 ], [ -70.949228579699195, -34.345731552181697 ], [ -70.949258885310499, -34.345549762136599 ], [ -70.949287203366495, -34.345282121573703 ], [ -70.949289980758195, -34.344905149753899 ], [ -70.949213370057507, -34.344329049628399 ], [ -70.949155105219901, -34.3440484742354 ], [ -70.949140623467898, -34.343919880686698 ], [ -70.9491969103927, -34.343866501034299 ], [ -70.949293336742102, -34.3438077105505 ], [ -70.949464736345604, -34.343757268014897 ], [ -70.949647965730406, -34.343720950498202 ], [ -70.949932264025506, -34.343702107780999 ], [ -70.9501614955078, -34.343665057502498 ], [ -70.950378782907407, -34.343609111003602 ], [ -70.950630129582606, -34.343533536989597 ], [ -70.950777422218906, -34.343435764224203 ], [ -70.950970051585301, -34.343308642139 ], [ -70.951194196754699, -34.343052193206802 ], [ -70.951276468641495, -34.342879117301003 ], [ -70.951489554223599, -34.342641928488199 ], [ -70.951500905179401, -34.342634625373101 ] ] ] } },
{ "type": "Feature", "properties": { "id": "monoparte.6", "Name": null, "description": null, "timestamp": null, "begin": null, "end": null, "altitudeMode": null, "tessellate": -1, "extrude": 0, "visibility": -1, "drawOrder": null, "icon": null, "REG": "O'higgins", "COM": "Quinta de Tilcoco", "LOC": "Quinta de Tilcoco", "ZONA": "ZE-2", "NOM": "Zona ZE-2", "UPERM": "Vivienda; equipamiento de áreas verdes comunal.", "UPROH": "Todos los usos no mencionados precedentemente.", "P_DO": "18/12/1995", "N_DOC": "24", "T_DO": "Resolución", "OBS": null }, "geometry": { "type": "Polygon", "coordinates": [ [ [ -70.949044112016395, -34.346211614254898 ], [ -70.948693203824902, -34.346956744265398 ], [ -70.948432541031096, -34.347375991415902 ], [ -70.948308903889099, -34.347502012286299 ], [ -70.948126988873796, -34.347595561786697 ], [ -70.947887679814102, -34.347694795139702 ], [ -70.947738650772095, -34.347817402897697 ], [ -70.947632372305407, -34.347947917478002 ], [ -70.947566787907803, -34.348096869625103 ], [ -70.947381658385197, -34.3483002072185 ], [ -70.947221749811206, -34.348350464164497 ], [ -70.947066819701305, -34.348367242779901 ], [ -70.946855376557906, -34.348427861281301 ], [ -70.946620712685302, -34.348479306601398 ], [ -70.946409049470901, -34.348530385677499 ], [ -70.946082707455105, -34.348597601679501 ], [ -70.945972236306702, -34.3485468741018 ], [ -70.945999790610003, -34.348706113721597 ], [ -70.946030471678398, -34.348789122285098 ], [ -70.946097093215897, -34.348871560240703 ], [ -70.946307753259106, -34.348963634599201 ], [ -70.946524636327993, -34.349013862308396 ], [ -70.946666272334497, -34.349093833682403 ], [ -70.947091255519894, -34.349063217247902 ], [ -70.948603527738996, -34.348786272476303 ], [ -70.9495234915221, -34.348642797355097 ], [ -70.950672585515704, -34.348457494905702 ], [ -70.951279697664106, -34.348342849485299 ], [ -70.951463267662106, -34.348320837353498 ], [ -70.951681893790393, -34.348322122648099 ], [ -70.951899856442296, -34.348294789872398 ], [ -70.952106649216006, -34.3482819494563 ], [ -70.952352367772605, -34.348211233022496 ], [ -70.952762635024996, -34.348042465591902 ], [ -70.953138066505701, -34.347859938174203 ], [ -70.953318852726895, -34.347796162757298 ], [ -70.953288443567502, -34.347740815286599 ], [ -70.953279341966095, -34.347742993766097 ], [ -70.952932306550096, -34.347098870372598 ], [ -70.953145951911196, -34.3470095789882 ], [ -70.953557317217303, -34.346888503130998 ], [ -70.954261449384106, -34.346741282271999 ], [ -70.955689446867694, -34.3465538643744 ], [ -70.957039693002301, -34.3465955693297 ], [ -70.956637133629997, -34.345995988914801 ], [ -70.956162572537906, -34.345377350993402 ], [ -70.955652357037906, -34.344771207772801 ], [ -70.954933391965, -34.343903952048002 ], [ -70.954150141113999, -34.342871558568604 ], [ -70.954018772107204, -34.3426947344295 ], [ -70.953760430445897, -34.342344594153097 ], [ -70.953519423819998, -34.341997755243803 ], [ -70.9533868963331, -34.341863889909 ], [ -70.953268606745795, -34.341723833693699 ], [ -70.952698491451699, -34.3419403605185 ], [ -70.952552631160302, -34.342015923079501 ], [ -70.952090321571305, -34.3422554207635 ], [ -70.951500905179401, -34.342634625373101 ], [ -70.951489554223599, -34.342641928488199 ], [ -70.951276468641495, -34.342879117301003 ], [ -70.951194196754699, -34.343052193206802 ], [ -70.950970051585301, -34.343308642139 ], [ -70.950777422218906, -34.343435764224203 ], [ -70.950630129582606, -34.343533536989597 ], [ -70.950378782907407, -34.343609111003602 ], [ -70.9501614955078, -34.343665057502498 ], [ -70.949932264025506, -34.343702107780999 ], [ -70.949647965730406, -34.343720950498202 ], [ -70.949464736345604, -34.343757268014897 ], [ -70.949293336742102, -34.3438077105505 ], [ -70.9491969103927, -34.343866501034299 ], [ -70.949140623467898, -34.343919880686698 ], [ -70.949155105219901, -34.3440484742354 ], [ -70.949213370057507, -34.344329049628399 ], [ -70.949289980758195, -34.344905149753899 ], [ -70.949287203366495, -34.345282121573703 ], [ -70.949258885310499, -34.345549762136599 ], [ -70.949228579699195, -34.345731552181697 ], [ -70.949044112016395, -34.346211614254898 ] ] ] } },
{ "type": "Feature", "properties": { "id": "monoparte.7", "Name": null, "description": null, "timestamp": null, "begin": null, "end": null, "altitudeMode": null, "tessellate": -1, "extrude": 0, "visibility": -1, "drawOrder": null, "icon": null, "REG": "O'higgins", "COM": "Quinta de Tilcoco", "LOC": "Quinta de Tilcoco", "ZONA": "ZE-1", "NOM": "Zona ZE-1", "UPERM": "Vivienda; equipamiento de todo tipo comunal.", "UPROH": "Todos los usos no mencionados precedentemente.", "P_DO": "18/12/1995", "N_DOC": "24", "T_DO": "Resolución", "OBS": null }, "geometry": { "type": "Polygon", "coordinates": [ [ [ -70.962296981207601, -34.358389039376704 ], [ -70.962339153079, -34.358460558778098 ], [ -70.962486944117501, -34.358344324334702 ], [ -70.963088656730207, -34.357995916506198 ], [ -70.964280007577699, -34.3572754302661 ], [ -70.964660869829601, -34.357078467507499 ], [ -70.963710206441704, -34.356032129979297 ], [ -70.962348138353406, -34.3543649681693 ], [ -70.961201149250201, -34.355013156298703 ], [ -70.9607937558213, -34.3553059582743 ], [ -70.960497883262207, -34.355473975143497 ], [ -70.961364137242995, -34.356872433686902 ], [ -70.961974582594607, -34.357886074690001 ], [ -70.962296981207601, -34.358389039376704 ] ] ] } },
{ "type": "Feature", "properties": { "id": "monoparte.8", "Name": null, "description": null, "timestamp": null, "begin": null, "end": null, "altitudeMode": null, "tessellate": -1, "extrude": 0, "visibility": -1, "drawOrder": null, "icon": null, "REG": "O'higgins", "COM": "Quinta de Tilcoco", "LOC": "Quinta de Tilcoco", "ZONA": "ZE-1", "NOM": "Zona ZE-1", "UPERM": "Vivienda; equipamiento de todo tipo comunal.", "UPROH": "Todos los usos no mencionados precedentemente.", "P_DO": "18/12/1995", "N_DOC": "24", "T_DO": "Resolución", "OBS": null }, "geometry": { "type": "Polygon", "coordinates": [ [ [ -70.961365450166596, -34.3487965213492 ], [ -70.960784138695203, -34.348845198540602 ], [ -70.960607313775796, -34.348848031419102 ], [ -70.9604357181355, -34.3488901425929 ], [ -70.960422320917502, -34.349238140606801 ], [ -70.9607552310991, -34.349700387197501 ], [ -70.961338068159804, -34.350575570827203 ], [ -70.961663531449204, -34.351064275624502 ], [ -70.96218457805, -34.350803487612602 ], [ -70.962451187502097, -34.351172553898202 ], [ -70.962743365305698, -34.351577007546403 ], [ -70.963129613111406, -34.352215460581903 ], [ -70.963257937083895, -34.352427573676501 ], [ -70.963304923724607, -34.352567570479003 ], [ -70.963403313994306, -34.352716285583597 ], [ -70.963706443738303, -34.353133674486202 ], [ -70.963929271963707, -34.353437843134998 ], [ -70.964521214148405, -34.3533997148092 ], [ -70.9650644891056, -34.353383835101702 ], [ -70.966244586916403, -34.353293311844503 ], [ -70.967588909589495, -34.353214450541998 ], [ -70.968417175182594, -34.353208287136503 ], [ -70.968919287827006, -34.353190947975897 ], [ -70.969193181248599, -34.3531814890802 ], [ -70.969297389168801, -34.351734134225197 ], [ -70.968311531274907, -34.351642641848997 ], [ -70.968281472474601, -34.351464204580999 ], [ -70.968286965469602, -34.349853830442697 ], [ -70.968399601367295, -34.349873489743601 ], [ -70.969422451529496, -34.3500717382326 ], [ -70.969429661269601, -34.349642212663397 ], [ -70.969455795813204, -34.349283951537203 ], [ -70.969489384768394, -34.348875471395203 ], [ -70.969531263763997, -34.3484525450924 ], [ -70.969514198017606, -34.348193305379297 ], [ -70.968738822499304, -34.348245143119897 ], [ -70.968062221758501, -34.348277496248798 ], [ -70.9673579216158, -34.348324603647399 ], [ -70.966587023025298, -34.3483835130844 ], [ -70.965988217031807, -34.3484217610348 ], [ -70.964767466135896, -34.348523668282503 ], [ -70.964061505882597, -34.348592255223402 ], [ -70.962965236393202, -34.3486670981275 ], [ -70.962284898994795, -34.348724527968201 ], [ -70.961365450166596, -34.3487965213492 ] ] ] } },
{ "type": "Feature", "properties": { "id": "monoparte.9", "Name": null, "description": null, "timestamp": null, "begin": null, "end": null, "altitudeMode": null, "tessellate": -1, "extrude": 0, "visibility": -1, "drawOrder": null, "icon": null, "REG": "O'higgins", "COM": "Quinta de Tilcoco", "LOC": "Quinta de Tilcoco", "ZONA": "ZU-5", "NOM": "Zona ZU-5", "UPERM": "Industria y almacenamiento inofensivo y molesto y servicios artesanales comunal.", "UPROH": "Todos los usos no mencionados precedentemente.", "P_DO": "18/12/1995", "N_DOC": "24", "T_DO": "Resolución", "OBS": null }, "geometry": { "type": "Polygon", "coordinates": [ [ [ -70.962898989154695, -34.359409967696898 ], [ -70.963535186461399, -34.360416029496598 ], [ -70.965619687659498, -34.359569070747497 ], [ -70.966606160718996, -34.3591906079848 ], [ -70.966124096724599, -34.358639009125497 ], [ -70.965286061761503, -34.357736397925201 ], [ -70.964825682250193, -34.3572380426669 ], [ -70.964660869829601, -34.357078467507499 ], [ -70.964280007577699, -34.3572754302661 ], [ -70.963088656730207, -34.357995916506198 ], [ -70.962486944117501, -34.358344324334702 ], [ -70.962339153079, -34.358460558778098 ], [ -70.962898989154695, -34.359409967696898 ] ] ] } },
{ "type": "Feature", "properties": { "id": "monoparte.10", "Name": null, "description": null, "timestamp": null, "begin": null, "end": null, "altitudeMode": null, "tessellate": -1, "extrude": 0, "visibility": -1, "drawOrder": null, "icon": null, "REG": "O'higgins", "COM": "Quinta de Tilcoco", "LOC": "Quinta de Tilcoco", "ZONA": "ZU-2", "NOM": "Zona ZU-2", "UPERM": "Vivienda; equipamiento de todo tipo regional; almacenamiento inofensivo.", "UPROH": "Todos los usos no mencionados precedentemente.", "P_DO": "18/12/1995", "N_DOC": "24", "T_DO": "Resolución", "OBS": null }, "geometry": { "type": "Polygon", "coordinates": [ [ [ -70.959522578571693, -34.353177586252897 ], [ -70.959208729142802, -34.353315895423698 ], [ -70.959200543145499, -34.353319503229002 ], [ -70.959961950699494, -34.3545927852822 ], [ -70.960315021587306, -34.355178761613402 ], [ -70.960497883262207, -34.355473975143497 ], [ -70.9607937558213, -34.3553059582743 ], [ -70.961201149250201, -34.355013156298703 ], [ -70.962348138353406, -34.3543649681693 ], [ -70.962780421159295, -34.354116134673298 ], [ -70.962112352334202, -34.353194763825698 ], [ -70.961975210810706, -34.353266887072898 ], [ -70.961679772565702, -34.352858250760598 ], [ -70.961409569801802, -34.352484514077901 ], [ -70.961328007285701, -34.352353644388401 ], [ -70.961326880615999, -34.352354047448401 ], [ -70.961318133029806, -34.352358040379698 ], [ -70.961082852439802, -34.352465431768302 ], [ -70.960923251205102, -34.3525609066415 ], [ -70.960693515464797, -34.352700567651397 ], [ -70.960463945578695, -34.352847382856297 ], [ -70.960327428948204, -34.352913980692797 ], [ -70.960138988317993, -34.352974253694498 ], [ -70.959950381928905, -34.353027372693298 ], [ -70.959882706275806, -34.353085711121402 ], [ -70.959573666928193, -34.353155071876699 ], [ -70.959522578571693, -34.353177586252897 ] ] ] } },
{ "type": "Feature", "properties": { "id": "monoparte.11", "Name": null, "description": null, "timestamp": null, "begin": null, "end": null, "altitudeMode": null, "tessellate": -1, "extrude": 0, "visibility": -1, "drawOrder": null, "icon": null, "REG": "O'higgins", "COM": "Quinta de Tilcoco", "LOC": "Quinta de Tilcoco", "ZONA": "ZU-2", "NOM": "Zona ZU-2", "UPERM": "Vivienda; equipamiento de todo tipo regional; almacenamiento inofensivo.", "UPROH": "Todos los usos no mencionados precedentemente.", "P_DO": "18/12/1995", "N_DOC": "24", "T_DO": "Resolución", "OBS": null }, "geometry": { "type": "Polygon", "coordinates": [ [ [ -70.969429661269601, -34.349642212663397 ], [ -70.969422451529496, -34.3500717382326 ], [ -70.968399601367295, -34.349873489743601 ], [ -70.968286965469602, -34.349853830442697 ], [ -70.968281472474601, -34.351464204580999 ], [ -70.968311531274907, -34.351642641848997 ], [ -70.969297389168801, -34.351734134225197 ], [ -70.969193181248599, -34.3531814890802 ], [ -70.968919287827006, -34.353190947975897 ], [ -70.9690354746878, -34.355207021326798 ], [ -70.967108215776904, -34.355452721655901 ], [ -70.966384613470495, -34.355507292050802 ], [ -70.965221089050203, -34.355692975797801 ], [ -70.964727183376795, -34.355729533828601 ], [ -70.964175990850805, -34.355776551499403 ], [ -70.964004355487802, -34.355817476530099 ], [ -70.963710206441704, -34.356032129979297 ], [ -70.964660869829601, -34.357078467507499 ], [ -70.964825682250193, -34.3572380426669 ], [ -70.965286061761503, -34.357736397925201 ], [ -70.966124096724599, -34.358639009125497 ], [ -70.966606160718996, -34.3591906079848 ], [ -70.966960719786101, -34.358988176645397 ], [ -70.968191574497894, -34.358481721854197 ], [ -70.969527603413795, -34.357984349441502 ], [ -70.969587817509804, -34.356795216682897 ], [ -70.969585473688895, -34.356695059159797 ], [ -70.970461455201999, -34.356513964264302 ], [ -70.970967616759495, -34.356386532507699 ], [ -70.971499544416204, -34.356253912972399 ], [ -70.971882954096401, -34.356166624341697 ], [ -70.972341346776403, -34.356087668998498 ], [ -70.973483195731603, -34.355959521613698 ], [ -70.974632469191107, -34.355902812684597 ], [ -70.974902423110805, -34.355884142733402 ], [ -70.975320331993302, -34.355796287543001 ], [ -70.975838989812402, -34.355711574868998 ], [ -70.976079405210498, -34.3556599805896 ], [ -70.976543877585001, -34.355595225014703 ], [ -70.976766702638599, -34.355529599925603 ], [ -70.977071383466495, -34.355519906331303 ], [ -70.978083524625603, -34.355503549811402 ], [ -70.979920343361997, -34.355449989191897 ], [ -70.980254178477395, -34.355441605731698 ], [ -70.980108656626101, -34.354758099880101 ], [ -70.980042173422405, -34.354377479593403 ], [ -70.979969204360899, -34.3540267842098 ], [ -70.979192580585902, -34.354027418432203 ], [ -70.978725055896305, -34.354023051073099 ], [ -70.978214961984406, -34.354043225746999 ], [ -70.977733200608299, -34.354045049102801 ], [ -70.977028318682699, -34.354038546646699 ], [ -70.976805619416794, -34.354048108633897 ], [ -70.976847024229698, -34.353361578528002 ], [ -70.977074721400498, -34.351115433089902 ], [ -70.975965369701996, -34.351031961844498 ], [ -70.973907005814098, -34.350802761891998 ], [ -70.973229366265798, -34.350730193953197 ], [ -70.972516764944103, -34.350699933703901 ], [ -70.971208841248895, -34.3506422823408 ], [ -70.970561073012803, -34.350616930750199 ], [ -70.970616053816002, -34.350200949660099 ], [ -70.970622209820704, -34.349910998656398 ], [ -70.970627990057395, -34.349420663033698 ], [ -70.970652779779201, -34.349005168010898 ], [ -70.970695783433101, -34.348814819863499 ], [ -70.970740670642201, -34.348520667397999 ], [ -70.970786562375196, -34.348269439594901 ], [ -70.970786855157797, -34.348097671431901 ], [ -70.970218828957897, -34.348160492993699 ], [ -70.969514198017606, -34.348193305379297 ], [ -70.969531263763997, -34.3484525450924 ], [ -70.969489384768394, -34.348875471395203 ], [ -70.969455795813204, -34.349283951537203 ], [ -70.969429661269601, -34.349642212663397 ] ] ] } },
{ "type": "Feature", "properties": { "id": "monoparte.12", "Name": null, "description": null, "timestamp": null, "begin": null, "end": null, "altitudeMode": null, "tessellate": -1, "extrude": 0, "visibility": -1, "drawOrder": null, "icon": null, "REG": "O'higgins", "COM": "Quinta de Tilcoco", "LOC": "Quinta de Tilcoco", "ZONA": "ZU-2", "NOM": "Zona ZU-2", "UPERM": "Vivienda; equipamiento de todo tipo regional; almacenamiento inofensivo.", "UPROH": "Todos los usos no mencionados precedentemente.", "P_DO": "18/12/1995", "N_DOC": "24", "T_DO": "Resolución", "OBS": null }, "geometry": { "type": "Polygon", "coordinates": [ [ [ -70.951360051054905, -34.3424150534969 ], [ -70.951500905179401, -34.342634625373101 ], [ -70.952090321571305, -34.3422554207635 ], [ -70.952552631160302, -34.342015923079501 ], [ -70.952218902981699, -34.341499593351699 ], [ -70.952153664115897, -34.341414751730603 ], [ -70.952015886108001, -34.341426491285503 ], [ -70.9518684889198, -34.341519495616197 ], [ -70.951767532657101, -34.341630844450101 ], [ -70.951667680365105, -34.341789887311997 ], [ -70.951568491965503, -34.341977546897603 ], [ -70.951502918764703, -34.342126500893897 ], [ -70.951392782647304, -34.342338191651201 ], [ -70.951360051054905, -34.3424150534969 ] ] ] } },
{ "type": "Feature", "properties": { "id": "monoparte.13", "Name": null, "description": null, "timestamp": null, "begin": null, "end": null, "altitudeMode": null, "tessellate": -1, "extrude": 0, "visibility": -1, "drawOrder": null, "icon": null, "REG": "O'higgins", "COM": "Quinta de Tilcoco", "LOC": "Quinta de Tilcoco", "ZONA": "ZU-1", "NOM": "Zona ZU-1", "UPERM": "Vivienda; equipamiento de todo tipo regional.", "UPROH": "Todos los usos no mencionados precedentemente.", "P_DO": "18/12/1995", "N_DOC": "24", "T_DO": "Resolución", "OBS": null }, "geometry": { "type": "Polygon", "coordinates": [ [ [ -70.962112352334202, -34.353194763825698 ], [ -70.962780421159295, -34.354116134673298 ], [ -70.962348138353406, -34.3543649681693 ], [ -70.963710206441704, -34.356032129979297 ], [ -70.964004355487802, -34.355817476530099 ], [ -70.964175990850805, -34.355776551499403 ], [ -70.964727183376795, -34.355729533828601 ], [ -70.965221089050203, -34.355692975797801 ], [ -70.966384613470495, -34.355507292050802 ], [ -70.967108215776904, -34.355452721655901 ], [ -70.9690354746878, -34.355207021326798 ], [ -70.968919287827006, -34.353190947975897 ], [ -70.968417175182594, -34.353208287136503 ], [ -70.967588909589495, -34.353214450541998 ], [ -70.966244586916403, -34.353293311844503 ], [ -70.9650644891056, -34.353383835101702 ], [ -70.964521214148405, -34.3533997148092 ], [ -70.963929271963707, -34.353437843134998 ], [ -70.963706443738303, -34.353133674486202 ], [ -70.963403313994306, -34.352716285583597 ], [ -70.963304923724607, -34.352567570479003 ], [ -70.962112352334202, -34.353194763825698 ] ] ] } },
{ "type": "Feature", "properties": { "id": "monoparte.14", "Name": null, "description": null, "timestamp": null, "begin": null, "end": null, "altitudeMode": null, "tessellate": -1, "extrude": 0, "visibility": -1, "drawOrder": null, "icon": null, "REG": "O'higgins", "COM": "Quinta de Tilcoco", "LOC": "Quinta de Tilcoco", "ZONA": "ZE-4", "NOM": "Zona ZE-4", "UPERM": "Vivienda; equipamiento de salud, educación, comercio, deportes, áreas verdes y servicios artesanales vecinal.", "UPROH": "Todos los usos no mencionados precedentemente.", "P_DO": "18/12/1995", "N_DOC": "24", "T_DO": "Resolución", "OBS": null }, "geometry": { "type": "Polygon", "coordinates": [ [ [ -70.958101700281205, -34.349475215086002 ], [ -70.9580949135065, -34.349480730853898 ], [ -70.958104479155693, -34.349477749337197 ], [ -70.958101700281205, -34.349475215086002 ] ] ] } },
{ "type": "Feature", "properties": { "id": "monoparte.15", "Name": null, "description": null, "timestamp": null, "begin": null, "end": null, "altitudeMode": null, "tessellate": -1, "extrude": 0, "visibility": -1, "drawOrder": null, "icon": null, "REG": "O'higgins", "COM": "Quinta de Tilcoco", "LOC": "Quinta de Tilcoco", "ZONA": "ZU-3", "NOM": "Zona ZU-3", "UPERM": "Vivienda; equipamiento de todo tipo comunal; almacenamiento inofensivo.", "UPROH": "Todos los usos no mencionados precedentemente.", "P_DO": "18/12/1995", "N_DOC": "24", "T_DO": "Resolución", "OBS": null }, "geometry": { "type": "Polygon", "coordinates": [ [ [ -70.952932306550096, -34.347098870372598 ], [ -70.953279341966095, -34.347742993766097 ], [ -70.953288443567502, -34.347740815286599 ], [ -70.954560777135896, -34.347436261087303 ], [ -70.954693058073104, -34.348178461185903 ], [ -70.956415954600303, -34.3480555066336 ], [ -70.957938556399, -34.349214422360603 ], [ -70.958663073165795, -34.348706621765999 ], [ -70.958669842506197, -34.348709753048503 ], [ -70.958674573588596, -34.348706437710902 ], [ -70.958953700789706, -34.348835564599 ], [ -70.959069091585405, -34.348940775566398 ], [ -70.959282827540093, -34.349135654244598 ], [ -70.959374423138499, -34.349330199685497 ], [ -70.959452276056695, -34.349495554237897 ], [ -70.959837480113094, -34.350028009605701 ], [ -70.959963786278905, -34.350218678810201 ], [ -70.960177817326397, -34.350514521123301 ], [ -70.960555681659102, -34.3511121751282 ], [ -70.960807707478295, -34.351492615870903 ], [ -70.961663531449204, -34.351064275624502 ], [ -70.961338068159804, -34.350575570827203 ], [ -70.9607552310991, -34.349700387197501 ], [ -70.960422320917502, -34.349238140606801 ], [ -70.9604357181355, -34.3488901425929 ], [ -70.960039616706197, -34.348531904028597 ], [ -70.959587933367203, -34.347909334418297 ], [ -70.9588867951894, -34.347443436448799 ], [ -70.958483337021605, -34.3468705025548 ], [ -70.957451064319002, -34.346673914177003 ], [ -70.957039693002301, -34.3465955693297 ], [ -70.955689446867694, -34.3465538643744 ], [ -70.954261449384106, -34.346741282271999 ], [ -70.953557317217303, -34.346888503130998 ], [ -70.953145951911196, -34.3470095789882 ], [ -70.952932306550096, -34.347098870372598 ] ] ] } },
{ "type": "Feature", "properties": { "id": "monoparte.16", "Name": null, "description": null, "timestamp": null, "begin": null, "end": null, "altitudeMode": null, "tessellate": -1, "extrude": 0, "visibility": -1, "drawOrder": null, "icon": null, "REG": "O'higgins", "COM": "Quinta de Tilcoco", "LOC": "Quinta de Tilcoco", "ZONA": "AV", "NOM": "Area Verde", "UPERM": "Área Verde, Espacio Público", "UPROH": "Todos los usos no mencionados precedentemente.", "P_DO": "18/12/1995", "N_DOC": "24", "T_DO": "Resolución", "OBS": null }, "geometry": { "type": "Polygon", "coordinates": [ [ [ -70.959105677337504, -34.353209459359199 ], [ -70.959208729142802, -34.353315895423698 ], [ -70.959522578571693, -34.353177586252897 ], [ -70.959573666928193, -34.353155071876699 ], [ -70.959882706275806, -34.353085711121402 ], [ -70.959950381928905, -34.353027372693298 ], [ -70.960138988317993, -34.352974253694498 ], [ -70.960327428948204, -34.352913980692797 ], [ -70.960463945578695, -34.352847382856297 ], [ -70.960693515464797, -34.352700567651397 ], [ -70.960923251205102, -34.3525609066415 ], [ -70.961082852439802, -34.352465431768302 ], [ -70.961318133029806, -34.352358040379698 ], [ -70.961326880615999, -34.352354047448401 ], [ -70.961328007285701, -34.352353644388401 ], [ -70.961287052206501, -34.352287930541699 ], [ -70.961008387626805, -34.351825338647799 ], [ -70.960810479277001, -34.3514968001844 ], [ -70.960807805487207, -34.351492763072301 ], [ -70.960807707478295, -34.351492615870903 ], [ -70.960555681659102, -34.3511121751282 ], [ -70.960177817326397, -34.350514521123301 ], [ -70.959963786278905, -34.350218678810201 ], [ -70.959837480113094, -34.350028009605701 ], [ -70.959452276056695, -34.349495554237897 ], [ -70.959374423138499, -34.349330199685497 ], [ -70.959282827540093, -34.349135654244598 ], [ -70.959069091585405, -34.348940775566398 ], [ -70.958953700789706, -34.348835564599 ], [ -70.958674573588596, -34.348706437710902 ], [ -70.958669842506197, -34.348709753048503 ], [ -70.9579500579827, -34.349214238353802 ], [ -70.958113200812704, -34.349475031079997 ], [ -70.958104479155693, -34.349477749337197 ], [ -70.9580949135065, -34.349480730853898 ], [ -70.9577900578998, -34.3495757530088 ], [ -70.957484411632393, -34.349790576384301 ], [ -70.957293774238707, -34.350003559706899 ], [ -70.959105677337504, -34.353209459359199 ] ] ] } },
{ "type": "Feature", "properties": { "id": "monoparte.17", "Name": null, "description": null, "timestamp": null, "begin": null, "end": null, "altitudeMode": null, "tessellate": -1, "extrude": 0, "visibility": -1, "drawOrder": null, "icon": null, "REG": "O'higgins", "COM": "Quinta de Tilcoco", "LOC": "Quinta de Tilcoco", "ZONA": "ZE-4", "NOM": "Zona ZE-4", "UPERM": "Vivienda; equipamiento de salud, educación, comercio, deportes, áreas verdes y servicios artesanales vecinal.", "UPROH": "Todos los usos no mencionados precedentemente.", "P_DO": "18/12/1995", "N_DOC": "24", "T_DO": "Resolución", "OBS": null }, "geometry": { "type": "Polygon", "coordinates": [ [ [ -70.961679772565702, -34.352858250760598 ], [ -70.961975210810706, -34.353266887072898 ], [ -70.962112352334202, -34.353194763825698 ], [ -70.963304923724607, -34.352567570479003 ], [ -70.963257937083895, -34.352427573676501 ], [ -70.963129613111406, -34.352215460581903 ], [ -70.962743365305698, -34.351577007546403 ], [ -70.962451187502097, -34.351172553898202 ], [ -70.96218457805, -34.350803487612602 ], [ -70.961663531449204, -34.351064275624502 ], [ -70.960807707478295, -34.351492615870903 ], [ -70.960807805487207, -34.351492763072301 ], [ -70.960810479277001, -34.3514968001844 ], [ -70.961008387626805, -34.351825338647799 ], [ -70.961287052206501, -34.352287930541699 ], [ -70.961409569801802, -34.352484514077901 ], [ -70.961679772565702, -34.352858250760598 ] ] ] } },
{ "type": "Feature", "properties": { "id": "monoparte.18", "Name": null, "description": null, "timestamp": null, "begin": null, "end": null, "altitudeMode": null, "tessellate": -1, "extrude": 0, "visibility": -1, "drawOrder": null, "icon": null, "REG": "O'higgins", "COM": "Quinta de Tilcoco", "LOC": "Quinta de Tilcoco", "ZONA": "ZE-4", "NOM": "Zona ZE-4", "UPERM": "Vivienda; equipamiento de salud, educación, comercio, deportes, áreas verdes y servicios artesanales vecinal.", "UPROH": "Todos los usos no mencionados precedentemente.", "P_DO": "18/12/1995", "N_DOC": "24", "T_DO": "Resolución", "OBS": null }, "geometry": { "type": "Polygon", "coordinates": [ [ [ -70.981835073716994, -34.363484045004498 ], [ -70.979905318321499, -34.363629795174703 ], [ -70.977558316333599, -34.363648664731201 ], [ -70.975996185966807, -34.3637693262162 ], [ -70.974323050593497, -34.364063521010003 ], [ -70.973259304850799, -34.364322284728999 ], [ -70.973007589568098, -34.365264503191 ], [ -70.973417379498798, -34.365198877596399 ], [ -70.973638462258094, -34.365162183532298 ], [ -70.974223769685693, -34.365095485805 ], [ -70.975411133450805, -34.364921053746997 ], [ -70.975817301015297, -34.364840746716297 ], [ -70.976367647294794, -34.364755519178999 ], [ -70.977149618492405, -34.364733343864003 ], [ -70.978126017421701, -34.364660308253001 ], [ -70.978568428391497, -34.364634070035002 ], [ -70.979212363390005, -34.364614113574902 ], [ -70.979822012838397, -34.364604250566501 ], [ -70.980765020160106, -34.364579445483201 ], [ -70.981978859804201, -34.3645013486164 ], [ -70.981835073716994, -34.363484045004498 ] ] ] } },
{ "type": "Feature", "properties": { "id": "monoparte.19", "Name": null, "description": null, "timestamp": null, "begin": null, "end": null, "altitudeMode": null, "tessellate": -1, "extrude": 0, "visibility": -1, "drawOrder": null, "icon": null, "REG": "O'higgins", "COM": "Quinta de Tilcoco", "LOC": "Quinta de Tilcoco", "ZONA": "ZE-4", "NOM": "Zona ZE-4", "UPERM": "Vivienda; equipamiento de salud, educación, comercio, deportes, áreas verdes y servicios artesanales vecinal.", "UPROH": "Todos los usos no mencionados precedentemente.", "P_DO": "18/12/1995", "N_DOC": "24", "T_DO": "Resolución", "OBS": null }, "geometry": { "type": "Polygon", "coordinates": [ [ [ -70.984623047152297, -34.366549673252599 ], [ -70.976783587145704, -34.367881965788598 ], [ -70.9769099476447, -34.368411373368701 ], [ -70.977031536242606, -34.368920784612598 ], [ -70.978030217952295, -34.368748184861701 ], [ -70.978313716812494, -34.368697283022797 ], [ -70.978335585557204, -34.368693954906099 ], [ -70.980164155747801, -34.368369201490303 ], [ -70.980465917156707, -34.368310589451397 ], [ -70.980691028683907, -34.368281323497399 ], [ -70.981748498886802, -34.368104938708697 ], [ -70.983803466321504, -34.367713797397499 ], [ -70.984654659021501, -34.3675151092704 ], [ -70.984727180380006, -34.3674879954118 ], [ -70.984764891248801, -34.367547594307297 ], [ -70.984623047152297, -34.366549673252599 ] ] ] } },
{ "type": "Feature", "properties": { "id": "monoparte.20", "Name": null, "description": null, "timestamp": null, "begin": null, "end": null, "altitudeMode": null, "tessellate": -1, "extrude": 0, "visibility": -1, "drawOrder": null, "icon": null, "REG": "O'higgins", "COM": "Quinta de Tilcoco", "LOC": "Quinta de Tilcoco", "ZONA": "ZE-4", "NOM": "Zona ZE-4", "UPERM": "Vivienda; equipamiento de salud, educación, comercio, deportes, áreas verdes y servicios artesanales vecinal.", "UPROH": "Todos los usos no mencionados precedentemente.", "P_DO": "18/12/1995", "N_DOC": "24", "T_DO": "Resolución", "OBS": null }, "geometry": { "type": "Polygon", "coordinates": [ [ [ -70.983828570766704, -34.371248840863899 ], [ -70.983836383098804, -34.371580100169702 ], [ -70.991249407491907, -34.370825257023903 ], [ -70.991183445947897, -34.369597812072001 ], [ -70.990497418618403, -34.370028839297497 ], [ -70.989364436644806, -34.370295367974698 ], [ -70.987912222465695, -34.370567073614701 ], [ -70.986021906818294, -34.370683655167802 ], [ -70.984860153097998, -34.370712587475701 ], [ -70.983822287882106, -34.370738425244198 ], [ -70.983828570766704, -34.371248840863899 ] ] ] } },
{ "type": "Feature", "properties": { "id": "monoparte.21", "Name": null, "description": null, "timestamp": null, "begin": null, "end": null, "altitudeMode": null, "tessellate": -1, "extrude": 0, "visibility": -1, "drawOrder": null, "icon": null, "REG": "O'higgins", "COM": "Quinta de Tilcoco", "LOC": "Guacarhue", "ZONA": "ZU-2", "NOM": "Zona ZU-2", "UPERM": "Vivienda; equipamiento de todo tipo regional; almacenamiento inofensivo.", "UPROH": "Todos los usos no mencionados precedentemente.", "P_DO": "18/12/1995", "N_DOC": "24", "T_DO": "Resolución", "OBS": null }, "geometry": { "type": "Polygon", "coordinates": [ [ [ -71.019760050820906, -34.353648046463498 ], [ -71.019732763845695, -34.353649689691899 ], [ -71.019695385306903, -34.353650306606603 ], [ -71.019669794628598, -34.3536626575913 ], [ -71.019652829155405, -34.353674865318901 ], [ -71.019631321658906, -34.353677606003103 ], [ -71.019606824282306, -34.353675624575601 ], [ -71.019583822931807, -34.353676004179597 ], [ -71.019557945053606, -34.353676431251301 ], [ -71.019547996511207, -34.3536813659844 ], [ -71.0195178912942, -34.353685441401097 ], [ -71.019479189444894, -34.353690851540399 ], [ -71.019441897790202, -34.3536950455332 ], [ -71.019404833876195, -34.353708777759003 ], [ -71.019373176494796, -34.353708107301998 ], [ -71.019351498429501, -34.353703693573699 ], [ -71.019315500368194, -34.3537019018666 ], [ -71.019294107271193, -34.353709412056297 ], [ -71.019277341944104, -34.353729965569897 ], [ -71.019263023025601, -34.353732587571102 ], [ -71.019242753010701, -34.353726958628201 ], [ -71.019216617675298, -34.353716654108602 ], [ -71.019189274562095, -34.353715913318098 ], [ -71.019160549804297, -34.353717579241497 ], [ -71.019140565806694, -34.353723873291401 ], [ -71.019073688044799, -34.353723783882501 ], [ -71.019026159603001, -34.3537209894697 ], [ -71.018974576490706, -34.353728997702497 ], [ -71.018895507227995, -34.353730302200098 ], [ -71.018853958441497, -34.353736951072399 ], [ -71.018710480900694, -34.353751246641103 ], [ -71.018664591409106, -34.353756774191901 ], [ -71.018555416802201, -34.353762153672498 ], [ -71.018469015928503, -34.353757615415297 ], [ -71.018404092927796, -34.353749143355103 ], [ -71.018320281601902, -34.353732633647802 ], [ -71.018262490083401, -34.353721659065997 ], [ -71.018206193480097, -34.3537130455287 ], [ -71.018150126663301, -34.353713970180898 ], [ -71.018079824452599, -34.353721092981701 ], [ -71.018037643057397, -34.353731331501798 ], [ -71.017993134090304, -34.353734451210101 ], [ -71.017934219305502, -34.353736615591203 ], [ -71.017849284754902, -34.353733244676903 ], [ -71.017774441764402, -34.353730900171001 ], [ -71.017676597383698, -34.353728934865202 ], [ -71.017587435416104, -34.353729212060202 ], [ -71.0175114690839, -34.353740007412398 ], [ -71.017429866129405, -34.3537556661949 ], [ -71.017366896396396, -34.3537686320227 ], [ -71.017329603482295, -34.353772825394302 ], [ -71.017295500335806, -34.353790086769699 ], [ -71.017244116990796, -34.353806440126199 ], [ -71.017239518225594, -34.3538063888032 ], [ -71.017262903910293, -34.353919437145301 ], [ -71.017277286082205, -34.354039433132101 ], [ -71.0172892294907, -34.354153744834498 ], [ -71.017341407152003, -34.354410526965403 ], [ -71.017378059613407, -34.354499621014597 ], [ -71.017415352288694, -34.354615422652202 ], [ -71.017425969955099, -34.354674409305701 ], [ -71.017375548346706, -34.354682874692898 ], [ -71.017212870793898, -34.354712275483998 ], [ -71.017079913705203, -34.354733551128 ], [ -71.016988269473799, -34.354750329977101 ], [ -71.0168622129802, -34.354771491647199 ], [ -71.016667743380793, -34.354818591847199 ], [ -71.016539734532699, -34.354854289970604 ], [ -71.016295115750594, -34.354921299988902 ], [ -71.016069173434204, -34.354999452601 ], [ -71.015966392234404, -34.355031681566899 ], [ -71.015833115537305, -34.355039602502899 ], [ -71.015743176265602, -34.355031542038603 ], [ -71.015632124662801, -34.355006652201503 ], [ -71.015562660361596, -34.3549887123405 ], [ -71.015600670324901, -34.354654104237198 ], [ -71.0156314899384, -34.3544035874773 ], [ -71.015641545272999, -34.354246927663802 ], [ -71.015649307517407, -34.354186683253502 ], [ -71.015644357287798, -34.354076073687999 ], [ -71.015644967610797, -34.354005451137503 ], [ -71.015625332743596, -34.353954245168303 ], [ -71.015591941209294, -34.353905175444403 ], [ -71.015576562431704, -34.353882974409998 ], [ -71.015563393581701, -34.353889002351899 ], [ -71.015507697706497, -34.3539054260157 ], [ -71.015453295695195, -34.3539158640247 ], [ -71.0153916479494, -34.353924036515103 ], [ -71.015324079068606, -34.353925149303599 ], [ -71.015231670240695, -34.353909971923798 ], [ -71.015158179171195, -34.3539040249617 ], [ -71.015113355966903, -34.353894028195597 ], [ -71.015054412379996, -34.353894998802097 ], [ -71.014970943953699, -34.3538927946108 ], [ -71.014899694609099, -34.353890390075001 ], [ -71.014872579726102, -34.353899185671601 ], [ -71.014858230985993, -34.353900614786603 ], [ -71.014829193194302, -34.353889165145802 ], [ -71.014787444168903, -34.353887466792003 ], [ -71.014746545769398, -34.353885107044697 ], [ -71.014788594887307, -34.354140558662401 ], [ -71.014918271789995, -34.354847418501301 ], [ -71.015003206630595, -34.355319319178399 ], [ -71.015079253867299, -34.355708348007099 ], [ -71.015212350130099, -34.355692797597598 ], [ -71.015329344074999, -34.355677511334299 ], [ -71.015434608597204, -34.355652876135103 ], [ -71.015519810209497, -34.355655289461097 ], [ -71.015640292506305, -34.355689566051403 ], [ -71.0157142662149, -34.355703614952503 ], [ -71.015835632874698, -34.355678714169898 ], [ -71.015947432492993, -34.355638703485504 ], [ -71.016157959872004, -34.355589431968703 ], [ -71.016659936172701, -34.355506730455701 ], [ -71.017491176800505, -34.355384245650697 ], [ -71.017983346924296, -34.355324601947899 ], [ -71.018279531907396, -34.355296815753697 ], [ -71.018495298609096, -34.355274172886197 ], [ -71.018704072874897, -34.355247826567897 ], [ -71.018906083538596, -34.355227317766001 ], [ -71.018982037582603, -34.355227973393802 ], [ -71.019097005069497, -34.355224167744097 ], [ -71.019179447970004, -34.355207540041498 ], [ -71.019280109390493, -34.355182977514303 ], [ -71.019364349342098, -34.355145326371002 ], [ -71.019481068048805, -34.355118590843198 ], [ -71.019608966005705, -34.355078310280497 ], [ -71.019707556486907, -34.355063323584702 ], [ -71.0197720552855, -34.3550660765506 ], [ -71.0198435463533, -34.355072529786902 ], [ -71.0199428224455, -34.355086159387199 ], [ -71.020043015338004, -34.355137942670503 ], [ -71.020090577700103, -34.355202044559697 ], [ -71.020208286260697, -34.355360412904503 ], [ -71.020286209375399, -34.355443098380697 ], [ -71.020363262600398, -34.355489538032302 ], [ -71.020470585966905, -34.355550745219702 ], [ -71.020854535992498, -34.355632194605597 ], [ -71.021510647702399, -34.355787393576499 ], [ -71.021783820379099, -34.355855402587899 ], [ -71.022098856557093, -34.355941803199599 ], [ -71.022776622120801, -34.356040338530399 ], [ -71.023632545627507, -34.356131152535802 ], [ -71.0245975925653, -34.356262140576398 ], [ -71.025666754328995, -34.3563684968993 ], [ -71.026948417806096, -34.356498042147102 ], [ -71.027092603151402, -34.3565046592405 ], [ -71.027024604807195, -34.356368614805497 ], [ -71.026919445674295, -34.3561824924452 ], [ -71.026825786377501, -34.356026000121098 ], [ -71.0267212741214, -34.355866703961603 ], [ -71.026602385893597, -34.355707646689098 ], [ -71.026504990380502, -34.355545251659699 ], [ -71.026400765350502, -34.355397879044197 ], [ -71.026303730487001, -34.355250387269599 ], [ -71.026243999593106, -34.355158935464303 ], [ -71.026161842776901, -34.355032070921197 ], [ -71.026105850577096, -34.3549465205394 ], [ -71.026042813330093, -34.3548670510758 ], [ -71.025987107290504, -34.354793424506099 ], [ -71.025934924463499, -34.354716756975797 ], [ -71.025908816686893, -34.354683884666201 ], [ -71.025886666317803, -34.354688869539402 ], [ -71.025791637948402, -34.354684478413503 ], [ -71.025679357909794, -34.354680373692403 ], [ -71.025571132817802, -34.354665465997201 ], [ -71.025513340948294, -34.354654493979801 ], [ -71.025470182498296, -34.354654016378603 ], [ -71.025444133341296, -34.3546472903693 ], [ -71.025416702755507, -34.354642972941399 ], [ -71.025405029855506, -34.354636009877701 ], [ -71.025366213278502, -34.3546366523355 ], [ -71.025334527974806, -34.354634791031202 ], [ -71.025301318867207, -34.354629376354403 ], [ -71.025273945696199, -34.354627444568202 ], [ -71.025247925251406, -34.354621910902701 ], [ -71.025239184102105, -34.354617284123201 ], [ -71.025214743756493, -34.354617688606503 ], [ -71.025173052807304, -34.354618378573001 ], [ -71.025125495111396, -34.354614395070399 ], [ -71.025072244934506, -34.354612890572803 ], [ -71.025014711338002, -34.354612649795698 ], [ -71.024938487231097, -34.354612718273401 ], [ -71.024850791040507, -34.354614169391098 ], [ -71.0247615136945, -34.354609682300698 ], [ -71.024698170736698, -34.354607152674902 ], [ -71.024647738661997, -34.3546032156422 ], [ -71.0246149598008, -34.354615685679697 ], [ -71.024586264699195, -34.354618546154299 ], [ -71.024557511147506, -34.354619021866398 ], [ -71.0245273209499, -34.3546195213397 ], [ -71.024514497168695, -34.354624504942898 ], [ -71.024481488841403, -34.354627435849402 ], [ -71.024452677948304, -34.354625527664098 ], [ -71.024416161866199, -34.354632095168 ], [ -71.024378955068102, -34.354639867850601 ], [ -71.024338844098097, -34.354646494801401 ], [ -71.024294277646803, -34.354647232036598 ], [ -71.024245396908995, -34.354648040621697 ], [ -71.024199335370398, -34.354646416830597 ], [ -71.024174722970997, -34.354639667684403 ], [ -71.024154366423105, -34.354630462413802 ], [ -71.024127023004397, -34.354629721838002 ], [ -71.024102410593301, -34.354622971775598 ], [ -71.024053186890697, -34.354609472518803 ], [ -71.0240328590357, -34.3546014596145 ], [ -71.024008190380698, -34.354592324739798 ], [ -71.023993555029406, -34.354581831952402 ], [ -71.023977425692095, -34.3545689781497 ], [ -71.023961267687596, -34.354554931957303 ], [ -71.023953764747404, -34.354541935475098 ], [ -71.023936255036304, -34.354531490220602 ], [ -71.023921476346999, -34.354515035486401 ], [ -71.023916820206296, -34.354500799056403 ], [ -71.023912134309299, -34.354485370256697 ], [ -71.023904802302098, -34.354479527212398 ], [ -71.023894509930997, -34.354470155445497 ], [ -71.023885453508996, -34.354452413204697 ], [ -71.023877950590204, -34.3544394167169 ], [ -71.023877635233305, -34.354426301355602 ], [ -71.023868722173106, -34.354414521050799 ], [ -71.023856848733104, -34.354399211120601 ], [ -71.023855152970597, -34.354388503410803 ], [ -71.023837012604503, -34.3543518274166 ], [ -71.023824937403404, -34.354328170787703 ], [ -71.023824306709102, -34.354301940063699 ], [ -71.023824106041701, -34.354293594251899 ], [ -71.023813469666706, -34.354269913825703 ], [ -71.023804385724105, -34.354250980072699 ], [ -71.023796652395106, -34.354228444495597 ], [ -71.023784520994596, -34.354202403969303 ], [ -71.023778311408407, -34.354183421776298 ], [ -71.023769341051306, -34.3541692566872 ], [ -71.023760543796996, -34.354162245905101 ], [ -71.0237445292301, -34.354154160716099 ], [ -71.023715489161901, -34.354142713249303 ], [ -71.023684351480298, -34.354133686187502 ], [ -71.023648066557797, -34.354119972789299 ], [ -71.023617588789506, -34.3541085490737 ], [ -71.023575726054403, -34.354102084160502 ], [ -71.023525321891, -34.354099339057903 ], [ -71.0234951605254, -34.354101030657901 ], [ -71.023449156615399, -34.354101791348803 ], [ -71.023414854057094, -34.354110708575497 ], [ -71.023363213873097, -34.354116332975103 ], [ -71.023333108734803, -34.354120409329397 ], [ -71.023307174541998, -34.354118452404499 ], [ -71.023272929262106, -34.3541297534669 ], [ -71.023219880011794, -34.354136594867001 ], [ -71.023175484675804, -34.354144486031799 ], [ -71.023128043007901, -34.354145270372598 ], [ -71.023059036546996, -34.354146411205797 ], [ -71.022992904445999, -34.354147504482803 ], [ -71.022938274144295, -34.354148407588298 ], [ -71.0228922701926, -34.354149168070798 ], [ -71.022853367811805, -34.354146232559103 ], [ -71.022817283572905, -34.354140864727 ], [ -71.0227839315354, -34.354129488313099 ], [ -71.022743505499093, -34.3541230002673 ], [ -71.0227088016929, -34.354115223861001 ], [ -71.022674069260802, -34.354106255957397 ], [ -71.022642240916497, -34.354098432003902 ], [ -71.022600910355493, -34.354084205708098 ], [ -71.022541279315902, -34.354056564401297 ], [ -71.02248742786, -34.3540300204061 ], [ -71.022449619486096, -34.354012753239402 ], [ -71.022433404538106, -34.353996322053803 ], [ -71.022418741918102, -34.353984636659703 ], [ -71.022399766133603, -34.353973022545503 ], [ -71.022378086781501, -34.353968609379898 ], [ -71.022331567262995, -34.353947907552403 ], [ -71.022296577126696, -34.353928208939898 ], [ -71.022226138553606, -34.3538697334616 ], [ -71.022185111128394, -34.353838205960201 ], [ -71.022136751927206, -34.353800836187702 ], [ -71.0221073122392, -34.353772694863302 ], [ -71.022067579424501, -34.353735182518101 ], [ -71.022026725073601, -34.353710809274602 ], [ -71.021985812373003, -34.353684051256302 ], [ -71.021966722143205, -34.353667667513598 ], [ -71.021926296358004, -34.353661178285797 ], [ -71.021906026205201, -34.353655549789899 ], [ -71.021870114073394, -34.353657336003202 ], [ -71.021827128978401, -34.353664009612103 ], [ -71.021794092276394, -34.353665748295803 ], [ -71.021772842611099, -34.353679219955602 ], [ -71.021762778582499, -34.353679386226602 ], [ -71.021748316565805, -34.353676046569603 ], [ -71.021729627314002, -34.353676355336297 ], [ -71.021713842137999, -34.3536778089846 ], [ -71.021702541951697, -34.353686345709903 ], [ -71.021695611088902, -34.353697195073003 ], [ -71.021681378182507, -34.353703394522299 ], [ -71.021649865072703, -34.3537086856823 ], [ -71.021616799709093, -34.353709231929599 ], [ -71.021593797291203, -34.353709611929403 ], [ -71.021585256889495, -34.353713331602997 ], [ -71.021565273094694, -34.353719626042498 ], [ -71.021555009686907, -34.353711445553202 ], [ -71.021516136170504, -34.3537097019965 ], [ -71.021490116240301, -34.353704168413302 ], [ -71.021459839319405, -34.353701089968197 ], [ -71.021413635146004, -34.353693504061603 ], [ -71.021396269066003, -34.3536890194707 ], [ -71.021367429871702, -34.353685917253799 ], [ -71.021347246712907, -34.353683864913499 ], [ -71.021308315964603, -34.353679737412399 ], [ -71.021283875831699, -34.3536801411013 ], [ -71.021209061533298, -34.353678991088202 ], [ -71.021166508384894, -34.353673729607799 ], [ -71.021114753766696, -34.353674584396799 ], [ -71.021071768610895, -34.353681258644002 ], [ -71.0210558391815, -34.353676750277202 ], [ -71.021015987100597, -34.353694107622097 ], [ -71.021011960215105, -34.353706101851003 ], [ -71.020967707978201, -34.353719953261901 ], [ -71.020939156154398, -34.353728774823999 ], [ -71.020920695885096, -34.353738621684897 ], [ -71.020906634656299, -34.353751974483899 ], [ -71.020888145771906, -34.3537606298516 ], [ -71.020874084534199, -34.353773982647198 ], [ -71.020858528316396, -34.353784974403901 ], [ -71.020823996558804, -34.353784351790701 ], [ -71.020787826717594, -34.353775407081002 ], [ -71.020677621872494, -34.353737864215297 ], [ -71.020652838242498, -34.353723959999897 ], [ -71.020600740115299, -34.353710506793398 ], [ -71.020535732235203, -34.353698459583804 ], [ -71.020457613187503, -34.353679472538502 ], [ -71.020418510722905, -34.353668189510103 ], [ -71.020360719026499, -34.353657215927598 ], [ -71.020297148934802, -34.353645144852003 ], [ -71.020202326139298, -34.353619276230297 ], [ -71.020130272846004, -34.353613308523997 ], [ -71.020053791963505, -34.353602643312797 ], [ -71.019983462556397, -34.353608575691602 ], [ -71.019920378937996, -34.353616773254103 ], [ -71.019861664624102, -34.3536272852932 ], [ -71.019794325042795, -34.353637938764599 ], [ -71.019760050820906, -34.353648046463498 ] ] ] } },
{ "type": "Feature", "properties": { "id": "monoparte.22", "Name": null, "description": null, "timestamp": null, "begin": null, "end": null, "altitudeMode": null, "tessellate": -1, "extrude": 0, "visibility": -1, "drawOrder": null, "icon": null, "REG": "O'higgins", "COM": "Quinta de Tilcoco", "LOC": "Guacarhue", "ZONA": "ZR", "NOM": "ZR Zona de Protección de Estero de Regadio", "UPERM": "Sujeto a lo dispuesto en D.F.L. N° 1122 de 1981, del Ministerio de Justicia, publicado en el D.O. del 29 de Octubre de 1981 (Código de Aguas).", "UPROH": "Todos los usos no mencionados precedentemente.", "P_DO": "18/12/1995", "N_DOC": "24", "T_DO": "Resolución", "OBS": null }, "geometry": { "type": "Polygon", "coordinates": [ [ [ -71.019386253169102, -34.3536124687826 ], [ -71.0191290415531, -34.353633889120403 ], [ -71.018943782983499, -34.353633128173399 ], [ -71.018783271406605, -34.353656769893099 ], [ -71.018567325953498, -34.353671782900001 ], [ -71.018410729116297, -34.353666731742202 ], [ -71.018327783275396, -34.353662374427898 ], [ -71.018209969474796, -34.353643324723599 ], [ -71.018096801499794, -34.353626106149299 ], [ -71.017961226771604, -34.3536340672592 ], [ -71.017777437985998, -34.353646639836803 ], [ -71.017703831649101, -34.353647853485803 ], [ -71.017591075308005, -34.353647804708501 ], [ -71.0174896824537, -34.3536418421996 ], [ -71.017404574334904, -34.353643245289902 ], [ -71.017330112466396, -34.353654803755703 ], [ -71.017322041105203, -34.353656056643104 ], [ -71.017286865597299, -34.353670666852601 ], [ -71.017274193891794, -34.353675930308803 ], [ -71.017273530445806, -34.353673514043003 ], [ -71.017237208598999, -34.3536681899445 ], [ -71.017202905445401, -34.353677104545497 ], [ -71.017183064170197, -34.353689360243401 ], [ -71.017154425081799, -34.353694602874597 ], [ -71.017104279489701, -34.353702586625602 ], [ -71.016998723050406, -34.353738916827403 ], [ -71.016942940806302, -34.353751764872598 ], [ -71.016893252251194, -34.353778825020797 ], [ -71.016827206984601, -34.353783492117401 ], [ -71.016739796886597, -34.353796860421902 ], [ -71.016646493018698, -34.353804361472001 ], [ -71.016563110396206, -34.353805735544299 ], [ -71.016463998485605, -34.353810947338999 ], [ -71.016402009277897, -34.353804812498502 ], [ -71.016304192262893, -34.353804038507903 ], [ -71.016211322143306, -34.353799604343003 ], [ -71.016175181276694, -34.353791850645599 ], [ -71.016144734174105, -34.353781616501401 ], [ -71.016092865111403, -34.353777700497602 ], [ -71.016058303676701, -34.353775884162097 ], [ -71.016029551347998, -34.353776357843202 ], [ -71.015803100204593, -34.353749075622602 ], [ -71.015751145505604, -34.353741582291804 ], [ -71.015691887974796, -34.3537294377725 ], [ -71.015657299095906, -34.353726428911102 ], [ -71.015589787490001, -34.353729926628098 ], [ -71.015481993202698, -34.353732894903203 ], [ -71.015455454002407, -34.353735716825398 ], [ -71.015453206020894, -34.353737542694297 ], [ -71.015431470550197, -34.353755196747002 ], [ -71.015413038138107, -34.353766235193604 ], [ -71.015379077322294, -34.3537894580179 ], [ -71.015344688248504, -34.353794794924703 ], [ -71.015318810266095, -34.353795221101599 ], [ -71.015287096841703, -34.353792165682499 ], [ -71.015261105753694, -34.353787822253501 ], [ -71.0152236414079, -34.353784860623001 ], [ -71.015194688166403, -34.353776988269097 ], [ -71.015168754180294, -34.353775029608101 ], [ -71.015143999938402, -34.3537623166389 ], [ -71.015102109332901, -34.353754656402103 ], [ -71.015077554924503, -34.353750290177601 ], [ -71.015006882363295, -34.353741910981803 ], [ -71.014946358457195, -34.3537369441365 ], [ -71.014888910871804, -34.353740275757097 ], [ -71.014864384997296, -34.3537371009823 ], [ -71.0148369551314, -34.3537327811515 ], [ -71.014805527135806, -34.353741648647997 ], [ -71.014773728098604, -34.353735015010201 ], [ -71.014763436800493, -34.353725642434597 ], [ -71.014747051028493, -34.353702055825998 ], [ -71.014715626767696, -34.353697271568997 ], [ -71.014746545769398, -34.353885107044697 ], [ -71.014787444168903, -34.353887466792003 ], [ -71.014829193194302, -34.353889165145802 ], [ -71.014858230985993, -34.353900614786603 ], [ -71.014872579726102, -34.353899185671601 ], [ -71.014899694609099, -34.353890390075001 ], [ -71.014970943953699, -34.3538927946108 ], [ -71.015054412379996, -34.353894998802097 ], [ -71.015113355966903, -34.353894028195597 ], [ -71.015158179171195, -34.3539040249617 ], [ -71.015231670240695, -34.353909971923798 ], [ -71.015324079068606, -34.353925149303599 ], [ -71.0153916479494, -34.353924036515103 ], [ -71.015453295695195, -34.3539158640247 ], [ -71.015507697706497, -34.3539054260157 ], [ -71.015563393581701, -34.353889002351899 ], [ -71.015576562431704, -34.353882974409998 ], [ -71.015617452921106, -34.3538642555705 ], [ -71.015660525470594, -34.353861161286098 ], [ -71.015703511244595, -34.353854488922202 ], [ -71.0158114770053, -34.353858674808102 ], [ -71.015871886822794, -34.353858872547697 ], [ -71.015911160143403, -34.353877309605998 ], [ -71.016101152251693, -34.353913542334602 ], [ -71.016275677596298, -34.3539345223735 ], [ -71.016425221129197, -34.3539332511981 ], [ -71.016560330241902, -34.353929831974803 ], [ -71.016643798690794, -34.353932035078898 ], [ -71.016662716580996, -34.3539412653287 ], [ -71.016779137403105, -34.353938153838001 ], [ -71.016838079870894, -34.353937182418001 ], [ -71.016885379858095, -34.353930439438301 ], [ -71.016906573268002, -34.353914583812703 ], [ -71.016930955304701, -34.353911796227699 ], [ -71.016949730380503, -34.353915065369897 ], [ -71.016962611689195, -34.353912467332599 ], [ -71.017009740212401, -34.3538985699496 ], [ -71.017035331379802, -34.353886219505497 ], [ -71.017070268322598, -34.3538737159123 ], [ -71.017144082814596, -34.353833137416103 ], [ -71.017200958851106, -34.353805958688902 ], [ -71.017239518225594, -34.3538063888032 ], [ -71.017244116990796, -34.353806440126199 ], [ -71.017295500335806, -34.353790086769699 ], [ -71.017329603482295, -34.353772825394302 ], [ -71.017366896396396, -34.3537686320227 ], [ -71.017429866129405, -34.3537556661949 ], [ -71.0175114690839, -34.353740007412398 ], [ -71.017587435416104, -34.353729212060202 ], [ -71.017676597383698, -34.353728934865202 ], [ -71.017774441764402, -34.353730900171001 ], [ -71.017849284754902, -34.353733244676903 ], [ -71.017934219305502, -34.353736615591203 ], [ -71.017993134090304, -34.353734451210101 ], [ -71.018037643057397, -34.353731331501798 ], [ -71.018079824452599, -34.353721092981701 ], [ -71.018150126663301, -34.353713970180898 ], [ -71.018206193480097, -34.3537130455287 ], [ -71.018262490083401, -34.353721659065997 ], [ -71.018320281601902, -34.353732633647802 ], [ -71.018404092927796, -34.353749143355103 ], [ -71.018469015928503, -34.353757615415297 ], [ -71.018555416802201, -34.353762153672498 ], [ -71.018664591409106, -34.353756774191901 ], [ -71.018710480900694, -34.353751246641103 ], [ -71.018853958441497, -34.353736951072399 ], [ -71.018895507227995, -34.353730302200098 ], [ -71.018974576490706, -34.353728997702497 ], [ -71.019026159603001, -34.3537209894697 ], [ -71.019073688044799, -34.353723783882501 ], [ -71.019140565806694, -34.353723873291401 ], [ -71.019160549804297, -34.353717579241497 ], [ -71.019189274562095, -34.353715913318098 ], [ -71.019216617675298, -34.353716654108602 ], [ -71.019242753010701, -34.353726958628201 ], [ -71.019263023025601, -34.353732587571102 ], [ -71.019277341944104, -34.353729965569897 ], [ -71.019294107271193, -34.353709412056297 ], [ -71.019315500368194, -34.3537019018666 ], [ -71.019351498429501, -34.353703693573699 ], [ -71.019373176494796, -34.353708107301998 ], [ -71.019404833876195, -34.353708777759003 ], [ -71.019441897790202, -34.3536950455332 ], [ -71.019479189444894, -34.353690851540399 ], [ -71.0195178912942, -34.353685441401097 ], [ -71.019547996511207, -34.3536813659844 ], [ -71.019557945053606, -34.353676431251301 ], [ -71.019583822931807, -34.353676004179597 ], [ -71.019606824282306, -34.353675624575601 ], [ -71.019631321658906, -34.353677606003103 ], [ -71.019652829155405, -34.353674865318901 ], [ -71.019669794628598, -34.3536626575913 ], [ -71.019695385306903, -34.353650306606603 ], [ -71.019732763845695, -34.353649689691899 ], [ -71.019760050820906, -34.353648046463498 ], [ -71.019794325042795, -34.353637938764599 ], [ -71.019861664624102, -34.3536272852932 ], [ -71.019920378937996, -34.353616773254103 ], [ -71.019983462556397, -34.353608575691602 ], [ -71.020053791963505, -34.353602643312797 ], [ -71.020130272846004, -34.353613308523997 ], [ -71.020202326139298, -34.353619276230297 ], [ -71.020297148934802, -34.353645144852003 ], [ -71.020360719026499, -34.353657215927598 ], [ -71.020418510722905, -34.353668189510103 ], [ -71.020457613187503, -34.353679472538502 ], [ -71.020535732235203, -34.353698459583804 ], [ -71.020600740115299, -34.353710506793398 ], [ -71.020652838242498, -34.353723959999897 ], [ -71.020677621872494, -34.353737864215297 ], [ -71.020787826717594, -34.353775407081002 ], [ -71.020823996558804, -34.353784351790701 ], [ -71.020858528316396, -34.353784974403901 ], [ -71.020874084534199, -34.353773982647198 ], [ -71.020888145771906, -34.3537606298516 ], [ -71.020906634656299, -34.353751974483899 ], [ -71.020920695885096, -34.353738621684897 ], [ -71.020939156154398, -34.353728774823999 ], [ -71.020967707978201, -34.353719953261901 ], [ -71.021011960215105, -34.353706101851003 ], [ -71.021015987100597, -34.353694107622097 ], [ -71.0210558391815, -34.353676750277202 ], [ -71.021071768610895, -34.353681258644002 ], [ -71.021114753766696, -34.353674584396799 ], [ -71.021166508384894, -34.353673729607799 ], [ -71.021209061533298, -34.353678991088202 ], [ -71.021283875831699, -34.3536801411013 ], [ -71.021308315964603, -34.353679737412399 ], [ -71.021347246712907, -34.353683864913499 ], [ -71.021367429871702, -34.353685917253799 ], [ -71.021396269066003, -34.3536890194707 ], [ -71.021413635146004, -34.353693504061603 ], [ -71.021459839319405, -34.353701089968197 ], [ -71.021490116240301, -34.353704168413302 ], [ -71.021516136170504, -34.3537097019965 ], [ -71.021555009686907, -34.353711445553202 ], [ -71.021565273094694, -34.353719626042498 ], [ -71.021585256889495, -34.353713331602997 ], [ -71.021593797291203, -34.353709611929403 ], [ -71.021616799709093, -34.353709231929599 ], [ -71.021649865072703, -34.3537086856823 ], [ -71.021681378182507, -34.353703394522299 ], [ -71.021695611088902, -34.353697195073003 ], [ -71.021702541951697, -34.353686345709903 ], [ -71.021713842137999, -34.3536778089846 ], [ -71.021729627314002, -34.353676355336297 ], [ -71.021748316565805, -34.353676046569603 ], [ -71.021762778582499, -34.353679386226602 ], [ -71.021772842611099, -34.353679219955602 ], [ -71.021794092276394, -34.353665748295803 ], [ -71.021827128978401, -34.353664009612103 ], [ -71.021870114073394, -34.353657336003202 ], [ -71.021906026205201, -34.353655549789899 ], [ -71.021926296358004, -34.353661178285797 ], [ -71.021966722143205, -34.353667667513598 ], [ -71.021985812373003, -34.353684051256302 ], [ -71.022026725073601, -34.353710809274602 ], [ -71.022067579424501, -34.353735182518101 ], [ -71.0221073122392, -34.353772694863302 ], [ -71.022136751927206, -34.353800836187702 ], [ -71.022185111128394, -34.353838205960201 ], [ -71.022226138553606, -34.3538697334616 ], [ -71.022296577126696, -34.353928208939898 ], [ -71.022331567262995, -34.353947907552403 ], [ -71.022378086781501, -34.353968609379898 ], [ -71.022399766133603, -34.353973022545503 ], [ -71.022418741918102, -34.353984636659703 ], [ -71.022433404538106, -34.353996322053803 ], [ -71.022449619486096, -34.354012753239402 ], [ -71.02248742786, -34.3540300204061 ], [ -71.022541279315902, -34.354056564401297 ], [ -71.022600910355493, -34.354084205708098 ], [ -71.022642240916497, -34.354098432003902 ], [ -71.022674069260802, -34.354106255957397 ], [ -71.0227088016929, -34.354115223861001 ], [ -71.022743505499093, -34.3541230002673 ], [ -71.0227839315354, -34.354129488313099 ], [ -71.022817283572905, -34.354140864727 ], [ -71.022853367811805, -34.354146232559103 ], [ -71.0228922701926, -34.354149168070798 ], [ -71.022938274144295, -34.354148407588298 ], [ -71.022992904445999, -34.354147504482803 ], [ -71.023059036546996, -34.354146411205797 ], [ -71.023128043007901, -34.354145270372598 ], [ -71.023175484675804, -34.354144486031799 ], [ -71.023219880011794, -34.354136594867001 ], [ -71.023272929262106, -34.3541297534669 ], [ -71.023307174541998, -34.354118452404499 ], [ -71.023333108734803, -34.354120409329397 ], [ -71.023363213873097, -34.354116332975103 ], [ -71.023414854057094, -34.354110708575497 ], [ -71.023449156615399, -34.354101791348803 ], [ -71.0234951605254, -34.354101030657901 ], [ -71.023525321891, -34.354099339057903 ], [ -71.023575726054403, -34.354102084160502 ], [ -71.023617588789506, -34.3541085490737 ], [ -71.023648066557797, -34.354119972789299 ], [ -71.023684351480298, -34.354133686187502 ], [ -71.023715489161901, -34.354142713249303 ], [ -71.0237445292301, -34.354154160716099 ], [ -71.023760543796996, -34.354162245905101 ], [ -71.023769341051306, -34.3541692566872 ], [ -71.023778311408407, -34.354183421776298 ], [ -71.023784520994596, -34.354202403969303 ], [ -71.023796652395106, -34.354228444495597 ], [ -71.023804385724105, -34.354250980072699 ], [ -71.023813469666706, -34.354269913825703 ], [ -71.023824106041701, -34.354293594251899 ], [ -71.023824306709102, -34.354301940063699 ], [ -71.023824937403404, -34.354328170787703 ], [ -71.023837012604503, -34.3543518274166 ], [ -71.023855152970597, -34.354388503410803 ], [ -71.023856848733104, -34.354399211120601 ], [ -71.023868722173106, -34.354414521050799 ], [ -71.023877635233305, -34.354426301355602 ], [ -71.023877950590204, -34.3544394167169 ], [ -71.023885453508996, -34.354452413204697 ], [ -71.023894509930997, -34.354470155445497 ], [ -71.023904802302098, -34.354479527212398 ], [ -71.023912134309299, -34.354485370256697 ], [ -71.023916820206296, -34.354500799056403 ], [ -71.023921476346999, -34.354515035486401 ], [ -71.023936255036304, -34.354531490220602 ], [ -71.023953764747404, -34.354541935475098 ], [ -71.023961267687596, -34.354554931957303 ], [ -71.023977425692095, -34.3545689781497 ], [ -71.023993555029406, -34.354581831952402 ], [ -71.024008190380698, -34.354592324739798 ], [ -71.0240328590357, -34.3546014596145 ], [ -71.024053186890697, -34.354609472518803 ], [ -71.024102410593301, -34.354622971775598 ], [ -71.024127023004397, -34.354629721838002 ], [ -71.024154366423105, -34.354630462413802 ], [ -71.024174722970997, -34.354639667684403 ], [ -71.024199335370398, -34.354646416830597 ], [ -71.024245396908995, -34.354648040621697 ], [ -71.024294277646803, -34.354647232036598 ], [ -71.024338844098097, -34.354646494801401 ], [ -71.024378955068102, -34.354639867850601 ], [ -71.024416161866199, -34.354632095168 ], [ -71.024452677948304, -34.354625527664098 ], [ -71.024481488841403, -34.354627435849402 ], [ -71.024514497168695, -34.354624504942898 ], [ -71.0245273209499, -34.3546195213397 ], [ -71.024557511147506, -34.354619021866398 ], [ -71.024586264699195, -34.354618546154299 ], [ -71.0246149598008, -34.354615685679697 ], [ -71.024647738661997, -34.3546032156422 ], [ -71.024698170736698, -34.354607152674902 ], [ -71.0247615136945, -34.354609682300698 ], [ -71.024850791040507, -34.354614169391098 ], [ -71.024938487231097, -34.354612718273401 ], [ -71.025014711338002, -34.354612649795698 ], [ -71.025072244934506, -34.354612890572803 ], [ -71.025125495111396, -34.354614395070399 ], [ -71.025173052807304, -34.354618378573001 ], [ -71.025214743756493, -34.354617688606503 ], [ -71.025239184102105, -34.354617284123201 ], [ -71.025247925251406, -34.354621910902701 ], [ -71.025273945696199, -34.354627444568202 ], [ -71.025301318867207, -34.354629376354403 ], [ -71.025334527974806, -34.354634791031202 ], [ -71.025366213278502, -34.3546366523355 ], [ -71.025405029855506, -34.354636009877701 ], [ -71.025416702755507, -34.354642972941399 ], [ -71.025444133341296, -34.3546472903693 ], [ -71.025470182498296, -34.354654016378603 ], [ -71.025513340948294, -34.354654493979801 ], [ -71.025571132817802, -34.354665465997201 ], [ -71.025679357909794, -34.354680373692403 ], [ -71.025791637948402, -34.354684478413503 ], [ -71.025886666317803, -34.354688869539402 ], [ -71.025908816686893, -34.354683884666201 ], [ -71.025827395777199, -34.354581366219001 ], [ -71.025701601444894, -34.354583448644597 ], [ -71.025647546902206, -34.354578380030702 ], [ -71.025521465639997, -34.354568539309902 ], [ -71.025463887945804, -34.354566509731001 ], [ -71.025406167898495, -34.354558519076299 ], [ -71.025355706078201, -34.354553390868602 ], [ -71.025254688476096, -34.354545102408103 ], [ -71.025137147599395, -34.3545375056677 ], [ -71.025024344511607, -34.354535555786299 ], [ -71.024909332618705, -34.354537458965602 ], [ -71.024764418531007, -34.354539856802802 ], [ -71.024656169621096, -34.354535922469097 ], [ -71.024561723145993, -34.354531759687703 ], [ -71.024449011811598, -34.3545336243726 ], [ -71.024366662545404, -34.354554070666303 ], [ -71.024272582016394, -34.354565169875102 ], [ -71.024210475936101, -34.354566197218297 ], [ -71.0241757890402, -34.3545591368526 ], [ -71.024134017983798, -34.354544560423101 ], [ -71.024096938771606, -34.354533722989601 ], [ -71.024069198452295, -34.354528456451703 ], [ -71.024007925014004, -34.354468398649097 ], [ -71.023959947318303, -34.354387128168099 ], [ -71.023925175805601, -34.354280829888303 ], [ -71.023900843003304, -34.354225886430299 ], [ -71.023892658000193, -34.3541725855628 ], [ -71.023880515093893, -34.354146067370401 ], [ -71.023840448564499, -34.354106652382001 ], [ -71.023812295585898, -34.354084216479798 ], [ -71.023689603878793, -34.354053802012999 ], [ -71.023595390419402, -34.354011464844497 ], [ -71.023473570242302, -34.3540172967624 ], [ -71.023370381721506, -34.3540323615874 ], [ -71.0232784646076, -34.354037698875601 ], [ -71.023182268379003, -34.354056465452601 ], [ -71.023081334484004, -34.354069584901701 ], [ -71.0229729944692, -34.354061833051098 ], [ -71.022827530875603, -34.354041336152797 ], [ -71.022741964208606, -34.354023666555896 ], [ -71.022621390103097, -34.353985580966103 ], [ -71.022532928127404, -34.353943148805399 ], [ -71.022422453080907, -34.353894400176202 ], [ -71.022235868992396, -34.353790610234 ], [ -71.022167421781504, -34.353719219258302 ], [ -71.022117512373299, -34.353653248200899 ], [ -71.022079380811206, -34.353598532361502 ], [ -71.022053252969997, -34.353564611820197 ], [ -71.022008862477804, -34.353536718411199 ], [ -71.021962491151001, -34.353522217231998 ], [ -71.021909449440997, -34.353517368243402 ], [ -71.021781645592597, -34.353561466220597 ], [ -71.021720044169399, -34.353583476702902 ], [ -71.021656050517805, -34.353601710056303 ], [ -71.021610275908898, -34.353612008259901 ], [ -71.021564271125698, -34.353612768250997 ], [ -71.021495035966893, -34.353604369973198 ], [ -71.021391022903302, -34.353585095371201 ], [ -71.021248090031904, -34.353574096764397 ], [ -71.021077828507501, -34.353575000102701 ], [ -71.020963367280203, -34.353599791970701 ], [ -71.020884188765393, -34.353656445497101 ], [ -71.020811176854195, -34.353682460579499 ], [ -71.020767565276401, -34.353686998272501 ], [ -71.020630570101901, -34.353635823233297 ], [ -71.020523569698199, -34.353587970314699 ], [ -71.020443617373999, -34.353564480108098 ], [ -71.020323365385906, -34.353539746420502 ], [ -71.020203113484499, -34.353515013513302 ], [ -71.020078627860997, -34.353505617756902 ], [ -71.019975072971803, -34.353505418380799 ], [ -71.019734557675093, -34.353551374670502 ], [ -71.019386253169102, -34.3536124687826 ] ] ] } },
{ "type": "Feature", "properties": { "id": "monoparte.23", "Name": null, "description": null, "timestamp": null, "begin": null, "end": null, "altitudeMode": null, "tessellate": -1, "extrude": 0, "visibility": -1, "drawOrder": null, "icon": null, "REG": "O'higgins", "COM": "Quinta de Tilcoco", "LOC": "Guacarhue", "ZONA": "ZTE-2", "NOM": "ZTE-2 Zona de Conservación Histórica", "UPERM": "Vivienda; equipamiento de educación, culto, cultura, comercio minorista y áreas verdes y servicios artesanales. Mayor detalle en ordenanza.", "UPROH": "Todos los usos no mencionados precedentemente.", "P_DO": "18/12/1995", "N_DOC": "24", "T_DO": "Resolución", "OBS": null }, "geometry": { "type": "Polygon", "coordinates": [ [ [ -71.016962611689195, -34.353912467332599 ], [ -71.016949730380503, -34.353915065369897 ], [ -71.016930955304701, -34.353911796227699 ], [ -71.016906573268002, -34.353914583812703 ], [ -71.016885379858095, -34.353930439438301 ], [ -71.016838079870894, -34.353937182418001 ], [ -71.016779137403105, -34.353938153838001 ], [ -71.016662716580996, -34.3539412653287 ], [ -71.016643798690794, -34.353932035078898 ], [ -71.016560330241902, -34.353929831974803 ], [ -71.016425221129197, -34.3539332511981 ], [ -71.016275677596298, -34.3539345223735 ], [ -71.016101152251693, -34.353913542334602 ], [ -71.015911160143403, -34.353877309605998 ], [ -71.015871886822794, -34.353858872547697 ], [ -71.0158114770053, -34.353858674808102 ], [ -71.015703511244595, -34.353854488922202 ], [ -71.015660525470594, -34.353861161286098 ], [ -71.015617452921106, -34.3538642555705 ], [ -71.015576562431704, -34.353882974409998 ], [ -71.015591941209294, -34.353905175444403 ], [ -71.015625332743596, -34.353954245168303 ], [ -71.015644967610797, -34.354005451137503 ], [ -71.015644357287798, -34.354076073687999 ], [ -71.015649307517407, -34.354186683253502 ], [ -71.015641545272999, -34.354246927663802 ], [ -71.0156314899384, -34.3544035874773 ], [ -71.015600670324901, -34.354654104237198 ], [ -71.015562660361596, -34.3549887123405 ], [ -71.015632124662801, -34.355006652201503 ], [ -71.015743176265602, -34.355031542038603 ], [ -71.015833115537305, -34.355039602502899 ], [ -71.015966392234404, -34.355031681566899 ], [ -71.016069173434204, -34.354999452601 ], [ -71.016295115750594, -34.354921299988902 ], [ -71.016539734532699, -34.354854289970604 ], [ -71.016667743380793, -34.354818591847199 ], [ -71.0168622129802, -34.354771491647199 ], [ -71.016988269473799, -34.354750329977101 ], [ -71.017079913705203, -34.354733551128 ], [ -71.017212870793898, -34.354712275483998 ], [ -71.017375548346706, -34.354682874692898 ], [ -71.017425969955099, -34.354674409305701 ], [ -71.017415352288694, -34.354615422652202 ], [ -71.017378059613407, -34.354499621014597 ], [ -71.017341407152003, -34.354410526965403 ], [ -71.0172892294907, -34.354153744834498 ], [ -71.017277286082205, -34.354039433132101 ], [ -71.017262903910293, -34.353919437145301 ], [ -71.017239518225594, -34.3538063888032 ], [ -71.017200958851106, -34.353805958688902 ], [ -71.017144082814596, -34.353833137416103 ], [ -71.017070268322598, -34.3538737159123 ], [ -71.017035331379802, -34.353886219505497 ], [ -71.017009740212401, -34.3538985699496 ], [ -71.016962611689195, -34.353912467332599 ] ] ] } },
{ "type": "Feature", "properties": { "id": "monoparte.24", "Name": null, "description": null, "timestamp": null, "begin": null, "end": null, "altitudeMode": null, "tessellate": -1, "extrude": 0, "visibility": -1, "drawOrder": null, "icon": null, "REG": "O'higgins", "COM": "Quinta de Tilcoco", "LOC": "Guacarhue", "ZONA": "ZTE-2", "NOM": "ZTE-2 Zona de Conservación Histórica", "UPERM": "Vivienda; equipamiento de educación, culto, cultura, comercio minorista y áreas verdes y servicios artesanales. Mayor detalle en ordenanza.", "UPROH": "Todos los usos no mencionados precedentemente.", "P_DO": "18/12/1995", "N_DOC": "24", "T_DO": "Resolución", "OBS": null }, "geometry": { "type": "Polygon", "coordinates": [ [ [ -71.017078688334195, -34.352809355163402 ], [ -71.016939167216904, -34.352854784515401 ], [ -71.016829988983801, -34.352855932021001 ], [ -71.016773124868095, -34.352883587338098 ], [ -71.016690865402197, -34.352907844514498 ], [ -71.016596877871393, -34.352922752892503 ], [ -71.016489042358899, -34.352935980623698 ], [ -71.016392799882496, -34.352952833863903 ], [ -71.016354895180797, -34.352951534330799 ], [ -71.016291697376403, -34.352954961345603 ], [ -71.016030591744993, -34.352981925754001 ], [ -71.015637624792006, -34.353027760767503 ], [ -71.0153925618947, -34.353064002492701 ], [ -71.015220560946204, -34.353088305717399 ], [ -71.015220493390601, -34.3531455607068 ], [ -71.015232711468499, -34.353235414891302 ], [ -71.015255264794604, -34.3533364306317 ], [ -71.015313891366304, -34.353502456221001 ], [ -71.015353096974394, -34.353578149353403 ], [ -71.015389512857993, -34.353657467007899 ], [ -71.015453206020894, -34.353737542694297 ], [ -71.015455454002407, -34.353735716825398 ], [ -71.015481993202698, -34.353732894903203 ], [ -71.015589787490001, -34.353729926628098 ], [ -71.015657299095906, -34.353726428911102 ], [ -71.015691887974796, -34.3537294377725 ], [ -71.015751145505604, -34.353741582291804 ], [ -71.015803100204593, -34.353749075622602 ], [ -71.016029551347998, -34.353776357843202 ], [ -71.016058303676701, -34.353775884162097 ], [ -71.016092865111403, -34.353777700497602 ], [ -71.016144734174105, -34.353781616501401 ], [ -71.016175181276694, -34.353791850645599 ], [ -71.016211322143306, -34.353799604343003 ], [ -71.016304192262893, -34.353804038507903 ], [ -71.016402009277897, -34.353804812498502 ], [ -71.016463998485605, -34.353810947338999 ], [ -71.016563110396206, -34.353805735544299 ], [ -71.016646493018698, -34.353804361472001 ], [ -71.016739796886597, -34.353796860421902 ], [ -71.016827206984601, -34.353783492117401 ], [ -71.016893252251194, -34.353778825020797 ], [ -71.016942940806302, -34.353751764872598 ], [ -71.016998723050406, -34.353738916827403 ], [ -71.017104279489701, -34.353702586625602 ], [ -71.017154425081799, -34.353694602874597 ], [ -71.017183064170197, -34.353689360243401 ], [ -71.017202905445401, -34.353677104545497 ], [ -71.017237208598999, -34.3536681899445 ], [ -71.017273530445806, -34.353673514043003 ], [ -71.017274193891794, -34.353675930308803 ], [ -71.017286865597299, -34.353670666852601 ], [ -71.017322041105203, -34.353656056643104 ], [ -71.017330112466396, -34.353654803755703 ], [ -71.017243327192006, -34.353558099485198 ], [ -71.017203503510999, -34.353325354994297 ], [ -71.017082545434405, -34.352970318279603 ], [ -71.017078688334195, -34.352809355163402 ] ] ] } },
{ "type": "Feature", "properties": { "id": "monoparte.25", "Name": null, "description": null, "timestamp": null, "begin": null, "end": null, "altitudeMode": null, "tessellate": -1, "extrude": 0, "visibility": -1, "drawOrder": null, "icon": null, "REG": "O'higgins", "COM": "Quinta de Tilcoco", "LOC": "Guacarhue", "ZONA": "ZU-2", "NOM": "Zona ZU-2", "UPERM": "Vivienda; equipamiento de todo tipo regional; almacenamiento inofensivo.", "UPROH": "Todos los usos no mencionados precedentemente.", "P_DO": "18/12/1995", "N_DOC": "24", "T_DO": "Resolución", "OBS": null }, "geometry": { "type": "Polygon", "coordinates": [ [ [ -71.015634685801103, -34.351563555213403 ], [ -71.015425736662394, -34.351582263973903 ], [ -71.015296927182405, -34.351584385267401 ], [ -71.015084436326106, -34.351599335145899 ], [ -71.014985803185695, -34.351612409997301 ], [ -71.014947568475407, -34.351649300640098 ], [ -71.014904550031204, -34.351678635881498 ], [ -71.014829649282703, -34.351721854667602 ], [ -71.014724617721896, -34.351756028351602 ], [ -71.014630585377503, -34.351769027176204 ], [ -71.014556885477205, -34.351820323624203 ], [ -71.014428527870606, -34.351865376994098 ], [ -71.014355183287194, -34.351863067006597 ], [ -71.014243762010906, -34.351897045215203 ], [ -71.014486571701994, -34.352848474383499 ], [ -71.014534493670695, -34.353048075008999 ], [ -71.014688965779598, -34.353535306041699 ], [ -71.014715626767696, -34.353697271568997 ], [ -71.014747051028493, -34.353702055825998 ], [ -71.014763436800493, -34.353725642434597 ], [ -71.014773728098604, -34.353735015010201 ], [ -71.014805527135806, -34.353741648647997 ], [ -71.0148369551314, -34.3537327811515 ], [ -71.014864384997296, -34.3537371009823 ], [ -71.014888910871804, -34.353740275757097 ], [ -71.014946358457195, -34.3537369441365 ], [ -71.015006882363295, -34.353741910981803 ], [ -71.015077554924503, -34.353750290177601 ], [ -71.015102109332901, -34.353754656402103 ], [ -71.015143999938402, -34.3537623166389 ], [ -71.015168754180294, -34.353775029608101 ], [ -71.015194688166403, -34.353776988269097 ], [ -71.0152236414079, -34.353784860623001 ], [ -71.015261105753694, -34.353787822253501 ], [ -71.015287096841703, -34.353792165682499 ], [ -71.015318810266095, -34.353795221101599 ], [ -71.015344688248504, -34.353794794924703 ], [ -71.015379077322294, -34.3537894580179 ], [ -71.015413038138107, -34.353766235193604 ], [ -71.015431470550197, -34.353755196747002 ], [ -71.015453206020894, -34.353737542694297 ], [ -71.015389512857993, -34.353657467007899 ], [ -71.015353096974394, -34.353578149353403 ], [ -71.015313891366304, -34.353502456221001 ], [ -71.015255264794604, -34.3533364306317 ], [ -71.015232711468499, -34.353235414891302 ], [ -71.015220493390601, -34.3531455607068 ], [ -71.015220560946204, -34.353088305717399 ], [ -71.0153925618947, -34.353064002492701 ], [ -71.015637624792006, -34.353027760767503 ], [ -71.016030591744993, -34.352981925754001 ], [ -71.016291697376403, -34.352954961345603 ], [ -71.016354895180797, -34.352951534330799 ], [ -71.016377959503799, -34.352916394443 ], [ -71.016348791681096, -34.352844776645902 ], [ -71.016271499364194, -34.352596041000702 ], [ -71.016185510192003, -34.3523684422602 ], [ -71.016074081822595, -34.352135536252497 ], [ -71.016006837322095, -34.351921942013597 ], [ -71.015976037251093, -34.351788856722898 ], [ -71.015933690083202, -34.351654052874501 ], [ -71.015897588761007, -34.351587851678502 ], [ -71.015884946227999, -34.351540348068198 ], [ -71.015797906170405, -34.351557049226003 ], [ -71.015634685801103, -34.351563555213403 ] ] ] } }
]
}
