{
"type": "FeatureCollection",
"name": "IPT_06_PRC_Las_Cabras",
"crs": { "type": "name", "properties": { "name": "urn:ogc:def:crs:OGC:1.3:CRS84" } },
"features": [
{ "type": "Feature", "properties": { "id": "monoparte.1", "Name": null, "description": null, "timestamp": null, "begin": null, "end": null, "altitudeMode": null, "tessellate": -1, "extrude": 0, "visibility": -1, "drawOrder": null, "icon": null, "REG": "O'higgins", "COM": "Las Cabras", "LOC": "Las Cabras", "ZONA": "Z_DIFUSA", "NOM": "Zona difusa", "UPERM": "Zona difusa.", "UPROH": "Zona difusa.", "P_DO": "10/10/1986", "N_DOC": "158", "T_DO": "Decreto", "OBS": null }, "geometry": { "type": "Polygon", "coordinates": [ [ [ -71.298702921531401, -34.289013587509601 ], [ -71.298606651102403, -34.289214340358001 ], [ -71.298524168429594, -34.289414834355497 ], [ -71.298434246743597, -34.289595430249598 ], [ -71.298365949534102, -34.289746995003298 ], [ -71.298276464140997, -34.289880350504198 ], [ -71.298160658343505, -34.289997024731903 ], [ -71.298079681062404, -34.290062951569404 ], [ -71.297994508806397, -34.290164738172798 ], [ -71.297918936191905, -34.290239151063503 ], [ -71.297880152496802, -34.290271366564397 ], [ -71.297820053646802, -34.290352849567803 ], [ -71.297933520951503, -34.290865601539501 ], [ -71.297992854151403, -34.2908214817962 ], [ -71.298046621681493, -34.290790654812398 ], [ -71.298088964139595, -34.290762427791897 ], [ -71.298144361728504, -34.290738726035897 ], [ -71.298199565530993, -34.2907078720337 ], [ -71.298259045960407, -34.290675744954598 ], [ -71.298292769998199, -34.290647679607403 ], [ -71.298327703065596, -34.2906112429093 ], [ -71.298377258608795, -34.290584072311702 ], [ -71.298432527182896, -34.290555602578699 ], [ -71.298467590051004, -34.290523933677598 ], [ -71.298501119094496, -34.290488716077 ], [ -71.298556882008398, -34.290425647809798 ], [ -71.298593908067602, -34.290360545617901 ], [ -71.298665378537905, -34.290241124800097 ], [ -71.298699174395196, -34.290162963385498 ], [ -71.298723663787001, -34.290112409994499 ], [ -71.298746391936504, -34.290049961726297 ], [ -71.298761775807804, -34.289981688248503 ], [ -71.298780063768803, -34.289914552147501 ], [ -71.298826072085205, -34.289809921808903 ], [ -71.298900122177301, -34.289679718201 ], [ -71.298957879915804, -34.289584408699703 ], [ -71.299026347678904, -34.2894602728786 ], [ -71.299079958499703, -34.289371005139401 ], [ -71.299144077449199, -34.289298238304298 ], [ -71.299222040038302, -34.289206127739703 ], [ -71.299316417496598, -34.289136371105897 ], [ -71.299382654707102, -34.289088611235599 ], [ -71.299467596924998, -34.289041692911198 ], [ -71.299558737182394, -34.289011356350997 ], [ -71.299683399796194, -34.2889982812341 ], [ -71.299772708149902, -34.289006145592303 ], [ -71.299860547690002, -34.289012845577098 ], [ -71.299929489334801, -34.289011550855598 ], [ -71.299993503345505, -34.288987686473597 ], [ -71.300052916862299, -34.288953174225902 ], [ -71.300138253803695, -34.28886808136 ], [ -71.300210955950007, -34.288793959986499 ], [ -71.300290970807197, -34.288724472388402 ], [ -71.300457393393302, -34.288609230110502 ], [ -71.300625317991205, -34.2884963458851 ], [ -71.300738657386205, -34.288436966207499 ], [ -71.300870311407294, -34.288364121616297 ], [ -71.301086643426302, -34.288234821895003 ], [ -71.301358762042, -34.2880961239415 ], [ -71.301497465497704, -34.288018375954401 ], [ -71.3016275517856, -34.287940789764797 ], [ -71.301735014276801, -34.287876748469301 ], [ -71.301821421678099, -34.287830993811703 ], [ -71.301956889692505, -34.287792666485302 ], [ -71.302059388137707, -34.287757343439402 ], [ -71.302170862263793, -34.287734971399601 ], [ -71.302240034428607, -34.287689540444298 ], [ -71.302306631657302, -34.287602412822999 ], [ -71.302350443818995, -34.287522869374598 ], [ -71.302425115642706, -34.287310354785802 ], [ -71.302461096426498, -34.287207104482803 ], [ -71.302533804899795, -34.287028022230501 ], [ -71.302575893425995, -34.286885296710501 ], [ -71.302604166929498, -34.286815587664101 ], [ -71.302656986704406, -34.286750187364902 ], [ -71.302721718763493, -34.286700069368003 ], [ -71.302847715971893, -34.286683386732598 ], [ -71.302940973064196, -34.2866780556609 ], [ -71.303039974266795, -34.286672615598498 ], [ -71.303152459945196, -34.286634718274399 ], [ -71.303237884563003, -34.286605679327401 ], [ -71.303321579934007, -34.286565938614203 ], [ -71.303429235723002, -34.286509049002603 ], [ -71.303497425505697, -34.286480333132097 ], [ -71.303597635990599, -34.286466521233798 ], [ -71.303727907929101, -34.2864485654055 ], [ -71.303859682298196, -34.286432966760799 ], [ -71.303952418174802, -34.286408560955202 ], [ -71.304093366518003, -34.286360585888502 ], [ -71.304204446427306, -34.286323906854001 ], [ -71.304418250787293, -34.286260248043803 ], [ -71.304549047893403, -34.286208885093103 ], [ -71.304741959540806, -34.286169473809601 ], [ -71.304918027252, -34.286144690935302 ], [ -71.305045329142501, -34.286123212142201 ], [ -71.305239872017694, -34.286090925229999 ], [ -71.305387117900693, -34.286063105818101 ], [ -71.305473705093803, -34.286044664979102 ], [ -71.305014030635306, -34.285219480913099 ], [ -71.304826685238893, -34.285241613604001 ], [ -71.3046157185113, -34.285282796445003 ], [ -71.304373925082999, -34.285331714806198 ], [ -71.304160960454993, -34.285362916089497 ], [ -71.303821126494597, -34.285420834609504 ], [ -71.303700836405397, -34.285435979142299 ], [ -71.303614542913607, -34.285496283551197 ], [ -71.303541059401198, -34.2855205658892 ], [ -71.303468831199993, -34.285527649442798 ], [ -71.303304630671704, -34.285576538014197 ], [ -71.3032023176211, -34.285618537476402 ], [ -71.303055037738304, -34.2856556583192 ], [ -71.302914847750301, -34.285699800623497 ], [ -71.302804033715205, -34.285746253844103 ], [ -71.302667095138304, -34.285783178878802 ], [ -71.302552560683395, -34.285819682547697 ], [ -71.302420356919001, -34.285903750363403 ], [ -71.3023026094843, -34.285948901774397 ], [ -71.302190266996803, -34.286002539040297 ], [ -71.3021147351824, -34.286141359946299 ], [ -71.302059884597, -34.286279792065798 ], [ -71.302028264606406, -34.2863848689463 ], [ -71.301995310827394, -34.286504283501998 ], [ -71.301950683548597, -34.286638230078999 ], [ -71.301942873913703, -34.286794384796302 ], [ -71.301910388195196, -34.286930964763798 ], [ -71.301865253252302, -34.287046314906803 ], [ -71.301802252151106, -34.2872020752433 ], [ -71.301752069916702, -34.287258838050803 ], [ -71.3017130870047, -34.287346877199802 ], [ -71.301576099292205, -34.2874453466791 ], [ -71.301491134968998, -34.28749131296 ], [ -71.301459208800793, -34.2875219689681 ], [ -71.301389403944398, -34.287554768495099 ], [ -71.301339891724794, -34.287572874044699 ], [ -71.301207565879906, -34.287652648674197 ], [ -71.301066624001606, -34.287732585955503 ], [ -71.300980760696703, -34.287745649320499 ], [ -71.3008221153992, -34.287808742907998 ], [ -71.300689047501095, -34.287861336514702 ], [ -71.3005421926146, -34.2879141898703 ], [ -71.300430236409795, -34.287982130945203 ], [ -71.300300499053606, -34.288030368243703 ], [ -71.300162221526506, -34.288081628331803 ], [ -71.300056612791394, -34.2881294121933 ], [ -71.299903290897106, -34.288198130585101 ], [ -71.299732461854404, -34.288257157362899 ], [ -71.299616433658898, -34.288302273990503 ], [ -71.299498876247796, -34.288354575983597 ], [ -71.299362243731494, -34.288402941775402 ], [ -71.299214559578004, -34.288488727713897 ], [ -71.299084227137996, -34.2885784819698 ], [ -71.298956437042705, -34.288698244416601 ], [ -71.298851285562705, -34.288826169351701 ], [ -71.298764040590697, -34.288915114461801 ], [ -71.298702921531401, -34.289013587509601 ] ] ] } },
{ "type": "Feature", "properties": { "id": "monoparte.2", "Name": null, "description": null, "timestamp": null, "begin": null, "end": null, "altitudeMode": null, "tessellate": -1, "extrude": 0, "visibility": -1, "drawOrder": null, "icon": null, "REG": "O'higgins", "COM": "Las Cabras", "LOC": "Las Cabras", "ZONA": "ZEU2", "NOM": "Zona ZEU2", "UPERM": "Vivienda, equipamiento de escala comunal y vecinal de todo tipo con excepción de servicios artesanales de escala comunal; almacenamiento inofensivo.", "UPROH": "Todos los no mencionados precedentemente.", "P_DO": "10/10/1986", "N_DOC": "158", "T_DO": "Decreto", "OBS": null }, "geometry": { "type": "Polygon", "coordinates": [ [ [ -71.298373856779094, -34.292835961865102 ], [ -71.299083536661001, -34.295879711369501 ], [ -71.303137875835802, -34.295015931771303 ], [ -71.303038020724699, -34.294813883990798 ], [ -71.301464689946698, -34.291630249096897 ], [ -71.298373856779094, -34.292835961865102 ] ] ] } },
{ "type": "Feature", "properties": { "id": "monoparte.3", "Name": null, "description": null, "timestamp": null, "begin": null, "end": null, "altitudeMode": null, "tessellate": -1, "extrude": 0, "visibility": -1, "drawOrder": null, "icon": null, "REG": "O'higgins", "COM": "Las Cabras", "LOC": "Las Cabras", "ZONA": "ZEA", "NOM": "Zona ZEA", "UPERM": "Equipamiento de escala comunal de áreas verdes.", "UPROH": "Todos los no mencionados precedentemente.", "P_DO": "10/10/1986", "N_DOC": "158", "T_DO": "Decreto", "OBS": null }, "geometry": { "type": "Polygon", "coordinates": [ [ [ -71.308239720689599, -34.293410975647603 ], [ -71.308301316772798, -34.2936394802623 ], [ -71.309257935604293, -34.293430263587801 ], [ -71.3107001866627, -34.293147220175101 ], [ -71.310446623503296, -34.292677899176603 ], [ -71.309021728545304, -34.292991026984602 ], [ -71.308136517129498, -34.293181364616302 ], [ -71.308239720689599, -34.293410975647603 ] ] ] } },
{ "type": "Feature", "properties": { "id": "monoparte.4", "Name": null, "description": null, "timestamp": null, "begin": null, "end": null, "altitudeMode": null, "tessellate": -1, "extrude": 0, "visibility": -1, "drawOrder": null, "icon": null, "REG": "O'higgins", "COM": "Las Cabras", "LOC": "Las Cabras", "ZONA": "Z1", "NOM": "Zona Z1", "UPERM": "Vivienda, equipamiento de escala comunal y vecinal de todo tipo a excepción de servicios artesanales de escala comunal; almacenamiento inofensivos.", "UPROH": "Todos los no mencionados precedentemente.", "P_DO": "10/10/1986", "N_DOC": "158", "T_DO": "Decreto", "OBS": null }, "geometry": { "type": "Polygon", "coordinates": [ [ [ -71.306766321060294, -34.288373802162099 ], [ -71.3065552273506, -34.288452701285699 ], [ -71.307572913973303, -34.290354998230299 ], [ -71.308411442107001, -34.291905232777403 ], [ -71.309021728545304, -34.292991026984602 ], [ -71.310446623503296, -34.292677899176603 ], [ -71.3107001866627, -34.293147220175101 ], [ -71.309257935604293, -34.293430263587801 ], [ -71.309341127222098, -34.293608198304199 ], [ -71.309435140458802, -34.293761478937498 ], [ -71.310156899273096, -34.293616666347098 ], [ -71.312075207900605, -34.293216683477098 ], [ -71.311377835747194, -34.292022222956398 ], [ -71.310483890319105, -34.290470670882797 ], [ -71.309653052472896, -34.288999630327602 ], [ -71.309645715615403, -34.288986638991702 ], [ -71.309651966647095, -34.288984250019702 ], [ -71.308863843783797, -34.287589800943799 ], [ -71.306766321060294, -34.288373802162099 ] ] ] } },
{ "type": "Feature", "properties": { "id": "monoparte.5", "Name": null, "description": null, "timestamp": null, "begin": null, "end": null, "altitudeMode": null, "tessellate": -1, "extrude": 0, "visibility": -1, "drawOrder": null, "icon": null, "REG": "O'higgins", "COM": "Las Cabras", "LOC": "Las Cabras", "ZONA": "ZR1", "NOM": "Zona ZR1", "UPERM": "Franjas de terreno de 3m. de ancho que colindan con los canales de regadío y que constituyen servidumbres de los mismos, que se grafican en el plano. (Ver detalle en ordenanza).", "UPROH": "En esta zona no se permite ningún tipo de edificación.", "P_DO": "10/10/1986", "N_DOC": "158", "T_DO": "Decreto", "OBS": null }, "geometry": { "type": "Polygon", "coordinates": [ [ [ -71.3076916356097, -34.285209847978003 ], [ -71.307564040695993, -34.285273080899302 ], [ -71.307355430495093, -34.285368850819403 ], [ -71.307067044093202, -34.285489977243401 ], [ -71.306866203093705, -34.2855545892197 ], [ -71.306703649431299, -34.285600588774102 ], [ -71.306592668335995, -34.285640845650398 ], [ -71.306433410531099, -34.285702288167599 ], [ -71.306293966217794, -34.285752623143502 ], [ -71.306162748495694, -34.285788490455602 ], [ -71.306018473701798, -34.285819832317102 ], [ -71.305921853798793, -34.285859818185898 ], [ -71.305829249491296, -34.285888994151598 ], [ -71.3057510732081, -34.2859202839958 ], [ -71.305625205159998, -34.285994217557302 ], [ -71.305509980333497, -34.286036938947497 ], [ -71.305473705093803, -34.286044664979102 ], [ -71.305387117900693, -34.286063105818101 ], [ -71.305239872017694, -34.286090925229999 ], [ -71.305045329142501, -34.286123212142201 ], [ -71.304918027252, -34.286144690935302 ], [ -71.304741959540806, -34.286169473809601 ], [ -71.304549047893403, -34.286208885093103 ], [ -71.304418250787293, -34.286260248043803 ], [ -71.304204446427306, -34.286323906854001 ], [ -71.304093366518003, -34.286360585888502 ], [ -71.303952418174802, -34.286408560955202 ], [ -71.303859682298196, -34.286432966760799 ], [ -71.303727907929101, -34.2864485654055 ], [ -71.303597635990599, -34.286466521233798 ], [ -71.303497425505697, -34.286480333132097 ], [ -71.303429235723002, -34.286509049002603 ], [ -71.303321579934007, -34.286565938614203 ], [ -71.303237884563003, -34.286605679327401 ], [ -71.303152459945196, -34.286634718274399 ], [ -71.303039974266795, -34.286672615598498 ], [ -71.302940973064196, -34.2866780556609 ], [ -71.302847715971893, -34.286683386732598 ], [ -71.302721718763493, -34.286700069368003 ], [ -71.302656986704406, -34.286750187364902 ], [ -71.302604166929498, -34.286815587664101 ], [ -71.302575893425995, -34.286885296710501 ], [ -71.302533804899795, -34.287028022230501 ], [ -71.302461096426498, -34.287207104482803 ], [ -71.302425115642706, -34.287310354785802 ], [ -71.302350443818995, -34.287522869374598 ], [ -71.302306631657302, -34.287602412822999 ], [ -71.302240034428607, -34.287689540444298 ], [ -71.302170862263793, -34.287734971399601 ], [ -71.302059388137707, -34.287757343439402 ], [ -71.301956889692505, -34.287792666485302 ], [ -71.301821421678099, -34.287830993811703 ], [ -71.301735014276801, -34.287876748469301 ], [ -71.3016275517856, -34.287940789764797 ], [ -71.301497465497704, -34.288018375954401 ], [ -71.301358762042, -34.2880961239415 ], [ -71.301086643426302, -34.288234821895003 ], [ -71.300870311407294, -34.288364121616297 ], [ -71.300738657386205, -34.288436966207499 ], [ -71.300625317991205, -34.2884963458851 ], [ -71.300457393393302, -34.288609230110502 ], [ -71.300290970807197, -34.288724472388402 ], [ -71.300210955950007, -34.288793959986499 ], [ -71.300138253803695, -34.28886808136 ], [ -71.300052916862299, -34.288953174225902 ], [ -71.299993503345505, -34.288987686473597 ], [ -71.299929489334801, -34.289011550855598 ], [ -71.299860547690002, -34.289012845577098 ], [ -71.299772708149902, -34.289006145592303 ], [ -71.299683399796194, -34.2889982812341 ], [ -71.299558737182394, -34.289011356350997 ], [ -71.299467596924998, -34.289041692911198 ], [ -71.299382654707102, -34.289088611235599 ], [ -71.299316417496598, -34.289136371105897 ], [ -71.299222040038302, -34.289206127739703 ], [ -71.299144077449199, -34.289298238304298 ], [ -71.299079958499703, -34.289371005139401 ], [ -71.299026347678904, -34.2894602728786 ], [ -71.298957879915804, -34.289584408699703 ], [ -71.298900122177301, -34.289679718201 ], [ -71.298826072085205, -34.289809921808903 ], [ -71.298780063768803, -34.289914552147501 ], [ -71.298761775807804, -34.289981688248503 ], [ -71.298746391936504, -34.290049961726297 ], [ -71.298723663787001, -34.290112409994499 ], [ -71.298699174395196, -34.290162963385498 ], [ -71.298665378537905, -34.290241124800097 ], [ -71.298593908067602, -34.290360545617901 ], [ -71.298556882008398, -34.290425647809798 ], [ -71.298501119094496, -34.290488716077 ], [ -71.298467590051004, -34.290523933677598 ], [ -71.298432527182896, -34.290555602578699 ], [ -71.298377258608795, -34.290584072311702 ], [ -71.298327703065596, -34.2906112429093 ], [ -71.298292769998199, -34.290647679607403 ], [ -71.298259045960407, -34.290675744954598 ], [ -71.298199565530993, -34.2907078720337 ], [ -71.298144361728504, -34.290738726035897 ], [ -71.298088964139595, -34.290762427791897 ], [ -71.298046621681493, -34.290790654812398 ], [ -71.297992854151403, -34.2908214817962 ], [ -71.297933520951503, -34.290865601539501 ], [ -71.297958394777595, -34.290978003881598 ], [ -71.298086060062104, -34.2908668449451 ], [ -71.298152656531499, -34.290832198791101 ], [ -71.298239393715903, -34.290798367418397 ], [ -71.298297372874003, -34.290763883809099 ], [ -71.298335113767095, -34.290725007924799 ], [ -71.298388946063795, -34.290696565165199 ], [ -71.2984340625909, -34.290664707584497 ], [ -71.298489526083998, -34.290643390926498 ], [ -71.298524848794798, -34.2906212585765 ], [ -71.298550019401304, -34.290595739287497 ], [ -71.298570687043707, -34.290563147752799 ], [ -71.298598471601395, -34.290528037045803 ], [ -71.298730703337696, -34.290318021620102 ], [ -71.298824999143605, -34.2901397290006 ], [ -71.298878455219693, -34.289992020986602 ], [ -71.2989132648827, -34.289898335976503 ], [ -71.298976214862705, -34.289782652413301 ], [ -71.299034135016498, -34.289693303794998 ], [ -71.299095518397806, -34.289572879312601 ], [ -71.299152001929997, -34.289483557612201 ], [ -71.299218408839707, -34.289389279309503 ], [ -71.299271395275596, -34.289329841240999 ], [ -71.299361919678006, -34.289276854213703 ], [ -71.299542279129398, -34.289198326249597 ], [ -71.299658980386596, -34.289156775410902 ], [ -71.299797810663094, -34.289136277372698 ], [ -71.299867960187001, -34.289126610449102 ], [ -71.299984857257797, -34.289092212385597 ], [ -71.300087358173897, -34.289056890900497 ], [ -71.300180070842998, -34.288978815333998 ], [ -71.300306968361596, -34.288836884080098 ], [ -71.300477342623196, -34.288708447726002 ], [ -71.300653396744906, -34.288577519757297 ], [ -71.300834409529799, -34.288470352438402 ], [ -71.301030141795707, -34.288376028115202 ], [ -71.301266516164901, -34.288243965015099 ], [ -71.301441912163696, -34.288141673540103 ], [ -71.301658081167005, -34.2880064119351 ], [ -71.301806837420799, -34.287928474671602 ], [ -71.301945996603706, -34.287867415818901 ], [ -71.302057209621694, -34.287835507347801 ], [ -71.302189804837795, -34.287797232864797 ], [ -71.302287180979604, -34.287732188811702 ], [ -71.302416425190799, -34.287571126665298 ], [ -71.302450151543098, -34.287490580907203 ], [ -71.302503826397697, -34.287351215962197 ], [ -71.302543367811694, -34.287220466268501 ], [ -71.3026065760656, -34.2870618391634 ], [ -71.302646930525796, -34.286960891260598 ], [ -71.302672266293001, -34.286888851849902 ], [ -71.302710561363895, -34.286817761561103 ], [ -71.302755413904293, -34.286776365973999 ], [ -71.302856800899406, -34.286752990211099 ], [ -71.3030129585201, -34.286735741178198 ], [ -71.303111666929397, -34.286719572331599 ], [ -71.303205969823793, -34.286699907880902 ], [ -71.303364548665201, -34.2866134354162 ], [ -71.303495379561696, -34.286563265726201 ], [ -71.303615728812801, -34.286550267816402 ], [ -71.3037230221491, -34.286532744210199 ], [ -71.303861619042493, -34.286503897411201 ], [ -71.304043042366303, -34.286464702423501 ], [ -71.304196688517095, -34.286408139706303 ], [ -71.304396098597906, -34.286343558958102 ], [ -71.304598510122702, -34.286283692578898 ], [ -71.304758421720507, -34.286246094137702 ], [ -71.304918658832506, -34.286220417284099 ], [ -71.305077492080599, -34.286195958535799 ], [ -71.305344891122104, -34.286147987561399 ], [ -71.305508252360298, -34.2861075851145 ], [ -71.305527586316103, -34.286102803401697 ], [ -71.305706626891094, -34.286029062577803 ], [ -71.305760355870504, -34.285997040243302 ], [ -71.305860108127405, -34.285966536954398 ], [ -71.306022630427606, -34.285919346297298 ], [ -71.306224681205606, -34.285846363354104 ], [ -71.306546363323406, -34.285734154132498 ], [ -71.306859394201695, -34.2856209133436 ], [ -71.307127541965201, -34.285547876707199 ], [ -71.307422750208005, -34.285413501808399 ], [ -71.307668505975997, -34.285309876015098 ], [ -71.307800637918803, -34.285254906128998 ], [ -71.307894578144001, -34.285222125149403 ], [ -71.307948369372198, -34.285244966397997 ], [ -71.308008916564205, -34.285304654126499 ], [ -71.308114507045502, -34.2853825757905 ], [ -71.308240369084004, -34.285413600049701 ], [ -71.308382453201503, -34.285459823799599 ], [ -71.308551042982501, -34.285476921674203 ], [ -71.308638650826694, -34.285475270251197 ], [ -71.308695846040294, -34.285467923388602 ], [ -71.308669391155703, -34.285419738544199 ], [ -71.308627244358902, -34.285425987598401 ], [ -71.308565454859107, -34.285425959550103 ], [ -71.308478924591199, -34.285414470808398 ], [ -71.308406788693901, -34.285403903482901 ], [ -71.308303906040607, -34.285372446288001 ], [ -71.308215417798706, -34.285341910504798 ], [ -71.308132445402407, -34.285302922066002 ], [ -71.308069352730698, -34.285255209382498 ], [ -71.308006977995404, -34.285181244432898 ], [ -71.307947246055804, -34.285151359315201 ], [ -71.307872532403195, -34.285151574464699 ], [ -71.307782541355493, -34.285171161207401 ], [ -71.3076916356097, -34.285209847978003 ] ] ] } },
{ "type": "Feature", "properties": { "id": "monoparte.6", "Name": null, "description": null, "timestamp": null, "begin": null, "end": null, "altitudeMode": null, "tessellate": -1, "extrude": 0, "visibility": -1, "drawOrder": null, "icon": null, "REG": "O'higgins", "COM": "Las Cabras", "LOC": "Las Cabras", "ZONA": "ZR1", "NOM": "Zona ZR1", "UPERM": "Franjas de terreno de 3m. de ancho que colindan con los canales de regadío y que constituyen servidumbres de los mismos, que se grafican en el plano. (Ver detalle en ordenanza).", "UPROH": "En esta zona no se permite ningún tipo de edificación.", "P_DO": "10/10/1986", "N_DOC": "158", "T_DO": "Decreto", "OBS": null }, "geometry": { "type": "Polygon", "coordinates": [ [ [ -71.307305716340394, -34.284360031280102 ], [ -71.3069805727811, -34.284513576554701 ], [ -71.306692482857301, -34.284634935391701 ], [ -71.306426952385607, -34.284761593762198 ], [ -71.306127777388397, -34.284855965665301 ], [ -71.305816381896193, -34.284944841889001 ], [ -71.305612622887196, -34.284997340804502 ], [ -71.305481877086606, -34.285008389674097 ], [ -71.305346038589704, -34.285022396787802 ], [ -71.305215566278306, -34.285043459499498 ], [ -71.305037344851101, -34.285084026702997 ], [ -71.304942753758795, -34.285100096128197 ], [ -71.304800488664, -34.285124265404399 ], [ -71.304565550475303, -34.285171624314202 ], [ -71.304425010570995, -34.285202894007902 ], [ -71.304292696511595, -34.285219696166898 ], [ -71.304067434272397, -34.285242541096103 ], [ -71.303869942090401, -34.285272019072799 ], [ -71.303639705055303, -34.285302112656296 ], [ -71.303360229647097, -34.285360326272396 ], [ -71.3032955591231, -34.285391598567301 ], [ -71.303203859167297, -34.2854434177058 ], [ -71.303093320028907, -34.285499884386198 ], [ -71.302944824948497, -34.285555633888997 ], [ -71.3027688717155, -34.285616192835299 ], [ -71.302574038965801, -34.285679969011298 ], [ -71.302399808082299, -34.285740495054903 ], [ -71.302235606442594, -34.285789382232601 ], [ -71.302089380634399, -34.285865125718203 ], [ -71.302010914907797, -34.285959633061204 ], [ -71.301949528472093, -34.286048093388203 ], [ -71.301920691850299, -34.286128786034901 ], [ -71.301899060146098, -34.286220794246901 ], [ -71.301894039600398, -34.286289589156098 ], [ -71.301873118212896, -34.286344370315803 ], [ -71.301838642203194, -34.286407993802499 ], [ -71.301821089622294, -34.286459849113598 ], [ -71.301827229329902, -34.286558491199699 ], [ -71.301819503298404, -34.286654531369898 ], [ -71.301768293982903, -34.286800050784201 ], [ -71.301709910554493, -34.286998663030097 ], [ -71.301652041145203, -34.2871528960384 ], [ -71.301564683792904, -34.287237550943097 ], [ -71.301419547461705, -34.287353348522402 ], [ -71.301309120562195, -34.287414104879502 ], [ -71.301200573614906, -34.287480551762101 ], [ -71.301048743802298, -34.287540655043799 ], [ -71.3008665542541, -34.287625660425597 ], [ -71.300691141236399, -34.287706244002898 ], [ -71.300501432888097, -34.287768489016699 ], [ -71.300342943188198, -34.287837305016303 ], [ -71.300242660795107, -34.287890714031199 ], [ -71.300034772661405, -34.287981925030699 ], [ -71.299884236154597, -34.288026259182097 ], [ -71.299751051395603, -34.2880745606465 ], [ -71.299671060364304, -34.288113275542798 ], [ -71.299533329215805, -34.288184562336298 ], [ -71.299372917816598, -34.288246256431698 ], [ -71.299246743358594, -34.288298719973596 ], [ -71.299142700820298, -34.288340748609102 ], [ -71.299020518780907, -34.288413173736899 ], [ -71.298987101208397, -34.288452445593897 ], [ -71.298943576457006, -34.288500494747097 ], [ -71.298850498196103, -34.288565217511099 ], [ -71.298773711444497, -34.2886582596457 ], [ -71.298700020774604, -34.288738362712998 ], [ -71.298616885304298, -34.2888515615888 ], [ -71.2985492607053, -34.288964469289397 ], [ -71.298514071510795, -34.289065318092703 ], [ -71.298476574681999, -34.289144741717003 ], [ -71.298419485675595, -34.289264608374502 ], [ -71.298373760212002, -34.289358498122397 ], [ -71.298320001080796, -34.2894740089069 ], [ -71.2982386180567, -34.289651581895001 ], [ -71.298152540632302, -34.289783441640097 ], [ -71.298070231746905, -34.289882225482302 ], [ -71.297948397265401, -34.289967524879401 ], [ -71.297869104941, -34.290031988250703 ], [ -71.297768311337194, -34.290119026715097 ], [ -71.297820053646802, -34.290352849567803 ], [ -71.297880152496802, -34.290271366564397 ], [ -71.297918936191905, -34.290239151063503 ], [ -71.297994508806397, -34.290164738172798 ], [ -71.298079681062404, -34.290062951569404 ], [ -71.298160658343505, -34.289997024731903 ], [ -71.298276464140997, -34.289880350504198 ], [ -71.298365949534102, -34.289746995003298 ], [ -71.298434246743597, -34.289595430249598 ], [ -71.298524168429594, -34.289414834355497 ], [ -71.298606651102403, -34.289214340358001 ], [ -71.298702921531401, -34.289013587509601 ], [ -71.298764040590697, -34.288915114461801 ], [ -71.298851285562705, -34.288826169351701 ], [ -71.298956437042705, -34.288698244416601 ], [ -71.299084227137996, -34.2885784819698 ], [ -71.299214559578004, -34.288488727713897 ], [ -71.299362243731494, -34.288402941775402 ], [ -71.299498876247796, -34.288354575983597 ], [ -71.299616433658898, -34.288302273990503 ], [ -71.299732461854404, -34.288257157362899 ], [ -71.299903290897106, -34.288198130585101 ], [ -71.300056612791394, -34.2881294121933 ], [ -71.300162221526506, -34.288081628331803 ], [ -71.300300499053606, -34.288030368243703 ], [ -71.300430236409795, -34.287982130945203 ], [ -71.3005421926146, -34.2879141898703 ], [ -71.300689047501095, -34.287861336514702 ], [ -71.3008221153992, -34.287808742907998 ], [ -71.300980760696703, -34.287745649320499 ], [ -71.301066624001606, -34.287732585955503 ], [ -71.301207565879906, -34.287652648674197 ], [ -71.301339891724794, -34.287572874044699 ], [ -71.301389403944398, -34.287554768495099 ], [ -71.301459208800793, -34.2875219689681 ], [ -71.301491134968998, -34.28749131296 ], [ -71.301576099292205, -34.2874453466791 ], [ -71.3017130870047, -34.287346877199802 ], [ -71.301752069916702, -34.287258838050803 ], [ -71.301802252151106, -34.2872020752433 ], [ -71.301865253252302, -34.287046314906803 ], [ -71.301910388195196, -34.286930964763798 ], [ -71.301942873913703, -34.286794384796302 ], [ -71.301950683548597, -34.286638230078999 ], [ -71.301995310827394, -34.286504283501998 ], [ -71.302028264606406, -34.2863848689463 ], [ -71.302059884597, -34.286279792065798 ], [ -71.3021147351824, -34.286141359946299 ], [ -71.302190266996803, -34.286002539040297 ], [ -71.3023026094843, -34.285948901774397 ], [ -71.302420356919001, -34.285903750363403 ], [ -71.302552560683395, -34.285819682547697 ], [ -71.302667095138304, -34.285783178878802 ], [ -71.302804033715205, -34.285746253844103 ], [ -71.302914847750301, -34.285699800623497 ], [ -71.303055037738304, -34.2856556583192 ], [ -71.3032023176211, -34.285618537476402 ], [ -71.303304630671704, -34.285576538014197 ], [ -71.303468831199993, -34.285527649442798 ], [ -71.303541059401198, -34.2855205658892 ], [ -71.303614542913607, -34.285496283551197 ], [ -71.303700836405397, -34.285435979142299 ], [ -71.303821126494597, -34.285420834609504 ], [ -71.304160960454993, -34.285362916089497 ], [ -71.304373925082999, -34.285331714806198 ], [ -71.3046157185113, -34.285282796445003 ], [ -71.304826685238893, -34.285241613604001 ], [ -71.305014030635306, -34.285219480913099 ], [ -71.305216575786503, -34.285185612659902 ], [ -71.305330243954302, -34.285180610569199 ], [ -71.305470509814199, -34.285139325729297 ], [ -71.305739798558506, -34.285087024158102 ], [ -71.305929965763596, -34.2850419376906 ], [ -71.306128866605803, -34.285000979807599 ], [ -71.306282411926304, -34.284940838069801 ], [ -71.306474617609297, -34.284844186121703 ], [ -71.306657028713005, -34.284767755991297 ], [ -71.306880607043794, -34.284683394329399 ], [ -71.307071440563007, -34.284599649102198 ], [ -71.307251892998295, -34.284514667443098 ], [ -71.307377235026195, -34.284432155524897 ], [ -71.3075310130681, -34.284380595429703 ], [ -71.307720314298294, -34.284367009353801 ], [ -71.307878084111493, -34.284398386664598 ], [ -71.308013097015206, -34.284417311744399 ], [ -71.308125696797504, -34.284434965906399 ], [ -71.308063654884094, -34.2843231914119 ], [ -71.307923992938896, -34.284269662967297 ], [ -71.307818355914605, -34.284253046761101 ], [ -71.307695955405194, -34.284253921445099 ], [ -71.307561958865094, -34.284272190510201 ], [ -71.307476179648802, -34.284288119279402 ], [ -71.307305716340394, -34.284360031280102 ] ] ] } },
{ "type": "Feature", "properties": { "id": "monoparte.7", "Name": null, "description": null, "timestamp": null, "begin": null, "end": null, "altitudeMode": null, "tessellate": -1, "extrude": 0, "visibility": -1, "drawOrder": null, "icon": null, "REG": "O'higgins", "COM": "Las Cabras", "LOC": "Las Cabras", "ZONA": "ZEU1", "NOM": "Zona ZEU1", "UPERM": "Vivienda; equipamiento de escala comunal y vecinal de todo tipo; industrias y almacenamientos inofensivos.", "UPROH": "Todos los no mencionados precedentemente.", "P_DO": "10/10/1986", "N_DOC": "158", "T_DO": "Decreto", "OBS": null }, "geometry": { "type": "Polygon", "coordinates": [ [ [ -71.297958394777595, -34.290978003881598 ], [ -71.298131693649296, -34.291761116368903 ], [ -71.300616517342803, -34.290775500920297 ], [ -71.301481457022305, -34.290453912031197 ], [ -71.302356060018198, -34.290065344527498 ], [ -71.303243184817603, -34.289714701154601 ], [ -71.304447858784798, -34.289205409079202 ], [ -71.305279339849207, -34.288922591034598 ], [ -71.3065552273506, -34.288452701285699 ], [ -71.306766321060294, -34.288373802162099 ], [ -71.305508252360298, -34.2861075851145 ], [ -71.305344891122104, -34.286147987561399 ], [ -71.305077492080599, -34.286195958535799 ], [ -71.304918658832506, -34.286220417284099 ], [ -71.304758421720507, -34.286246094137702 ], [ -71.304598510122702, -34.286283692578898 ], [ -71.304396098597906, -34.286343558958102 ], [ -71.304196688517095, -34.286408139706303 ], [ -71.304043042366303, -34.286464702423501 ], [ -71.303861619042493, -34.286503897411201 ], [ -71.3037230221491, -34.286532744210199 ], [ -71.303615728812801, -34.286550267816402 ], [ -71.303495379561696, -34.286563265726201 ], [ -71.303364548665201, -34.2866134354162 ], [ -71.303205969823793, -34.286699907880902 ], [ -71.303111666929397, -34.286719572331599 ], [ -71.3030129585201, -34.286735741178198 ], [ -71.302856800899406, -34.286752990211099 ], [ -71.302755413904293, -34.286776365973999 ], [ -71.302710561363895, -34.286817761561103 ], [ -71.302672266293001, -34.286888851849902 ], [ -71.302646930525796, -34.286960891260598 ], [ -71.3026065760656, -34.2870618391634 ], [ -71.302543367811694, -34.287220466268501 ], [ -71.302503826397697, -34.287351215962197 ], [ -71.302450151543098, -34.287490580907203 ], [ -71.302416425190799, -34.287571126665298 ], [ -71.302287180979604, -34.287732188811702 ], [ -71.302189804837795, -34.287797232864797 ], [ -71.302057209621694, -34.287835507347801 ], [ -71.301945996603706, -34.287867415818901 ], [ -71.301806837420799, -34.287928474671602 ], [ -71.301658081167005, -34.2880064119351 ], [ -71.301441912163696, -34.288141673540103 ], [ -71.301266516164901, -34.288243965015099 ], [ -71.301030141795707, -34.288376028115202 ], [ -71.300834409529799, -34.288470352438402 ], [ -71.300653396744906, -34.288577519757297 ], [ -71.300477342623196, -34.288708447726002 ], [ -71.300306968361596, -34.288836884080098 ], [ -71.300180070842998, -34.288978815333998 ], [ -71.300087358173897, -34.289056890900497 ], [ -71.299984857257797, -34.289092212385597 ], [ -71.299867960187001, -34.289126610449102 ], [ -71.299797810663094, -34.289136277372698 ], [ -71.299658980386596, -34.289156775410902 ], [ -71.299542279129398, -34.289198326249597 ], [ -71.299361919678006, -34.289276854213703 ], [ -71.299271395275596, -34.289329841240999 ], [ -71.299218408839707, -34.289389279309503 ], [ -71.299152001929997, -34.289483557612201 ], [ -71.299095518397806, -34.289572879312601 ], [ -71.299034135016498, -34.289693303794998 ], [ -71.298976214862705, -34.289782652413301 ], [ -71.2989132648827, -34.289898335976503 ], [ -71.298878455219693, -34.289992020986602 ], [ -71.298824999143605, -34.2901397290006 ], [ -71.298730703337696, -34.290318021620102 ], [ -71.298598471601395, -34.290528037045803 ], [ -71.298570687043707, -34.290563147752799 ], [ -71.298550019401304, -34.290595739287497 ], [ -71.298524848794798, -34.2906212585765 ], [ -71.298489526083998, -34.290643390926498 ], [ -71.2984340625909, -34.290664707584497 ], [ -71.298388946063795, -34.290696565165199 ], [ -71.298335113767095, -34.290725007924799 ], [ -71.298297372874003, -34.290763883809099 ], [ -71.298239393715903, -34.290798367418397 ], [ -71.298152656531499, -34.290832198791101 ], [ -71.298086060062104, -34.2908668449451 ], [ -71.297958394777595, -34.290978003881598 ] ] ] } },
{ "type": "Feature", "properties": { "id": "monoparte.8", "Name": null, "description": null, "timestamp": null, "begin": null, "end": null, "altitudeMode": null, "tessellate": -1, "extrude": 0, "visibility": -1, "drawOrder": null, "icon": null, "REG": "O'higgins", "COM": "Las Cabras", "LOC": "Las Cabras", "ZONA": "ZEU1", "NOM": "Zona ZEU1", "UPERM": "Vivienda; equipamiento de escala comunal y vecinal de todo tipo; industrias y almacenamientos inofensivos.", "UPROH": "Todos los no mencionados precedentemente.", "P_DO": "10/10/1986", "N_DOC": "158", "T_DO": "Decreto", "OBS": null }, "geometry": { "type": "Polygon", "coordinates": [ [ [ -71.303622419676302, -34.280034224612599 ], [ -71.302745624223306, -34.280417473418098 ], [ -71.302685227858305, -34.280573663074698 ], [ -71.302392046861598, -34.2814140797608 ], [ -71.302432910097096, -34.281595201333801 ], [ -71.302490087299901, -34.281847579294599 ], [ -71.302496685920801, -34.281957781877097 ], [ -71.302485577247197, -34.282077262844297 ], [ -71.302463046847393, -34.2821731044641 ], [ -71.302510440255801, -34.282330248252599 ], [ -71.302520548806498, -34.282437403307 ], [ -71.302487247122997, -34.282533447424903 ], [ -71.302465285809106, -34.282650149972703 ], [ -71.302472047162496, -34.282766313451098 ], [ -71.302476194248399, -34.282918307167897 ], [ -71.302484595232897, -34.282962876727602 ], [ -71.302551661547298, -34.283051069974903 ], [ -71.302660918746298, -34.283105669494098 ], [ -71.302769850804907, -34.283148348897001 ], [ -71.302899756290898, -34.283169760409002 ], [ -71.302991142618794, -34.283227678082902 ], [ -71.303033239574802, -34.283322304528802 ], [ -71.303010790858295, -34.283421125321098 ], [ -71.302949091811698, -34.283529630558498 ], [ -71.302880211324293, -34.2836382707995 ], [ -71.302774694378897, -34.283720763362197 ], [ -71.302657511247205, -34.283770675620303 ], [ -71.302515195030495, -34.283821060274597 ], [ -71.302350686345306, -34.283848006996898 ], [ -71.302207394074799, -34.2838626276545 ], [ -71.302063776533103, -34.283865327228099 ], [ -71.301908737166102, -34.283844387245097 ], [ -71.301798409422005, -34.283882241912401 ], [ -71.3015673875678, -34.283973056131302 ], [ -71.301208979186498, -34.284134844178098 ], [ -71.300878398765505, -34.284263309738201 ], [ -71.300732652917006, -34.284319719853798 ], [ -71.300611389980702, -34.284351815829901 ], [ -71.300446959691499, -34.284381740986802 ], [ -71.300297135716093, -34.284420336189498 ], [ -71.300147635481295, -34.284470853068903 ], [ -71.300012579040796, -34.2845240800523 ], [ -71.299899226871602, -34.284582863279198 ], [ -71.299746948183497, -34.284663249898202 ], [ -71.299636861970598, -34.2847100436231 ], [ -71.299569130909703, -34.284729206380703 ], [ -71.299458150061994, -34.284743217167197 ], [ -71.299446468431498, -34.284841836130802 ], [ -71.299434786780296, -34.284940455092801 ], [ -71.299419432621704, -34.285036160569199 ], [ -71.299371683518501, -34.285129493620197 ], [ -71.2992794503065, -34.285304169532303 ], [ -71.299147640194505, -34.285476606826599 ], [ -71.2990057887028, -34.285676068992601 ], [ -71.299220952406898, -34.285600255690902 ], [ -71.300052028315505, -34.285303168432399 ], [ -71.301730485484498, -34.284675274467098 ], [ -71.302908327054098, -34.284238065924001 ], [ -71.303237857929005, -34.284308203421503 ], [ -71.303518048561202, -34.284255224806401 ], [ -71.304340729719698, -34.284072767721298 ], [ -71.305667376443694, -34.283823569122497 ], [ -71.305803295121095, -34.283749446345197 ], [ -71.3058731539018, -34.283571608684603 ], [ -71.305980348059407, -34.283498027427399 ], [ -71.306586685160894, -34.283181273823402 ], [ -71.307207265849001, -34.282790510457502 ], [ -71.306875181712101, -34.282206369876597 ], [ -71.306696252301293, -34.2818370153785 ], [ -71.306614739158604, -34.281746115011899 ], [ -71.3064961021241, -34.281611186254402 ], [ -71.306304354711898, -34.281429925103097 ], [ -71.306098736824097, -34.281266816679 ], [ -71.305915807743304, -34.281013825792201 ], [ -71.305787793335398, -34.280798564292802 ], [ -71.305669336711304, -34.280407197059603 ], [ -71.305486997393302, -34.279912668657197 ], [ -71.305330084368293, -34.279954385700101 ], [ -71.305204261754298, -34.2799507899133 ], [ -71.305086108530006, -34.279964941553096 ], [ -71.304943557118904, -34.280006387818403 ], [ -71.304811612601696, -34.280041670356503 ], [ -71.304699174097095, -34.2800020411036 ], [ -71.304395313268202, -34.279924267439299 ], [ -71.304081913573, -34.279760200796403 ], [ -71.303622419676302, -34.280034224612599 ] ] ] } },
{ "type": "Feature", "properties": { "id": "monoparte.9", "Name": null, "description": null, "timestamp": null, "begin": null, "end": null, "altitudeMode": null, "tessellate": -1, "extrude": 0, "visibility": -1, "drawOrder": null, "icon": null, "REG": "O'higgins", "COM": "Las Cabras", "LOC": "Las Cabras", "ZONA": "Z3", "NOM": "Zona Z3", "UPERM": "Vivienda, equipamiento de escala comunal y vecinal de todo tipo; industrias y almacenamiento inofensivos.", "UPROH": "Todos los no mencionados precedentemente.", "P_DO": "10/10/1986", "N_DOC": "158", "T_DO": "Decreto", "OBS": null }, "geometry": { "type": "Polygon", "coordinates": [ [ [ -71.307422750208005, -34.285413501808399 ], [ -71.307127541965201, -34.285547876707199 ], [ -71.306859394201695, -34.2856209133436 ], [ -71.306546363323406, -34.285734154132498 ], [ -71.306224681205606, -34.285846363354104 ], [ -71.306022630427606, -34.285919346297298 ], [ -71.305860108127405, -34.285966536954398 ], [ -71.305760355870504, -34.285997040243302 ], [ -71.305706626891094, -34.286029062577803 ], [ -71.305527586316103, -34.286102803401697 ], [ -71.305508252360298, -34.2861075851145 ], [ -71.306766321060294, -34.288373802162099 ], [ -71.308863843783797, -34.287589800943799 ], [ -71.309651966647095, -34.288984250019702 ], [ -71.309645715615403, -34.288986638991702 ], [ -71.309653052472896, -34.288999630327602 ], [ -71.310483890319105, -34.290470670882797 ], [ -71.311377835747194, -34.292022222956398 ], [ -71.312075207900605, -34.293216683477098 ], [ -71.310156899273096, -34.293616666347098 ], [ -71.309435140458802, -34.293761478937498 ], [ -71.309341127222098, -34.293608198304199 ], [ -71.309257935604293, -34.293430263587801 ], [ -71.308301316772798, -34.2936394802623 ], [ -71.307109430124299, -34.2939001387467 ], [ -71.305139646173103, -34.2943282349136 ], [ -71.303038020724699, -34.294813883990798 ], [ -71.303137875835802, -34.295015931771303 ], [ -71.299083536661001, -34.295879711369501 ], [ -71.299402341811401, -34.2972469544316 ], [ -71.299814826498206, -34.297168836976198 ], [ -71.3032355034738, -34.2964425857961 ], [ -71.307170469840997, -34.295606363357599 ], [ -71.308923984902904, -34.295247700969298 ], [ -71.310059819250895, -34.295004433902903 ], [ -71.310707451874805, -34.294881291819102 ], [ -71.311281239357697, -34.294738071764399 ], [ -71.311808075762499, -34.296971625509798 ], [ -71.314483741913406, -34.296438031304803 ], [ -71.314281955258906, -34.295683279163697 ], [ -71.313922269321694, -34.294201567429397 ], [ -71.315292515696797, -34.293860791566402 ], [ -71.315234514777501, -34.292428244837303 ], [ -71.315112652655003, -34.290736892583503 ], [ -71.315041630513704, -34.2889342533866 ], [ -71.314988922660504, -34.287667989001797 ], [ -71.314350053833394, -34.287820207997299 ], [ -71.313050273626104, -34.288107161504399 ], [ -71.312239620802401, -34.288283486491203 ], [ -71.311932380525704, -34.288345941358401 ], [ -71.311400482617401, -34.288469289276499 ], [ -71.310918362772696, -34.288573805568902 ], [ -71.310486183637494, -34.288665449892001 ], [ -71.310425958604398, -34.288565205278601 ], [ -71.310207012877598, -34.288178720859499 ], [ -71.309659126855195, -34.287193135486902 ], [ -71.3094097504693, -34.286744605862097 ], [ -71.309099748485394, -34.286180928392199 ], [ -71.308884895020796, -34.285812255015401 ], [ -71.308695846040294, -34.285467923388602 ], [ -71.308638650826694, -34.285475270251197 ], [ -71.308551042982501, -34.285476921674203 ], [ -71.308382453201503, -34.285459823799599 ], [ -71.308240369084004, -34.285413600049701 ], [ -71.308114507045502, -34.2853825757905 ], [ -71.308008916564205, -34.285304654126499 ], [ -71.307948369372198, -34.285244966397997 ], [ -71.307894578144001, -34.285222125149403 ], [ -71.307800637918803, -34.285254906128998 ], [ -71.307668505975997, -34.285309876015098 ], [ -71.307422750208005, -34.285413501808399 ] ] ] } },
{ "type": "Feature", "properties": { "id": "monoparte.10", "Name": null, "description": null, "timestamp": null, "begin": null, "end": null, "altitudeMode": null, "tessellate": -1, "extrude": 0, "visibility": -1, "drawOrder": null, "icon": null, "REG": "O'higgins", "COM": "Las Cabras", "LOC": "Las Cabras", "ZONA": "Z3", "NOM": "Zona Z3", "UPERM": "Vivienda, equipamiento de escala comunal y vecinal de todo tipo; industrias y almacenamiento inofensivos.", "UPROH": "Todos los no mencionados precedentemente.", "P_DO": "10/10/1986", "N_DOC": "158", "T_DO": "Decreto", "OBS": null }, "geometry": { "type": "Polygon", "coordinates": [ [ [ -71.305216575786503, -34.285185612659902 ], [ -71.305014030635306, -34.285219480913099 ], [ -71.305473705093803, -34.286044664979102 ], [ -71.305509980333497, -34.286036938947497 ], [ -71.305625205159998, -34.285994217557302 ], [ -71.3057510732081, -34.2859202839958 ], [ -71.305829249491296, -34.285888994151598 ], [ -71.305921853798793, -34.285859818185898 ], [ -71.306018473701798, -34.285819832317102 ], [ -71.306162748495694, -34.285788490455602 ], [ -71.306293966217794, -34.285752623143502 ], [ -71.306433410531099, -34.285702288167599 ], [ -71.306592668335995, -34.285640845650398 ], [ -71.306703649431299, -34.285600588774102 ], [ -71.306866203093705, -34.2855545892197 ], [ -71.307067044093202, -34.285489977243401 ], [ -71.307355430495093, -34.285368850819403 ], [ -71.307564040695993, -34.285273080899302 ], [ -71.3076916356097, -34.285209847978003 ], [ -71.307782541355493, -34.285171161207401 ], [ -71.307872532403195, -34.285151574464699 ], [ -71.307947246055804, -34.285151359315201 ], [ -71.308006977995404, -34.285181244432898 ], [ -71.308069352730698, -34.285255209382498 ], [ -71.308132445402407, -34.285302922066002 ], [ -71.308215417798706, -34.285341910504798 ], [ -71.308303906040607, -34.285372446288001 ], [ -71.308406788693901, -34.285403903482901 ], [ -71.308478924591199, -34.285414470808398 ], [ -71.308565454859107, -34.285425959550103 ], [ -71.308627244358902, -34.285425987598401 ], [ -71.308669391155703, -34.285419738544199 ], [ -71.308261154459103, -34.284679002515702 ], [ -71.308125696797504, -34.284434965906399 ], [ -71.308013097015206, -34.284417311744399 ], [ -71.307878084111493, -34.284398386664598 ], [ -71.307720314298294, -34.284367009353801 ], [ -71.3075310130681, -34.284380595429703 ], [ -71.307377235026195, -34.284432155524897 ], [ -71.307251892998295, -34.284514667443098 ], [ -71.307071440563007, -34.284599649102198 ], [ -71.306880607043794, -34.284683394329399 ], [ -71.306657028713005, -34.284767755991297 ], [ -71.306474617609297, -34.284844186121703 ], [ -71.306282411926304, -34.284940838069801 ], [ -71.306128866605803, -34.285000979807599 ], [ -71.305929965763596, -34.2850419376906 ], [ -71.305739798558506, -34.285087024158102 ], [ -71.305470509814199, -34.285139325729297 ], [ -71.305330243954302, -34.285180610569199 ], [ -71.305216575786503, -34.285185612659902 ] ] ] } },
{ "type": "Feature", "properties": { "id": "monoparte.11", "Name": null, "description": null, "timestamp": null, "begin": null, "end": null, "altitudeMode": null, "tessellate": -1, "extrude": 0, "visibility": -1, "drawOrder": null, "icon": null, "REG": "O'higgins", "COM": "Las Cabras", "LOC": "Las Cabras", "ZONA": "Z3", "NOM": "Zona Z3", "UPERM": "Vivienda, equipamiento de escala comunal y vecinal de todo tipo; industrias y almacenamiento inofensivos.", "UPROH": "Todos los no mencionados precedentemente.", "P_DO": "10/10/1986", "N_DOC": "158", "T_DO": "Decreto", "OBS": null }, "geometry": { "type": "Polygon", "coordinates": [ [ [ -71.304340729719698, -34.284072767721298 ], [ -71.304942753758795, -34.285100096128197 ], [ -71.305037344851101, -34.285084026702997 ], [ -71.305215566278306, -34.285043459499498 ], [ -71.305346038589704, -34.285022396787802 ], [ -71.305481877086606, -34.285008389674097 ], [ -71.305612622887196, -34.284997340804502 ], [ -71.305816381896193, -34.284944841889001 ], [ -71.306127777388397, -34.284855965665301 ], [ -71.306426952385607, -34.284761593762198 ], [ -71.306692482857301, -34.284634935391701 ], [ -71.3069805727811, -34.284513576554701 ], [ -71.307305716340394, -34.284360031280102 ], [ -71.307476179648802, -34.284288119279402 ], [ -71.307561958865094, -34.284272190510201 ], [ -71.307695955405194, -34.284253921445099 ], [ -71.307818355914605, -34.284253046761101 ], [ -71.307923992938896, -34.284269662967297 ], [ -71.308063654884094, -34.2843231914119 ], [ -71.3079286474361, -34.2840799646984 ], [ -71.307694467754203, -34.283660961694899 ], [ -71.307468122600895, -34.283265665495101 ], [ -71.307207265849001, -34.282790510457502 ], [ -71.306586685160894, -34.283181273823402 ], [ -71.305980348059407, -34.283498027427399 ], [ -71.3058731539018, -34.283571608684603 ], [ -71.305803295121095, -34.283749446345197 ], [ -71.305667376443694, -34.283823569122497 ], [ -71.304340729719698, -34.284072767721298 ] ] ] } },
{ "type": "Feature", "properties": { "id": "monoparte.12", "Name": null, "description": null, "timestamp": null, "begin": null, "end": null, "altitudeMode": null, "tessellate": -1, "extrude": 0, "visibility": -1, "drawOrder": null, "icon": null, "REG": "O'higgins", "COM": "Las Cabras", "LOC": "Las Cabras", "ZONA": "Z2", "NOM": "Zona Z2", "UPERM": "Vivienda; equipamiento de escala comunal y vecinal de todo tipo con excepción de servicios artesanales de escala comunal; almacenamiento inofensivos.", "UPROH": "Todos los no mencionados precedentemente.", "P_DO": "10/10/1986", "N_DOC": "158", "T_DO": "Decreto", "OBS": null }, "geometry": { "type": "Polygon", "coordinates": [ [ [ -71.300616517342803, -34.290775500920297 ], [ -71.298131693649296, -34.291761116368903 ], [ -71.298289259710003, -34.292473116627797 ], [ -71.298373856779094, -34.292835961865102 ], [ -71.301464689946698, -34.291630249096897 ], [ -71.303038020724699, -34.294813883990798 ], [ -71.305139646173103, -34.2943282349136 ], [ -71.307109430124299, -34.2939001387467 ], [ -71.306930165571103, -34.293440741359298 ], [ -71.308136517129498, -34.293181364616302 ], [ -71.309021728545304, -34.292991026984602 ], [ -71.308411442107001, -34.291905232777403 ], [ -71.307572913973303, -34.290354998230299 ], [ -71.3065552273506, -34.288452701285699 ], [ -71.305279339849207, -34.288922591034598 ], [ -71.304447858784798, -34.289205409079202 ], [ -71.303243184817603, -34.289714701154601 ], [ -71.302356060018198, -34.290065344527498 ], [ -71.301481457022305, -34.290453912031197 ], [ -71.300616517342803, -34.290775500920297 ] ] ] } },
{ "type": "Feature", "properties": { "id": "monoparte.13", "Name": null, "description": null, "timestamp": null, "begin": null, "end": null, "altitudeMode": null, "tessellate": -1, "extrude": 0, "visibility": -1, "drawOrder": null, "icon": null, "REG": "O'higgins", "COM": "Las Cabras", "LOC": "Las Cabras", "ZONA": "Z2", "NOM": "Zona Z2", "UPERM": "Vivienda; equipamiento de escala comunal y vecinal de todo tipo con excepción de servicios artesanales de escala comunal; almacenamiento inofensivos.", "UPROH": "Todos los no mencionados precedentemente.", "P_DO": "10/10/1986", "N_DOC": "158", "T_DO": "Decreto", "OBS": null }, "geometry": { "type": "Polygon", "coordinates": [ [ [ -71.303518048561202, -34.284255224806401 ], [ -71.303237857929005, -34.284308203421503 ], [ -71.302908327054098, -34.284238065924001 ], [ -71.301730485484498, -34.284675274467098 ], [ -71.300052028315505, -34.285303168432399 ], [ -71.299220952406898, -34.285600255690902 ], [ -71.2990057887028, -34.285676068992601 ], [ -71.298914708421904, -34.285761268869003 ], [ -71.298819388197103, -34.285822694190301 ], [ -71.298702605600198, -34.285887503811999 ], [ -71.298706746384298, -34.286039497854297 ], [ -71.298698572813706, -34.286135069373202 ], [ -71.298658572186795, -34.286249128367203 ], [ -71.298610982895596, -34.2863484212073 ], [ -71.298556132939297, -34.286444868766999 ], [ -71.298504953167594, -34.286544228054098 ], [ -71.298436308130405, -34.286661807009402 ], [ -71.2983566475354, -34.286770647152203 ], [ -71.298300822860199, -34.286831330881597 ], [ -71.298200917060896, -34.286988259007202 ], [ -71.298128437476095, -34.287096964253301 ], [ -71.298113081600903, -34.2871926705118 ], [ -71.298108661009806, -34.287294134636603 ], [ -71.298102859356106, -34.287344934090001 ], [ -71.298150511326895, -34.287379821008997 ], [ -71.298213174964999, -34.287438281179 ], [ -71.298291743352195, -34.287553097390699 ], [ -71.298348119677698, -34.287644475051202 ], [ -71.298386704905596, -34.287742150542996 ], [ -71.2984104397636, -34.287822213720602 ], [ -71.298388390638607, -34.287935935718501 ], [ -71.298325789519097, -34.288011656112801 ], [ -71.298244909858099, -34.288075791559997 ], [ -71.298131877526004, -34.288146494284298 ], [ -71.297869416717305, -34.288270691337999 ], [ -71.297714250556695, -34.288509164567301 ], [ -71.297604624887398, -34.288705039048303 ], [ -71.297542834081199, -34.288810561000297 ], [ -71.297492833032393, -34.288874117565904 ], [ -71.297768311337194, -34.290119026715097 ], [ -71.297869104941, -34.290031988250703 ], [ -71.297948397265401, -34.289967524879401 ], [ -71.298070231746905, -34.289882225482302 ], [ -71.298152540632302, -34.289783441640097 ], [ -71.2982386180567, -34.289651581895001 ], [ -71.298320001080796, -34.2894740089069 ], [ -71.298373760212002, -34.289358498122397 ], [ -71.298419485675595, -34.289264608374502 ], [ -71.298476574681999, -34.289144741717003 ], [ -71.298514071510795, -34.289065318092703 ], [ -71.2985492607053, -34.288964469289397 ], [ -71.298616885304298, -34.2888515615888 ], [ -71.298700020774604, -34.288738362712998 ], [ -71.298773711444497, -34.2886582596457 ], [ -71.298850498196103, -34.288565217511099 ], [ -71.298943576457006, -34.288500494747097 ], [ -71.298987101208397, -34.288452445593897 ], [ -71.299020518780907, -34.288413173736899 ], [ -71.299142700820298, -34.288340748609102 ], [ -71.299246743358594, -34.288298719973596 ], [ -71.299372917816598, -34.288246256431698 ], [ -71.299533329215805, -34.288184562336298 ], [ -71.299671060364304, -34.288113275542798 ], [ -71.299751051395603, -34.2880745606465 ], [ -71.299884236154597, -34.288026259182097 ], [ -71.300034772661405, -34.287981925030699 ], [ -71.300242660795107, -34.287890714031199 ], [ -71.300342943188198, -34.287837305016303 ], [ -71.300501432888097, -34.287768489016699 ], [ -71.300691141236399, -34.287706244002898 ], [ -71.3008665542541, -34.287625660425597 ], [ -71.301048743802298, -34.287540655043799 ], [ -71.301200573614906, -34.287480551762101 ], [ -71.301309120562195, -34.287414104879502 ], [ -71.301419547461705, -34.287353348522402 ], [ -71.301564683792904, -34.287237550943097 ], [ -71.301652041145203, -34.2871528960384 ], [ -71.301709910554493, -34.286998663030097 ], [ -71.301768293982903, -34.286800050784201 ], [ -71.301819503298404, -34.286654531369898 ], [ -71.301827229329902, -34.286558491199699 ], [ -71.301821089622294, -34.286459849113598 ], [ -71.301838642203194, -34.286407993802499 ], [ -71.301873118212896, -34.286344370315803 ], [ -71.301894039600398, -34.286289589156098 ], [ -71.301899060146098, -34.286220794246901 ], [ -71.301920691850299, -34.286128786034901 ], [ -71.301949528472093, -34.286048093388203 ], [ -71.302010914907797, -34.285959633061204 ], [ -71.302089380634399, -34.285865125718203 ], [ -71.302235606442594, -34.285789382232601 ], [ -71.302399808082299, -34.285740495054903 ], [ -71.302574038965801, -34.285679969011298 ], [ -71.3027688717155, -34.285616192835299 ], [ -71.302944824948497, -34.285555633888997 ], [ -71.303093320028907, -34.285499884386198 ], [ -71.303203859167297, -34.2854434177058 ], [ -71.3032955591231, -34.285391598567301 ], [ -71.303360229647097, -34.285360326272396 ], [ -71.303639705055303, -34.285302112656296 ], [ -71.303869942090401, -34.285272019072799 ], [ -71.304067434272397, -34.285242541096103 ], [ -71.304292696511595, -34.285219696166898 ], [ -71.304425010570995, -34.285202894007902 ], [ -71.304565550475303, -34.285171624314202 ], [ -71.304800488664, -34.285124265404399 ], [ -71.304942753758795, -34.285100096128197 ], [ -71.304340729719698, -34.284072767721298 ], [ -71.303518048561202, -34.284255224806401 ] ] ] } },
{ "type": "Feature", "properties": { "id": "monoparte.14", "Name": null, "description": null, "timestamp": null, "begin": null, "end": null, "altitudeMode": null, "tessellate": -1, "extrude": 0, "visibility": -1, "drawOrder": null, "icon": null, "REG": "O'higgins", "COM": "Las Cabras", "LOC": "Las Cabras", "ZONA": "ZEB", "NOM": "Zona ZEB", "UPERM": "Equipamiento de escala comunal de comercio minorista; terminales de buses y agro-precuarios; depósitos de buses y camiones.", "UPROH": "Todos los no mencionados precedentemente.", "P_DO": "10/10/1986", "N_DOC": "158", "T_DO": "Decreto", "OBS": null }, "geometry": { "type": "Polygon", "coordinates": [ [ [ -71.306930165571103, -34.293440741359298 ], [ -71.307109430124299, -34.2939001387467 ], [ -71.308301316772798, -34.2936394802623 ], [ -71.308239720689599, -34.293410975647603 ], [ -71.308136517129498, -34.293181364616302 ], [ -71.306930165571103, -34.293440741359298 ] ] ] } }
]
}
