{
"type": "FeatureCollection",
"name": "IPT_06_PRC_Coltauco",
"crs": { "type": "name", "properties": { "name": "urn:ogc:def:crs:OGC:1.3:CRS84" } },
"features": [
{ "type": "Feature", "properties": { "id": "monoparte.1", "Name": null, "description": null, "timestamp": null, "begin": null, "end": null, "altitudeMode": null, "tessellate": -1, "extrude": 0, "visibility": -1, "drawOrder": null, "icon": null, "REG": "O'higgins", "COM": "Coltauco", "LOC": "Coltauco", "ZONA": "Z-2", "NOM": "Zona Z-2", "UPERM": "Vivienda; Equipamiento de escala vecinal y comunal de todo tipo: Industria inofensiva, almacenamiento inofensivo.", "UPROH": "Todos los no mencionados precedentemente.", "P_DO": "18/12/1995", "N_DOC": "11", "T_DO": "Resolución", "OBS": null }, "geometry": { "type": "Polygon", "coordinates": [ [ [ -71.084496942010304, -34.288785607096301 ], [ -71.081792505090107, -34.2928679859304 ], [ -71.083703665532497, -34.294085771389398 ], [ -71.083718220674498, -34.294064489634998 ], [ -71.083720930047093, -34.294060707185103 ], [ -71.084704558290596, -34.292687164334701 ], [ -71.086720972040496, -34.290023917514603 ], [ -71.086990052931696, -34.289747377857402 ], [ -71.086351421939099, -34.289393362769196 ], [ -71.086571727523094, -34.289106495417201 ], [ -71.086208606342197, -34.288864379638802 ], [ -71.086199272759401, -34.288857781810201 ], [ -71.086063077807296, -34.288755874122401 ], [ -71.086024737480997, -34.288787869581299 ], [ -71.085684371583397, -34.288533189004902 ], [ -71.084919287822501, -34.288011475769203 ], [ -71.084496942010304, -34.288785607096301 ] ] ] } },
{ "type": "Feature", "properties": { "id": "monoparte.2", "Name": null, "description": null, "timestamp": null, "begin": null, "end": null, "altitudeMode": null, "tessellate": -1, "extrude": 0, "visibility": -1, "drawOrder": null, "icon": null, "REG": "O'higgins", "COM": "Coltauco", "LOC": "Coltauco", "ZONA": "Z-2", "NOM": "Zona Z-2", "UPERM": "Vivienda; Equipamiento de escala vecinal y comunal de todo tipo: Industria inofensiva, almacenamiento inofensivo.", "UPROH": "Todos los no mencionados precedentemente.", "P_DO": "18/12/1995", "N_DOC": "11", "T_DO": "Resolución", "OBS": null }, "geometry": { "type": "Polygon", "coordinates": [ [ [ -71.084423402583994, -34.282353867516498 ], [ -71.083324912584999, -34.284066591249299 ], [ -71.082180966789494, -34.283547444726103 ], [ -71.081499011570202, -34.284682028763498 ], [ -71.081346571617701, -34.284619015653902 ], [ -71.080096848938993, -34.2837635487273 ], [ -71.080044371613795, -34.283674980935103 ], [ -71.079839986292598, -34.2839956572641 ], [ -71.079839353609998, -34.283996650785497 ], [ -71.081590095242206, -34.285157695172003 ], [ -71.081594944773798, -34.285161020018201 ], [ -71.082787041923496, -34.286002659437301 ], [ -71.082975074218396, -34.286135943452301 ], [ -71.083000601530301, -34.286094767346597 ], [ -71.083920146295696, -34.286746562796303 ], [ -71.084404159048503, -34.287076874405201 ], [ -71.085244953703693, -34.287650227858698 ], [ -71.087187414876595, -34.284566402959904 ], [ -71.087018379687393, -34.284152742002803 ], [ -71.086931227359997, -34.283792911387103 ], [ -71.086725998295506, -34.284052132739298 ], [ -71.0865853337163, -34.2842890881318 ], [ -71.086480503717695, -34.284282185805402 ], [ -71.084698400892293, -34.2824708102263 ], [ -71.084423402583994, -34.282353867516498 ] ] ] } },
{ "type": "Feature", "properties": { "id": "monoparte.3", "Name": null, "description": null, "timestamp": null, "begin": null, "end": null, "altitudeMode": null, "tessellate": -1, "extrude": 0, "visibility": -1, "drawOrder": null, "icon": null, "REG": "O'higgins", "COM": "Coltauco", "LOC": "Coltauco", "ZONA": "Z-2", "NOM": "Zona Z-2", "UPERM": "Vivienda; Equipamiento de escala vecinal y comunal de todo tipo: Industria inofensiva, almacenamiento inofensivo.", "UPROH": "Todos los no mencionados precedentemente.", "P_DO": "18/12/1995", "N_DOC": "11", "T_DO": "Resolución", "OBS": null }, "geometry": { "type": "Polygon", "coordinates": [ [ [ -71.062389111358797, -34.2827292749256 ], [ -71.063264455774998, -34.283561414711002 ], [ -71.0650297410794, -34.2849391573763 ], [ -71.065189351967604, -34.285002070138503 ], [ -71.065406128387806, -34.2850520901221 ], [ -71.065658916004097, -34.284975491806399 ], [ -71.0659782223197, -34.284869912317497 ], [ -71.067089492568698, -34.284221370113698 ], [ -71.0681656740189, -34.2835710257377 ], [ -71.068710876005696, -34.284122429550699 ], [ -71.069944978628399, -34.284638335163301 ], [ -71.0710591435314, -34.2850679888721 ], [ -71.071819785232293, -34.285358431629099 ], [ -71.071818754326202, -34.285360243316397 ], [ -71.072480021285102, -34.285610529689798 ], [ -71.073028152251496, -34.285804967796899 ], [ -71.074116021920702, -34.286215954076901 ], [ -71.075211641298907, -34.2865910151734 ], [ -71.076358278865001, -34.2869365745618 ], [ -71.077374058533195, -34.287219932681403 ], [ -71.077759135387595, -34.287320895150003 ], [ -71.076201749479694, -34.289853549346901 ], [ -71.074030687458404, -34.293435293244897 ], [ -71.073814088192705, -34.293744313969398 ], [ -71.073765302938696, -34.293864418678098 ], [ -71.074192752840602, -34.294181617575603 ], [ -71.074776060501506, -34.2945248013582 ], [ -71.075620068875097, -34.294949444443901 ], [ -71.076017621796794, -34.2949856470253 ], [ -71.076584283118507, -34.295119173798398 ], [ -71.076983011306098, -34.2952030639727 ], [ -71.077337413066104, -34.295354500212802 ], [ -71.077550459090304, -34.295370833021799 ], [ -71.0777407150226, -34.295390598719699 ], [ -71.078181431489099, -34.2955453394705 ], [ -71.078754630439803, -34.295713006139898 ], [ -71.079086126554003, -34.295814715202802 ], [ -71.079269604959705, -34.295911793821404 ], [ -71.079508711672801, -34.295986471493798 ], [ -71.079758120980003, -34.296139669786903 ], [ -71.079963278541499, -34.296236393591201 ], [ -71.080219899253393, -34.296332214035999 ], [ -71.080485159150498, -34.296418374069297 ], [ -71.0807436044079, -34.296588114956798 ], [ -71.080982042940605, -34.296756415423303 ], [ -71.081374278618497, -34.296985330164802 ], [ -71.081710500826006, -34.297151390158803 ], [ -71.081967125082997, -34.297247206770898 ], [ -71.082339537375404, -34.297312442656001 ], [ -71.082611891788702, -34.297336452457102 ], [ -71.082878270351401, -34.297412168927799 ], [ -71.083291098589896, -34.297600762391397 ], [ -71.083640953378705, -34.2977999687376 ], [ -71.083885604507103, -34.297929397509002 ], [ -71.084392503125102, -34.298202267384902 ], [ -71.084912580051494, -34.298492458217702 ], [ -71.087055170430006, -34.295865240384899 ], [ -71.083475910625097, -34.294611753628402 ], [ -71.083475382985796, -34.294608292233697 ], [ -71.083351553522505, -34.2945843949175 ], [ -71.082819340408193, -34.295380684401898 ], [ -71.082277754179898, -34.295054147107301 ], [ -71.081350729849802, -34.296361132886702 ], [ -71.081149654987399, -34.296250043124999 ], [ -71.080903011653604, -34.296039532821197 ], [ -71.080707734938599, -34.295813836807497 ], [ -71.080477803724094, -34.2955815720372 ], [ -71.080408141957406, -34.295554128694398 ], [ -71.079823579367797, -34.295277789179103 ], [ -71.079284762177707, -34.295108020901502 ], [ -71.079075778177696, -34.295025688638901 ], [ -71.078115124110894, -34.294533867029898 ], [ -71.077696633988197, -34.294347736357103 ], [ -71.077295032109603, -34.294147004370799 ], [ -71.076489369880704, -34.293645384264998 ], [ -71.076023741487504, -34.293295442447601 ], [ -71.077826932253799, -34.290564398348501 ], [ -71.078181464738805, -34.290780241085699 ], [ -71.0784700346737, -34.290943527215703 ], [ -71.078793963238098, -34.291141995508603 ], [ -71.079026864928593, -34.291320538521397 ], [ -71.079515010591507, -34.291709448227103 ], [ -71.0798983200104, -34.292042882782901 ], [ -71.080328599510096, -34.292383601344 ], [ -71.081159839831301, -34.291224737746198 ], [ -71.081823313327902, -34.290310766784103 ], [ -71.081783946320101, -34.290297548124997 ], [ -71.079982688569103, -34.289402310699302 ], [ -71.081363773514795, -34.287508650310897 ], [ -71.081926118222199, -34.286634610307601 ], [ -71.081984046497695, -34.2866527104498 ], [ -71.082436210463499, -34.286228339505399 ], [ -71.081316032432596, -34.285437472570599 ], [ -71.079632588621294, -34.284321057568903 ], [ -71.078212996732006, -34.286548278887203 ], [ -71.077532143806707, -34.286321469562303 ], [ -71.0749144700751, -34.285491782085799 ], [ -71.074165891152106, -34.285203879272302 ], [ -71.073068361184596, -34.284750116368301 ], [ -71.072349104622404, -34.284427656601899 ], [ -71.072344544887201, -34.284435674429901 ], [ -71.070785045452993, -34.283758170861702 ], [ -71.069756848673805, -34.283317518686196 ], [ -71.069336854882593, -34.2830669730604 ], [ -71.069026946076406, -34.283086521769903 ], [ -71.067862686031106, -34.282018358291097 ], [ -71.066443871935704, -34.282873040386797 ], [ -71.065713165340199, -34.283238901005703 ], [ -71.065498336248794, -34.283346463357297 ], [ -71.0652844545303, -34.283160791499398 ], [ -71.063014943150193, -34.281119700362296 ], [ -71.062226878109598, -34.280388669482903 ], [ -71.064218704421293, -34.278028382367403 ], [ -71.066635329227097, -34.275425830370899 ], [ -71.066666798576307, -34.275391938059997 ], [ -71.065608689510697, -34.274664544812403 ], [ -71.065319342460796, -34.274465630286002 ], [ -71.065058256737899, -34.274286142247803 ], [ -71.065240724550094, -34.274411734132499 ], [ -71.063322816158006, -34.276624054231696 ], [ -71.061889763509399, -34.278300100688099 ], [ -71.0599406328177, -34.280685989812 ], [ -71.061889369969904, -34.282317855252302 ], [ -71.062389111358797, -34.2827292749256 ] ] ] } },
{ "type": "Feature", "properties": { "id": "monoparte.4", "Name": null, "description": null, "timestamp": null, "begin": null, "end": null, "altitudeMode": null, "tessellate": -1, "extrude": 0, "visibility": -1, "drawOrder": null, "icon": null, "REG": "O'higgins", "COM": "Coltauco", "LOC": "Coltauco", "ZONA": "Z-2", "NOM": "Zona Z-2", "UPERM": "Vivienda; Equipamiento de escala vecinal y comunal de todo tipo: Industria inofensiva, almacenamiento inofensivo.", "UPROH": "Todos los no mencionados precedentemente.", "P_DO": "18/12/1995", "N_DOC": "11", "T_DO": "Resolución", "OBS": null }, "geometry": { "type": "Polygon", "coordinates": [ [ [ -71.065033515827906, -34.273800976139803 ], [ -71.066932127333999, -34.275106183772102 ], [ -71.066932151642405, -34.275106156312901 ], [ -71.066941662881703, -34.275095913746398 ], [ -71.066932875650394, -34.275030459029601 ], [ -71.065133037431593, -34.273701031889303 ], [ -71.065034025372995, -34.2738004500114 ], [ -71.065033515827906, -34.273800976139803 ] ] ] } },
{ "type": "Feature", "properties": { "id": "monoparte.5", "Name": null, "description": null, "timestamp": null, "begin": null, "end": null, "altitudeMode": null, "tessellate": -1, "extrude": 0, "visibility": -1, "drawOrder": null, "icon": null, "REG": "O'higgins", "COM": "Coltauco", "LOC": "Coltauco", "ZONA": "Z-I", "NOM": "Zona Z-I", "UPERM": "Vivienda de cuidador, equipamiento de escala comunal y vecinal de áreas verdes, deportes y recreación, talleres artesanales inofensivo y/o molesto; industria y almacenamiento inofensivo y/o molesto, almacenamiento de buses.", "UPROH": "Todos los no mencionados precedentemente.", "P_DO": "18/12/1995", "N_DOC": "11", "T_DO": "Resolución", "OBS": null }, "geometry": { "type": "Polygon", "coordinates": [ [ [ -71.087187414876595, -34.284566402959904 ], [ -71.085244953703693, -34.287650227858698 ], [ -71.086033896430294, -34.288188209289999 ], [ -71.086043342249397, -34.288194956695698 ], [ -71.086389768399499, -34.288454171939499 ], [ -71.086356705346503, -34.288490115098 ], [ -71.086485563459803, -34.2885865330055 ], [ -71.088285479031001, -34.289786624827101 ], [ -71.088450406168207, -34.2898965874437 ], [ -71.089465452004006, -34.290573337563899 ], [ -71.089469424540795, -34.290576053118002 ], [ -71.089773032923404, -34.290788670413903 ], [ -71.0899513011057, -34.290908825197299 ], [ -71.090078173883796, -34.290991525883797 ], [ -71.0902517786663, -34.291081879830003 ], [ -71.090388593242906, -34.2911554311885 ], [ -71.090400295118499, -34.291162185717901 ], [ -71.090515545948506, -34.291233477636602 ], [ -71.090642413806606, -34.291306512342999 ], [ -71.090817039430902, -34.2913785684229 ], [ -71.090825326182994, -34.2913821750222 ], [ -71.091103125634106, -34.291509900289697 ], [ -71.091199932591195, -34.291554271872101 ], [ -71.091343836887404, -34.291607045673302 ], [ -71.091484766117105, -34.291653298140702 ], [ -71.091590394115897, -34.291689157971 ], [ -71.091699406552706, -34.291726262757898 ], [ -71.091832360883402, -34.291764167602203 ], [ -71.091840056583393, -34.291766496701499 ], [ -71.091998772322199, -34.291817375770599 ], [ -71.092191665836197, -34.291874940600003 ], [ -71.092220344223804, -34.291883588681102 ], [ -71.092374079051694, -34.291933920302398 ], [ -71.092494744973905, -34.291962695294004 ], [ -71.092504838065906, -34.2919653242053 ], [ -71.092515801411807, -34.291968701925597 ], [ -71.092552062287993, -34.2919808043454 ], [ -71.092517393762805, -34.2917801398522 ], [ -71.092477713100394, -34.291570889118098 ], [ -71.092445197280995, -34.291418768414403 ], [ -71.092407291148405, -34.2912810531299 ], [ -71.092368793786093, -34.291119492659398 ], [ -71.092256545726499, -34.290997361615403 ], [ -71.092056468826996, -34.290992085035001 ], [ -71.091883733497696, -34.290980722182297 ], [ -71.091660853319596, -34.2910838747204 ], [ -71.091420231007504, -34.2911166106406 ], [ -71.091119835481507, -34.291122587516 ], [ -71.090820636493802, -34.291045738596097 ], [ -71.090721233386205, -34.291043512542899 ], [ -71.090382965383498, -34.290963406486497 ], [ -71.090102579052697, -34.290833751801998 ], [ -71.089949167301498, -34.290674151504298 ], [ -71.089786596362302, -34.290558495771698 ], [ -71.089743130094703, -34.290473420431297 ], [ -71.089980528067599, -34.290315781656801 ], [ -71.090086865971202, -34.290199460185498 ], [ -71.090110773862804, -34.290120328299203 ], [ -71.090081904056902, -34.289999157934197 ], [ -71.090022081717294, -34.289904755856597 ], [ -71.089898691817396, -34.289862384085502 ], [ -71.089777141686696, -34.289828674298299 ], [ -71.089586995077397, -34.289810449004499 ], [ -71.089403163881201, -34.2896990784159 ], [ -71.089104984975506, -34.289496620783602 ], [ -71.088790633514193, -34.2893373782819 ], [ -71.088700726403601, -34.289188620867797 ], [ -71.088826643109201, -34.289050496083398 ], [ -71.089120330915904, -34.288723435928397 ], [ -71.089484601388804, -34.288519219768901 ], [ -71.089544960398797, -34.288345236881199 ], [ -71.089556076911506, -34.288213841299601 ], [ -71.089538907653804, -34.288100819307701 ], [ -71.089533888375897, -34.287898132215098 ], [ -71.0895165716245, -34.287779149355998 ], [ -71.089563156390895, -34.287629256740402 ], [ -71.089537180794196, -34.287450782456702 ], [ -71.089426052554401, -34.287315508964703 ], [ -71.089307743121395, -34.2871803569601 ], [ -71.0890977863058, -34.286826103356297 ], [ -71.088986364448303, -34.286678905877302 ], [ -71.088905738210798, -34.286614678442703 ], [ -71.088798153674901, -34.286622476618497 ], [ -71.088743204896403, -34.286724800105702 ], [ -71.088629765623196, -34.286786373770703 ], [ -71.088543875096093, -34.286799766962602 ], [ -71.088384540007894, -34.286748808051698 ], [ -71.088310948092797, -34.286678495999901 ], [ -71.088235733501605, -34.286542608115901 ], [ -71.088173850573895, -34.286364746548102 ], [ -71.088091750071698, -34.286240903611599 ], [ -71.088016388759499, -34.286099054693999 ], [ -71.087904822256405, -34.285945894345197 ], [ -71.087655617356305, -34.285747369314301 ], [ -71.087615135186198, -34.285563177460098 ], [ -71.087560583227102, -34.285391153945397 ], [ -71.087485371078898, -34.285255265487102 ], [ -71.087400774556698, -34.285088525353899 ], [ -71.087209637279997, -34.284620783862103 ], [ -71.087187414876595, -34.284566402959904 ] ] ] } },
{ "type": "Feature", "properties": { "id": "monoparte.6", "Name": null, "description": null, "timestamp": null, "begin": null, "end": null, "altitudeMode": null, "tessellate": -1, "extrude": 0, "visibility": -1, "drawOrder": null, "icon": null, "REG": "O'higgins", "COM": "Coltauco", "LOC": "Coltauco", "ZONA": "Z-D", "NOM": "Zona Z-D", "UPERM": "Vivienda de cuidador; Equipamiento de escala comunal y vecinal de áreas verdes, deportes,  recreación y comercio minorista de escala vecinal.", "UPROH": "Todos los no mencionados precedentemente.", "P_DO": "18/12/1995", "N_DOC": "11", "T_DO": "Resolución", "OBS": null }, "geometry": { "type": "Polygon", "coordinates": [ [ [ -71.079982688569103, -34.289402310699302 ], [ -71.081727089140102, -34.290269290908398 ], [ -71.0827731633551, -34.288832900347302 ], [ -71.080992397428602, -34.288017868690801 ], [ -71.079982688569103, -34.289402310699302 ] ] ] } },
{ "type": "Feature", "properties": { "id": "monoparte.7", "Name": null, "description": null, "timestamp": null, "begin": null, "end": null, "altitudeMode": null, "tessellate": -1, "extrude": 0, "visibility": -1, "drawOrder": null, "icon": null, "REG": "O'higgins", "COM": "Coltauco", "LOC": "Coltauco", "ZONA": "Z-D", "NOM": "Zona Z-D", "UPERM": "Vivienda de cuidador; Equipamiento de escala comunal y vecinal de áreas verdes, deportes,  recreación y comercio minorista de escala vecinal.", "UPROH": "Todos los no mencionados precedentemente.", "P_DO": "18/12/1995", "N_DOC": "11", "T_DO": "Resolución", "OBS": null }, "geometry": { "type": "Polygon", "coordinates": [ [ [ -71.083693690136499, -34.281030575529201 ], [ -71.082184833585799, -34.283541010773703 ], [ -71.082180966789494, -34.283547444726103 ], [ -71.083324912584999, -34.284066591249299 ], [ -71.084423402583994, -34.282353867516498 ], [ -71.084698400892293, -34.2824708102263 ], [ -71.086480503717695, -34.284282185805402 ], [ -71.0865853337163, -34.2842890881318 ], [ -71.086725998295506, -34.284052132739298 ], [ -71.086931227359997, -34.283792911387103 ], [ -71.086905804884694, -34.283687952108998 ], [ -71.086890349219303, -34.283624134795097 ], [ -71.086777019373201, -34.283399437320803 ], [ -71.086398805602101, -34.282922802188303 ], [ -71.086208502253101, -34.2824906779069 ], [ -71.086182350235205, -34.282014009421196 ], [ -71.086070498081398, -34.281848924335002 ], [ -71.085960267112995, -34.281749415056503 ], [ -71.085907343144797, -34.281642966404398 ], [ -71.085846647805994, -34.281512792920203 ], [ -71.085765292378696, -34.281418756015597 ], [ -71.0856335170173, -34.2813196132755 ], [ -71.085423038552804, -34.281233738020603 ], [ -71.085242317822306, -34.2811891031117 ], [ -71.085047675922993, -34.2811625968599 ], [ -71.084853181396397, -34.281142052074699 ], [ -71.084708369565902, -34.281096805172197 ], [ -71.084433256731103, -34.281012028199399 ], [ -71.084230108408804, -34.280931990399502 ], [ -71.083991053165605, -34.2808525622576 ], [ -71.083830994956003, -34.280771790659102 ], [ -71.083693690136499, -34.281030575529201 ] ] ] } },
{ "type": "Feature", "properties": { "id": "monoparte.8", "Name": null, "description": null, "timestamp": null, "begin": null, "end": null, "altitudeMode": null, "tessellate": -1, "extrude": 0, "visibility": -1, "drawOrder": null, "icon": null, "REG": "O'higgins", "COM": "Coltauco", "LOC": "Coltauco", "ZONA": "ZR-2", "NOM": "Zona ZR-2", "UPERM": "Zona de Protección de Camino H-30.", "UPROH": "Todos los no mencionados precedentemente.", "P_DO": "18/12/1995", "N_DOC": "11", "T_DO": "Resolución", "OBS": null }, "geometry": { "type": "Polygon", "coordinates": [ [ [ -71.081316032432596, -34.285437472570599 ], [ -71.082505259994505, -34.286277088791302 ], [ -71.082676287167203, -34.286398315458896 ], [ -71.082644893283302, -34.286435332853003 ], [ -71.083571379812895, -34.287092028606097 ], [ -71.084059368296494, -34.287425080692202 ], [ -71.084238176779905, -34.287547014785098 ], [ -71.085684371583397, -34.288533189004902 ], [ -71.086024737480997, -34.288787869581299 ], [ -71.086063077807296, -34.288755874122401 ], [ -71.086199272759401, -34.288857781810201 ], [ -71.086208606342197, -34.288864379638802 ], [ -71.089191273512, -34.290853040429802 ], [ -71.089496012627393, -34.291066428035698 ], [ -71.0896799862834, -34.2911904386049 ], [ -71.089818884906705, -34.291280994020298 ], [ -71.089837661812894, -34.291291952990399 ], [ -71.090018282414306, -34.291385945528198 ], [ -71.090146402027202, -34.2914548344407 ], [ -71.090258901630094, -34.291524425290497 ], [ -71.090264909846198, -34.2915280113085 ], [ -71.090407785094996, -34.291610259980402 ], [ -71.090426865066405, -34.2916200722225 ], [ -71.090434881533895, -34.2916235554301 ], [ -71.090619307674103, -34.291699656003203 ], [ -71.090892857566502, -34.291825427408597 ], [ -71.0909984805497, -34.291873840301299 ], [ -71.091015552323498, -34.291880859229501 ], [ -71.091172186127693, -34.291938300905301 ], [ -71.091180109567702, -34.2919410526276 ], [ -71.091322646923601, -34.291987826001801 ], [ -71.091425723912806, -34.292022826095298 ], [ -71.091540427156801, -34.292061868808403 ], [ -71.091552280652806, -34.292065572229099 ], [ -71.091687352469094, -34.292104080312001 ], [ -71.091844618946496, -34.292154494735897 ], [ -71.091849384286903, -34.292155968650597 ], [ -71.092064017178799, -34.2922200219327 ], [ -71.092160046322405, -34.2922514613415 ], [ -71.092156819709004, -34.292257103848399 ], [ -71.092224364410797, -34.292272518287497 ], [ -71.092233994793602, -34.292275455367196 ], [ -71.092244086830704, -34.292278084317303 ], [ -71.092364062562297, -34.292306694499501 ], [ -71.0924219138642, -34.292326001763499 ], [ -71.092485537344402, -34.2923487880376 ], [ -71.092503527335893, -34.292354451246403 ], [ -71.092593487293996, -34.292378307628297 ], [ -71.092626244937094, -34.292384716593403 ], [ -71.092634020044699, -34.292385995691198 ], [ -71.092597938733903, -34.292246334262003 ], [ -71.092552062287993, -34.2919808043454 ], [ -71.092515801411807, -34.291968701925597 ], [ -71.092504838065906, -34.2919653242053 ], [ -71.092494744973905, -34.291962695294004 ], [ -71.092374079051694, -34.291933920302398 ], [ -71.092220344223804, -34.291883588681102 ], [ -71.092191665836197, -34.291874940600003 ], [ -71.091998772322199, -34.291817375770599 ], [ -71.091840056583393, -34.291766496701499 ], [ -71.091832360883402, -34.291764167602203 ], [ -71.091699406552706, -34.291726262757898 ], [ -71.091590394115897, -34.291689157971 ], [ -71.091484766117105, -34.291653298140702 ], [ -71.091343836887404, -34.291607045673302 ], [ -71.091199932591195, -34.291554271872101 ], [ -71.091103125634106, -34.291509900289697 ], [ -71.090825326182994, -34.2913821750222 ], [ -71.090817039430902, -34.2913785684229 ], [ -71.090642413806606, -34.291306512342999 ], [ -71.090515545948506, -34.291233477636602 ], [ -71.090400295118499, -34.291162185717901 ], [ -71.090388593242906, -34.2911554311885 ], [ -71.0902517786663, -34.291081879830003 ], [ -71.090078173883796, -34.290991525883797 ], [ -71.0899513011057, -34.290908825197299 ], [ -71.089773032923404, -34.290788670413903 ], [ -71.089469424540795, -34.290576053118002 ], [ -71.089465452004006, -34.290573337563899 ], [ -71.088450406168207, -34.2898965874437 ], [ -71.088285479031001, -34.289786624827101 ], [ -71.086485563459803, -34.2885865330055 ], [ -71.086356705346503, -34.288490115098 ], [ -71.086389768399499, -34.288454171939499 ], [ -71.086043342249397, -34.288194956695698 ], [ -71.086033896430294, -34.288188209289999 ], [ -71.084404159048503, -34.287076874405201 ], [ -71.083920146295696, -34.286746562796303 ], [ -71.083000601530301, -34.286094767346597 ], [ -71.082975074218396, -34.286135943452301 ], [ -71.082787041923496, -34.286002659437301 ], [ -71.081594944773798, -34.285161020018201 ], [ -71.081590095242206, -34.285157695172003 ], [ -71.079839353609998, -34.283996650785497 ], [ -71.079632588621294, -34.284321057568903 ], [ -71.081316032432596, -34.285437472570599 ] ] ] } },
{ "type": "Feature", "properties": { "id": "monoparte.9", "Name": null, "description": null, "timestamp": null, "begin": null, "end": null, "altitudeMode": null, "tessellate": -1, "extrude": 0, "visibility": -1, "drawOrder": null, "icon": null, "REG": "O'higgins", "COM": "Coltauco", "LOC": "Coltauco", "ZONA": "ZR-2", "NOM": "Zona ZR-2", "UPERM": "Zona de Protección de Camino H-30.", "UPROH": "Todos los no mencionados precedentemente.", "P_DO": "18/12/1995", "N_DOC": "11", "T_DO": "Resolución", "OBS": null }, "geometry": { "type": "Polygon", "coordinates": [ [ [ -71.065608689510697, -34.274664544812403 ], [ -71.066666798576307, -34.275391938059997 ], [ -71.066932127333999, -34.275106183772102 ], [ -71.065033515827906, -34.273800976139803 ], [ -71.064761567815495, -34.2740819330756 ], [ -71.065058256737899, -34.274286142247803 ], [ -71.065319342460796, -34.274465630286002 ], [ -71.065608689510697, -34.274664544812403 ] ] ] } },
{ "type": "Feature", "properties": { "id": "monoparte.10", "Name": null, "description": null, "timestamp": null, "begin": null, "end": null, "altitudeMode": null, "tessellate": -1, "extrude": 0, "visibility": -1, "drawOrder": null, "icon": null, "REG": "O'higgins", "COM": "Coltauco", "LOC": "Coltauco", "ZONA": "Z-E", "NOM": "Zona Z-E", "UPERM": "Zona de Protección de Camino H-30. Para mayor detalle, revisar ordenanza.", "UPROH": "Todos los no mencionados anteriormente.", "P_DO": "18/12/1995", "N_DOC": "11", "T_DO": "Resolución", "OBS": null }, "geometry": { "type": "Polygon", "coordinates": [ [ [ -71.081320202651199, -34.287568393434803 ], [ -71.084435505994804, -34.288878349340699 ], [ -71.084496942010304, -34.288785607096301 ], [ -71.084919287822501, -34.288011475769203 ], [ -71.084238176779905, -34.287547014785098 ], [ -71.084059368296494, -34.287425080692202 ], [ -71.083571379812895, -34.287092028606097 ], [ -71.082644893283302, -34.286435332853003 ], [ -71.082676287167203, -34.286398315458896 ], [ -71.082505259994505, -34.286277088791302 ], [ -71.082436210463499, -34.286228339505399 ], [ -71.081984046497695, -34.2866527104498 ], [ -71.081926118222199, -34.286634610307601 ], [ -71.081363773514795, -34.287508650310897 ], [ -71.081320202651199, -34.287568393434803 ] ] ] } },
{ "type": "Feature", "properties": { "id": "monoparte.11", "Name": null, "description": null, "timestamp": null, "begin": null, "end": null, "altitudeMode": null, "tessellate": -1, "extrude": 0, "visibility": -1, "drawOrder": null, "icon": null, "REG": "O'higgins", "COM": "Coltauco", "LOC": "Coltauco", "ZONA": "Z-1", "NOM": "Zona Z-1", "UPERM": "Vivienda; Equipamiento de escala vecinal y comunal de todo tipo, con excepción de talleres mecánicos; Almacenamiento inofensivo.", "UPROH": "Todos los no mencionados precedentemente. Más detalle en ordenanza.", "P_DO": "18/12/1995", "N_DOC": "11", "T_DO": "Resolución", "OBS": null }, "geometry": { "type": "Polygon", "coordinates": [ [ [ -71.092087462896998, -34.292756023217201 ], [ -71.092637721368007, -34.2929231537329 ], [ -71.092623625885906, -34.292818429801898 ], [ -71.092667889098905, -34.292517092476501 ], [ -71.092634020044699, -34.292385995691198 ], [ -71.092626244937094, -34.292384716593403 ], [ -71.092593487293996, -34.292378307628297 ], [ -71.092503527335893, -34.292354451246403 ], [ -71.092485537344402, -34.2923487880376 ], [ -71.0924219138642, -34.292326001763499 ], [ -71.092364062562297, -34.292306694499501 ], [ -71.092244086830704, -34.292278084317303 ], [ -71.092233994793602, -34.292275455367196 ], [ -71.092224364410797, -34.292272518287497 ], [ -71.092156819709004, -34.292257103848399 ], [ -71.092160046322405, -34.2922514613415 ], [ -71.092064017178799, -34.2922200219327 ], [ -71.091849384286903, -34.292155968650597 ], [ -71.091844618946496, -34.292154494735897 ], [ -71.091687352469094, -34.292104080312001 ], [ -71.091552280652806, -34.292065572229099 ], [ -71.091540427156801, -34.292061868808403 ], [ -71.091425723912806, -34.292022826095298 ], [ -71.091322646923601, -34.291987826001801 ], [ -71.091180109567702, -34.2919410526276 ], [ -71.091172186127693, -34.291938300905301 ], [ -71.091015552323498, -34.291880859229501 ], [ -71.0909984805497, -34.291873840301299 ], [ -71.090892857566502, -34.291825427408597 ], [ -71.090619307674103, -34.291699656003203 ], [ -71.090434881533895, -34.2916235554301 ], [ -71.090426865066405, -34.2916200722225 ], [ -71.090407785094996, -34.291610259980402 ], [ -71.090264909846198, -34.2915280113085 ], [ -71.090258901630094, -34.291524425290497 ], [ -71.090146402027202, -34.2914548344407 ], [ -71.090018282414306, -34.291385945528198 ], [ -71.089837661812894, -34.291291952990399 ], [ -71.089818884906705, -34.291280994020298 ], [ -71.0896799862834, -34.2911904386049 ], [ -71.089496012627393, -34.291066428035698 ], [ -71.089191273512, -34.290853040429802 ], [ -71.086571727523094, -34.289106495417201 ], [ -71.086351421939099, -34.289393362769196 ], [ -71.086990052931696, -34.289747377857402 ], [ -71.087236011753603, -34.2899808946718 ], [ -71.087393865654093, -34.2900879407823 ], [ -71.087557466236603, -34.290194887827298 ], [ -71.087745262124898, -34.290299885829697 ], [ -71.087989541295897, -34.290518844920904 ], [ -71.088212108806005, -34.290632214267198 ], [ -71.088947488656004, -34.291145345706603 ], [ -71.089324306868207, -34.291389402105303 ], [ -71.089725595990004, -34.291627420803898 ], [ -71.090269194586995, -34.291990292230601 ], [ -71.090672646380398, -34.292264902126597 ], [ -71.091021549021306, -34.292425934337899 ], [ -71.091560665263501, -34.2926075742729 ], [ -71.092087462896998, -34.292756023217201 ] ] ] } },
{ "type": "Feature", "properties": { "id": "monoparte.12", "Name": null, "description": null, "timestamp": null, "begin": null, "end": null, "altitudeMode": null, "tessellate": -1, "extrude": 0, "visibility": -1, "drawOrder": null, "icon": null, "REG": "O'higgins", "COM": "Coltauco", "LOC": "Coltauco", "ZONA": "Z-1", "NOM": "Zona Z-1", "UPERM": "Vivienda; Equipamiento de escala vecinal y comunal de todo tipo, con excepción de talleres mecánicos; Almacenamiento inofensivo.", "UPROH": "Todos los no mencionados precedentemente. Más detalle en ordenanza.", "P_DO": "18/12/1995", "N_DOC": "11", "T_DO": "Resolución", "OBS": null }, "geometry": { "type": "Polygon", "coordinates": [ [ [ -71.080116041233694, -34.292679931386701 ], [ -71.080030314397902, -34.29278010598 ], [ -71.079907881602693, -34.2927106183935 ], [ -71.079543359030097, -34.293314392817898 ], [ -71.0809617280716, -34.2940095489651 ], [ -71.080796487461001, -34.294302203544703 ], [ -71.081180241343105, -34.294478178977002 ], [ -71.081226235781202, -34.294420142963297 ], [ -71.082819340408193, -34.295380684401898 ], [ -71.083351553522505, -34.2945843949175 ], [ -71.083475382985796, -34.294608292233697 ], [ -71.083460320906894, -34.294509425153102 ], [ -71.083480788463405, -34.294466470459199 ], [ -71.083566896074004, -34.294285754411902 ], [ -71.083703665532497, -34.294085771389398 ], [ -71.081792505090107, -34.2928679859304 ], [ -71.084435505994804, -34.288878349340699 ], [ -71.081320202651199, -34.287568393434803 ], [ -71.080992397428602, -34.288017868690801 ], [ -71.0827731633551, -34.288832900347302 ], [ -71.081727089140102, -34.290269290908398 ], [ -71.081783946320101, -34.290297548124997 ], [ -71.081823313327902, -34.290310766784103 ], [ -71.081159839831301, -34.291224737746198 ], [ -71.080116041233694, -34.292679931386701 ] ] ] } },
{ "type": "Feature", "properties": { "id": "monoparte.13", "Name": null, "description": null, "timestamp": null, "begin": null, "end": null, "altitudeMode": null, "tessellate": -1, "extrude": 0, "visibility": -1, "drawOrder": null, "icon": null, "REG": "O'higgins", "COM": "Coltauco", "LOC": "Coltauco", "ZONA": "Z-3", "NOM": "Zona Z-3", "UPERM": "Vivienda; Equipamiento de escala vecinal y comunal, con excepción de seguridad y servicios artesanales.", "UPROH": "Todos los no mencionados precedentemente.", "P_DO": "18/12/1995", "N_DOC": "11", "T_DO": "Resolución", "OBS": null }, "geometry": { "type": "Polygon", "coordinates": [ [ [ -71.082277754179898, -34.295054147107301 ], [ -71.081226235781202, -34.294420142963297 ], [ -71.081180241343105, -34.294478178977002 ], [ -71.080796487461001, -34.294302203544703 ], [ -71.0809617280716, -34.2940095489651 ], [ -71.079543359030097, -34.293314392817898 ], [ -71.079907881602693, -34.2927106183935 ], [ -71.080030314397902, -34.29278010598 ], [ -71.080116041233694, -34.292679931386701 ], [ -71.080328599510096, -34.292383601344 ], [ -71.0798983200104, -34.292042882782901 ], [ -71.079515010591507, -34.291709448227103 ], [ -71.079026864928593, -34.291320538521397 ], [ -71.078793963238098, -34.291141995508603 ], [ -71.0784700346737, -34.290943527215703 ], [ -71.078181464738805, -34.290780241085699 ], [ -71.077826932253799, -34.290564398348501 ], [ -71.076023741487504, -34.293295442447601 ], [ -71.076489369880704, -34.293645384264998 ], [ -71.077295032109603, -34.294147004370799 ], [ -71.077696633988197, -34.294347736357103 ], [ -71.078115124110894, -34.294533867029898 ], [ -71.079075778177696, -34.295025688638901 ], [ -71.079284762177707, -34.295108020901502 ], [ -71.079823579367797, -34.295277789179103 ], [ -71.080408141957406, -34.295554128694398 ], [ -71.080477803724094, -34.2955815720372 ], [ -71.080707734938599, -34.295813836807497 ], [ -71.080903011653604, -34.296039532821197 ], [ -71.081149654987399, -34.296250043124999 ], [ -71.081350729849802, -34.296361132886702 ], [ -71.082277754179898, -34.295054147107301 ] ] ] } }
]
}
