{
"type": "FeatureCollection",
"name": "IPT_06_PRC_Codegua_La_Compania",
"crs": { "type": "name", "properties": { "name": "urn:ogc:def:crs:OGC:1.3:CRS84" } },
"features": [
{ "type": "Feature", "properties": { "id": "monoparte.1", "Name": null, "description": null, "timestamp": null, "begin": null, "end": null, "altitudeMode": null, "tessellate": -1, "extrude": 0, "visibility": -1, "drawOrder": null, "icon": null, "REG": "O'higgins", "COM": "Codegua", "LOC": "La Compañía", "ZONA": "ZED", "NOM": "Zona Equipamiento Deportivo", "UPERM": "Equipamiento: Comercio, Culto y Cultura, Deporte, Educación, Salud, Seguridad; Espacio Público, Áreas Verdes. Para mayor detalle revisar ordenanza Municipal.", "UPROH": "Todos los no señalados como permitidos", "P_DO": "29/08/2018", "N_DOC": "28", "T_DO": "Decreto", "OBS": null }, "geometry": { "type": "Polygon", "coordinates": [ [ [ -70.677466360709502, -34.084682391190697 ], [ -70.677567498469301, -34.084534919111299 ], [ -70.677865814326594, -34.084097799368699 ], [ -70.678107311942497, -34.083743306471703 ], [ -70.677390407026195, -34.0832597135567 ], [ -70.676637691320906, -34.084075584983999 ], [ -70.677466360709502, -34.084682391190697 ] ] ] } },
{ "type": "Feature", "properties": { "id": "monoparte.2", "Name": null, "description": null, "timestamp": null, "begin": null, "end": null, "altitudeMode": null, "tessellate": -1, "extrude": 0, "visibility": -1, "drawOrder": null, "icon": null, "REG": "O'higgins", "COM": "Codegua", "LOC": "La Compañía", "ZONA": "ZH3", "NOM": "Zona Habitacional Densidad Media", "UPERM": "Residencial; Equipamiento: Científico, Comercio, Culto y Cultura, Deporte, Esparcimiento, Educación, Salud, Seguridad, Servicios, Social; Espacio Público, Áreas Verdes. Para mayor detalle revisar ordenanza Municipal.", "UPROH": "Todos los no señalados como permitidos", "P_DO": "29/08/2018", "N_DOC": "28", "T_DO": "Decreto", "OBS": null }, "geometry": { "type": "Polygon", "coordinates": [ [ [ -70.673969907385796, -34.090565539725397 ], [ -70.673979877568897, -34.090820246637698 ], [ -70.675388777894597, -34.090800866174902 ], [ -70.675497213345693, -34.090799993948899 ], [ -70.675495499967198, -34.090758423928499 ], [ -70.675482624314398, -34.090501597189501 ], [ -70.675475313953896, -34.090359924443 ], [ -70.675468968498507, -34.090236909841202 ], [ -70.675463143581695, -34.090045928028204 ], [ -70.675462599496399, -34.089992302096 ], [ -70.6754610071375, -34.089835318343098 ], [ -70.675459587816405, -34.089695420092298 ], [ -70.675459811579302, -34.089686149916098 ], [ -70.675470034541604, -34.0895399709838 ], [ -70.675043275404306, -34.089675534716903 ], [ -70.674951390012097, -34.089704723442303 ], [ -70.674122043446303, -34.089968169107301 ], [ -70.673943360419102, -34.090018590124302 ], [ -70.673946340717904, -34.0901631958493 ], [ -70.673969907385796, -34.090565539725397 ] ] ] } },
{ "type": "Feature", "properties": { "id": "monoparte.3", "Name": null, "description": null, "timestamp": null, "begin": null, "end": null, "altitudeMode": null, "tessellate": -1, "extrude": 0, "visibility": -1, "drawOrder": null, "icon": null, "REG": "O'higgins", "COM": "Codegua", "LOC": "La Compañía", "ZONA": "ZH3", "NOM": "Zona Habitacional Densidad Media", "UPERM": "Residencial; Equipamiento: Científico, Comercio, Culto y Cultura, Deporte, Esparcimiento, Educación, Salud, Seguridad, Servicios, Social; Espacio Público, Áreas Verdes. Para mayor detalle revisar ordenanza Municipal.", "UPROH": "Todos los no señalados como permitidos", "P_DO": "29/08/2018", "N_DOC": "28", "T_DO": "Decreto", "OBS": null }, "geometry": { "type": "Polygon", "coordinates": [ [ [ -70.673937325959002, -34.089725843969198 ], [ -70.673941118357106, -34.089909829106197 ], [ -70.675478317749196, -34.089421528804898 ], [ -70.675478470062203, -34.089419358056098 ], [ -70.675533702905597, -34.089111854442102 ], [ -70.675596007738903, -34.088877410238297 ], [ -70.675670373521896, -34.0885976227679 ], [ -70.675740842654506, -34.088356061534299 ], [ -70.675886456770996, -34.0878767507999 ], [ -70.675963121977503, -34.087642613640902 ], [ -70.676170998171798, -34.087048403460301 ], [ -70.676367678873504, -34.0864894087576 ], [ -70.676440972627901, -34.086300593400402 ], [ -70.676468092125802, -34.086245891064003 ], [ -70.676533106721607, -34.086121735712503 ], [ -70.676665174677794, -34.085876814655201 ], [ -70.676693140079905, -34.085837599739499 ], [ -70.676779267804307, -34.0857168306432 ], [ -70.676715256144803, -34.0856278726895 ], [ -70.675010719814196, -34.085876608794798 ], [ -70.674950985773293, -34.086029059956502 ], [ -70.674813542270996, -34.086396848096598 ], [ -70.674695049627303, -34.086748222235599 ], [ -70.674574329508204, -34.087092915011098 ], [ -70.674446030570095, -34.087464248132001 ], [ -70.674330632149307, -34.087831285247802 ], [ -70.674227868912794, -34.088183734001497 ], [ -70.674129219617399, -34.088524817037602 ], [ -70.674038383033107, -34.088895471407596 ], [ -70.673967853246793, -34.089289462689202 ], [ -70.673937325959002, -34.089725843969198 ] ] ] } },
{ "type": "Feature", "properties": { "id": "monoparte.4", "Name": null, "description": null, "timestamp": null, "begin": null, "end": null, "altitudeMode": null, "tessellate": -1, "extrude": 0, "visibility": -1, "drawOrder": null, "icon": null, "REG": "O'higgins", "COM": "Codegua", "LOC": "La Compañía", "ZONA": "ZH3", "NOM": "Zona Habitacional Densidad Media", "UPERM": "Residencial; Equipamiento: Científico, Comercio, Culto y Cultura, Deporte, Esparcimiento, Educación, Salud, Seguridad, Servicios, Social; Espacio Público, Áreas Verdes. Para mayor detalle revisar ordenanza Municipal.", "UPROH": "Todos los no señalados como permitidos", "P_DO": "29/08/2018", "N_DOC": "28", "T_DO": "Decreto", "OBS": null }, "geometry": { "type": "Polygon", "coordinates": [ [ [ -70.675319305854501, -34.0852904587152 ], [ -70.675160137799807, -34.085580196281299 ], [ -70.6756155817273, -34.085513736024303 ], [ -70.675786683976, -34.085488768402698 ], [ -70.676536433162696, -34.085379357955297 ], [ -70.676294491898403, -34.085043122351998 ], [ -70.675953029005001, -34.084546293372 ], [ -70.675884664365, -34.084446820585399 ], [ -70.675656152435195, -34.084783898160097 ], [ -70.675572357786294, -34.0849212464339 ], [ -70.6755116745572, -34.085020709533303 ], [ -70.675319305854501, -34.0852904587152 ] ] ] } },
{ "type": "Feature", "properties": { "id": "monoparte.5", "Name": null, "description": null, "timestamp": null, "begin": null, "end": null, "altitudeMode": null, "tessellate": -1, "extrude": 0, "visibility": -1, "drawOrder": null, "icon": null, "REG": "O'higgins", "COM": "Codegua", "LOC": "La Compañía", "ZONA": "ZH3", "NOM": "Zona Habitacional Densidad Media", "UPERM": "Residencial; Equipamiento: Científico, Comercio, Culto y Cultura, Deporte, Esparcimiento, Educación, Salud, Seguridad, Servicios, Social; Espacio Público, Áreas Verdes. Para mayor detalle revisar ordenanza Municipal.", "UPROH": "Todos los no señalados como permitidos", "P_DO": "29/08/2018", "N_DOC": "28", "T_DO": "Decreto", "OBS": null }, "geometry": { "type": "Polygon", "coordinates": [ [ [ -70.676799953990297, -34.083089727948 ], [ -70.676541237981894, -34.083473065413102 ], [ -70.676277999331006, -34.083868332700099 ], [ -70.676277116428494, -34.083874343990999 ], [ -70.676073129491002, -34.084174016426097 ], [ -70.676218064868706, -34.084379436051996 ], [ -70.676329609377206, -34.084540225313901 ], [ -70.676430141863094, -34.084692147398897 ], [ -70.676575257853301, -34.084906582343699 ], [ -70.676876148031496, -34.0853262879195 ], [ -70.677048792894098, -34.0852878616449 ], [ -70.677056977827903, -34.085286611911897 ], [ -70.677107354325599, -34.085212013458197 ], [ -70.677256367704501, -34.084991346132 ], [ -70.677464615133701, -34.084685047191201 ], [ -70.676634750889903, -34.084076179684203 ], [ -70.677388182431002, -34.083263357184599 ], [ -70.678108896708807, -34.0837409060466 ], [ -70.678184977517105, -34.083629650379699 ], [ -70.678421605442395, -34.083283944085103 ], [ -70.678723798224794, -34.082842445529799 ], [ -70.678973569870095, -34.08247753018 ], [ -70.679180318560796, -34.082175466311597 ], [ -70.679288651707196, -34.0820218366473 ], [ -70.679334602474995, -34.081959516311599 ], [ -70.679683202892406, -34.081492164036398 ], [ -70.679911386192302, -34.081201192098902 ], [ -70.680190727209606, -34.0807956868818 ], [ -70.680322897395001, -34.080614461850097 ], [ -70.680376363792007, -34.080543663925603 ], [ -70.680415370931797, -34.0804924330278 ], [ -70.679919074194302, -34.079171048225597 ], [ -70.679415134670293, -34.079439390118701 ], [ -70.679024420055896, -34.079958715258499 ], [ -70.679003001472694, -34.0799895560721 ], [ -70.678164021982994, -34.081132507069199 ], [ -70.677895576601401, -34.081504110675297 ], [ -70.677613335740702, -34.081899640282799 ], [ -70.677350029813894, -34.082290954808499 ], [ -70.677072538077397, -34.082686418363799 ], [ -70.676799953990297, -34.083089727948 ] ] ] } },
{ "type": "Feature", "properties": { "id": "monoparte.6", "Name": null, "description": null, "timestamp": null, "begin": null, "end": null, "altitudeMode": null, "tessellate": -1, "extrude": 0, "visibility": -1, "drawOrder": null, "icon": null, "REG": "O'higgins", "COM": "Codegua", "LOC": "La Compañía", "ZONA": "ZH3", "NOM": "Zona Habitacional Densidad Media", "UPERM": "Residencial; Equipamiento: Científico, Comercio, Culto y Cultura, Deporte, Esparcimiento, Educación, Salud, Seguridad, Servicios, Social; Espacio Público, Áreas Verdes. Para mayor detalle revisar ordenanza Municipal.", "UPROH": "Todos los no señalados como permitidos", "P_DO": "29/08/2018", "N_DOC": "28", "T_DO": "Decreto", "OBS": null }, "geometry": { "type": "Polygon", "coordinates": [ [ [ -70.679235479502196, -34.076926022633799 ], [ -70.679745795748502, -34.078204118204297 ], [ -70.679618255928801, -34.076271900331697 ], [ -70.679052996031103, -34.0763898695986 ], [ -70.679025204562805, -34.076394538976899 ], [ -70.679235479502196, -34.076926022633799 ] ] ] } },
{ "type": "Feature", "properties": { "id": "monoparte.7", "Name": null, "description": null, "timestamp": null, "begin": null, "end": null, "altitudeMode": null, "tessellate": -1, "extrude": 0, "visibility": -1, "drawOrder": null, "icon": null, "REG": "O'higgins", "COM": "Codegua", "LOC": "La Compañía", "ZONA": "ZH3", "NOM": "Zona Habitacional Densidad Media", "UPERM": "Residencial; Equipamiento: Científico, Comercio, Culto y Cultura, Deporte, Esparcimiento, Educación, Salud, Seguridad, Servicios, Social; Espacio Público, Áreas Verdes. Para mayor detalle revisar ordenanza Municipal.", "UPROH": "Todos los no señalados como permitidos", "P_DO": "29/08/2018", "N_DOC": "28", "T_DO": "Decreto", "OBS": null }, "geometry": { "type": "Polygon", "coordinates": [ [ [ -70.680258462892795, -34.077093447648203 ], [ -70.680366512357693, -34.078730186233102 ], [ -70.6807728830766, -34.079812141035397 ], [ -70.680717724582195, -34.077802454240398 ], [ -70.681114842381206, -34.077574410287603 ], [ -70.681112049253301, -34.077567640409299 ], [ -70.681088956372406, -34.077495817607698 ], [ -70.681013477173906, -34.077514885125801 ], [ -70.680911164337303, -34.077272818380401 ], [ -70.680910808061697, -34.077254788553297 ], [ -70.680615063140607, -34.076546468370204 ], [ -70.680447211726701, -34.076098891384099 ], [ -70.680196267129602, -34.076151266208001 ], [ -70.680258462892795, -34.077093447648203 ] ] ] } },
{ "type": "Feature", "properties": { "id": "monoparte.8", "Name": null, "description": null, "timestamp": null, "begin": null, "end": null, "altitudeMode": null, "tessellate": -1, "extrude": 0, "visibility": -1, "drawOrder": null, "icon": null, "REG": "O'higgins", "COM": "Codegua", "LOC": "La Compañía", "ZONA": "ZM1", "NOM": "Zona Mixta Centro Histórico", "UPERM": "Residencial; Equipamiento: Científico, Comercio, Culto y Cultura, Deporte, Educación, Salud, Seguridad, Servicios, Social; Espacio Público, Áreas Verdes; Infraestructura: Transporte. Para mayor detalle revisar ordenanza Municipal.", "UPROH": "Todos los no señalados como permitidos", "P_DO": "29/08/2018", "N_DOC": "28", "T_DO": "Decreto", "OBS": null }, "geometry": { "type": "Polygon", "coordinates": [ [ [ -70.680916873544106, -34.080195504714901 ], [ -70.681206909527404, -34.080129831944099 ], [ -70.681441392864699, -34.080100760109602 ], [ -70.681752119600603, -34.080062234529997 ], [ -70.681826852705697, -34.080047586227003 ], [ -70.682047908211402, -34.080004253086798 ], [ -70.682162986074303, -34.079981695820997 ], [ -70.681934497308703, -34.079702497523598 ], [ -70.681644971409497, -34.0793096996575 ], [ -70.681522591426599, -34.079149063465302 ], [ -70.681465391884899, -34.078996553273399 ], [ -70.681459868589599, -34.078717092892603 ], [ -70.681511186987095, -34.078572113819 ], [ -70.6812600136128, -34.0779263068601 ], [ -70.681114842381206, -34.077574410287603 ], [ -70.680717724582195, -34.077802454240398 ], [ -70.6807728830766, -34.079812141035397 ], [ -70.680916873544106, -34.080195504714901 ] ] ] } }
]
}
