{
"type": "FeatureCollection",
"name": "IPT_06_PRC_Donihue",
"crs": { "type": "name", "properties": { "name": "urn:ogc:def:crs:OGC:1.3:CRS84" } },
"features": [
{ "type": "Feature", "properties": { "id": "monoparte.1", "Name": null, "description": null, "timestamp": null, "begin": null, "end": null, "altitudeMode": null, "tessellate": -1, "extrude": 0, "visibility": -1, "drawOrder": null, "icon": null, "REG": "O'higgins", "COM": "Doñihue", "LOC": "Lo Miranda", "ZONA": "ZU-1", "NOM": "Zona ZU-1", "UPERM": "Vivienda, equipamiento comunal y almacenamiento inofensivo.", "UPROH": "Todos los no mencionados como permitidos.", "P_DO": "03/05/1988", "N_DOC": "56", "T_DO": "Decreto", "OBS": null }, "geometry": { "type": "Polygon", "coordinates": [ [ [ -70.8909129305585, -34.1864015228943 ], [ -70.889908185520397, -34.186531522540797 ], [ -70.889313179151799, -34.186497745358402 ], [ -70.889012216015203, -34.186479009120603 ], [ -70.889034526010903, -34.188547853448902 ], [ -70.886614527600599, -34.188811741954702 ], [ -70.886533750406699, -34.188407414733597 ], [ -70.885587091091196, -34.1882799491353 ], [ -70.885933987135303, -34.189063164484601 ], [ -70.885955240797401, -34.1893729795799 ], [ -70.885728862266305, -34.190585941303297 ], [ -70.888975864830499, -34.190422966296303 ], [ -70.888620848332494, -34.193203890519797 ], [ -70.8884052216725, -34.195025117192998 ], [ -70.888232503479102, -34.196163609297002 ], [ -70.888227418177806, -34.196214692100803 ], [ -70.890358966396406, -34.1964374868517 ], [ -70.890948479868399, -34.191979063289999 ], [ -70.8937810131698, -34.192185858582398 ], [ -70.893513671413601, -34.193891699514197 ], [ -70.893895382497902, -34.193931308145402 ], [ -70.895362388050799, -34.194055366410403 ], [ -70.896896676633006, -34.194106795562803 ], [ -70.896782239087301, -34.193804388209202 ], [ -70.896587727752106, -34.193195464742402 ], [ -70.896188693924401, -34.192395745282198 ], [ -70.895850925742806, -34.191735356242901 ], [ -70.895896659114896, -34.191469835664797 ], [ -70.895727303190597, -34.191022272250301 ], [ -70.895518548363199, -34.190545972238397 ], [ -70.895299405488899, -34.189605336835101 ], [ -70.895276386665799, -34.188961552411499 ], [ -70.895440248288594, -34.188009272461997 ], [ -70.891892711241397, -34.188623085975102 ], [ -70.891159296200001, -34.188562824459702 ], [ -70.891221045535005, -34.186359385243399 ], [ -70.8909129305585, -34.1864015228943 ] ] ] } },
{ "type": "Feature", "properties": { "id": "monoparte.2", "Name": null, "description": null, "timestamp": null, "begin": null, "end": null, "altitudeMode": null, "tessellate": -1, "extrude": 0, "visibility": -1, "drawOrder": null, "icon": null, "REG": "O'higgins", "COM": "Doñihue", "LOC": "Lo Miranda", "ZONA": "ZR-1", "NOM": "Zona ZR-1 de protección camino H-30", "UPERM": "Corresponde a las franjas no edificables de 20 m y 35 m de ancho, adyacentes al camino H-30, en las cuales se podrán habilitar vías de servicios.", "UPROH": "Todos los no mencionados como permitidos.", "P_DO": "03/05/1988", "N_DOC": "56", "T_DO": "Decreto", "OBS": null }, "geometry": { "type": "Polygon", "coordinates": [ [ [ -70.899285212968707, -34.210833159122899 ], [ -70.900066629527103, -34.211117951687498 ], [ -70.900066927533004, -34.211117351060999 ], [ -70.900370146196707, -34.210463206436501 ], [ -70.896287788819095, -34.209183394789903 ], [ -70.895365522770803, -34.208871295961103 ], [ -70.894265252668106, -34.208498946933297 ], [ -70.893595658472705, -34.2082187113527 ], [ -70.892235294297095, -34.2074810592704 ], [ -70.891424669223795, -34.207056983287401 ], [ -70.890184430095303, -34.206489225580199 ], [ -70.889376705406605, -34.206224402419998 ], [ -70.888579020675706, -34.2059628645248 ], [ -70.887316014163105, -34.205724653719102 ], [ -70.885688146472006, -34.205542141014398 ], [ -70.883087210273303, -34.205181311946603 ], [ -70.882113886265998, -34.204952912436397 ], [ -70.879121535477907, -34.2040325921121 ], [ -70.876561532108894, -34.203205546324803 ], [ -70.875005517611001, -34.202702819465003 ], [ -70.873229003055997, -34.202122831226802 ], [ -70.868752303760502, -34.200661148754001 ], [ -70.867561072638793, -34.200272677772197 ], [ -70.867276773173202, -34.2008782259702 ], [ -70.869430324586702, -34.201564709084302 ], [ -70.870228072562298, -34.201803045220402 ], [ -70.872735484826094, -34.202615762143402 ], [ -70.873837094935695, -34.202960369576097 ], [ -70.876406783644498, -34.203762038856802 ], [ -70.877751203415599, -34.204178044737702 ], [ -70.879661209974302, -34.2047514113696 ], [ -70.881166242966401, -34.205222173901603 ], [ -70.882351079336502, -34.205626261276102 ], [ -70.883522930136095, -34.206026958549799 ], [ -70.885521040876299, -34.206684764859503 ], [ -70.888504138641807, -34.207569282184302 ], [ -70.891677701998205, -34.208589635221898 ], [ -70.893717596346207, -34.209184394411501 ], [ -70.896135159445095, -34.209908547454702 ], [ -70.8974038516306, -34.210300455241303 ], [ -70.899285212968707, -34.210833159122899 ] ] ] } },
{ "type": "Feature", "properties": { "id": "monoparte.3", "Name": null, "description": null, "timestamp": null, "begin": null, "end": null, "altitudeMode": null, "tessellate": -1, "extrude": 0, "visibility": -1, "drawOrder": null, "icon": null, "REG": "O'higgins", "COM": "Doñihue", "LOC": "Lo Miranda", "ZONA": "ZE-2", "NOM": "Zona ZE-2", "UPERM": "Industria, talleres y almacenamiento inofensivos y molestos.", "UPROH": "Todos los no mencionados como permitidos.", "P_DO": "03/05/1988", "N_DOC": "56", "T_DO": "Decreto", "OBS": null }, "geometry": { "type": "Polygon", "coordinates": [ [ [ -70.875005517611001, -34.202702819465003 ], [ -70.876561532108894, -34.203205546324803 ], [ -70.876714563390607, -34.2010522482285 ], [ -70.876754751185203, -34.2006469092061 ], [ -70.876313183911094, -34.200510558924996 ], [ -70.874627889131403, -34.199965909196202 ], [ -70.873283549910596, -34.199549866976803 ], [ -70.873261132306496, -34.199542620832197 ], [ -70.873229003055997, -34.202122831226802 ], [ -70.875005517611001, -34.202702819465003 ] ] ] } },
{ "type": "Feature", "properties": { "id": "monoparte.4", "Name": null, "description": null, "timestamp": null, "begin": null, "end": null, "altitudeMode": null, "tessellate": -1, "extrude": 0, "visibility": -1, "drawOrder": null, "icon": null, "REG": "O'higgins", "COM": "Doñihue", "LOC": "Lo Miranda", "ZONA": "ZU-3", "NOM": "Zona ZU-3", "UPERM": "Industria, talleres y almacenamiento inofensivos y molestos.", "UPROH": "Todos los no mencionados como permitidos.", "P_DO": "03/05/1988", "N_DOC": "56", "T_DO": "Decreto", "OBS": null }, "geometry": { "type": "Polygon", "coordinates": [ [ [ -70.894265252668106, -34.208498946933297 ], [ -70.895365522770803, -34.208871295961103 ], [ -70.896224990553904, -34.206861600271303 ], [ -70.895026704763694, -34.206476682678598 ], [ -70.8944496430003, -34.206288779798101 ], [ -70.892935752886501, -34.205811162326398 ], [ -70.892117415227801, -34.2055231937318 ], [ -70.889575686793094, -34.204728583681899 ], [ -70.889376705406605, -34.206224402419998 ], [ -70.890184430095303, -34.206489225580199 ], [ -70.891424669223795, -34.207056983287401 ], [ -70.892235294297095, -34.2074810592704 ], [ -70.893595658472705, -34.2082187113527 ], [ -70.894265252668106, -34.208498946933297 ] ] ] } },
{ "type": "Feature", "properties": { "id": "monoparte.5", "Name": null, "description": null, "timestamp": null, "begin": null, "end": null, "altitudeMode": null, "tessellate": -1, "extrude": 0, "visibility": -1, "drawOrder": null, "icon": null, "REG": "O'higgins", "COM": "Doñihue", "LOC": "Lo Miranda", "ZONA": "ZU-3", "NOM": "Zona ZU-3", "UPERM": "Industria, talleres y almacenamiento inofensivos y molestos.", "UPROH": "Todos los no mencionados como permitidos.", "P_DO": "03/05/1988", "N_DOC": "56", "T_DO": "Decreto", "OBS": null }, "geometry": { "type": "Polygon", "coordinates": [ [ [ -70.868752303760502, -34.200661148754001 ], [ -70.873229003055997, -34.202122831226802 ], [ -70.873261132306496, -34.199542620832197 ], [ -70.870587581982306, -34.198678482939499 ], [ -70.868587883804594, -34.198032618318102 ], [ -70.867967861222894, -34.199406214646103 ], [ -70.867561072638793, -34.200272677772197 ], [ -70.868752303760502, -34.200661148754001 ] ] ] } },
{ "type": "Feature", "properties": { "id": "monoparte.6", "Name": null, "description": null, "timestamp": null, "begin": null, "end": null, "altitudeMode": null, "tessellate": -1, "extrude": 0, "visibility": -1, "drawOrder": null, "icon": null, "REG": "O'higgins", "COM": "Doñihue", "LOC": "Lo Miranda", "ZONA": "ZE-1", "NOM": "Zona ZE-1", "UPERM": "Vivienda y equipamiento vecinal.", "UPROH": "Todos los no mencionados como permitidos.", "P_DO": "03/05/1988", "N_DOC": "56", "T_DO": "Decreto", "OBS": null }, "geometry": { "type": "Polygon", "coordinates": [ [ [ -70.880009982075606, -34.202566795980303 ], [ -70.883847293506406, -34.203653046002998 ], [ -70.883853493438906, -34.202881341496699 ], [ -70.882721168524995, -34.202512962727802 ], [ -70.880383637153599, -34.201790173072503 ], [ -70.878228005653099, -34.2011110736535 ], [ -70.877627174879294, -34.200916296518997 ], [ -70.876754751185203, -34.2006469092061 ], [ -70.876714563390607, -34.2010522482285 ], [ -70.880195209063601, -34.2021154442021 ], [ -70.880009982075606, -34.202566795980303 ] ] ] } },
{ "type": "Feature", "properties": { "id": "monoparte.7", "Name": null, "description": null, "timestamp": null, "begin": null, "end": null, "altitudeMode": null, "tessellate": -1, "extrude": 0, "visibility": -1, "drawOrder": null, "icon": null, "REG": "O'higgins", "COM": "Doñihue", "LOC": "Lo Miranda", "ZONA": "ZE-1", "NOM": "Zona ZE-1", "UPERM": "Vivienda y equipamiento vecinal.", "UPROH": "Todos los no mencionados como permitidos.", "P_DO": "03/05/1988", "N_DOC": "56", "T_DO": "Decreto", "OBS": null }, "geometry": { "type": "Polygon", "coordinates": [ [ [ -70.890948479868399, -34.191979063289999 ], [ -70.890358966396406, -34.1964374868517 ], [ -70.892147817520197, -34.196550308961001 ], [ -70.892217072072896, -34.196107207778901 ], [ -70.892310871825302, -34.195486671102898 ], [ -70.892439995105093, -34.194712427077498 ], [ -70.892574512078099, -34.193794241870201 ], [ -70.893513671413601, -34.193891699514197 ], [ -70.8937810131698, -34.192185858582398 ], [ -70.890948479868399, -34.191979063289999 ] ] ] } },
{ "type": "Feature", "properties": { "id": "monoparte.8", "Name": null, "description": null, "timestamp": null, "begin": null, "end": null, "altitudeMode": null, "tessellate": -1, "extrude": 0, "visibility": -1, "drawOrder": null, "icon": null, "REG": "O'higgins", "COM": "Doñihue", "LOC": "Lo Miranda", "ZONA": "ZE-1", "NOM": "Zona ZE-1", "UPERM": "Vivienda y equipamiento vecinal.", "UPROH": "Todos los no mencionados como permitidos.", "P_DO": "03/05/1988", "N_DOC": "56", "T_DO": "Decreto", "OBS": null }, "geometry": { "type": "Polygon", "coordinates": [ [ [ -70.885586837976106, -34.191750440493401 ], [ -70.885369971072507, -34.193422098707401 ], [ -70.885791310771594, -34.193390571384001 ], [ -70.888620848332494, -34.193203890519797 ], [ -70.888975864830499, -34.190422966296303 ], [ -70.885728862266305, -34.190585941303297 ], [ -70.885586837976106, -34.191750440493401 ] ] ] } },
{ "type": "Feature", "properties": { "id": "monoparte.9", "Name": null, "description": null, "timestamp": null, "begin": null, "end": null, "altitudeMode": null, "tessellate": -1, "extrude": 0, "visibility": -1, "drawOrder": null, "icon": null, "REG": "O'higgins", "COM": "Doñihue", "LOC": "Lo Miranda", "ZONA": "ZE-1", "NOM": "Zona ZE-1", "UPERM": "Vivienda y equipamiento vecinal.", "UPROH": "Todos los no mencionados como permitidos.", "P_DO": "03/05/1988", "N_DOC": "56", "T_DO": "Decreto", "OBS": null }, "geometry": { "type": "Polygon", "coordinates": [ [ [ -70.886533750406699, -34.188407414733597 ], [ -70.886614527600599, -34.188811741954702 ], [ -70.889034526010903, -34.188547853448902 ], [ -70.889012216015203, -34.186479009120603 ], [ -70.886963047401295, -34.186351415939299 ], [ -70.887024108320702, -34.1867727463897 ], [ -70.886647075065298, -34.186955327489699 ], [ -70.885362814823097, -34.187490387244701 ], [ -70.885587091091196, -34.1882799491353 ], [ -70.886533750406699, -34.188407414733597 ] ] ] } },
{ "type": "Feature", "properties": { "id": "monoparte.10", "Name": null, "description": null, "timestamp": null, "begin": null, "end": null, "altitudeMode": null, "tessellate": -1, "extrude": 0, "visibility": -1, "drawOrder": null, "icon": null, "REG": "O'higgins", "COM": "Doñihue", "LOC": "Lo Miranda", "ZONA": "ZE-1", "NOM": "Zona ZE-1", "UPERM": "Vivienda y equipamiento vecinal.", "UPROH": "Todos los no mencionados como permitidos.", "P_DO": "03/05/1988", "N_DOC": "56", "T_DO": "Decreto", "OBS": null }, "geometry": { "type": "Polygon", "coordinates": [ [ [ -70.891159296200001, -34.188562824459702 ], [ -70.891892711241397, -34.188623085975102 ], [ -70.895440248288594, -34.188009272461997 ], [ -70.895121979820303, -34.187449494493102 ], [ -70.894561643996695, -34.186463312159503 ], [ -70.893641852696803, -34.186155445794597 ], [ -70.893007533502299, -34.185904002594 ], [ -70.892532193156498, -34.186022272444099 ], [ -70.891591235440302, -34.1863087577957 ], [ -70.891221045535005, -34.186359385243399 ], [ -70.891159296200001, -34.188562824459702 ] ] ] } },
{ "type": "Feature", "properties": { "id": "monoparte.11", "Name": null, "description": null, "timestamp": null, "begin": null, "end": null, "altitudeMode": null, "tessellate": -1, "extrude": 0, "visibility": -1, "drawOrder": null, "icon": null, "REG": "O'higgins", "COM": "Doñihue", "LOC": "Lo Miranda", "ZONA": "ZU-2", "NOM": "Zona ZU-2", "UPERM": "Vivienda, equipamiento vecinal y almacenamiento inofensivo.", "UPROH": "Todos los no mencionados como permitidos.", "P_DO": "03/05/1988", "N_DOC": "56", "T_DO": "Decreto", "OBS": null }, "geometry": { "type": "Polygon", "coordinates": [ [ [ -70.896287788819095, -34.209183394789903 ], [ -70.900370146196707, -34.210463206436501 ], [ -70.900387382967807, -34.210426021024098 ], [ -70.901278687985396, -34.2084941076508 ], [ -70.898822586166602, -34.2076840511847 ], [ -70.896831490427402, -34.207056415893497 ], [ -70.896224990553904, -34.206861600271303 ], [ -70.895365522770803, -34.208871295961103 ], [ -70.896287788819095, -34.209183394789903 ] ] ] } },
{ "type": "Feature", "properties": { "id": "monoparte.12", "Name": null, "description": null, "timestamp": null, "begin": null, "end": null, "altitudeMode": null, "tessellate": -1, "extrude": 0, "visibility": -1, "drawOrder": null, "icon": null, "REG": "O'higgins", "COM": "Doñihue", "LOC": "Lo Miranda", "ZONA": "ZU-2", "NOM": "Zona ZU-2", "UPERM": "Vivienda, equipamiento vecinal y almacenamiento inofensivo.", "UPROH": "Todos los no mencionados como permitidos.", "P_DO": "03/05/1988", "N_DOC": "56", "T_DO": "Decreto", "OBS": null }, "geometry": { "type": "Polygon", "coordinates": [ [ [ -70.888227418177806, -34.196214692100803 ], [ -70.888021380316005, -34.198283933352499 ], [ -70.8843775019578, -34.197978541942298 ], [ -70.884247463543403, -34.199489259201002 ], [ -70.883969538475299, -34.201902613127501 ], [ -70.883853493438906, -34.202881341496699 ], [ -70.883847293506406, -34.203653046002998 ], [ -70.880009982075606, -34.202566795980303 ], [ -70.880195209063601, -34.2021154442021 ], [ -70.876714563390607, -34.2010522482285 ], [ -70.876561532108894, -34.203205546324803 ], [ -70.879121535477907, -34.2040325921121 ], [ -70.882113886265998, -34.204952912436397 ], [ -70.883087210273303, -34.205181311946603 ], [ -70.885688146472006, -34.205542141014398 ], [ -70.887316014163105, -34.205724653719102 ], [ -70.888579020675706, -34.2059628645248 ], [ -70.889376705406605, -34.206224402419998 ], [ -70.889575686793094, -34.204728583681899 ], [ -70.889604120585304, -34.204265797383698 ], [ -70.889739482647599, -34.2026118524048 ], [ -70.889863392265596, -34.201409697312897 ], [ -70.889964101516497, -34.200325990791498 ], [ -70.890022033009302, -34.1994483534002 ], [ -70.891049585802094, -34.199561340506499 ], [ -70.891688697743206, -34.199637368810201 ], [ -70.891757726598001, -34.199064452054799 ], [ -70.891979687472798, -34.197626028888003 ], [ -70.892147817520197, -34.196550308961001 ], [ -70.890358966396406, -34.1964374868517 ], [ -70.888227418177806, -34.196214692100803 ] ] ] } },
{ "type": "Feature", "properties": { "id": "monoparte.13", "Name": null, "description": null, "timestamp": null, "begin": null, "end": null, "altitudeMode": null, "tessellate": -1, "extrude": 0, "visibility": -1, "drawOrder": null, "icon": null, "REG": "O'higgins", "COM": "Doñihue", "LOC": "Lo Miranda", "ZONA": "ZU-2", "NOM": "Zona ZU-2", "UPERM": "Vivienda, equipamiento vecinal y almacenamiento inofensivo.", "UPROH": "Todos los no mencionados como permitidos.", "P_DO": "03/05/1988", "N_DOC": "56", "T_DO": "Decreto", "OBS": null }, "geometry": { "type": "Polygon", "coordinates": [ [ [ -70.876356883115307, -34.189654672223902 ], [ -70.874320811910906, -34.190276266925103 ], [ -70.8723017954065, -34.190307103900402 ], [ -70.872296421976799, -34.1908432557981 ], [ -70.872247244245699, -34.192125134161302 ], [ -70.873781750249407, -34.192090964915799 ], [ -70.874316207031896, -34.192111427083297 ], [ -70.874681183668798, -34.192062906297799 ], [ -70.876696641063404, -34.191480984388001 ], [ -70.878946785400103, -34.190899729458799 ], [ -70.881080163064198, -34.190394658550296 ], [ -70.882692776215805, -34.190001323946703 ], [ -70.883365304404705, -34.189840699204098 ], [ -70.883575130082093, -34.189787376889903 ], [ -70.884404771584002, -34.189914197651198 ], [ -70.884737761349896, -34.189977073544 ], [ -70.885071307829904, -34.190064990517698 ], [ -70.885527941459301, -34.190265528125302 ], [ -70.885728862266305, -34.190585941303297 ], [ -70.885955240797401, -34.1893729795799 ], [ -70.885933987135303, -34.189063164484601 ], [ -70.885587091091196, -34.1882799491353 ], [ -70.883892843481505, -34.188001804752901 ], [ -70.883388307009298, -34.187970189059598 ], [ -70.881563601344396, -34.1884097285878 ], [ -70.879073201245404, -34.189027634420597 ], [ -70.876356883115307, -34.189654672223902 ] ] ] } },
{ "type": "Feature", "properties": { "id": "monoparte.14", "Name": null, "description": null, "timestamp": null, "begin": null, "end": null, "altitudeMode": null, "tessellate": -1, "extrude": 0, "visibility": -1, "drawOrder": null, "icon": null, "REG": "O'higgins", "COM": "Doñihue", "LOC": "Doñihue", "ZONA": "ZU-1", "NOM": "Zona ZU-1", "UPERM": "Vivienda, equipamiento comunal. Almacenamiento y talleres inofensivos.", "UPROH": "Todos los no mencionados como permitidos.", "P_DO": "03/05/1988", "N_DOC": "56", "T_DO": "Decreto", "OBS": null }, "geometry": { "type": "Polygon", "coordinates": [ [ [ -70.970396799244497, -34.221509713501703 ], [ -70.969897823345207, -34.221686397977599 ], [ -70.9685918566162, -34.221693527910901 ], [ -70.968513512262703, -34.223289128439802 ], [ -70.966210743527299, -34.2225722165241 ], [ -70.965371776466597, -34.222557041515202 ], [ -70.965358783291506, -34.2229866676184 ], [ -70.963175559291699, -34.222964392908501 ], [ -70.961414275980204, -34.223055566059699 ], [ -70.961312949459398, -34.224135503668101 ], [ -70.961957370484996, -34.224182447680299 ], [ -70.961764662112898, -34.226275365985799 ], [ -70.960061670249502, -34.226256491347499 ], [ -70.959827051902593, -34.227760465958397 ], [ -70.961648085784404, -34.228259761078498 ], [ -70.961356608983806, -34.229424960642604 ], [ -70.962762466458699, -34.229869126533799 ], [ -70.964278690715801, -34.230350598133299 ], [ -70.969195578759397, -34.231918970426001 ], [ -70.969296187772102, -34.230768506512298 ], [ -70.969322789689897, -34.230060734200102 ], [ -70.969516047429707, -34.227875952832001 ], [ -70.969735890626595, -34.225137272062597 ], [ -70.970403114388603, -34.225114620511903 ], [ -70.972070649803101, -34.225056903094199 ], [ -70.972209876639695, -34.223518860148303 ], [ -70.971034929521096, -34.223752464682498 ], [ -70.970363632368304, -34.223784727230601 ], [ -70.970396799244497, -34.221509713501703 ] ] ] } },
{ "type": "Feature", "properties": { "id": "monoparte.15", "Name": null, "description": null, "timestamp": null, "begin": null, "end": null, "altitudeMode": null, "tessellate": -1, "extrude": 0, "visibility": -1, "drawOrder": null, "icon": null, "REG": "O'higgins", "COM": "Doñihue", "LOC": "Doñihue", "ZONA": "ZE-2", "NOM": "Zona ZE-2", "UPERM": "Vivienda y equipamiento vecinal.", "UPROH": "Todos los no mencionados como permitidos.", "P_DO": "03/05/1988", "N_DOC": "56", "T_DO": "Decreto", "OBS": null }, "geometry": { "type": "Polygon", "coordinates": [ [ [ -70.963544962662596, -34.220576117459501 ], [ -70.963853917041305, -34.2219992654883 ], [ -70.963210839351902, -34.222009565260102 ], [ -70.963175559291699, -34.222964392908501 ], [ -70.965358783291506, -34.2229866676184 ], [ -70.965371776466597, -34.222557041515202 ], [ -70.966210743527299, -34.2225722165241 ], [ -70.968513512262703, -34.223289128439802 ], [ -70.9685918566162, -34.221693527910901 ], [ -70.967985357010903, -34.221696834686 ], [ -70.965757787326893, -34.221742116051097 ], [ -70.965665575698196, -34.220367032070399 ], [ -70.964555386825296, -34.220422321037702 ], [ -70.963908129511097, -34.220499490053101 ], [ -70.963544962662596, -34.220576117459501 ] ] ] } },
{ "type": "Feature", "properties": { "id": "monoparte.16", "Name": null, "description": null, "timestamp": null, "begin": null, "end": null, "altitudeMode": null, "tessellate": -1, "extrude": 0, "visibility": -1, "drawOrder": null, "icon": null, "REG": "O'higgins", "COM": "Doñihue", "LOC": "Doñihue", "ZONA": "ZE-1", "NOM": "Zona ZE-1", "UPERM": "Vivienda y equipamiento vecinal.", "UPROH": "Todos los no mencionados como permitidos.", "P_DO": "03/05/1988", "N_DOC": "56", "T_DO": "Decreto", "OBS": null }, "geometry": { "type": "Polygon", "coordinates": [ [ [ -70.960061670249502, -34.226256491347499 ], [ -70.961764662112898, -34.226275365985799 ], [ -70.961957370484996, -34.224182447680299 ], [ -70.961312949459398, -34.224135503668101 ], [ -70.961414275980204, -34.223055566059699 ], [ -70.9602644493947, -34.223087129505402 ], [ -70.960194271569904, -34.224086648522899 ], [ -70.9601637934216, -34.225250143009397 ], [ -70.960070866188204, -34.226197541433699 ], [ -70.960061670249502, -34.226256491347499 ] ] ] } },
{ "type": "Feature", "properties": { "id": "monoparte.17", "Name": null, "description": null, "timestamp": null, "begin": null, "end": null, "altitudeMode": null, "tessellate": -1, "extrude": 0, "visibility": -1, "drawOrder": null, "icon": null, "REG": "O'higgins", "COM": "Doñihue", "LOC": "Doñihue", "ZONA": "ZE-1", "NOM": "Zona ZE-1", "UPERM": "Vivienda y equipamiento vecinal.", "UPROH": "Todos los no mencionados como permitidos.", "P_DO": "03/05/1988", "N_DOC": "56", "T_DO": "Decreto", "OBS": null }, "geometry": { "type": "Polygon", "coordinates": [ [ [ -70.970396799244497, -34.221509713501703 ], [ -70.970363632368304, -34.223784727230601 ], [ -70.971034929521096, -34.223752464682498 ], [ -70.972209876639695, -34.223518860148303 ], [ -70.972070649803101, -34.225056903094199 ], [ -70.972655854481502, -34.225036642479303 ], [ -70.972698032691198, -34.224690045107003 ], [ -70.972784565203398, -34.222858858403697 ], [ -70.972661658109303, -34.220667230905498 ], [ -70.970396799244497, -34.221509713501703 ] ] ] } },
{ "type": "Feature", "properties": { "id": "monoparte.18", "Name": null, "description": null, "timestamp": null, "begin": null, "end": null, "altitudeMode": null, "tessellate": -1, "extrude": 0, "visibility": -1, "drawOrder": null, "icon": null, "REG": "O'higgins", "COM": "Doñihue", "LOC": "Doñihue", "ZONA": "ZU-2", "NOM": "Zona ZU-2", "UPERM": "Vivienda y equipamiento comunal.", "UPROH": "Todos los no mencionados como permitidos.", "P_DO": "03/05/1988", "N_DOC": "56", "T_DO": "Decreto", "OBS": null }, "geometry": { "type": "Polygon", "coordinates": [ [ [ -70.975939065683605, -34.234984106274197 ], [ -70.978165689129497, -34.236636812412897 ], [ -70.9784504993968, -34.235638106439197 ], [ -70.978191976732006, -34.234870523284499 ], [ -70.977070078536499, -34.2341848597151 ], [ -70.976192322299596, -34.233805382475097 ], [ -70.9742149780364, -34.232924736595301 ], [ -70.9711319344472, -34.231585906250501 ], [ -70.969296187772102, -34.230768506512298 ], [ -70.969195578759397, -34.231918970426001 ], [ -70.969365862689401, -34.2319732819103 ], [ -70.973081425291596, -34.233154066917898 ], [ -70.973975121648706, -34.233540466659498 ], [ -70.974266835371097, -34.233732345626898 ], [ -70.975939065683605, -34.234984106274197 ] ] ] } },
{ "type": "Feature", "properties": { "id": "monoparte.19", "Name": null, "description": null, "timestamp": null, "begin": null, "end": null, "altitudeMode": null, "tessellate": -1, "extrude": 0, "visibility": -1, "drawOrder": null, "icon": null, "REG": "O'higgins", "COM": "Doñihue", "LOC": "Doñihue", "ZONA": "ZU-2", "NOM": "Zona ZU-2", "UPERM": "Vivienda y equipamiento comunal.", "UPROH": "Todos los no mencionados como permitidos.", "P_DO": "03/05/1988", "N_DOC": "56", "T_DO": "Decreto", "OBS": null }, "geometry": { "type": "Polygon", "coordinates": [ [ [ -70.962951397039504, -34.220513619420501 ], [ -70.962320830150105, -34.220722319846303 ], [ -70.961821337227207, -34.220855561219203 ], [ -70.961374218093894, -34.220925338530101 ], [ -70.961214376127899, -34.220936841969298 ], [ -70.960786783874099, -34.220919824382896 ], [ -70.960255400422596, -34.220916393916298 ], [ -70.960150506291001, -34.221037354005603 ], [ -70.959980396339503, -34.221132517710998 ], [ -70.959093538195205, -34.221513488070897 ], [ -70.958155119818301, -34.221916150120997 ], [ -70.957827658774903, -34.222037680320803 ], [ -70.957709579220193, -34.222054476796202 ], [ -70.957554647649999, -34.222030111833597 ], [ -70.9573919188052, -34.221979033123603 ], [ -70.957262453940103, -34.221891637871302 ], [ -70.957132576006003, -34.221708822303398 ], [ -70.956877308751899, -34.221381887035498 ], [ -70.956774756223894, -34.221449129950102 ], [ -70.956596636449504, -34.221508632513903 ], [ -70.956381527348199, -34.221521010806001 ], [ -70.956233498981106, -34.221484606762203 ], [ -70.956125013872395, -34.221450552503399 ], [ -70.956027019039496, -34.221404402651103 ], [ -70.9557357964527, -34.2212301241753 ], [ -70.955641734911396, -34.221198822091402 ], [ -70.955521724566395, -34.2212096827312 ], [ -70.955310962158606, -34.2212547932725 ], [ -70.955117316295798, -34.2212638461098 ], [ -70.954998341552596, -34.221241886248201 ], [ -70.954821054833502, -34.221182089884202 ], [ -70.954696770043199, -34.221085662918703 ], [ -70.954620513621904, -34.2210481116377 ], [ -70.954426248273407, -34.2210303342857 ], [ -70.954247301178498, -34.221054061349697 ], [ -70.953956695050294, -34.221061676082499 ], [ -70.953724057149401, -34.221092221712397 ], [ -70.953528336455193, -34.221166911170997 ], [ -70.953468363056999, -34.221212597520797 ], [ -70.953326746620803, -34.221298351782401 ], [ -70.953198659252493, -34.221348105947399 ], [ -70.953109700797796, -34.221382325777398 ], [ -70.951115573507394, -34.221667703360701 ], [ -70.951196939615002, -34.222188055375703 ], [ -70.951313812983997, -34.222585793568797 ], [ -70.951512388530304, -34.223101514194703 ], [ -70.952146541653903, -34.2241351440789 ], [ -70.952410042450893, -34.224041486420496 ], [ -70.952749604324893, -34.223821368165702 ], [ -70.953071780340196, -34.223470314764 ], [ -70.953256052220297, -34.223365988496397 ], [ -70.953549910571198, -34.223343414423702 ], [ -70.954275099029005, -34.223343784398899 ], [ -70.955117468026103, -34.223443671740696 ], [ -70.955529609864001, -34.223568309354199 ], [ -70.955956245276099, -34.223698678824 ], [ -70.956403449076802, -34.2237869687713 ], [ -70.957056867737904, -34.2237884684235 ], [ -70.958179713271903, -34.223597577471203 ], [ -70.959236577776196, -34.223348090251697 ], [ -70.9602644493947, -34.223087129505402 ], [ -70.961414275980204, -34.223055566059699 ], [ -70.963175559291699, -34.222964392908501 ], [ -70.963210839351902, -34.222009565260102 ], [ -70.963853917041305, -34.2219992654883 ], [ -70.963544962662596, -34.220576117459501 ], [ -70.963516596822501, -34.220582102571697 ], [ -70.963455591683797, -34.220583079610698 ], [ -70.963390859947495, -34.220578151796602 ], [ -70.963318397254099, -34.220549491542002 ], [ -70.963144486336603, -34.220480706939298 ], [ -70.963122748437897, -34.220472108718099 ], [ -70.962951397039504, -34.220513619420501 ] ] ] } },
{ "type": "Feature", "properties": { "id": "monoparte.20", "Name": null, "description": null, "timestamp": null, "begin": null, "end": null, "altitudeMode": null, "tessellate": -1, "extrude": 0, "visibility": -1, "drawOrder": null, "icon": null, "REG": "O'higgins", "COM": "Doñihue", "LOC": "Doñihue", "ZONA": "ZU-2", "NOM": "Zona ZU-2", "UPERM": "Vivienda y equipamiento comunal.", "UPROH": "Todos los no mencionados como permitidos.", "P_DO": "03/05/1988", "N_DOC": "56", "T_DO": "Decreto", "OBS": null }, "geometry": { "type": "Polygon", "coordinates": [ [ [ -70.974288670611799, -34.2197029520377 ], [ -70.974214252576004, -34.219713692701603 ], [ -70.974093679813606, -34.219715634233701 ], [ -70.973620644981594, -34.219627823720799 ], [ -70.973109979377099, -34.219650357334302 ], [ -70.972964236438997, -34.219681330598299 ], [ -70.972558586493506, -34.219773742175903 ], [ -70.971732949169905, -34.220082844377004 ], [ -70.969911071339993, -34.220775343207002 ], [ -70.969066538982105, -34.221137215315501 ], [ -70.968342642829299, -34.221129754445698 ], [ -70.968335680077303, -34.221077382270202 ], [ -70.968216851062195, -34.220907523361603 ], [ -70.968111725765297, -34.220832869979702 ], [ -70.968019858890202, -34.220834344730001 ], [ -70.967790968822698, -34.220871418215097 ], [ -70.967641685999894, -34.220873814245998 ], [ -70.967601050272705, -34.220855380937401 ], [ -70.967537114779105, -34.220823007656698 ], [ -70.967432212020199, -34.220757893303201 ], [ -70.966809303826807, -34.2202764431186 ], [ -70.966304371970097, -34.220298856469697 ], [ -70.965685604893196, -34.220366034684901 ], [ -70.965665575698196, -34.220367032070399 ], [ -70.965757787326893, -34.221742116051097 ], [ -70.967985357010903, -34.221696834686 ], [ -70.9685918566162, -34.221693527910901 ], [ -70.969897823345207, -34.221686397977599 ], [ -70.970396799244497, -34.221509713501703 ], [ -70.972661658109303, -34.220667230905498 ], [ -70.973038009846306, -34.220488215180303 ], [ -70.973294991913903, -34.220424437833302 ], [ -70.973488216310102, -34.220397470534401 ], [ -70.973755018022402, -34.220446853165903 ], [ -70.974064881555904, -34.220495540933499 ], [ -70.974552780885205, -34.220481719307799 ], [ -70.975058312909596, -34.220300616818399 ], [ -70.975297319580207, -34.220082058110101 ], [ -70.975350559537006, -34.2199022764623 ], [ -70.975397874760901, -34.219776267045901 ], [ -70.975488948124806, -34.2196793740655 ], [ -70.975830796795194, -34.219560546258201 ], [ -70.975929602687103, -34.219487384490698 ], [ -70.975999701102396, -34.219414685344397 ], [ -70.976564540326606, -34.218699428142102 ], [ -70.976853220239406, -34.218456208614498 ], [ -70.977372391713203, -34.218245056279201 ], [ -70.977870030927804, -34.218034248255499 ], [ -70.978407382928097, -34.217679659661897 ], [ -70.978491133967694, -34.217576918199399 ], [ -70.9785740482737, -34.217438405070403 ], [ -70.9787954115464, -34.217387119291601 ], [ -70.978907590564205, -34.217271990655 ], [ -70.978626964142407, -34.216838780660602 ], [ -70.978364890971207, -34.216800227827797 ], [ -70.978192649440203, -34.216803007049101 ], [ -70.9781019036609, -34.216852184385097 ], [ -70.977701468810096, -34.217166870035797 ], [ -70.977242212240299, -34.217422385716397 ], [ -70.976758761014594, -34.217625804123301 ], [ -70.976367504809204, -34.2178420492626 ], [ -70.976175303849999, -34.217973972287297 ], [ -70.9758708356634, -34.2182174446883 ], [ -70.975644320532197, -34.218478745674197 ], [ -70.975393303125898, -34.218797696544598 ], [ -70.975177465076897, -34.218901371158402 ], [ -70.975086157412093, -34.218926698315201 ], [ -70.974800640118602, -34.218998096352202 ], [ -70.974641881271907, -34.219086536738203 ], [ -70.974562947540903, -34.219149835144897 ], [ -70.974530612338995, -34.219241010766503 ], [ -70.974500170500704, -34.2194132675424 ], [ -70.974423573898903, -34.219576725346002 ], [ -70.974344972395002, -34.219654332143499 ], [ -70.974288670611799, -34.2197029520377 ] ] ] } },
{ "type": "Feature", "properties": { "id": "monoparte.21", "Name": null, "description": null, "timestamp": null, "begin": null, "end": null, "altitudeMode": null, "tessellate": -1, "extrude": 0, "visibility": -1, "drawOrder": null, "icon": null, "REG": "O'higgins", "COM": "Doñihue", "LOC": "Doñihue", "ZONA": "ZR-1", "NOM": "Zona ZR-1 de protección camino H-30", "UPERM": "Corresponde a las franjas no edificables de 20 m y 35 m de ancho, adyacentes al camino H-30, en las cuales se podrán habilitar vías de servicios.", "UPROH": "Todos los no mencionados como permitidos.", "P_DO": "03/05/1988", "N_DOC": "56", "T_DO": "Decreto", "OBS": null }, "geometry": { "type": "Polygon", "coordinates": [ [ [ -70.974918984854796, -34.235242978087598 ], [ -70.9779154400306, -34.237514309988399 ], [ -70.978165689129497, -34.236636812412897 ], [ -70.975939065683605, -34.234984106274197 ], [ -70.974266835371097, -34.233732345626898 ], [ -70.973975121648706, -34.233540466659498 ], [ -70.973081425291596, -34.233154066917898 ], [ -70.969365862689401, -34.2319732819103 ], [ -70.969195578759397, -34.231918970426001 ], [ -70.964278690715801, -34.230350598133299 ], [ -70.962762466458699, -34.229869126533799 ], [ -70.961356608983806, -34.229424960642604 ], [ -70.961148669980204, -34.230256195138502 ], [ -70.961604197985196, -34.230392045358002 ], [ -70.963419725832296, -34.230960585326798 ], [ -70.965864585483402, -34.231726557342498 ], [ -70.968577214486203, -34.232580027260802 ], [ -70.971214468818602, -34.233432263220102 ], [ -70.973355476274307, -34.234095615397997 ], [ -70.974918984854796, -34.235242978087598 ] ] ] } },
{ "type": "Feature", "properties": { "id": "monoparte.22", "Name": null, "description": null, "timestamp": null, "begin": null, "end": null, "altitudeMode": null, "tessellate": -1, "extrude": 0, "visibility": -1, "drawOrder": null, "icon": null, "REG": "O'higgins", "COM": "Doñihue", "LOC": "Doñihue", "ZONA": "ZR-2", "NOM": "Zona ZR-2 de protección del estero Maule", "UPERM": "Zona de protección no edificable.", "UPROH": "Todos los no mencionados como permitidos.", "P_DO": "03/05/1988", "N_DOC": "56", "T_DO": "Decreto", "OBS": null }, "geometry": { "type": "Polygon", "coordinates": [ [ [ -70.978023629474507, -34.216773340077602 ], [ -70.977855151971497, -34.216937090251299 ], [ -70.9775018897883, -34.217181352827303 ], [ -70.976869846697994, -34.217477823967897 ], [ -70.976471290891396, -34.217627388456002 ], [ -70.976053570203106, -34.2178786514745 ], [ -70.975778686295698, -34.218097789758303 ], [ -70.975374959282803, -34.218641066974598 ], [ -70.975242495456698, -34.218810196994397 ], [ -70.975078402185204, -34.218854589358301 ], [ -70.974823622844198, -34.218858693571597 ], [ -70.974588315754701, -34.2189280885245 ], [ -70.974460661873707, -34.2189957502342 ], [ -70.974384777500902, -34.219128183 ], [ -70.974364556321902, -34.219492320018198 ], [ -70.9743445557379, -34.2195582478966 ], [ -70.974238014437105, -34.219607676819301 ], [ -70.974173144000403, -34.219596793347201 ], [ -70.974020897205094, -34.219533639048102 ], [ -70.973963204234707, -34.219522639895203 ], [ -70.973891295594797, -34.2195178331826 ], [ -70.973790817602307, -34.219519450876199 ], [ -70.973704416204498, -34.219508913790499 ], [ -70.973618014825206, -34.219498376643102 ], [ -70.973429884937403, -34.219435799243001 ], [ -70.973170958165497, -34.219416110647103 ], [ -70.972984636246906, -34.219431037343597 ], [ -70.972673993375693, -34.219656708810298 ], [ -70.9724742901128, -34.2197135996974 ], [ -70.972363602201895, -34.219739236657603 ], [ -70.972270719322196, -34.2197586234958 ], [ -70.972084534323002, -34.219779511129403 ], [ -70.9719002957779, -34.2198838646691 ], [ -70.971808940048206, -34.2199688315158 ], [ -70.970662886853603, -34.220392819974798 ], [ -70.969567199878199, -34.220821952349198 ], [ -70.969099202645694, -34.221073999013299 ], [ -70.968941305449704, -34.221076534995099 ], [ -70.968897965950404, -34.221065302943302 ], [ -70.968811147139107, -34.221036876541902 ], [ -70.968426459938399, -34.220858166046597 ], [ -70.968504159785098, -34.220803240701002 ], [ -70.968573988369499, -34.220718621919502 ], [ -70.968565284790202, -34.220653155815597 ], [ -70.968540701290493, -34.220522339735297 ], [ -70.968431658148404, -34.220464449219499 ], [ -70.968265754455402, -34.220431328581803 ], [ -70.968109800162097, -34.220517329834202 ], [ -70.9678326687376, -34.220641061171698 ], [ -70.967724041913897, -34.220601055930601 ], [ -70.9675782818735, -34.220507968770903 ], [ -70.967247966138899, -34.220197170981002 ], [ -70.966999927244501, -34.2200281902727 ], [ -70.966668121526993, -34.219961943904401 ], [ -70.966260139985906, -34.220016201169599 ], [ -70.966031583698907, -34.220067579890198 ], [ -70.965945458428806, -34.220068960994801 ], [ -70.965629392276398, -34.220062099909804 ], [ -70.965521598251399, -34.220057864531199 ], [ -70.964229870853799, -34.220084530536802 ], [ -70.963914773389604, -34.220119399226 ], [ -70.963724037900803, -34.220253666353202 ], [ -70.963631289436506, -34.220279008133303 ], [ -70.963552064572596, -34.220268348930603 ], [ -70.9632768466508, -34.2201654017884 ], [ -70.9630979736732, -34.220192122323802 ], [ -70.962927383668301, -34.220266424215502 ], [ -70.962799027320003, -34.220304263592702 ], [ -70.962484065492205, -34.220345090959199 ], [ -70.962269168156794, -34.220366422442503 ], [ -70.962055654526196, -34.220447373758098 ], [ -70.961514480991895, -34.220640922367799 ], [ -70.961421454908105, -34.220654338823799 ], [ -70.960904012648498, -34.220632795477897 ], [ -70.960372631022096, -34.2206293654571 ], [ -70.960198999489094, -34.220572500277001 ], [ -70.960027301996703, -34.2205991016314 ], [ -70.959901152578595, -34.220732329443003 ], [ -70.959828555535495, -34.2208527729439 ], [ -70.959600544902599, -34.220927987277797 ], [ -70.959410076642001, -34.221074171676101 ], [ -70.958846808594899, -34.221244204656003 ], [ -70.958568555975702, -34.221320219854903 ], [ -70.958444197477803, -34.221530951719302 ], [ -70.9584163172714, -34.221567181447199 ], [ -70.958250965582593, -34.2215578946305 ], [ -70.958186785299006, -34.221576812403498 ], [ -70.958057595564995, -34.221578875836599 ], [ -70.957851940998296, -34.221689515166098 ], [ -70.957738898945394, -34.221768854513201 ], [ -70.957616610580999, -34.221758878257504 ], [ -70.957572858135094, -34.221729756140803 ], [ -70.957513094928601, -34.221629320036101 ], [ -70.957483005900897, -34.221570158967801 ], [ -70.957452366194502, -34.221487150443302 ], [ -70.957450986657605, -34.221427530967503 ], [ -70.957312551405494, -34.221340278972797 ], [ -70.957282738506294, -34.221293041560699 ], [ -70.957259828457396, -34.221233765815498 ], [ -70.957186401555703, -34.221163368424698 ], [ -70.957148170917606, -34.221062588361903 ], [ -70.956989720942502, -34.221041261518799 ], [ -70.956853631243703, -34.221055361931803 ], [ -70.956597184707306, -34.221142952734503 ], [ -70.956469512234094, -34.221210596295798 ], [ -70.956389873524998, -34.221182046428403 ], [ -70.956345983905507, -34.221146961533798 ], [ -70.956218590693098, -34.221071460189101 ], [ -70.955811983875094, -34.220875166687001 ], [ -70.955596393849603, -34.220866677700897 ], [ -70.955446639089502, -34.220910815291703 ], [ -70.955225800502703, -34.220985907159097 ], [ -70.955110689972997, -34.2209758147999 ], [ -70.955052171320901, -34.220929034595301 ], [ -70.954906423910401, -34.2208359328055 ], [ -70.954724102311999, -34.2207135923124 ], [ -70.9544934699489, -34.220675520437602 ], [ -70.954328946539505, -34.220701999467202 ], [ -70.954114320973304, -34.220735241392703 ], [ -70.953906597402394, -34.220756444813702 ], [ -70.953712677047307, -34.2207535716555 ], [ -70.953505502892298, -34.220798621906603 ], [ -70.953229999379502, -34.2209938643608 ], [ -70.953066576020106, -34.221068037617101 ], [ -70.952937938279007, -34.221093943108301 ], [ -70.952551470890796, -34.221147812239899 ], [ -70.952115589375296, -34.221238251395398 ], [ -70.951327610714301, -34.221316401955001 ], [ -70.951070607089704, -34.2213801338943 ], [ -70.951115573507394, -34.221667703360701 ], [ -70.953109700797796, -34.221382325777398 ], [ -70.953198659252493, -34.221348105947399 ], [ -70.953326746620803, -34.221298351782401 ], [ -70.953468363056999, -34.221212597520797 ], [ -70.953528336455193, -34.221166911170997 ], [ -70.953724057149401, -34.221092221712397 ], [ -70.953956695050294, -34.221061676082499 ], [ -70.954247301178498, -34.221054061349697 ], [ -70.954426248273407, -34.2210303342857 ], [ -70.954620513621904, -34.2210481116377 ], [ -70.954696770043199, -34.221085662918703 ], [ -70.954821054833502, -34.221182089884202 ], [ -70.954998341552596, -34.221241886248201 ], [ -70.955117316295798, -34.2212638461098 ], [ -70.955310962158606, -34.2212547932725 ], [ -70.955521724566395, -34.2212096827312 ], [ -70.955641734911396, -34.221198822091402 ], [ -70.9557357964527, -34.2212301241753 ], [ -70.956027019039496, -34.221404402651103 ], [ -70.956125013872395, -34.221450552503399 ], [ -70.956233498981106, -34.221484606762203 ], [ -70.956381527348199, -34.221521010806001 ], [ -70.956596636449504, -34.221508632513903 ], [ -70.956774756223894, -34.221449129950102 ], [ -70.956877308751899, -34.221381887035498 ], [ -70.957132576006003, -34.221708822303398 ], [ -70.957262453940103, -34.221891637871302 ], [ -70.9573919188052, -34.221979033123603 ], [ -70.957554647649999, -34.222030111833597 ], [ -70.957709579220193, -34.222054476796202 ], [ -70.957827658774903, -34.222037680320803 ], [ -70.958155119818301, -34.221916150120997 ], [ -70.959093538195205, -34.221513488070897 ], [ -70.959980396339503, -34.221132517710998 ], [ -70.960150506291001, -34.221037354005603 ], [ -70.960255400422596, -34.220916393916298 ], [ -70.960786783874099, -34.220919824382896 ], [ -70.961214376127899, -34.220936841969298 ], [ -70.961374218093894, -34.220925338530101 ], [ -70.961821337227207, -34.220855561219203 ], [ -70.962320830150105, -34.220722319846303 ], [ -70.962951397039504, -34.220513619420501 ], [ -70.963122748437897, -34.220472108718099 ], [ -70.963144486336603, -34.220480706939298 ], [ -70.963318397254099, -34.220549491542002 ], [ -70.963390859947495, -34.220578151796602 ], [ -70.963455591683797, -34.220583079610698 ], [ -70.963516596822501, -34.220582102571697 ], [ -70.963544962662596, -34.220576117459501 ], [ -70.963908129511097, -34.220499490053101 ], [ -70.964555386825296, -34.220422321037702 ], [ -70.965665575698196, -34.220367032070399 ], [ -70.965685604893196, -34.220366034684901 ], [ -70.966304371970097, -34.220298856469697 ], [ -70.966809303826807, -34.2202764431186 ], [ -70.967432212020199, -34.220757893303201 ], [ -70.967537114779105, -34.220823007656698 ], [ -70.967601050272705, -34.220855380937401 ], [ -70.967641685999894, -34.220873814245998 ], [ -70.967790968822698, -34.220871418215097 ], [ -70.968019858890202, -34.220834344730001 ], [ -70.968111725765297, -34.220832869979702 ], [ -70.968216851062195, -34.220907523361603 ], [ -70.968335680077303, -34.221077382270202 ], [ -70.968342642829299, -34.221129754445698 ], [ -70.969066538982105, -34.221137215315501 ], [ -70.969911071339993, -34.220775343207002 ], [ -70.971732949169905, -34.220082844377004 ], [ -70.972558586493506, -34.219773742175903 ], [ -70.972964236438997, -34.219681330598299 ], [ -70.973109979377099, -34.219650357334302 ], [ -70.973620644981594, -34.219627823720799 ], [ -70.974093679813606, -34.219715634233701 ], [ -70.974214252576004, -34.219713692701603 ], [ -70.974288670611799, -34.2197029520377 ], [ -70.974344972395002, -34.219654332143499 ], [ -70.974423573898903, -34.219576725346002 ], [ -70.974500170500704, -34.2194132675424 ], [ -70.974530612338995, -34.219241010766503 ], [ -70.974562947540903, -34.219149835144897 ], [ -70.974641881271907, -34.219086536738203 ], [ -70.974800640118602, -34.218998096352202 ], [ -70.975086157412093, -34.218926698315201 ], [ -70.975177465076897, -34.218901371158402 ], [ -70.975393303125898, -34.218797696544598 ], [ -70.975644320532197, -34.218478745674197 ], [ -70.9758708356634, -34.2182174446883 ], [ -70.976175303849999, -34.217973972287297 ], [ -70.976367504809204, -34.2178420492626 ], [ -70.976758761014594, -34.217625804123301 ], [ -70.977242212240299, -34.217422385716397 ], [ -70.977701468810096, -34.217166870035797 ], [ -70.9781019036609, -34.216852184385097 ], [ -70.978192649440203, -34.216803007049101 ], [ -70.978364890971207, -34.216800227827797 ], [ -70.978626964142407, -34.216838780660602 ], [ -70.978620829455195, -34.2168293094361 ], [ -70.978309721737901, -34.216726975363201 ], [ -70.978137342061601, -34.216723793147203 ], [ -70.978023629474507, -34.216773340077602 ] ] ] } }
]
}
