{
"type": "FeatureCollection",
"name": "IPT_06_PRC_Peralillo",
"crs": { "type": "name", "properties": { "name": "urn:ogc:def:crs:OGC:1.3:CRS84" } },
"features": [
{ "type": "Feature", "properties": { "id": "monoparte.1", "Name": null, "description": null, "timestamp": null, "begin": null, "end": null, "altitudeMode": null, "tessellate": -1, "extrude": 0, "visibility": -1, "drawOrder": null, "icon": null, "REG": "O'higgins", "COM": "Peralillo", "LOC": "Población", "ZONA": "ZC", "NOM": "ZC Zona Céntrica Mixta, de Equipamiento, Comercio y Vivienda", "UPERM": "Vivienda, equipamiento comunal de todo tipo y comercio, almacenamiento y artesanías no molestas.", "UPROH": "Todos los no mencionados como permitidos: industrias y talleres artesanales molestos tales como herrerías, vulcanizaciones y talleres mecánicos.", "P_DO": "26/11/1996", "N_DOC": "688", "T_DO": "Decreto", "OBS": null }, "geometry": { "type": "Polygon", "coordinates": [ [ [ -71.548225588909901, -34.447102012940299 ], [ -71.546983166071897, -34.447622137024403 ], [ -71.544780377988502, -34.448660290211201 ], [ -71.544588095944903, -34.448775923337998 ], [ -71.544856357277993, -34.4495201436429 ], [ -71.5452871420962, -34.449347607311203 ], [ -71.545364030421695, -34.449537606550699 ], [ -71.545836188762294, -34.449323841616 ], [ -71.545901641388596, -34.449489341520703 ], [ -71.546314044627394, -34.450554101319703 ], [ -71.546332112683999, -34.450600750763599 ], [ -71.549970187216203, -34.448997064760199 ], [ -71.549916079678894, -34.448921429254902 ], [ -71.549070085463399, -34.447738811465904 ], [ -71.549395263905893, -34.447586000106703 ], [ -71.549534170574105, -34.4477585341441 ], [ -71.550445714406905, -34.447343293537102 ], [ -71.550918119716599, -34.448105323221803 ], [ -71.551785754352807, -34.447706121974498 ], [ -71.551823743078899, -34.447688642718802 ], [ -71.550785418906003, -34.4460834563898 ], [ -71.548225588909901, -34.447102012940299 ] ] ] } },
{ "type": "Feature", "properties": { "id": "monoparte.2", "Name": null, "description": null, "timestamp": null, "begin": null, "end": null, "altitudeMode": null, "tessellate": -1, "extrude": 0, "visibility": -1, "drawOrder": null, "icon": null, "REG": "O'higgins", "COM": "Peralillo", "LOC": "Población", "ZONA": "ZVa", "NOM": "ZVa Zona de Vivienda de Alta Densidad", "UPERM": "Vivienda, comercio de barrio, equipamiento vecinal de salud, educación, cultura, organizaciones comunitarias, áreas verdes, deportes, esparcimiento y turismo y servicios públicos.", "UPROH": "Todos los no mencionados como permitidos.", "P_DO": "26/11/1996", "N_DOC": "688", "T_DO": "Decreto", "OBS": null }, "geometry": { "type": "Polygon", "coordinates": [ [ [ -71.549787736627707, -34.4613952814315 ], [ -71.549813241385706, -34.461468242129001 ], [ -71.551284212850604, -34.461162563264402 ], [ -71.550830532428805, -34.4598300924184 ], [ -71.549345822560795, -34.460131070343898 ], [ -71.549787736627707, -34.4613952814315 ] ] ] } },
{ "type": "Feature", "properties": { "id": "monoparte.3", "Name": null, "description": null, "timestamp": null, "begin": null, "end": null, "altitudeMode": null, "tessellate": -1, "extrude": 0, "visibility": -1, "drawOrder": null, "icon": null, "REG": "O'higgins", "COM": "Peralillo", "LOC": "Población", "ZONA": "Z_DIFUSA", "NOM": "Zona difusa", "UPERM": "Sin información.", "UPROH": "Sin información.", "P_DO": "26/11/1996", "N_DOC": "688", "T_DO": "Decreto", "OBS": null }, "geometry": { "type": "Polygon", "coordinates": [ [ [ -71.548027793390304, -34.455569572919899 ], [ -71.548080817666403, -34.455750937295399 ], [ -71.5490479856809, -34.455455268909297 ], [ -71.548985739591103, -34.455294063841798 ], [ -71.548027793390304, -34.455569572919899 ] ] ] } },
{ "type": "Feature", "properties": { "id": "monoparte.4", "Name": null, "description": null, "timestamp": null, "begin": null, "end": null, "altitudeMode": null, "tessellate": -1, "extrude": 0, "visibility": -1, "drawOrder": null, "icon": null, "REG": "O'higgins", "COM": "Peralillo", "LOC": "Población", "ZONA": "ZRa", "NOM": "ZRa Zona de Resguardo del Patrimonio Arquitectónico", "UPERM": "Vivienda, comercio de barrio, equipamiento vecinal de salud, educación, cultura, organizaciones comunitarias, esparcimiento y turismo.", "UPROH": "Todos los no mencionados como permitidos.", "P_DO": "26/11/1996", "N_DOC": "688", "T_DO": "Decreto", "OBS": null }, "geometry": { "type": "Polygon", "coordinates": [ [ [ -71.551569839799797, -34.4532833541193 ], [ -71.551126549918607, -34.4536538099157 ], [ -71.550918049938005, -34.453578037856403 ], [ -71.550846811450498, -34.453507967637897 ], [ -71.550566498876705, -34.453380246935197 ], [ -71.550226266450807, -34.453308424382897 ], [ -71.550054397413305, -34.453219583419603 ], [ -71.5498979145314, -34.453163219519801 ], [ -71.549724532556993, -34.453142985063003 ], [ -71.549440279132597, -34.453145935448902 ], [ -71.549051439188702, -34.453142122519999 ], [ -71.548883182273997, -34.453112835236396 ], [ -71.548702969540003, -34.4531046686877 ], [ -71.548498393047495, -34.453123844169397 ], [ -71.548268753955597, -34.453265783879999 ], [ -71.548226223275194, -34.4532875415928 ], [ -71.548161930223202, -34.453303790633399 ], [ -71.548036305712301, -34.453315355279798 ], [ -71.5478957510595, -34.453309341743498 ], [ -71.547794400021402, -34.453290584574297 ], [ -71.547681987308906, -34.453263113275 ], [ -71.547610046950794, -34.453264613349397 ], [ -71.547502679643401, -34.453284741460699 ], [ -71.547466709932095, -34.4533057076235 ], [ -71.547417799952498, -34.453334215093797 ], [ -71.547319618715207, -34.453419745708999 ], [ -71.547290208588805, -34.453485395939097 ], [ -71.547258945484998, -34.453555179416803 ], [ -71.547242252831495, -34.453716530286997 ], [ -71.547246738028505, -34.453752145272503 ], [ -71.547256483197998, -34.453829532574801 ], [ -71.547280625210107, -34.454031773436 ], [ -71.547288295959106, -34.454165782243699 ], [ -71.547308454658705, -34.4542369195728 ], [ -71.547281875001602, -34.454428291943799 ], [ -71.547228444888205, -34.454802097606503 ], [ -71.547200446806002, -34.455539120899203 ], [ -71.547157407335803, -34.455853721902997 ], [ -71.547329340207199, -34.456427225471998 ], [ -71.547384099377098, -34.456323609138799 ], [ -71.547463911330993, -34.456107274920903 ], [ -71.547513447292602, -34.455605344256398 ], [ -71.547481847448495, -34.455181432778801 ], [ -71.547547451177905, -34.4549713572898 ], [ -71.547556406535904, -34.454792278343596 ], [ -71.547587076538704, -34.454380187083103 ], [ -71.547523366330793, -34.4541787713502 ], [ -71.547470061737101, -34.453845950245203 ], [ -71.547452775458297, -34.453750902012402 ], [ -71.547486029651793, -34.4536607625285 ], [ -71.547553137924396, -34.453594961776602 ], [ -71.547647446853304, -34.453571527841902 ], [ -71.547786767769495, -34.453607979547797 ], [ -71.547903855462195, -34.453623427278103 ], [ -71.548020616072407, -34.453628147533799 ], [ -71.548248192623902, -34.4535840452942 ], [ -71.548453098544996, -34.453504636707798 ], [ -71.548585602969396, -34.453458938797198 ], [ -71.548641499261606, -34.453450616701197 ], [ -71.548798774853594, -34.453388513772701 ], [ -71.548958326904, -34.453332710627002 ], [ -71.549114153591901, -34.4533437709445 ], [ -71.549340201502801, -34.453391529142102 ], [ -71.549547679208104, -34.453396741318997 ], [ -71.5498698268986, -34.453385247808598 ], [ -71.550211995404695, -34.453463974306402 ], [ -71.550526839121801, -34.453590974984301 ], [ -71.550673330860405, -34.453673784817198 ], [ -71.550895221519795, -34.453774102353997 ], [ -71.5510489566296, -34.453823259806697 ], [ -71.551161187484496, -34.453859145462303 ], [ -71.551804127028703, -34.453347091449203 ], [ -71.552645725954903, -34.452916792382602 ], [ -71.552588821840004, -34.4527221274925 ], [ -71.551836864073394, -34.453069069965501 ], [ -71.551569839799797, -34.4532833541193 ] ] ] } },
{ "type": "Feature", "properties": { "id": "monoparte.5", "Name": null, "description": null, "timestamp": null, "begin": null, "end": null, "altitudeMode": null, "tessellate": -1, "extrude": 0, "visibility": -1, "drawOrder": null, "icon": null, "REG": "O'higgins", "COM": "Peralillo", "LOC": "Población", "ZONA": "ZRa", "NOM": "ZRa Zona de Resguardo del Patrimonio Arquitectónico", "UPERM": "Vivienda, comercio de barrio, equipamiento vecinal de salud, educación, cultura, organizaciones comunitarias, esparcimiento y turismo.", "UPROH": "Todos los no mencionados como permitidos.", "P_DO": "26/11/1996", "N_DOC": "688", "T_DO": "Decreto", "OBS": null }, "geometry": { "type": "Polygon", "coordinates": [ [ [ -71.545836188762294, -34.449323841616 ], [ -71.545364030421695, -34.449537606550699 ], [ -71.5452871420962, -34.449347607311203 ], [ -71.544856357277993, -34.4495201436429 ], [ -71.545065987769604, -34.450101699316797 ], [ -71.5464522607584, -34.453772031991001 ], [ -71.547290208588805, -34.453485395939097 ], [ -71.547319618715207, -34.453419745708999 ], [ -71.547417799952498, -34.453334215093797 ], [ -71.547466709932095, -34.4533057076235 ], [ -71.546752453677101, -34.451472114314001 ], [ -71.546738163768595, -34.451435429835698 ], [ -71.546532634691701, -34.451424058155098 ], [ -71.546357999636399, -34.4514775553709 ], [ -71.546180819266496, -34.451098773596698 ], [ -71.546093252801001, -34.450868782371302 ], [ -71.546073870289803, -34.450825361518604 ], [ -71.546063291089197, -34.450801664201101 ], [ -71.5460325470832, -34.450732793574801 ], [ -71.546332112683999, -34.450600750763599 ], [ -71.546314044627394, -34.450554101319703 ], [ -71.545901641388596, -34.449489341520703 ], [ -71.545836188762294, -34.449323841616 ] ] ] } },
{ "type": "Feature", "properties": { "id": "monoparte.6", "Name": null, "description": null, "timestamp": null, "begin": null, "end": null, "altitudeMode": null, "tessellate": -1, "extrude": 0, "visibility": -1, "drawOrder": null, "icon": null, "REG": "O'higgins", "COM": "Peralillo", "LOC": "Población", "ZONA": "ZE", "NOM": "ZE Zona Equipamiento específico", "UPERM": "Equipamiento comunal de salud, educación, seguridad, culto, cultura, organizaciones comunitarias, áreas verdes, deportes, esparcimiento y turismo y servicios públicos. Vivienda sólo la indispensable para el personal de servicio.", "UPROH": "Todos los no mencionados como permitidos.", "P_DO": "26/11/1996", "N_DOC": "688", "T_DO": "Decreto", "OBS": null }, "geometry": { "type": "Polygon", "coordinates": [ [ [ -71.548448917299396, -34.452346311224801 ], [ -71.548527082427995, -34.452548868298102 ], [ -71.548696812564799, -34.452478091128299 ], [ -71.548627654553997, -34.452293284370903 ], [ -71.548448917299396, -34.452346311224801 ] ] ] } },
{ "type": "Feature", "properties": { "id": "monoparte.7", "Name": null, "description": null, "timestamp": null, "begin": null, "end": null, "altitudeMode": null, "tessellate": -1, "extrude": 0, "visibility": -1, "drawOrder": null, "icon": null, "REG": "O'higgins", "COM": "Peralillo", "LOC": "Población", "ZONA": "ZE", "NOM": "ZE Zona Equipamiento específico", "UPERM": "Equipamiento comunal de salud, educación, seguridad, culto, cultura, organizaciones comunitarias, áreas verdes, deportes, esparcimiento y turismo y servicios públicos. Vivienda sólo la indispensable para el personal de servicio.", "UPROH": "Todos los no mencionados como permitidos.", "P_DO": "26/11/1996", "N_DOC": "688", "T_DO": "Decreto", "OBS": null }, "geometry": { "type": "Polygon", "coordinates": [ [ [ -71.548040838594105, -34.450926566201197 ], [ -71.548196616491694, -34.451292532162697 ], [ -71.548349938733793, -34.451221355776497 ], [ -71.548183723990903, -34.450866062404899 ], [ -71.548040838594105, -34.450926566201197 ] ] ] } },
{ "type": "Feature", "properties": { "id": "monoparte.8", "Name": null, "description": null, "timestamp": null, "begin": null, "end": null, "altitudeMode": null, "tessellate": -1, "extrude": 0, "visibility": -1, "drawOrder": null, "icon": null, "REG": "O'higgins", "COM": "Peralillo", "LOC": "Población", "ZONA": "ZE", "NOM": "ZE Zona Equipamiento específico", "UPERM": "Equipamiento comunal de salud, educación, seguridad, culto, cultura, organizaciones comunitarias, áreas verdes, deportes, esparcimiento y turismo y servicios públicos. Vivienda sólo la indispensable para el personal de servicio.", "UPROH": "Todos los no mencionados como permitidos.", "P_DO": "26/11/1996", "N_DOC": "688", "T_DO": "Decreto", "OBS": null }, "geometry": { "type": "Polygon", "coordinates": [ [ [ -71.550445714406905, -34.447343293537102 ], [ -71.549534170574105, -34.4477585341441 ], [ -71.549395263905893, -34.447586000106703 ], [ -71.549070085463399, -34.447738811465904 ], [ -71.549916079678894, -34.448921429254902 ], [ -71.549970187216203, -34.448997064760199 ], [ -71.550913939940898, -34.448581024764103 ], [ -71.550965201605607, -34.4486262998577 ], [ -71.551021916827807, -34.448666866114699 ], [ -71.551083460402793, -34.448702275913902 ], [ -71.551149151153894, -34.448732137794501 ], [ -71.551218262973507, -34.448756121636102 ], [ -71.551290031485095, -34.448773963026397 ], [ -71.551363666034803, -34.448785463913403 ], [ -71.551438349829198, -34.448790497109599 ], [ -71.552302646635397, -34.4484289733482 ], [ -71.551823743078899, -34.447688642718802 ], [ -71.551785754352807, -34.447706121974498 ], [ -71.550918119716599, -34.448105323221803 ], [ -71.550445714406905, -34.447343293537102 ] ] ] } },
{ "type": "Feature", "properties": { "id": "monoparte.9", "Name": null, "description": null, "timestamp": null, "begin": null, "end": null, "altitudeMode": null, "tessellate": -1, "extrude": 0, "visibility": -1, "drawOrder": null, "icon": null, "REG": "O'higgins", "COM": "Peralillo", "LOC": "Población", "ZONA": "ZVb", "NOM": "ZVb Zona de Vivienda de Baja Densidad", "UPERM": "Vivienda, equipamiento vecinal de salud, educación, cultura, organizaciones comunitarias, áreas verdes, deportes, esparcimiento y turismo, servicios públicos, comercio minorista, talleres artesanales y oficinas.", "UPROH": "Todos los no mencionados como permitidos.", "P_DO": "26/11/1996", "N_DOC": "688", "T_DO": "Decreto", "OBS": null }, "geometry": { "type": "Polygon", "coordinates": [ [ [ -71.546845244461807, -34.454812439135097 ], [ -71.547157407335803, -34.455853721902997 ], [ -71.547200446806002, -34.455539120899203 ], [ -71.547228444888205, -34.454802097606503 ], [ -71.547281875001602, -34.454428291943799 ], [ -71.547308454658705, -34.4542369195728 ], [ -71.547288295959106, -34.454165782243699 ], [ -71.547280625210107, -34.454031773436 ], [ -71.547256483197998, -34.453829532574801 ], [ -71.547246738028505, -34.453752145272503 ], [ -71.547242252831495, -34.453716530286997 ], [ -71.547258945484998, -34.453555179416803 ], [ -71.547290208588805, -34.453485395939097 ], [ -71.5464522607584, -34.453772031991001 ], [ -71.546540890572501, -34.454006677606102 ], [ -71.546845244461807, -34.454812439135097 ] ] ] } },
{ "type": "Feature", "properties": { "id": "monoparte.10", "Name": null, "description": null, "timestamp": null, "begin": null, "end": null, "altitudeMode": null, "tessellate": -1, "extrude": 0, "visibility": -1, "drawOrder": null, "icon": null, "REG": "O'higgins", "COM": "Peralillo", "LOC": "Población", "ZONA": "ZVb", "NOM": "ZVb Zona de Vivienda de Baja Densidad", "UPERM": "Vivienda, equipamiento vecinal de salud, educación, cultura, organizaciones comunitarias, áreas verdes, deportes, esparcimiento y turismo, servicios públicos, comercio minorista, talleres artesanales y oficinas.", "UPROH": "Todos los no mencionados como permitidos.", "P_DO": "26/11/1996", "N_DOC": "688", "T_DO": "Decreto", "OBS": null }, "geometry": { "type": "Polygon", "coordinates": [ [ [ -71.548798774853594, -34.453388513772701 ], [ -71.548641499261606, -34.453450616701197 ], [ -71.548585602969396, -34.453458938797198 ], [ -71.548453098544996, -34.453504636707798 ], [ -71.548248192623902, -34.4535840452942 ], [ -71.548020616072407, -34.453628147533799 ], [ -71.547903855462195, -34.453623427278103 ], [ -71.547786767769495, -34.453607979547797 ], [ -71.547647446853304, -34.453571527841902 ], [ -71.547553137924396, -34.453594961776602 ], [ -71.547486029651793, -34.4536607625285 ], [ -71.547452775458297, -34.453750902012402 ], [ -71.547470061737101, -34.453845950245203 ], [ -71.547523366330793, -34.4541787713502 ], [ -71.547587076538704, -34.454380187083103 ], [ -71.547556406535904, -34.454792278343596 ], [ -71.547547451177905, -34.4549713572898 ], [ -71.547481847448495, -34.455181432778801 ], [ -71.547513447292602, -34.455605344256398 ], [ -71.547463911330993, -34.456107274920903 ], [ -71.547384099377098, -34.456323609138799 ], [ -71.547329340207199, -34.456427225471998 ], [ -71.5476911845128, -34.457634177040397 ], [ -71.548790812377703, -34.461239128143902 ], [ -71.548918607996796, -34.461658062161703 ], [ -71.548949130252794, -34.461647801809697 ], [ -71.549813241385706, -34.461468242129001 ], [ -71.549787736627707, -34.4613952814315 ], [ -71.549345822560795, -34.460131070343898 ], [ -71.550830532428805, -34.4598300924184 ], [ -71.5508069175483, -34.459760732726302 ], [ -71.550592642084595, -34.459131384012899 ], [ -71.551161187484496, -34.453859145462303 ], [ -71.5510489566296, -34.453823259806697 ], [ -71.550895221519795, -34.453774102353997 ], [ -71.550673330860405, -34.453673784817198 ], [ -71.550526839121801, -34.453590974984301 ], [ -71.550211995404695, -34.453463974306402 ], [ -71.5498698268986, -34.453385247808598 ], [ -71.549547679208104, -34.453396741318997 ], [ -71.549340201502801, -34.453391529142102 ], [ -71.549114153591901, -34.4533437709445 ], [ -71.548958326904, -34.453332710627002 ], [ -71.548798774853594, -34.453388513772701 ] ], [ [ -71.5490479856809, -34.455455268909297 ], [ -71.548080817666403, -34.455750937295399 ], [ -71.548027793390304, -34.455569572919899 ], [ -71.548985739591103, -34.455294063841798 ], [ -71.5490479856809, -34.455455268909297 ] ] ] } },
{ "type": "Feature", "properties": { "id": "monoparte.11", "Name": null, "description": null, "timestamp": null, "begin": null, "end": null, "altitudeMode": null, "tessellate": -1, "extrude": 0, "visibility": -1, "drawOrder": null, "icon": null, "REG": "O'higgins", "COM": "Peralillo", "LOC": "Población", "ZONA": "ZVb", "NOM": "ZVb Zona de Vivienda de Baja Densidad", "UPERM": "Vivienda, equipamiento vecinal de salud, educación, cultura, organizaciones comunitarias, áreas verdes, deportes, esparcimiento y turismo, servicios públicos, comercio minorista, talleres artesanales y oficinas.", "UPROH": "Todos los no mencionados como permitidos.", "P_DO": "26/11/1996", "N_DOC": "688", "T_DO": "Decreto", "OBS": null }, "geometry": { "type": "Polygon", "coordinates": [ [ [ -71.548349938733793, -34.451221355776497 ], [ -71.548196616491694, -34.451292532162697 ], [ -71.548040838594105, -34.450926566201197 ], [ -71.547977797354307, -34.450953260851499 ], [ -71.546738163768595, -34.451435429835698 ], [ -71.546752453677101, -34.451472114314001 ], [ -71.547466709932095, -34.4533057076235 ], [ -71.547502679643401, -34.453284741460699 ], [ -71.547610046950794, -34.453264613349397 ], [ -71.547681987308906, -34.453263113275 ], [ -71.547794400021402, -34.453290584574297 ], [ -71.5478957510595, -34.453309341743498 ], [ -71.548036305712301, -34.453315355279798 ], [ -71.548161930223202, -34.453303790633399 ], [ -71.548226223275194, -34.4532875415928 ], [ -71.548268753955597, -34.453265783879999 ], [ -71.548498393047495, -34.453123844169397 ], [ -71.548702969540003, -34.4531046686877 ], [ -71.548883182273997, -34.453112835236396 ], [ -71.549051439188702, -34.453142122519999 ], [ -71.549440279132597, -34.453145935448902 ], [ -71.549724532556993, -34.453142985063003 ], [ -71.5498979145314, -34.453163219519801 ], [ -71.550054397413305, -34.453219583419603 ], [ -71.550226266450807, -34.453308424382897 ], [ -71.550566498876705, -34.453380246935197 ], [ -71.550846811450498, -34.453507967637897 ], [ -71.550918049938005, -34.453578037856403 ], [ -71.551126549918607, -34.4536538099157 ], [ -71.551569839799797, -34.4532833541193 ], [ -71.551836864073394, -34.453069069965501 ], [ -71.552588821840004, -34.4527221274925 ], [ -71.5525612730642, -34.452636337459197 ], [ -71.551618632327106, -34.4494114945593 ], [ -71.551539872926099, -34.449444847786303 ], [ -71.548183723990903, -34.450866062404899 ], [ -71.548349938733793, -34.451221355776497 ] ], [ [ -71.548696812564799, -34.452478091128299 ], [ -71.548527082427995, -34.452548868298102 ], [ -71.548448917299396, -34.452346311224801 ], [ -71.548627654553997, -34.452293284370903 ], [ -71.548696812564799, -34.452478091128299 ] ] ] } },
{ "type": "Feature", "properties": { "id": "monoparte.12", "Name": null, "description": null, "timestamp": null, "begin": null, "end": null, "altitudeMode": null, "tessellate": -1, "extrude": 0, "visibility": -1, "drawOrder": null, "icon": null, "REG": "O'higgins", "COM": "Peralillo", "LOC": "Población", "ZONA": "ZRv", "NOM": "ZRv Áreas Verdes", "UPERM": "Áreas verdes y edificaciones inherentes a su carácter.", "UPROH": "Todos los no mencionados como permitidos.", "P_DO": "26/11/1996", "N_DOC": "688", "T_DO": "Decreto", "OBS": null }, "geometry": { "type": "Polygon", "coordinates": [ [ [ -71.546093252801001, -34.450868782371302 ], [ -71.546180819266496, -34.451098773596698 ], [ -71.5477776066556, -34.450449960862898 ], [ -71.547625128146507, -34.450167144034801 ], [ -71.546073870289803, -34.450825361518604 ], [ -71.546093252801001, -34.450868782371302 ] ] ] } },
{ "type": "Feature", "properties": { "id": "monoparte.13", "Name": null, "description": null, "timestamp": null, "begin": null, "end": null, "altitudeMode": null, "tessellate": -1, "extrude": 0, "visibility": -1, "drawOrder": null, "icon": null, "REG": "O'higgins", "COM": "Peralillo", "LOC": "Población", "ZONA": "ZRc", "NOM": "ZRc Alto Riesgo para Asentamientos Humanos", "UPERM": "Zonas de alto riesgo para asentamientos humanos.", "UPROH": "Asentamiento humanos.", "P_DO": "26/11/1996", "N_DOC": "688", "T_DO": "Decreto", "OBS": null }, "geometry": { "type": "Polygon", "coordinates": [ [ [ -71.549970187216203, -34.448997064760199 ], [ -71.546332112683999, -34.450600750763599 ], [ -71.5460325470832, -34.450732793574801 ], [ -71.546063291089197, -34.450801664201101 ], [ -71.546073870289803, -34.450825361518604 ], [ -71.547625128146507, -34.450167144034801 ], [ -71.5477776066556, -34.450449960862898 ], [ -71.546180819266496, -34.451098773596698 ], [ -71.546357999636399, -34.4514775553709 ], [ -71.546532634691701, -34.451424058155098 ], [ -71.546738163768595, -34.451435429835698 ], [ -71.547977797354307, -34.450953260851499 ], [ -71.548040838594105, -34.450926566201197 ], [ -71.548183723990903, -34.450866062404899 ], [ -71.551539872926099, -34.449444847786303 ], [ -71.551618632327106, -34.4494114945593 ], [ -71.5514397401504, -34.448799459653998 ], [ -71.551438349829198, -34.448790497109599 ], [ -71.551363666034803, -34.448785463913403 ], [ -71.551290031485095, -34.448773963026397 ], [ -71.551218262973507, -34.448756121636102 ], [ -71.551149151153894, -34.448732137794501 ], [ -71.551083460402793, -34.448702275913902 ], [ -71.551021916827807, -34.448666866114699 ], [ -71.550965201605607, -34.4486262998577 ], [ -71.550913939940898, -34.448581024764103 ], [ -71.549970187216203, -34.448997064760199 ] ] ] } },
{ "type": "Feature", "properties": { "id": "monoparte.14", "Name": null, "description": null, "timestamp": null, "begin": null, "end": null, "altitudeMode": null, "tessellate": -1, "extrude": 0, "visibility": -1, "drawOrder": null, "icon": null, "REG": "O'higgins", "COM": "Peralillo", "LOC": "Peralillo", "ZONA": "ZRb", "NOM": "ZRb Protección de Vertientes y Cauces de Esteros y Canales", "UPERM": "Protección de vertientes y cauces de esteros y canales", "UPROH": "Todos los no mencionados como permitidos.", "P_DO": "26/11/1996", "N_DOC": "688", "T_DO": "Decreto", "OBS": null }, "geometry": { "type": "Polygon", "coordinates": [ [ [ -71.483240094804003, -34.481126913214901 ], [ -71.482665520217694, -34.481372349349897 ], [ -71.482225055393599, -34.481260670046296 ], [ -71.481727655575597, -34.4811944491546 ], [ -71.481273546079393, -34.481256943188598 ], [ -71.481101146829999, -34.481286408145401 ], [ -71.481027035465203, -34.481297730212503 ], [ -71.480852640935893, -34.481390720060602 ], [ -71.4807095336147, -34.481518852643902 ], [ -71.480583379461194, -34.481635908213597 ], [ -71.480499241547804, -34.481712752899497 ], [ -71.480346330434898, -34.481801727626198 ], [ -71.480116753531803, -34.481928037408103 ], [ -71.480032931478405, -34.4820156097161 ], [ -71.479942607934007, -34.482051572402099 ], [ -71.479860774581198, -34.482178301208101 ], [ -71.479624182419798, -34.482359614259501 ], [ -71.479457220229605, -34.482509099822799 ], [ -71.479242550378302, -34.482701299175197 ], [ -71.478312458385304, -34.483243868796002 ], [ -71.478289020161597, -34.483252969192499 ], [ -71.478660271966902, -34.483848565579002 ], [ -71.478678881536197, -34.483786374589201 ], [ -71.478712387270704, -34.483711547646102 ], [ -71.478813886533004, -34.483491236176597 ], [ -71.478878108963698, -34.483325349334997 ], [ -71.478956449715, -34.483198533370498 ], [ -71.479035214683805, -34.483086019406201 ], [ -71.479123144492902, -34.482991209039902 ], [ -71.479292272111493, -34.482866128150398 ], [ -71.479422748328005, -34.482748986112298 ], [ -71.479586709642902, -34.482595386593701 ], [ -71.479781639238695, -34.482466202207497 ], [ -71.479944583478897, -34.482350908436302 ], [ -71.480048811997094, -34.482296194049802 ], [ -71.480247633921493, -34.482152619254798 ], [ -71.480462881452198, -34.481980086551097 ], [ -71.480561018509704, -34.481911568843998 ], [ -71.480815727049105, -34.481758509176302 ], [ -71.480988900995797, -34.481650970265498 ], [ -71.481176036913396, -34.481550565153803 ], [ -71.481338217872903, -34.481482867968801 ], [ -71.481563565081899, -34.481388843105798 ], [ -71.481627488351705, -34.481358920308502 ], [ -71.481782197398203, -34.481330731807702 ], [ -71.4818777253831, -34.481346680356303 ], [ -71.481990843591205, -34.481373004814003 ], [ -71.482170428316905, -34.481455224606499 ], [ -71.482314938838101, -34.481520268214403 ], [ -71.482463130886501, -34.481563768142301 ], [ -71.482664095186905, -34.481638397317397 ], [ -71.482876741772898, -34.4816698540277 ], [ -71.483083587022193, -34.481651337443502 ], [ -71.483368581242203, -34.481645543111398 ], [ -71.483584486032001, -34.4816411530214 ], [ -71.483701286099105, -34.481645933234603 ], [ -71.483795542195196, -34.481618971496701 ], [ -71.483850404989994, -34.481574921160998 ], [ -71.483900100996607, -34.481502352791502 ], [ -71.483997295415904, -34.481428817504003 ], [ -71.484052688255105, -34.481402645955598 ], [ -71.484178018633102, -34.481403675019102 ], [ -71.484246365328602, -34.4813772399134 ], [ -71.484380226264804, -34.481374517149703 ], [ -71.484491965117201, -34.481354354590103 ], [ -71.484633825097504, -34.4813300010726 ], [ -71.484784003409104, -34.481294744733397 ], [ -71.484895106602906, -34.481253127881402 ], [ -71.484993466864793, -34.481218925515002 ], [ -71.485090130578897, -34.481127511432298 ], [ -71.485173626936501, -34.481029209877399 ], [ -71.4852651220083, -34.480909277752097 ], [ -71.485343876279202, -34.480796760138197 ], [ -71.485405675485794, -34.4806953218269 ], [ -71.485500534247095, -34.480543119899899 ], [ -71.4855702332638, -34.480402164244602 ], [ -71.4856283514208, -34.480322267595902 ], [ -71.485664242477, -34.480221356409501 ], [ -71.485699284503497, -34.480091839414101 ], [ -71.485700842587406, -34.479998782250199 ], [ -71.485705446604499, -34.479862728478501 ], [ -71.485733411103297, -34.479640330049399 ], [ -71.485768346708994, -34.479507237087603 ], [ -71.485804131179194, -34.479402749919799 ], [ -71.485920258464503, -34.479239381404298 ], [ -71.486003221421797, -34.4791232005281 ], [ -71.486150528427899, -34.478991397473898 ], [ -71.486318258484701, -34.4788198229149 ], [ -71.486503470737404, -34.478655047563699 ], [ -71.486620975622998, -34.478538162198902 ], [ -71.486204895135302, -34.478379737573199 ], [ -71.486210470617095, -34.478414747083498 ], [ -71.486039600401796, -34.478594061798397 ], [ -71.4857936391696, -34.478847134772302 ], [ -71.485683163650606, -34.479006810941698 ], [ -71.4854988721072, -34.479184864597201 ], [ -71.484921533033301, -34.479742657267302 ], [ -71.484729926923805, -34.480080491609399 ], [ -71.484535207960505, -34.480313438277001 ], [ -71.484468665363806, -34.480400661113201 ], [ -71.484367012772196, -34.480469515714503 ], [ -71.484098961271002, -34.4805608378729 ], [ -71.483933552139305, -34.480616677259697 ], [ -71.483816323369695, -34.480743095269197 ], [ -71.483544634238001, -34.480906047042303 ], [ -71.483240094804003, -34.481126913214901 ] ] ] } },
{ "type": "Feature", "properties": { "id": "monoparte.15", "Name": null, "description": null, "timestamp": null, "begin": null, "end": null, "altitudeMode": null, "tessellate": -1, "extrude": 0, "visibility": -1, "drawOrder": null, "icon": null, "REG": "O'higgins", "COM": "Peralillo", "LOC": "Peralillo", "ZONA": "ZRb", "NOM": "ZRb Protección de Vertientes y Cauces de Esteros y Canales", "UPERM": "Protección de vertientes y cauces de esteros y canales", "UPROH": "Todos los no mencionados como permitidos.", "P_DO": "26/11/1996", "N_DOC": "688", "T_DO": "Decreto", "OBS": null }, "geometry": { "type": "Polygon", "coordinates": [ [ [ -71.480902113497805, -34.4736603453252 ], [ -71.480668055850003, -34.473731885886203 ], [ -71.480414186203006, -34.473717959785901 ], [ -71.480164521295407, -34.4736514714129 ], [ -71.479939578282398, -34.4736417260049 ], [ -71.479733033935801, -34.473669772379701 ], [ -71.479609768107295, -34.473786767288601 ], [ -71.479508734340996, -34.473890239707799 ], [ -71.479501879356107, -34.474035809699799 ], [ -71.479636182892406, -34.473900723672699 ], [ -71.479811825647801, -34.473801747827402 ], [ -71.480012330738006, -34.473764283179101 ], [ -71.480191501335696, -34.473784497681201 ], [ -71.480382891282403, -34.473828317013499 ], [ -71.480585654811406, -34.473867134245999 ], [ -71.480775068623601, -34.473844206056903 ], [ -71.480997329516796, -34.473763363243499 ], [ -71.481292171913196, -34.473604717012698 ], [ -71.481489285414199, -34.473452826310599 ], [ -71.481777944805899, -34.473279992984402 ], [ -71.482059715784104, -34.473069135090498 ], [ -71.482279854387301, -34.472916775299801 ], [ -71.482514004050302, -34.472871866941198 ], [ -71.4825197584167, -34.472751377784398 ], [ -71.482521300655705, -34.472719077579796 ], [ -71.482184778055895, -34.472818526369799 ], [ -71.481846711437697, -34.473073463050298 ], [ -71.4813770809712, -34.473359695528799 ], [ -71.481117345742703, -34.473536710349599 ], [ -71.480902113497805, -34.4736603453252 ] ] ] } },
{ "type": "Feature", "properties": { "id": "monoparte.16", "Name": null, "description": null, "timestamp": null, "begin": null, "end": null, "altitudeMode": null, "tessellate": -1, "extrude": 0, "visibility": -1, "drawOrder": null, "icon": null, "REG": "O'higgins", "COM": "Peralillo", "LOC": "Peralillo", "ZONA": "ZRc", "NOM": "ZRc Alto Riesgo para Asentamientos Humanos", "UPERM": "Zonas de alto riesgo para asentamientos humanos.", "UPROH": "Asentamiento humanos.", "P_DO": "26/11/1996", "N_DOC": "688", "T_DO": "Decreto", "OBS": null }, "geometry": { "type": "Polygon", "coordinates": [ [ [ -71.478024047421499, -34.482827869061197 ], [ -71.478289020161597, -34.483252969192499 ], [ -71.478312458385304, -34.483243868796002 ], [ -71.479242550378302, -34.482701299175197 ], [ -71.479457220229605, -34.482509099822799 ], [ -71.479624182419798, -34.482359614259501 ], [ -71.479860774581198, -34.482178301208101 ], [ -71.479942607934007, -34.482051572402099 ], [ -71.478030034852495, -34.4828257218755 ], [ -71.478024047421499, -34.482827869061197 ] ] ] } },
{ "type": "Feature", "properties": { "id": "monoparte.17", "Name": null, "description": null, "timestamp": null, "begin": null, "end": null, "altitudeMode": null, "tessellate": -1, "extrude": 0, "visibility": -1, "drawOrder": null, "icon": null, "REG": "O'higgins", "COM": "Peralillo", "LOC": "Peralillo", "ZONA": "ZRc", "NOM": "ZRc Alto Riesgo para Asentamientos Humanos", "UPERM": "Zonas de alto riesgo para asentamientos humanos.", "UPROH": "Asentamiento humanos.", "P_DO": "26/11/1996", "N_DOC": "688", "T_DO": "Decreto", "OBS": null }, "geometry": { "type": "Polygon", "coordinates": [ [ [ -71.482686285612601, -34.480114198528902 ], [ -71.481273546079393, -34.481256943188598 ], [ -71.481727655575597, -34.4811944491546 ], [ -71.482225055393599, -34.481260670046296 ], [ -71.482665520217694, -34.481372349349897 ], [ -71.483240094804003, -34.481126913214901 ], [ -71.483544634238001, -34.480906047042303 ], [ -71.483816323369695, -34.480743095269197 ], [ -71.483933552139305, -34.480616677259697 ], [ -71.484098961271002, -34.4805608378729 ], [ -71.484367012772196, -34.480469515714503 ], [ -71.484468665363806, -34.480400661113201 ], [ -71.484535207960505, -34.480313438277001 ], [ -71.484729926923805, -34.480080491609399 ], [ -71.484921533033301, -34.479742657267302 ], [ -71.4854988721072, -34.479184864597201 ], [ -71.485683163650606, -34.479006810941698 ], [ -71.4857936391696, -34.478847134772302 ], [ -71.486039600401796, -34.478594061798397 ], [ -71.486210470617095, -34.478414747083498 ], [ -71.486204895135302, -34.478379737573199 ], [ -71.4857782249058, -34.478217278166802 ], [ -71.485596712592994, -34.4783178605297 ], [ -71.485164443873202, -34.478553256605998 ], [ -71.484659853335302, -34.478778195378098 ], [ -71.484105589942999, -34.479027995548201 ], [ -71.483260149302396, -34.479414902907997 ], [ -71.482697974644196, -34.479641005408403 ], [ -71.482462586683695, -34.479748931244401 ], [ -71.482461998314406, -34.479749796036103 ], [ -71.482686285612601, -34.480114198528902 ] ] ] } },
{ "type": "Feature", "properties": { "id": "monoparte.18", "Name": null, "description": null, "timestamp": null, "begin": null, "end": null, "altitudeMode": null, "tessellate": -1, "extrude": 0, "visibility": -1, "drawOrder": null, "icon": null, "REG": "O'higgins", "COM": "Peralillo", "LOC": "Peralillo", "ZONA": "ZE", "NOM": "ZE Zona Equipamiento Específico", "UPERM": "Equipamiento comunal de salud, educación, seguridad, culto, cultura, organizaciones comunitarias, áreas verdes, deportes, esparcimiento y turismo y servicios públicos. Vivienda sólo la indispensable para el personal de servicio.", "UPROH": "Todos los no mencionados como permitidos.", "P_DO": "26/11/1996", "N_DOC": "688", "T_DO": "Decreto", "OBS": null }, "geometry": { "type": "Polygon", "coordinates": [ [ [ -71.479512858308297, -34.481023564491302 ], [ -71.479510406003001, -34.481027515133398 ], [ -71.479520054450205, -34.481023418403701 ], [ -71.479777097652303, -34.481435621489801 ], [ -71.482686285612601, -34.480114198528902 ], [ -71.482461998314406, -34.479749796036103 ], [ -71.482456625075002, -34.479741065889399 ], [ -71.479512858308297, -34.481023564491302 ] ] ] } },
{ "type": "Feature", "properties": { "id": "monoparte.19", "Name": null, "description": null, "timestamp": null, "begin": null, "end": null, "altitudeMode": null, "tessellate": -1, "extrude": 0, "visibility": -1, "drawOrder": null, "icon": null, "REG": "O'higgins", "COM": "Peralillo", "LOC": "Peralillo", "ZONA": "ZE", "NOM": "ZE Zona Equipamiento Específico", "UPERM": "Equipamiento comunal de salud, educación, seguridad, culto, cultura, organizaciones comunitarias, áreas verdes, deportes, esparcimiento y turismo y servicios públicos. Vivienda sólo la indispensable para el personal de servicio.", "UPROH": "Todos los no mencionados como permitidos.", "P_DO": "26/11/1996", "N_DOC": "688", "T_DO": "Decreto", "OBS": null }, "geometry": { "type": "Polygon", "coordinates": [ [ [ -71.476916472856701, -34.480885663206699 ], [ -71.477180693984096, -34.481322907663198 ], [ -71.477372170234901, -34.481243558119402 ], [ -71.479052736147295, -34.480552112557604 ], [ -71.479151727367594, -34.480490471637097 ], [ -71.479243167334104, -34.480417056863502 ], [ -71.479285466205297, -34.480386383324998 ], [ -71.479495773761698, -34.480296829868799 ], [ -71.479805967834693, -34.480164742104201 ], [ -71.481020638273193, -34.4796474956268 ], [ -71.481070132068993, -34.4796166744392 ], [ -71.4811489416618, -34.479603147392602 ], [ -71.481342368590106, -34.479569402180502 ], [ -71.482173957251405, -34.479200679061201 ], [ -71.482245692524501, -34.4791686842023 ], [ -71.481957790070496, -34.478707190170702 ], [ -71.479663645447999, -34.479692149629201 ], [ -71.476916472856701, -34.480885663206699 ] ] ] } },
{ "type": "Feature", "properties": { "id": "monoparte.20", "Name": null, "description": null, "timestamp": null, "begin": null, "end": null, "altitudeMode": null, "tessellate": -1, "extrude": 0, "visibility": -1, "drawOrder": null, "icon": null, "REG": "O'higgins", "COM": "Peralillo", "LOC": "Peralillo", "ZONA": "ZE", "NOM": "ZE Zona Equipamiento Específico", "UPERM": "Equipamiento comunal de salud, educación, seguridad, culto, cultura, organizaciones comunitarias, áreas verdes, deportes, esparcimiento y turismo y servicios públicos. Vivienda sólo la indispensable para el personal de servicio.", "UPROH": "Todos los no mencionados como permitidos.", "P_DO": "26/11/1996", "N_DOC": "688", "T_DO": "Decreto", "OBS": null }, "geometry": { "type": "Polygon", "coordinates": [ [ [ -71.476363712352494, -34.478303180361202 ], [ -71.476486308722599, -34.478507525229503 ], [ -71.476878607583402, -34.478319446694101 ], [ -71.476777350457596, -34.4781322752441 ], [ -71.476363712352494, -34.478303180361202 ] ] ] } },
{ "type": "Feature", "properties": { "id": "monoparte.21", "Name": null, "description": null, "timestamp": null, "begin": null, "end": null, "altitudeMode": null, "tessellate": -1, "extrude": 0, "visibility": -1, "drawOrder": null, "icon": null, "REG": "O'higgins", "COM": "Peralillo", "LOC": "Peralillo", "ZONA": "ZE", "NOM": "ZE Zona Equipamiento Específico", "UPERM": "Equipamiento comunal de salud, educación, seguridad, culto, cultura, organizaciones comunitarias, áreas verdes, deportes, esparcimiento y turismo y servicios públicos. Vivienda sólo la indispensable para el personal de servicio.", "UPROH": "Todos los no mencionados como permitidos.", "P_DO": "26/11/1996", "N_DOC": "688", "T_DO": "Decreto", "OBS": null }, "geometry": { "type": "Polygon", "coordinates": [ [ [ -71.477946061238896, -34.478053583021101 ], [ -71.478505908638098, -34.478920188154802 ], [ -71.478950159842597, -34.478715845631797 ], [ -71.478384503476093, -34.477860784471702 ], [ -71.477946061238896, -34.478053583021101 ] ] ] } },
{ "type": "Feature", "properties": { "id": "monoparte.22", "Name": null, "description": null, "timestamp": null, "begin": null, "end": null, "altitudeMode": null, "tessellate": -1, "extrude": 0, "visibility": -1, "drawOrder": null, "icon": null, "REG": "O'higgins", "COM": "Peralillo", "LOC": "Peralillo", "ZONA": "ZE", "NOM": "ZE Zona Equipamiento Específico", "UPERM": "Equipamiento comunal de salud, educación, seguridad, culto, cultura, organizaciones comunitarias, áreas verdes, deportes, esparcimiento y turismo y servicios públicos. Vivienda sólo la indispensable para el personal de servicio.", "UPROH": "Todos los no mencionados como permitidos.", "P_DO": "26/11/1996", "N_DOC": "688", "T_DO": "Decreto", "OBS": null }, "geometry": { "type": "Polygon", "coordinates": [ [ [ -71.476788074335104, -34.477900319311999 ], [ -71.477027152437003, -34.478277752968097 ], [ -71.477028373354301, -34.478277182790698 ], [ -71.477427750635698, -34.478090733171499 ], [ -71.477192280346898, -34.477729135313901 ], [ -71.476838430010403, -34.477881137154498 ], [ -71.476788074335104, -34.477900319311999 ] ] ] } },
{ "type": "Feature", "properties": { "id": "monoparte.23", "Name": null, "description": null, "timestamp": null, "begin": null, "end": null, "altitudeMode": null, "tessellate": -1, "extrude": 0, "visibility": -1, "drawOrder": null, "icon": null, "REG": "O'higgins", "COM": "Peralillo", "LOC": "Peralillo", "ZONA": "ZE", "NOM": "ZE Zona Equipamiento Específico", "UPERM": "Equipamiento comunal de salud, educación, seguridad, culto, cultura, organizaciones comunitarias, áreas verdes, deportes, esparcimiento y turismo y servicios públicos. Vivienda sólo la indispensable para el personal de servicio.", "UPROH": "Todos los no mencionados como permitidos.", "P_DO": "26/11/1996", "N_DOC": "688", "T_DO": "Decreto", "OBS": null }, "geometry": { "type": "Polygon", "coordinates": [ [ [ -71.478168629562504, -34.477309723112498 ], [ -71.478397551996594, -34.4777204249691 ], [ -71.479509567260806, -34.4772506186386 ], [ -71.479242519497106, -34.476765941769202 ], [ -71.479241589135199, -34.476765440478303 ], [ -71.479002443550101, -34.476443026722301 ], [ -71.477932162225997, -34.476885482481599 ], [ -71.478168629562504, -34.477309723112498 ] ] ] } },
{ "type": "Feature", "properties": { "id": "monoparte.24", "Name": null, "description": null, "timestamp": null, "begin": null, "end": null, "altitudeMode": null, "tessellate": -1, "extrude": 0, "visibility": -1, "drawOrder": null, "icon": null, "REG": "O'higgins", "COM": "Peralillo", "LOC": "Peralillo", "ZONA": "ZE", "NOM": "ZE Zona Equipamiento Específico", "UPERM": "Equipamiento comunal de salud, educación, seguridad, culto, cultura, organizaciones comunitarias, áreas verdes, deportes, esparcimiento y turismo y servicios públicos. Vivienda sólo la indispensable para el personal de servicio.", "UPROH": "Todos los no mencionados como permitidos.", "P_DO": "26/11/1996", "N_DOC": "688", "T_DO": "Decreto", "OBS": null }, "geometry": { "type": "Polygon", "coordinates": [ [ [ -71.480775068623601, -34.473844206056903 ], [ -71.480585654811406, -34.473867134245999 ], [ -71.480382891282403, -34.473828317013499 ], [ -71.480191501335696, -34.473784497681201 ], [ -71.480012330738006, -34.473764283179101 ], [ -71.479811825647801, -34.473801747827402 ], [ -71.479636182892406, -34.473900723672699 ], [ -71.479501879356107, -34.474035809699799 ], [ -71.479479275128398, -34.474515836549799 ], [ -71.479623729576602, -34.474570495792797 ], [ -71.482404677496604, -34.475622707606 ], [ -71.482465866021002, -34.473896917696699 ], [ -71.482497547573701, -34.473216473183399 ], [ -71.482514004050302, -34.472871866941198 ], [ -71.482279854387301, -34.472916775299801 ], [ -71.482059715784104, -34.473069135090498 ], [ -71.481777944805899, -34.473279992984402 ], [ -71.481489285414199, -34.473452826310599 ], [ -71.481292171913196, -34.473604717012698 ], [ -71.480997329516796, -34.473763363243499 ], [ -71.480775068623601, -34.473844206056903 ] ] ] } },
{ "type": "Feature", "properties": { "id": "monoparte.25", "Name": null, "description": null, "timestamp": null, "begin": null, "end": null, "altitudeMode": null, "tessellate": -1, "extrude": 0, "visibility": -1, "drawOrder": null, "icon": null, "REG": "O'higgins", "COM": "Peralillo", "LOC": "Peralillo", "ZONA": "ZE", "NOM": "ZE Zona Equipamiento Específico", "UPERM": "Equipamiento comunal de salud, educación, seguridad, culto, cultura, organizaciones comunitarias, áreas verdes, deportes, esparcimiento y turismo y servicios públicos. Vivienda sólo la indispensable para el personal de servicio.", "UPROH": "Todos los no mencionados como permitidos.", "P_DO": "26/11/1996", "N_DOC": "688", "T_DO": "Decreto", "OBS": null }, "geometry": { "type": "Polygon", "coordinates": [ [ [ -71.479565444206898, -34.4727340330343 ], [ -71.480677468895095, -34.472882540272202 ], [ -71.480801908638398, -34.472221678928499 ], [ -71.479891926970893, -34.472038559180397 ], [ -71.479565444206898, -34.4727340330343 ] ] ] } },
{ "type": "Feature", "properties": { "id": "monoparte.26", "Name": null, "description": null, "timestamp": null, "begin": null, "end": null, "altitudeMode": null, "tessellate": -1, "extrude": 0, "visibility": -1, "drawOrder": null, "icon": null, "REG": "O'higgins", "COM": "Peralillo", "LOC": "Peralillo", "ZONA": "ZVa", "NOM": "ZVa Zona de Vivienda de Alta Densidad", "UPERM": "Vivienda, comercio de barrio, equipamiento vecinal de salud, educación, cultura, organizaciones comunitarias, áreas verdes, deportes, esparcimiento y turismo y servicios públicos.", "UPROH": "Todos los no mencionados como permitidos.", "P_DO": "26/11/1996", "N_DOC": "688", "T_DO": "Decreto", "OBS": null }, "geometry": { "type": "Polygon", "coordinates": [ [ [ -71.479510406003001, -34.481027515133398 ], [ -71.477447677844694, -34.481903172333602 ], [ -71.478024047421499, -34.482827869061197 ], [ -71.478030034852495, -34.4828257218755 ], [ -71.479942607934007, -34.482051572402099 ], [ -71.480032931478405, -34.4820156097161 ], [ -71.480116753531803, -34.481928037408103 ], [ -71.480346330434898, -34.481801727626198 ], [ -71.480499241547804, -34.481712752899497 ], [ -71.480583379461194, -34.481635908213597 ], [ -71.4807095336147, -34.481518852643902 ], [ -71.480852640935893, -34.481390720060602 ], [ -71.481027035465203, -34.481297730212503 ], [ -71.481101146829999, -34.481286408145401 ], [ -71.481273546079393, -34.481256943188598 ], [ -71.482686285612601, -34.480114198528902 ], [ -71.479777097652303, -34.481435621489801 ], [ -71.479520054450205, -34.481023418403701 ], [ -71.479510406003001, -34.481027515133398 ] ] ] } },
{ "type": "Feature", "properties": { "id": "monoparte.27", "Name": null, "description": null, "timestamp": null, "begin": null, "end": null, "altitudeMode": null, "tessellate": -1, "extrude": 0, "visibility": -1, "drawOrder": null, "icon": null, "REG": "O'higgins", "COM": "Peralillo", "LOC": "Peralillo", "ZONA": "ZC", "NOM": "ZC Zona Céntrica Mixta, de Equipamiento, Comercio y Vivienda", "UPERM": "Vivienda, equipamiento comunal de todo tipo y comercio, almacenamiento y artesanías no molestas.", "UPROH": "Todos los no mencionados como permitidos: industrias y talleres artesanales molestos tales como herrerías, vulcanizaciones y talleres mecánicos.", "P_DO": "26/11/1996", "N_DOC": "688", "T_DO": "Decreto", "OBS": null }, "geometry": { "type": "Polygon", "coordinates": [ [ [ -71.481274196524197, -34.479747535511102 ], [ -71.481151206987207, -34.479874067164197 ], [ -71.480053590509996, -34.480354329969401 ], [ -71.479308263773106, -34.480670005315403 ], [ -71.479108589755995, -34.480736075415102 ], [ -71.479040205398107, -34.480761315726603 ], [ -71.478923137072599, -34.480757651632103 ], [ -71.477170530590996, -34.481458525135601 ], [ -71.477447677844694, -34.481903172333602 ], [ -71.479510406003001, -34.481027515133398 ], [ -71.479512858308297, -34.481023564491302 ], [ -71.482456625075002, -34.479741065889399 ], [ -71.482461998314406, -34.479749796036103 ], [ -71.482462586683695, -34.479748931244401 ], [ -71.482697974644196, -34.479641005408403 ], [ -71.483260149302396, -34.479414902907997 ], [ -71.484105589942999, -34.479027995548201 ], [ -71.484659853335302, -34.478778195378098 ], [ -71.485164443873202, -34.478553256605998 ], [ -71.485596712592994, -34.4783178605297 ], [ -71.4857782249058, -34.478217278166802 ], [ -71.485387713207004, -34.4780685850385 ], [ -71.485514090717501, -34.477866309916699 ], [ -71.485104309009003, -34.478052514071699 ], [ -71.484708768693693, -34.478232244591801 ], [ -71.482778225322207, -34.479083994899597 ], [ -71.482284938174899, -34.479301624597603 ], [ -71.481274196524197, -34.479747535511102 ] ] ] } },
{ "type": "Feature", "properties": { "id": "monoparte.28", "Name": null, "description": null, "timestamp": null, "begin": null, "end": null, "altitudeMode": null, "tessellate": -1, "extrude": 0, "visibility": -1, "drawOrder": null, "icon": null, "REG": "O'higgins", "COM": "Peralillo", "LOC": "Peralillo", "ZONA": "ZC", "NOM": "ZC Zona Céntrica Mixta, de Equipamiento, Comercio y Vivienda", "UPERM": "Vivienda, equipamiento comunal de todo tipo y comercio, almacenamiento y artesanías no molestas.", "UPROH": "Todos los no mencionados como permitidos: industrias y talleres artesanales molestos tales como herrerías, vulcanizaciones y talleres mecánicos.", "P_DO": "26/11/1996", "N_DOC": "688", "T_DO": "Decreto", "OBS": null }, "geometry": { "type": "Polygon", "coordinates": [ [ [ -71.479509567260806, -34.4772506186386 ], [ -71.478397551996594, -34.4777204249691 ], [ -71.478168629562504, -34.477309723112498 ], [ -71.477192280346898, -34.477729135313901 ], [ -71.477427750635698, -34.478090733171499 ], [ -71.477028373354301, -34.478277182790698 ], [ -71.477027469654999, -34.478288479992003 ], [ -71.477055914539605, -34.478373772592597 ], [ -71.477370436400307, -34.478892229563201 ], [ -71.475998430241901, -34.479444809166502 ], [ -71.476640544556403, -34.480443066976498 ], [ -71.475300737614702, -34.481014067890698 ], [ -71.4758118317406, -34.481853417946297 ], [ -71.475828672804596, -34.481883182708501 ], [ -71.477180693984096, -34.481322907663198 ], [ -71.476916472856701, -34.480885663206699 ], [ -71.479663645447999, -34.479692149629201 ], [ -71.481957790070496, -34.478707190170702 ], [ -71.482245692524501, -34.4791686842023 ], [ -71.484874170091103, -34.477996283575798 ], [ -71.484959769555999, -34.477958101089399 ], [ -71.484290221380206, -34.477665117541903 ], [ -71.482405226211796, -34.478499643194603 ], [ -71.481184761750001, -34.476360182769099 ], [ -71.481174994322501, -34.476342710565 ], [ -71.480641706613, -34.476127661015397 ], [ -71.479242112252706, -34.476765202678202 ], [ -71.479242519497106, -34.476765941769202 ], [ -71.479509567260806, -34.4772506186386 ] ], [ [ -71.480075305699003, -34.478188706933999 ], [ -71.479030122871706, -34.478664503198097 ], [ -71.478477742761797, -34.477823378213003 ], [ -71.479564967463205, -34.477350622487897 ], [ -71.480075305699003, -34.478188706933999 ] ], [ [ -71.478384503476093, -34.477860784471702 ], [ -71.478950159842597, -34.478715845631797 ], [ -71.478505908638098, -34.478920188154802 ], [ -71.477946061238896, -34.478053583021101 ], [ -71.478384503476093, -34.477860784471702 ] ] ] } },
{ "type": "Feature", "properties": { "id": "monoparte.29", "Name": null, "description": null, "timestamp": null, "begin": null, "end": null, "altitudeMode": null, "tessellate": -1, "extrude": 0, "visibility": -1, "drawOrder": null, "icon": null, "REG": "O'higgins", "COM": "Peralillo", "LOC": "Peralillo", "ZONA": "ZRe", "NOM": "ZRe Protección de Trazados Ferroviarios", "UPERM": "Trazados ferroviarios destinados a proteger el normal funcionamiento de las vías.", "UPROH": "Todos los no mencionados como permitidos.", "P_DO": "26/11/1996", "N_DOC": "688", "T_DO": "Decreto", "OBS": null }, "geometry": { "type": "Polygon", "coordinates": [ [ [ -71.484959769555999, -34.477958101089399 ], [ -71.484874170091103, -34.477996283575798 ], [ -71.482245692524501, -34.4791686842023 ], [ -71.482173957251405, -34.479200679061201 ], [ -71.481342368590106, -34.479569402180502 ], [ -71.4811489416618, -34.479603147392602 ], [ -71.481070132068993, -34.4796166744392 ], [ -71.481020638273193, -34.4796474956268 ], [ -71.479805967834693, -34.480164742104201 ], [ -71.479495773761698, -34.480296829868799 ], [ -71.479285466205297, -34.480386383324998 ], [ -71.479243167334104, -34.480417056863502 ], [ -71.479151727367594, -34.480490471637097 ], [ -71.479052736147295, -34.480552112557604 ], [ -71.477372170234901, -34.481243558119402 ], [ -71.477180693984096, -34.481322907663198 ], [ -71.475828672804596, -34.481883182708501 ], [ -71.475869478984507, -34.481950508368897 ], [ -71.477140688013094, -34.481410645045301 ], [ -71.477170530590996, -34.481458525135601 ], [ -71.478923137072599, -34.480757651632103 ], [ -71.479040205398107, -34.480761315726603 ], [ -71.479108589755995, -34.480736075415102 ], [ -71.479308263773106, -34.480670005315403 ], [ -71.480053590509996, -34.480354329969401 ], [ -71.481151206987207, -34.479874067164197 ], [ -71.481274196524197, -34.479747535511102 ], [ -71.482284938174899, -34.479301624597603 ], [ -71.482778225322207, -34.479083994899597 ], [ -71.484708768693693, -34.478232244591801 ], [ -71.485104309009003, -34.478052514071699 ], [ -71.485514090717501, -34.477866309916699 ], [ -71.485645443669398, -34.477656071313 ], [ -71.485522040813606, -34.477710345683001 ], [ -71.485033776067397, -34.4779250901992 ], [ -71.484959769555999, -34.477958101089399 ] ] ] } },
{ "type": "Feature", "properties": { "id": "monoparte.30", "Name": null, "description": null, "timestamp": null, "begin": null, "end": null, "altitudeMode": null, "tessellate": -1, "extrude": 0, "visibility": -1, "drawOrder": null, "icon": null, "REG": "O'higgins", "COM": "Peralillo", "LOC": "Peralillo", "ZONA": "ZVb", "NOM": "ZVb Zona de Vivienda de Baja Densidad", "UPERM": "Vivienda, equipamiento vecinal de salud, educación, cultura, organizaciones comunitarias, áreas verdes, deportes, esparcimiento y turismo, servicios públicos, comercio minorista, talleres artesanales y oficinas.", "UPROH": "Todos los no mencionados como permitidos.", "P_DO": "26/11/1996", "N_DOC": "688", "T_DO": "Decreto", "OBS": null }, "geometry": { "type": "Polygon", "coordinates": [ [ [ -71.477473456594893, -34.4748669063421 ], [ -71.470750000490895, -34.477765398243598 ], [ -71.472629295527796, -34.480761433000602 ], [ -71.473920258541099, -34.482778274136301 ], [ -71.475824185690101, -34.4819697426191 ], [ -71.475869478984507, -34.481950508368897 ], [ -71.475828672804596, -34.481883182708501 ], [ -71.4758118317406, -34.481853417946297 ], [ -71.475300737614702, -34.481014067890698 ], [ -71.476640544556403, -34.480443066976498 ], [ -71.475998430241901, -34.479444809166502 ], [ -71.477370436400307, -34.478892229563201 ], [ -71.477055914539605, -34.478373772592597 ], [ -71.477027469654999, -34.478288479992003 ], [ -71.477028373354301, -34.478277182790698 ], [ -71.477027152437003, -34.478277752968097 ], [ -71.476788074335104, -34.477900319311999 ], [ -71.476838430010403, -34.477881137154498 ], [ -71.477192280346898, -34.477729135313901 ], [ -71.478168629562504, -34.477309723112498 ], [ -71.477932162225997, -34.476885482481599 ], [ -71.479002443550101, -34.476443026722301 ], [ -71.479241589135199, -34.476765440478303 ], [ -71.479242519497106, -34.476765941769202 ], [ -71.479242112252706, -34.476765202678202 ], [ -71.480641706613, -34.476127661015397 ], [ -71.481174994322501, -34.476342710565 ], [ -71.481184761750001, -34.476360182769099 ], [ -71.482405226211796, -34.478499643194603 ], [ -71.484290221380206, -34.477665117541903 ], [ -71.484959769555999, -34.477958101089399 ], [ -71.485033776067397, -34.4779250901992 ], [ -71.485522040813606, -34.477710345683001 ], [ -71.485645443669398, -34.477656071313 ], [ -71.486007627975297, -34.477076364761103 ], [ -71.486525045914306, -34.4762323293509 ], [ -71.487698353187199, -34.474233750850701 ], [ -71.482556417363099, -34.471983710410299 ], [ -71.482521300655705, -34.472719077579796 ], [ -71.4825197584167, -34.472751377784398 ], [ -71.482514004050302, -34.472871866941198 ], [ -71.482497547573701, -34.473216473183399 ], [ -71.482465866021002, -34.473896917696699 ], [ -71.482404677496604, -34.475622707606 ], [ -71.479623729576602, -34.474570495792797 ], [ -71.479479275128398, -34.474515836549799 ], [ -71.479501879356107, -34.474035809699799 ], [ -71.479508734340996, -34.473890239707799 ], [ -71.479562928246295, -34.472739393137303 ], [ -71.479565444206898, -34.4727340330343 ], [ -71.479891926970893, -34.472038559180397 ], [ -71.480367385885401, -34.471025715182698 ], [ -71.479727735908597, -34.470762670724 ], [ -71.4790621224506, -34.4704889041966 ], [ -71.477975335355396, -34.472500269794601 ], [ -71.477893041701705, -34.472736649140899 ], [ -71.477847011252607, -34.472933175115699 ], [ -71.477834637683301, -34.473063437493501 ], [ -71.477473456594893, -34.4748669063421 ] ], [ [ -71.478884293570303, -34.475515321033903 ], [ -71.479362870239001, -34.475715198624897 ], [ -71.479371534405203, -34.475910613940798 ], [ -71.479069327895303, -34.4760519707824 ], [ -71.478607450294604, -34.475883186396899 ], [ -71.478884293570303, -34.475515321033903 ] ], [ [ -71.4826628225631, -34.477543673186702 ], [ -71.482799029497002, -34.477599404841499 ], [ -71.4830165057149, -34.477539340728001 ], [ -71.483356773497107, -34.477684708837103 ], [ -71.482888646633796, -34.477878726116799 ], [ -71.4827997465609, -34.477742889861297 ], [ -71.482757682261607, -34.477755459178198 ], [ -71.482635065197798, -34.477555880441102 ], [ -71.4826628225631, -34.477543673186702 ] ], [ [ -71.476777350457596, -34.4781322752441 ], [ -71.476878607583402, -34.478319446694101 ], [ -71.476486308722599, -34.478507525229503 ], [ -71.476363712352494, -34.478303180361202 ], [ -71.476777350457596, -34.4781322752441 ] ], [ [ -71.474283107038502, -34.480994534550703 ], [ -71.474148048098598, -34.481068298308102 ], [ -71.473929456914504, -34.481072726075801 ], [ -71.473687128722204, -34.480999504220698 ], [ -71.4733451715841, -34.480892784150299 ], [ -71.473125113478204, -34.480847520592903 ], [ -71.472999139162894, -34.480793248667801 ], [ -71.472893863253603, -34.480713698200098 ], [ -71.4728364670177, -34.480658037617097 ], [ -71.472790776396195, -34.480563075467202 ], [ -71.472775822453698, -34.480492349464598 ], [ -71.472799444115495, -34.480420843380401 ], [ -71.472840418065104, -34.480356089035801 ], [ -71.4729608374858, -34.480222248506301 ], [ -71.473048119606403, -34.480128145171903 ], [ -71.473153255420002, -34.4800759578292 ], [ -71.473247678210001, -34.4800601796438 ], [ -71.473462190807993, -34.480062937905799 ], [ -71.473855052873802, -34.480150869522902 ], [ -71.473994512737804, -34.480226175683001 ], [ -71.474207675766095, -34.4803283999969 ], [ -71.474331984589597, -34.480471488515697 ], [ -71.474396498448598, -34.4806228922345 ], [ -71.474426933379604, -34.480782088472203 ], [ -71.474412935221906, -34.480888914236203 ], [ -71.474283107038502, -34.480994534550703 ] ] ] } },
{ "type": "Feature", "properties": { "id": "monoparte.31", "Name": null, "description": null, "timestamp": null, "begin": null, "end": null, "altitudeMode": null, "tessellate": -1, "extrude": 0, "visibility": -1, "drawOrder": null, "icon": null, "REG": "O'higgins", "COM": "Peralillo", "LOC": "Peralillo", "ZONA": "ZRv", "NOM": "ZRv Áreas Verdes", "UPERM": "Áreas verdes y edificaciones inherentes a su carácter.", "UPROH": "Todos los no mencionados como permitidos.", "P_DO": "26/11/1996", "N_DOC": "688", "T_DO": "Decreto", "OBS": null }, "geometry": { "type": "Polygon", "coordinates": [ [ [ -71.473929456914504, -34.481072726075801 ], [ -71.474148048098598, -34.481068298308102 ], [ -71.474283107038502, -34.480994534550703 ], [ -71.474412935221906, -34.480888914236203 ], [ -71.474426933379604, -34.480782088472203 ], [ -71.474396498448598, -34.4806228922345 ], [ -71.474331984589597, -34.480471488515697 ], [ -71.474207675766095, -34.4803283999969 ], [ -71.473994512737804, -34.480226175683001 ], [ -71.473855052873802, -34.480150869522902 ], [ -71.473462190807993, -34.480062937905799 ], [ -71.473247678210001, -34.4800601796438 ], [ -71.473153255420002, -34.4800759578292 ], [ -71.473048119606403, -34.480128145171903 ], [ -71.4729608374858, -34.480222248506301 ], [ -71.472840418065104, -34.480356089035801 ], [ -71.472799444115495, -34.480420843380401 ], [ -71.472775822453698, -34.480492349464598 ], [ -71.472790776396195, -34.480563075467202 ], [ -71.4728364670177, -34.480658037617097 ], [ -71.472893863253603, -34.480713698200098 ], [ -71.472999139162894, -34.480793248667801 ], [ -71.473125113478204, -34.480847520592903 ], [ -71.4733451715841, -34.480892784150299 ], [ -71.473687128722204, -34.480999504220698 ], [ -71.473929456914504, -34.481072726075801 ] ] ] } },
{ "type": "Feature", "properties": { "id": "monoparte.32", "Name": null, "description": null, "timestamp": null, "begin": null, "end": null, "altitudeMode": null, "tessellate": -1, "extrude": 0, "visibility": -1, "drawOrder": null, "icon": null, "REG": "O'higgins", "COM": "Peralillo", "LOC": "Peralillo", "ZONA": "ZRv", "NOM": "ZRv Áreas Verdes", "UPERM": "Áreas verdes y edificaciones inherentes a su carácter.", "UPROH": "Todos los no mencionados como permitidos.", "P_DO": "26/11/1996", "N_DOC": "688", "T_DO": "Decreto", "OBS": null }, "geometry": { "type": "Polygon", "coordinates": [ [ [ -71.482635065197798, -34.477555880441102 ], [ -71.482757682261607, -34.477755459178198 ], [ -71.4827997465609, -34.477742889861297 ], [ -71.482888646633796, -34.477878726116799 ], [ -71.483356773497107, -34.477684708837103 ], [ -71.4830165057149, -34.477539340728001 ], [ -71.482799029497002, -34.477599404841499 ], [ -71.4826628225631, -34.477543673186702 ], [ -71.482635065197798, -34.477555880441102 ] ] ] } },
{ "type": "Feature", "properties": { "id": "monoparte.33", "Name": null, "description": null, "timestamp": null, "begin": null, "end": null, "altitudeMode": null, "tessellate": -1, "extrude": 0, "visibility": -1, "drawOrder": null, "icon": null, "REG": "O'higgins", "COM": "Peralillo", "LOC": "Peralillo", "ZONA": "ZRv", "NOM": "ZRv Áreas Verdes", "UPERM": "Áreas verdes y edificaciones inherentes a su carácter.", "UPROH": "Todos los no mencionados como permitidos.", "P_DO": "26/11/1996", "N_DOC": "688", "T_DO": "Decreto", "OBS": null }, "geometry": { "type": "Polygon", "coordinates": [ [ [ -71.478477742761797, -34.477823378213003 ], [ -71.479030122871706, -34.478664503198097 ], [ -71.480075305699003, -34.478188706933999 ], [ -71.479564967463205, -34.477350622487897 ], [ -71.478477742761797, -34.477823378213003 ] ] ] } },
{ "type": "Feature", "properties": { "id": "monoparte.34", "Name": null, "description": null, "timestamp": null, "begin": null, "end": null, "altitudeMode": null, "tessellate": -1, "extrude": 0, "visibility": -1, "drawOrder": null, "icon": null, "REG": "O'higgins", "COM": "Peralillo", "LOC": "Peralillo", "ZONA": "ZRv", "NOM": "ZRv Áreas Verdes", "UPERM": "Áreas verdes y edificaciones inherentes a su carácter.", "UPROH": "Todos los no mencionados como permitidos.", "P_DO": "26/11/1996", "N_DOC": "688", "T_DO": "Decreto", "OBS": null }, "geometry": { "type": "Polygon", "coordinates": [ [ [ -71.479891926970893, -34.472038559180397 ], [ -71.480801908638398, -34.472221678928499 ], [ -71.480677468895095, -34.472882540272202 ], [ -71.479565444206898, -34.4727340330343 ], [ -71.479562928246295, -34.472739393137303 ], [ -71.479508734340996, -34.473890239707799 ], [ -71.479609768107295, -34.473786767288601 ], [ -71.479733033935801, -34.473669772379701 ], [ -71.479939578282398, -34.4736417260049 ], [ -71.480164521295407, -34.4736514714129 ], [ -71.480414186203006, -34.473717959785901 ], [ -71.480668055850003, -34.473731885886203 ], [ -71.480902113497805, -34.4736603453252 ], [ -71.481117345742703, -34.473536710349599 ], [ -71.4813770809712, -34.473359695528799 ], [ -71.481846711437697, -34.473073463050298 ], [ -71.482184778055895, -34.472818526369799 ], [ -71.482521300655705, -34.472719077579796 ], [ -71.482556417363099, -34.471983710410299 ], [ -71.480367385885401, -34.471025715182698 ], [ -71.479891926970893, -34.472038559180397 ] ], [ [ -71.481690576964496, -34.472275186498202 ], [ -71.481698734918794, -34.472356119352 ], [ -71.481652679660996, -34.472357055018797 ], [ -71.481649465539604, -34.472442989733999 ], [ -71.4815458427273, -34.472445094889601 ], [ -71.481544430570295, -34.472397418044203 ], [ -71.481382956834395, -34.472391157547897 ], [ -71.481385182786994, -34.4722718489407 ], [ -71.4816383419803, -34.472261935236098 ], [ -71.481629478016501, -34.472157164402503 ], [ -71.4817387298489, -34.472150628361803 ], [ -71.4817422470271, -34.472269365920297 ], [ -71.481690576964496, -34.472275186498202 ] ] ] } },
{ "type": "Feature", "properties": { "id": "monoparte.35", "Name": null, "description": null, "timestamp": null, "begin": null, "end": null, "altitudeMode": null, "tessellate": -1, "extrude": 0, "visibility": -1, "drawOrder": null, "icon": null, "REG": "O'higgins", "COM": "Peralillo", "LOC": "Peralillo", "ZONA": "ZRf", "NOM": "Zona difusa", "UPERM": "Sin información", "UPROH": "Sin información", "P_DO": "26/11/1996", "N_DOC": "688", "T_DO": "Decreto", "OBS": null }, "geometry": { "type": "Polygon", "coordinates": [ [ [ -71.478607450294604, -34.475883186396899 ], [ -71.479069327895303, -34.4760519707824 ], [ -71.479371534405203, -34.475910613940798 ], [ -71.479362870239001, -34.475715198624897 ], [ -71.478884293570303, -34.475515321033903 ], [ -71.478607450294604, -34.475883186396899 ] ] ] } },
{ "type": "Feature", "properties": { "id": "monoparte.36", "Name": null, "description": null, "timestamp": null, "begin": null, "end": null, "altitudeMode": null, "tessellate": -1, "extrude": 0, "visibility": -1, "drawOrder": null, "icon": null, "REG": "O'higgins", "COM": "Peralillo", "LOC": "Peralillo", "ZONA": "ZRa", "NOM": "ZRa Zona de Resguardo del Patrimonio Arquitectónico", "UPERM": "Vivienda, comercio de barrio, equipamiento vecinal de salud, educación, cultura, organizaciones comunitarias, esparcimiento y turismo.", "UPROH": "Todos los no mencionados como permitidos.", "P_DO": "26/11/1996", "N_DOC": "688", "T_DO": "Decreto", "OBS": null }, "geometry": { "type": "Polygon", "coordinates": [ [ [ -71.481385182786994, -34.4722718489407 ], [ -71.481382956834395, -34.472391157547897 ], [ -71.481544430570295, -34.472397418044203 ], [ -71.4815458427273, -34.472445094889601 ], [ -71.481649465539604, -34.472442989733999 ], [ -71.481652679660996, -34.472357055018797 ], [ -71.481698734918794, -34.472356119352 ], [ -71.481690576964496, -34.472275186498202 ], [ -71.4817422470271, -34.472269365920297 ], [ -71.4817387298489, -34.472150628361803 ], [ -71.481629478016501, -34.472157164402503 ], [ -71.4816383419803, -34.472261935236098 ], [ -71.481385182786994, -34.4722718489407 ] ] ] } }
]
}
