{
"type": "FeatureCollection",
"name": "IPT_08_PRC_Negrete",
"crs": { "type": "name", "properties": { "name": "urn:ogc:def:crs:OGC:1.3:CRS84" } },
"features": [
{ "type": "Feature", "properties": { "id": "monoparte.1", "Name": null, "description": null, "timestamp": null, "begin": null, "end": null, "altitudeMode": null, "tessellate": -1, "extrude": 0, "visibility": -1, "drawOrder": null, "icon": null, "REG": "Biobío", "COM": "Negrete", "LOC": "Negrete", "ZONA": "ZE-2", "NOM": "Area de extension urbana ZE-2", "UPERM": "Residencial. Equipamiento: comercio, deporte. Area verde.", "UPROH": "Todos los usos de suelo no mencionados como permitidos.", "P_DO": "27/09/1991", "N_DOC": "12", "T_DO": "Resolución", "OBS": "Publicacion PRC Negrete. Res V y U N°12. Fecha promulgacion 17.06.1991. Fecha publicacion D.O. 27.09.1991." }, "geometry": { "type": "Polygon", "coordinates": [ [ [ -72.523741661440397, -37.589213731451601 ], [ -72.523743859388105, -37.589100224489002 ], [ -72.521889996341201, -37.589234284474401 ], [ -72.521893242187701, -37.589112620836602 ], [ -72.522002299687301, -37.588757532217002 ], [ -72.522061161922807, -37.588290956813097 ], [ -72.522185200066801, -37.5878724916004 ], [ -72.522358698246506, -37.587359585823698 ], [ -72.522411618404405, -37.586957547303903 ], [ -72.522629022842906, -37.585470789494103 ], [ -72.522862223213593, -37.583747575462901 ], [ -72.522883538076002, -37.583326458284901 ], [ -72.522770257105506, -37.5834013543098 ], [ -72.522634544042106, -37.583476919604102 ], [ -72.522450993932395, -37.583586093829403 ], [ -72.522211246594395, -37.583646889247802 ], [ -72.5217513207227, -37.583707111148499 ], [ -72.521230374235103, -37.583711945759603 ], [ -72.520879412077804, -37.583700974365499 ], [ -72.520443204553402, -37.5836925484099 ], [ -72.520235252827902, -37.583713060011902 ], [ -72.519983332140896, -37.583706280006098 ], [ -72.519718960794705, -37.583721323774498 ], [ -72.519630239426704, -37.583745426048203 ], [ -72.519484538742802, -37.583799832458197 ], [ -72.518998193711695, -37.583871558643501 ], [ -72.518918225514895, -37.583876815026301 ], [ -72.519142870070397, -37.585544374201604 ], [ -72.519324003656493, -37.586845221983097 ], [ -72.519568082202596, -37.588527960786301 ], [ -72.519721596896503, -37.589560276331703 ], [ -72.523741661440397, -37.589213731451601 ] ] ] } },
{ "type": "Feature", "properties": { "id": "monoparte.2", "Name": null, "description": null, "timestamp": null, "begin": null, "end": null, "altitudeMode": null, "tessellate": -1, "extrude": 0, "visibility": -1, "drawOrder": null, "icon": null, "REG": "Biobío", "COM": "Negrete", "LOC": "Negrete", "ZONA": "ZU-1b", "NOM": "Sector la toma", "UPERM": "Residencial. Equipamiento: cientifico, comercio, sulto y cultura, deporte, educacion, esparcimiento, salud, seguridad, servicios, social.", "UPROH": "Todos los usos de suelo no mencionados como permitidos.", "P_DO": "27/09/1991", "N_DOC": "12", "T_DO": "Resolución", "OBS": "Publicacion Plan Seccional Sector La Toma. Decreto N°774. Fecha promulgacion 13.06.2016. Fecha publicacion D.O. 13.07.2016." }, "geometry": { "type": "Polygon", "coordinates": [ [ [ -72.522003027115801, -37.588751761750302 ], [ -72.522002299687301, -37.588757532217002 ], [ -72.521893242187701, -37.589112620836602 ], [ -72.521889996341201, -37.589234284474401 ], [ -72.523743859388105, -37.589100224489002 ], [ -72.523741661440397, -37.589213731451601 ], [ -72.5238045088646, -37.589593241183401 ], [ -72.5239667811271, -37.589540716823201 ], [ -72.524055676147199, -37.589520181711499 ], [ -72.524107461236397, -37.589506715457802 ], [ -72.524398829365197, -37.589492045313698 ], [ -72.524677487983595, -37.589525428995501 ], [ -72.524858930383303, -37.589561717981702 ], [ -72.525084680380701, -37.589584763595496 ], [ -72.525189655243395, -37.5895875831675 ], [ -72.525522347627501, -37.5896551035651 ], [ -72.526020213704996, -37.589699804957498 ], [ -72.526200251511, -37.589706337961204 ], [ -72.526347284874504, -37.589648307530297 ], [ -72.526886610446098, -37.589334214300102 ], [ -72.527200859403393, -37.589169873216498 ], [ -72.527412662596703, -37.589056271279297 ], [ -72.527606812256295, -37.589044502183199 ], [ -72.527846673373006, -37.589049242531097 ], [ -72.528025584593294, -37.5890319701316 ], [ -72.528038808382306, -37.589026204936303 ], [ -72.527904280452503, -37.588270225411598 ], [ -72.527201628552604, -37.588297209675801 ], [ -72.524354010249198, -37.588573070417397 ], [ -72.522003027115801, -37.588751761750302 ] ] ] } },
{ "type": "Feature", "properties": { "id": "monoparte.3", "Name": null, "description": null, "timestamp": null, "begin": null, "end": null, "altitudeMode": null, "tessellate": -1, "extrude": 0, "visibility": -1, "drawOrder": null, "icon": null, "REG": "Biobío", "COM": "Negrete", "LOC": "Coigue", "ZONA": "ZR-1", "NOM": "Area especial ZR-1", "UPERM": "Corresponde a la terraza riberena, inundable del rio Biobio. En ella no se permite ningun tipo de construcciones.", "UPROH": "Todos los usos de suelo no mencionados como permitidos.", "P_DO": "27/09/1991", "N_DOC": "12", "T_DO": "Resolución", "OBS": "Publicacion PRC Negrete. Res V y U N°12. Fecha promulgacion 17.06.1991. Fecha publicacion D.O. 27.09.1991." }, "geometry": { "type": "Polygon", "coordinates": [ [ [ -72.571520861235598, -37.583911740499801 ], [ -72.571750471458898, -37.583794675733301 ], [ -72.572434620531396, -37.583445002675496 ], [ -72.572872657634704, -37.583210049090603 ], [ -72.573443999510104, -37.582756525078302 ], [ -72.573800089577603, -37.582405347478399 ], [ -72.574240679079793, -37.581848519385098 ], [ -72.574761670527195, -37.581282102202401 ], [ -72.5754308206578, -37.580432302804901 ], [ -72.576002891722098, -37.579807123118698 ], [ -72.576168723301507, -37.579517486324903 ], [ -72.576516139162806, -37.578891968401102 ], [ -72.576865942539001, -37.578316432984103 ], [ -72.577298883526794, -37.577788430742501 ], [ -72.5773261416862, -37.577794754088401 ], [ -72.577612136533105, -37.577950546868401 ], [ -72.577984697374703, -37.578225277547602 ], [ -72.578515258045201, -37.578609625601601 ], [ -72.579212895302902, -37.577980619517497 ], [ -72.579147696067196, -37.577932542171503 ], [ -72.5779056029657, -37.577012021574497 ], [ -72.579587295710397, -37.575919322375 ], [ -72.580513891357398, -37.575325114862203 ], [ -72.5800572595803, -37.575009511613203 ], [ -72.577130882424399, -37.577628525537897 ], [ -72.576247930078793, -37.577327561961297 ], [ -72.575667463354606, -37.577088926882503 ], [ -72.574720401807696, -37.576777977883303 ], [ -72.574695267158305, -37.577034981801901 ], [ -72.574676256513001, -37.577107067333898 ], [ -72.574625913789106, -37.5771503073343 ], [ -72.574581909828595, -37.577169519051701 ], [ -72.574544812054, -37.5771766033237 ], [ -72.574502231023303, -37.577225567407901 ], [ -72.574489271915795, -37.577267673894703 ], [ -72.574490980807298, -37.577303376188098 ], [ -72.574484643121707, -37.5773274053142 ], [ -72.574456446294803, -37.577364014326498 ], [ -72.574458155219702, -37.577399717520102 ], [ -72.574467625943399, -37.577441143949102 ], [ -72.574484572556102, -37.577482343712703 ], [ -72.574494042178202, -37.5775237701721 ], [ -72.574496320768105, -37.577571374127103 ], [ -72.574498599363295, -37.577618978081603 ], [ -72.574508924630507, -37.577678256098402 ], [ -72.5745126273724, -37.577755612409298 ], [ -72.574522098187202, -37.577797038828002 ], [ -72.574525516112899, -37.577868444304997 ], [ -72.574541608374503, -37.577891792457699 ], [ -72.574572938464996, -37.5779206380613 ], [ -72.574612315339294, -37.577961158607799 ], [ -72.574633534751001, -37.578091615394897 ], [ -72.574667073666802, -37.578323003269901 ], [ -72.5746811022196, -37.578459637541798 ], [ -72.574700612848005, -37.578554391117301 ], [ -72.574703461345706, -37.578613895812197 ], [ -72.574705740158393, -37.578661499747497 ], [ -72.574635815812698, -37.578764924577598 ], [ -72.574520960482204, -37.579024648822703 ], [ -72.574425116797698, -37.579212286544802 ], [ -72.574300789167495, -37.579430584219999 ], [ -72.5741727581606, -37.579571524580501 ], [ -72.574032051860499, -37.579760523013597 ], [ -72.573938555832001, -37.579840825991603 ], [ -72.573927874488106, -37.579930536406501 ], [ -72.573805253074298, -37.5801845359737 ], [ -72.573749068884993, -37.580418643965601 ], [ -72.573599257060195, -37.580886803903297 ], [ -72.573491018358894, -37.581128448256401 ], [ -72.573384201792095, -37.581399845847898 ], [ -72.573282868585395, -37.581629363579303 ], [ -72.573249185650198, -37.5817078530877 ], [ -72.572965482286406, -37.582038243254402 ], [ -72.572760038303002, -37.582282833922697 ], [ -72.572667676770493, -37.582386937650803 ], [ -72.572627940129095, -37.5824954059932 ], [ -72.572607217002897, -37.582531788110998 ], [ -72.572571539968905, -37.582568624298602 ], [ -72.572235206212994, -37.582894648267398 ], [ -72.571909755127606, -37.583307345327697 ], [ -72.571691912165093, -37.583605941535403 ], [ -72.571533030466298, -37.5838848744811 ], [ -72.571520861235598, -37.583911740499801 ] ] ] } },
{ "type": "Feature", "properties": { "id": "monoparte.4", "Name": null, "description": null, "timestamp": null, "begin": null, "end": null, "altitudeMode": null, "tessellate": -1, "extrude": 0, "visibility": -1, "drawOrder": null, "icon": null, "REG": "Biobío", "COM": "Negrete", "LOC": "Coigue", "ZONA": "ZU-5", "NOM": "Area consolidada ZU-5", "UPERM": "Equipamiento: esparcimiento. Area verde.", "UPROH": "Todos los usos de suelo no mencionados como permitidos.", "P_DO": "27/09/1991", "N_DOC": "12", "T_DO": "Resolución", "OBS": "Publicacion PRC Negrete. Res V y U N°12. Fecha promulgacion 17.06.1991. Fecha publicacion D.O. 27.09.1991." }, "geometry": { "type": "Polygon", "coordinates": [ [ [ -72.574326677744097, -37.586258282166298 ], [ -72.573023660460706, -37.585948682743002 ], [ -72.573357011007801, -37.585873029036001 ], [ -72.573711653806996, -37.585772891965398 ], [ -72.573988672014494, -37.585615516214197 ], [ -72.574185717847897, -37.585508237552098 ], [ -72.574434604953098, -37.585232531633302 ], [ -72.574647813449602, -37.585260554126897 ], [ -72.574670043751794, -37.585191489006299 ], [ -72.574719447234401, -37.585086703482297 ], [ -72.574256382628803, -37.5849722216986 ], [ -72.573460371697493, -37.584674562388699 ], [ -72.572959353516197, -37.584532427630101 ], [ -72.572078155967404, -37.584144379172599 ], [ -72.571520861235598, -37.583911740499801 ], [ -72.571239087963804, -37.584533786773001 ], [ -72.571111796144606, -37.585128786145702 ], [ -72.571053860209304, -37.585513803941602 ], [ -72.572815739960006, -37.586062907120002 ], [ -72.574263284761301, -37.586455232294703 ], [ -72.574326677744097, -37.586258282166298 ] ] ] } },
{ "type": "Feature", "properties": { "id": "monoparte.5", "Name": null, "description": null, "timestamp": null, "begin": null, "end": null, "altitudeMode": null, "tessellate": -1, "extrude": 0, "visibility": -1, "drawOrder": null, "icon": null, "REG": "Biobío", "COM": "Negrete", "LOC": "Coigue", "ZONA": "AV", "NOM": "Area verde", "UPERM": "Area verde.", "UPROH": "Todos los usos de suelo no mencionados como permitidos.", "P_DO": "27/09/1991", "N_DOC": "12", "T_DO": "Resolución", "OBS": "Publicacion PRC Negrete. Res V y U N°12. Fecha promulgacion 17.06.1991. Fecha publicacion D.O. 27.09.1991." }, "geometry": { "type": "Polygon", "coordinates": [ [ [ -72.574326677744097, -37.586258282166298 ], [ -72.574647813449602, -37.585260554126897 ], [ -72.574434604953098, -37.585232531633302 ], [ -72.574185717847897, -37.585508237552098 ], [ -72.573988672014494, -37.585615516214197 ], [ -72.573711653806996, -37.585772891965398 ], [ -72.573357011007801, -37.585873029036001 ], [ -72.573023660460706, -37.585948682743002 ], [ -72.574326677744097, -37.586258282166298 ] ] ] } },
{ "type": "Feature", "properties": { "id": "monoparte.6", "Name": null, "description": null, "timestamp": null, "begin": null, "end": null, "altitudeMode": null, "tessellate": -1, "extrude": 0, "visibility": -1, "drawOrder": null, "icon": null, "REG": "Biobío", "COM": "Negrete", "LOC": "Coigue", "ZONA": "AV", "NOM": "Area verde", "UPERM": "Area verde.", "UPROH": "Todos los usos de suelo no mencionados como permitidos.", "P_DO": "27/09/1991", "N_DOC": "12", "T_DO": "Resolución", "OBS": "Publicacion PRC Negrete. Res V y U N°12. Fecha promulgacion 17.06.1991. Fecha publicacion D.O. 27.09.1991." }, "geometry": { "type": "Polygon", "coordinates": [ [ [ -72.577583020187404, -37.582646521792199 ], [ -72.578166716352996, -37.582692879775102 ], [ -72.578288645912494, -37.581995824929201 ], [ -72.577690653085, -37.581892408514001 ], [ -72.577583020187404, -37.582646521792199 ] ] ] } },
{ "type": "Feature", "properties": { "id": "monoparte.7", "Name": null, "description": null, "timestamp": null, "begin": null, "end": null, "altitudeMode": null, "tessellate": -1, "extrude": 0, "visibility": -1, "drawOrder": null, "icon": null, "REG": "Biobío", "COM": "Negrete", "LOC": "Negrete", "ZONA": "ZU-1", "NOM": "Area consolidada ZU-1", "UPERM": "Residencial. Equipamiento: cientifico, comercio, culto y cultura, deporte, educacion, esparcimiento, salud, seguridad, servicios, social. Actividades productivas. Infraestructura: transporte.", "UPROH": "Todos los usos de suelo no mencionados como permitidos.", "P_DO": "27/09/1991", "N_DOC": "12", "T_DO": "Resolución", "OBS": "Publicacion PRC Negrete. Res V y U N°12. Fecha promulgacion 17.06.1991. Fecha publicacion D.O. 27.09.1991." }, "geometry": { "type": "Polygon", "coordinates": [ [ [ -72.533282935075505, -37.583484834454303 ], [ -72.533106792925807, -37.583286797397797 ], [ -72.532865311465102, -37.583025871342798 ], [ -72.532582272135897, -37.5827411617758 ], [ -72.532438556814, -37.582552390838501 ], [ -72.532406092633096, -37.582344700569898 ], [ -72.532347702854494, -37.582404683251603 ], [ -72.5321774619092, -37.582509897841597 ], [ -72.532098225710797, -37.582544451498499 ], [ -72.531834348451994, -37.582759735376101 ], [ -72.531309386492893, -37.583154465973998 ], [ -72.530961602861595, -37.583410161747999 ], [ -72.530862465087495, -37.583498943795199 ], [ -72.530587847267697, -37.583582253963698 ], [ -72.530419385528106, -37.583630204862402 ], [ -72.530257027220799, -37.5836171890777 ], [ -72.529960242031095, -37.583611773936099 ], [ -72.529478834589199, -37.583597583481499 ], [ -72.529014866903907, -37.583572141831901 ], [ -72.528462787586605, -37.583488552721001 ], [ -72.527704766523698, -37.583325311609102 ], [ -72.527313134639698, -37.583204736092497 ], [ -72.526710392103297, -37.582904547781503 ], [ -72.526285392382505, -37.582752787195901 ], [ -72.525942564589499, -37.582723710708301 ], [ -72.525462173868902, -37.5827309267153 ], [ -72.524945281115393, -37.5828214675998 ], [ -72.5245154851156, -37.582948734539301 ], [ -72.523924108057997, -37.5829842896812 ], [ -72.523694904860506, -37.583001867744699 ], [ -72.523423081374105, -37.5830493222835 ], [ -72.523074037690293, -37.583174169675203 ], [ -72.522883538076002, -37.583326458284901 ], [ -72.522862223213593, -37.583747575462901 ], [ -72.522629022842906, -37.585470789494103 ], [ -72.522411618404405, -37.586957547303903 ], [ -72.522358698246506, -37.587359585823698 ], [ -72.522185200066801, -37.5878724916004 ], [ -72.522061161922807, -37.588290956813097 ], [ -72.522003027115801, -37.588751761750302 ], [ -72.523646699980802, -37.588626836216598 ], [ -72.523890818461197, -37.587168631840797 ], [ -72.524094126972997, -37.587192350333602 ], [ -72.524455877361106, -37.5872411276248 ], [ -72.524688535565701, -37.5872520494325 ], [ -72.525183764485504, -37.5872729971966 ], [ -72.524869662766406, -37.588523122161597 ], [ -72.527201628552604, -37.588297209675801 ], [ -72.527904280452503, -37.588270225411598 ], [ -72.528038808382306, -37.589026204936303 ], [ -72.528142983290707, -37.588980783028703 ], [ -72.528275057640798, -37.588923197939998 ], [ -72.528346744445898, -37.588855501056003 ], [ -72.528383291011096, -37.588836530395902 ], [ -72.528420256592298, -37.5886612973935 ], [ -72.528651809884707, -37.588363559215097 ], [ -72.528788636352203, -37.588216443682498 ], [ -72.528919480629497, -37.5880695061742 ], [ -72.529087699207594, -37.587826104308697 ], [ -72.529223623586404, -37.587659944786701 ], [ -72.529285378946398, -37.587572284060798 ], [ -72.529506179922905, -37.587427421327597 ], [ -72.529807677645195, -37.587342116658 ], [ -72.529944821238402, -37.587328474944997 ], [ -72.530588981022802, -37.5873949976896 ], [ -72.531366103937899, -37.587486137039697 ], [ -72.531456325833602, -37.587495209287397 ], [ -72.531459894461705, -37.587096378529203 ], [ -72.531400480469102, -37.586980166772499 ], [ -72.531444995422703, -37.585641595869902 ], [ -72.5314955524249, -37.584905673051402 ], [ -72.531650040910606, -37.584182368479397 ], [ -72.531701009328401, -37.584120058858502 ], [ -72.531886740510899, -37.5840572858624 ], [ -72.533212849246198, -37.583532076047803 ], [ -72.533282935075505, -37.583484834454303 ] ], [ [ -72.530039707151701, -37.585377793316603 ], [ -72.529928755401002, -37.586357293070201 ], [ -72.529004019083004, -37.586184750885998 ], [ -72.528597518445594, -37.5861397108186 ], [ -72.528758340334306, -37.585169510346603 ], [ -72.530039707151701, -37.585377793316603 ] ] ] } },
{ "type": "Feature", "properties": { "id": "monoparte.8", "Name": null, "description": null, "timestamp": null, "begin": null, "end": null, "altitudeMode": null, "tessellate": -1, "extrude": 0, "visibility": -1, "drawOrder": null, "icon": null, "REG": "Biobío", "COM": "Negrete", "LOC": "Negrete", "ZONA": "ZR-1", "NOM": "Area especial ZR-1", "UPERM": "Corresponde a la terraza riberena, inundable del rio Biobio. En ella no se permite ningun tipo de construcciones.", "UPROH": "Todos los usos de suelo no mencionados como permitidos.", "P_DO": "27/09/1991", "N_DOC": "12", "T_DO": "Resolución", "OBS": "Publicacion PRC Negrete. Res V y U N°12. Fecha promulgacion 17.06.1991. Fecha publicacion D.O. 27.09.1991." }, "geometry": { "type": "Polygon", "coordinates": [ [ [ -72.531061174324904, -37.582809483432598 ], [ -72.531019976914607, -37.582825019340497 ], [ -72.530942211330796, -37.582827348490397 ], [ -72.530876409241102, -37.582829319282702 ], [ -72.530731138668799, -37.582924249609803 ], [ -72.530576603196195, -37.583076665180101 ], [ -72.530484943239699, -37.583165222068502 ], [ -72.530361797929501, -37.583221351038297 ], [ -72.530255022697901, -37.583243617173402 ], [ -72.530142940322307, -37.583280345020398 ], [ -72.5300722819577, -37.583306298037897 ], [ -72.530025101685894, -37.583322012752497 ], [ -72.529851398272996, -37.583322446180098 ], [ -72.529628193213, -37.583314827056697 ], [ -72.529442301160799, -37.583310858070298 ], [ -72.529060127366407, -37.583336600946197 ], [ -72.528596363272101, -37.583283739427699 ], [ -72.528287457319607, -37.583211940458199 ], [ -72.528122343283499, -37.5831406042685 ], [ -72.528073363032306, -37.583118232809902 ], [ -72.527999779728702, -37.583082296496698 ], [ -72.527897410521504, -37.583071057915497 ], [ -72.527807905782197, -37.583078503922103 ], [ -72.527654172888006, -37.583121242490797 ], [ -72.527572674652305, -37.583171354744898 ], [ -72.527556527991194, -37.5832099762521 ], [ -72.527514203859695, -37.583201708295803 ], [ -72.527359031111203, -37.583087167554503 ], [ -72.527137832583804, -37.582969834358003 ], [ -72.526866079865002, -37.582796806001099 ], [ -72.526657521031296, -37.582693395739398 ], [ -72.526427957496395, -37.582652589050497 ], [ -72.526247599556896, -37.5826389150631 ], [ -72.526164525857297, -37.582655700924199 ], [ -72.525979984060498, -37.582680290050298 ], [ -72.525559223328798, -37.582649967525597 ], [ -72.525419840432505, -37.582615997261698 ], [ -72.525366001677199, -37.582617607219802 ], [ -72.525187666680495, -37.582646776238398 ], [ -72.524851340845998, -37.582780783806399 ], [ -72.5246865418993, -37.582842919026298 ], [ -72.524568700450601, -37.582884581419897 ], [ -72.524413842162403, -37.582903512134799 ], [ -72.524240363746998, -37.582908698158498 ], [ -72.524078400653707, -37.582904005332203 ], [ -72.523440797836798, -37.582975503404398 ], [ -72.523080611497093, -37.58308638271 ], [ -72.522923364968094, -37.583181661481099 ], [ -72.522776509417, -37.583243257875502 ], [ -72.522635411404195, -37.5832999144151 ], [ -72.522491393478404, -37.583294683212301 ], [ -72.522017463957795, -37.583280238678398 ], [ -72.521450885077002, -37.583206583960298 ], [ -72.520851703487907, -37.583076692057297 ], [ -72.520664240054202, -37.583039384389203 ], [ -72.520628347917594, -37.583040456238997 ], [ -72.520390110911407, -37.582942688605598 ], [ -72.520007929832104, -37.582777708233301 ], [ -72.519692152453999, -37.5826870219326 ], [ -72.519322313424098, -37.582593180966299 ], [ -72.519085648826305, -37.5825287344936 ], [ -72.518971317505006, -37.582517845154896 ], [ -72.518911049634397, -37.5825101096666 ], [ -72.518718605497895, -37.582394927307703 ], [ -72.518918225514895, -37.583876815026301 ], [ -72.518998193711695, -37.583871558643501 ], [ -72.519484538742802, -37.583799832458197 ], [ -72.519630239426704, -37.583745426048203 ], [ -72.519718960794705, -37.583721323774498 ], [ -72.519983332140896, -37.583706280006098 ], [ -72.520235252827902, -37.583713060011902 ], [ -72.520443204553402, -37.5836925484099 ], [ -72.520879412077804, -37.583700974365499 ], [ -72.521230374235103, -37.583711945759603 ], [ -72.5217513207227, -37.583707111148499 ], [ -72.522211246594395, -37.583646889247802 ], [ -72.522450993932395, -37.583586093829403 ], [ -72.522634544042106, -37.583476919604102 ], [ -72.522770257105506, -37.5834013543098 ], [ -72.522883538076002, -37.583326458284901 ], [ -72.523074037690293, -37.583174169675203 ], [ -72.523423081374105, -37.5830493222835 ], [ -72.523694904860506, -37.583001867744699 ], [ -72.523924108057997, -37.5829842896812 ], [ -72.5245154851156, -37.582948734539301 ], [ -72.524945281115393, -37.5828214675998 ], [ -72.525462173868902, -37.5827309267153 ], [ -72.525942564589499, -37.582723710708301 ], [ -72.526285392382505, -37.582752787195901 ], [ -72.526710392103297, -37.582904547781503 ], [ -72.527313134639698, -37.583204736092497 ], [ -72.527704766523698, -37.583325311609102 ], [ -72.528462787586605, -37.583488552721001 ], [ -72.529014866903907, -37.583572141831901 ], [ -72.529478834589199, -37.583597583481499 ], [ -72.529960242031095, -37.583611773936099 ], [ -72.530257027220799, -37.5836171890777 ], [ -72.530419385528106, -37.583630204862402 ], [ -72.530587847267697, -37.583582253963698 ], [ -72.530862465087495, -37.583498943795199 ], [ -72.530961602861595, -37.583410161747999 ], [ -72.531309386492893, -37.583154465973998 ], [ -72.531834348451994, -37.582759735376101 ], [ -72.532098225710797, -37.582544451498499 ], [ -72.5321774619092, -37.582509897841597 ], [ -72.532347702854494, -37.582404683251603 ], [ -72.532523369421398, -37.582224220218997 ], [ -72.532693367140098, -37.582018898563298 ], [ -72.532689650788797, -37.581940348573099 ], [ -72.532603658655603, -37.581832085173602 ], [ -72.532438220595395, -37.581665020311803 ], [ -72.532373708785798, -37.581683211124798 ], [ -72.532332736379701, -37.581703508362999 ], [ -72.532270089339406, -37.581772127674803 ], [ -72.532179557869597, -37.581884489252701 ], [ -72.532121091232099, -37.581914844916703 ], [ -72.532074587891898, -37.581944842133097 ], [ -72.532028083383295, -37.581974839366801 ], [ -72.531957426922901, -37.582000792524603 ], [ -72.531750087356599, -37.582049909982103 ], [ -72.531590152948397, -37.582088072667702 ], [ -72.531495568319201, -37.582114742340103 ], [ -72.531408541909599, -37.582174556238201 ], [ -72.531364514822997, -37.582256921127403 ], [ -72.531342034525807, -37.582414916355397 ], [ -72.531312222145203, -37.582544528129098 ], [ -72.531296077571398, -37.582583150047597 ], [ -72.531249573478107, -37.582613146973301 ], [ -72.531233203742801, -37.582647008899897 ], [ -72.531234779728393, -37.582680332396201 ], [ -72.531206220248094, -37.582709792710098 ], [ -72.531170778946006, -37.582720388628402 ], [ -72.531095491103201, -37.582775083982199 ], [ -72.531061174324904, -37.582809483432598 ] ] ] } },
{ "type": "Feature", "properties": { "id": "monoparte.9", "Name": null, "description": null, "timestamp": null, "begin": null, "end": null, "altitudeMode": null, "tessellate": -1, "extrude": 0, "visibility": -1, "drawOrder": null, "icon": null, "REG": "Biobío", "COM": "Negrete", "LOC": "Negrete", "ZONA": "ZR-1", "NOM": "Area especial ZR-1", "UPERM": "Corresponde a la terraza riberena, inundable del rio Biobio. En ella no se permite ningun tipo de construcciones.", "UPROH": "Todos los usos de suelo no mencionados como permitidos.", "P_DO": "27/09/1991", "N_DOC": "12", "T_DO": "Resolución", "OBS": "Publicacion PRC Negrete. Res V y U N°12. Fecha promulgacion 17.06.1991. Fecha publicacion D.O. 27.09.1991." }, "geometry": { "type": "Polygon", "coordinates": [ [ [ -72.540945252972705, -37.584643711089598 ], [ -72.541165798982504, -37.584746736272997 ], [ -72.541522578101095, -37.584817062826502 ], [ -72.541835450700404, -37.584845802484701 ], [ -72.542268978145401, -37.584766033901403 ], [ -72.542658487832696, -37.584768631428503 ], [ -72.542798558787993, -37.584816863147203 ], [ -72.543045748133693, -37.584976289991801 ], [ -72.543345979042897, -37.584991103599201 ], [ -72.543505243050902, -37.585010095147197 ], [ -72.543446600696299, -37.5846544355555 ], [ -72.543023837901302, -37.584661182438701 ], [ -72.542941585758498, -37.584663654401503 ], [ -72.542847127752907, -37.584645636166996 ], [ -72.542796970667496, -37.5846143684062 ], [ -72.542699198965707, -37.5846053875565 ], [ -72.542556984119003, -37.584606681868102 ], [ -72.542494836989107, -37.584638345144697 ], [ -72.542443623857906, -37.584663720318602 ], [ -72.542365533600403, -37.584675005643199 ], [ -72.542245610267202, -37.584672650449903 ], [ -72.542091191805994, -37.584653453024004 ], [ -72.541703134521299, -37.584602541026399 ], [ -72.5413839975907, -37.5845048632616 ], [ -72.540837502268005, -37.584270994115798 ], [ -72.540773364226396, -37.584181745695403 ], [ -72.540665997661606, -37.584128358066401 ], [ -72.540609210424194, -37.584115166130502 ], [ -72.540562794112205, -37.584083785040001 ], [ -72.540515531233694, -37.584034550793596 ], [ -72.540430738844904, -37.5839834651945 ], [ -72.540414260496107, -37.583888614041498 ], [ -72.540378933329606, -37.583775258470197 ], [ -72.540361325283001, -37.583656604048997 ], [ -72.540370016029101, -37.583460883385499 ], [ -72.540362793396795, -37.583055877178502 ], [ -72.540362770119302, -37.582929066652802 ], [ -72.540335683170497, -37.582863137955698 ], [ -72.540285344427701, -37.582812209455703 ], [ -72.540264690099903, -37.582755620999897 ], [ -72.540244713006203, -37.582713315054299 ], [ -72.540168190569005, -37.582615499312404 ], [ -72.5400854603852, -37.582513102305903 ], [ -72.540015597705803, -37.582429388425503 ], [ -72.539966162253194, -37.582397501321701 ], [ -72.539880611241102, -37.582361931907201 ], [ -72.539753694455896, -37.5822751633618 ], [ -72.539663966877299, -37.582277857430498 ], [ -72.539633381028906, -37.582264473800301 ], [ -72.539553134340295, -37.582214442026199 ], [ -72.539466455406895, -37.582155069874098 ], [ -72.539324810693401, -37.582073509737803 ], [ -72.539214655722702, -37.582024376515797 ], [ -72.539031589729504, -37.581953594740497 ], [ -72.538474944762697, -37.581836818169798 ], [ -72.538292196834703, -37.581772700518997 ], [ -72.538170529708694, -37.581733446144597 ], [ -72.538044009492396, -37.581718173587603 ], [ -72.537735102989103, -37.581646398618297 ], [ -72.537497526440205, -37.5815629490791 ], [ -72.537126773108795, -37.581450122346503 ], [ -72.536960753633906, -37.581359756237397 ], [ -72.5367229543983, -37.581271544150603 ], [ -72.536443057434496, -37.581179826756099 ], [ -72.536187028276004, -37.581149367374799 ], [ -72.535958818431197, -37.5811371426501 ], [ -72.536178970774102, -37.581243457003502 ], [ -72.536473570164603, -37.581297787622098 ], [ -72.536692297605896, -37.581362736044198 ], [ -72.537107177968693, -37.581521913770402 ], [ -72.537463820289503, -37.581716208128803 ], [ -72.537718999349295, -37.581918312831299 ], [ -72.537961538699506, -37.582106495205899 ], [ -72.538162883824896, -37.582310215332299 ], [ -72.538207915352402, -37.582375606022403 ], [ -72.538388266853403, -37.582641931246499 ], [ -72.538666584323593, -37.582952988214799 ], [ -72.538996714105906, -37.583219584148502 ], [ -72.539166123796207, -37.583381354320302 ], [ -72.539217364923203, -37.583451326687303 ], [ -72.539218603719704, -37.583603843371002 ], [ -72.539233612554398, -37.583794085800903 ], [ -72.539313294548805, -37.5839585503306 ], [ -72.539426160709795, -37.5840648107013 ], [ -72.5395505405302, -37.584161190033498 ], [ -72.539811603388799, -37.5842343956392 ], [ -72.5403280871096, -37.584261792209404 ], [ -72.540478766066599, -37.584281104284997 ], [ -72.540558564127707, -37.584321613598497 ], [ -72.540611612134001, -37.584429669269198 ], [ -72.540781706536507, -37.584605718343198 ], [ -72.540945252972705, -37.584643711089598 ] ] ] } },
{ "type": "Feature", "properties": { "id": "monoparte.10", "Name": null, "description": null, "timestamp": null, "begin": null, "end": null, "altitudeMode": null, "tessellate": -1, "extrude": 0, "visibility": -1, "drawOrder": null, "icon": null, "REG": "Biobío", "COM": "Negrete", "LOC": "Negrete", "ZONA": "ZU-4", "NOM": "Area consolidada ZU-4", "UPERM": "Equipamiento: deporte. Area verde.", "UPROH": "Todos los usos de suelo no mencionados como permitidos.", "P_DO": "27/09/1991", "N_DOC": "12", "T_DO": "Resolución", "OBS": "Publicacion PRC Negrete. Res V y U N°12. Fecha promulgacion 17.06.1991. Fecha publicacion D.O. 27.09.1991." }, "geometry": { "type": "Polygon", "coordinates": [ [ [ -72.523890818461197, -37.587168631840797 ], [ -72.523646699980802, -37.588626836216598 ], [ -72.524354010249198, -37.588573070417397 ], [ -72.524869662766406, -37.588523122161597 ], [ -72.525183764485504, -37.5872729971966 ], [ -72.524688535565701, -37.5872520494325 ], [ -72.524455877361106, -37.5872411276248 ], [ -72.524094126972997, -37.587192350333602 ], [ -72.523890818461197, -37.587168631840797 ] ] ] } },
{ "type": "Feature", "properties": { "id": "monoparte.11", "Name": null, "description": null, "timestamp": null, "begin": null, "end": null, "altitudeMode": null, "tessellate": -1, "extrude": 0, "visibility": -1, "drawOrder": null, "icon": null, "REG": "Biobío", "COM": "Negrete", "LOC": "Negrete", "ZONA": "ZU-4", "NOM": "Area consolidada ZU-4", "UPERM": "Equipamiento: deporte. Area verde.", "UPROH": "Todos los usos de suelo no mencionados como permitidos.", "P_DO": "27/09/1991", "N_DOC": "12", "T_DO": "Resolución", "OBS": "Publicacion PRC Negrete. Res V y U N°12. Fecha promulgacion 17.06.1991. Fecha publicacion D.O. 27.09.1991." }, "geometry": { "type": "Polygon", "coordinates": [ [ [ -72.535458367112298, -37.585886958127901 ], [ -72.5355741560941, -37.587066975564397 ], [ -72.536002233191496, -37.586934952958799 ], [ -72.536239267944097, -37.586880169423701 ], [ -72.5365829654924, -37.586863900493597 ], [ -72.536650265247701, -37.586861881505001 ], [ -72.536811198316897, -37.585979874354997 ], [ -72.536742410254703, -37.585961667575297 ], [ -72.535458367112298, -37.585886958127901 ] ] ] } },
{ "type": "Feature", "properties": { "id": "monoparte.12", "Name": null, "description": null, "timestamp": null, "begin": null, "end": null, "altitudeMode": null, "tessellate": -1, "extrude": 0, "visibility": -1, "drawOrder": null, "icon": null, "REG": "Biobío", "COM": "Negrete", "LOC": "Negrete", "ZONA": "ZE-1", "NOM": "Area de extension urbana ZE-1", "UPERM": "Residencial. Equipamiento: cientifico, comercio, culto y cultura, deporte, educacion, esparcimiento, salud, seguridad, servicios, social. Actividades productivas.", "UPROH": "Todos los usos de suelo no mencionados como permitidos.", "P_DO": "27/09/1991", "N_DOC": "12", "T_DO": "Resolución", "OBS": "Publicacion PRC Negrete. Res V y U N°12. Fecha promulgacion 17.06.1991. Fecha publicacion D.O. 27.09.1991." }, "geometry": { "type": "Polygon", "coordinates": [ [ [ -72.535088599645107, -37.583421020641403 ], [ -72.534956372693301, -37.583475042873097 ], [ -72.534848697310593, -37.583478271458603 ], [ -72.534667884950096, -37.583455088849597 ], [ -72.534427151521598, -37.583304983773203 ], [ -72.534032188946398, -37.583123747114101 ], [ -72.533822707488099, -37.583127642727298 ], [ -72.533508918348602, -37.583332509138998 ], [ -72.533212849246198, -37.583532076047803 ], [ -72.533743376671794, -37.584236043079102 ], [ -72.534415559738804, -37.585021571529602 ], [ -72.534651321985905, -37.585319611954397 ], [ -72.534627843942999, -37.5853298511364 ], [ -72.534486977635297, -37.585391282470397 ], [ -72.534329516891802, -37.5854818150844 ], [ -72.534313373399399, -37.585520437354099 ], [ -72.534291259560007, -37.5856860500148 ], [ -72.534249774858395, -37.586454834253303 ], [ -72.534197061832401, -37.586480251778298 ], [ -72.534079220829298, -37.586521922790602 ], [ -72.533777203874195, -37.586722623656399 ], [ -72.533500871007305, -37.586959738161497 ], [ -72.533245864036701, -37.587267723643002 ], [ -72.532941869317398, -37.587553339501198 ], [ -72.532817816791095, -37.587590428721398 ], [ -72.532169698844697, -37.5875669436995 ], [ -72.531366103937899, -37.587486137039697 ], [ -72.530588981022802, -37.5873949976896 ], [ -72.529944821238402, -37.587328474944997 ], [ -72.529807677645195, -37.587342116658 ], [ -72.529506179922905, -37.587427421327597 ], [ -72.529285378946398, -37.587572284060798 ], [ -72.529223623586404, -37.587659944786701 ], [ -72.529087699207594, -37.587826104308697 ], [ -72.528919480629497, -37.5880695061742 ], [ -72.528788636352203, -37.588216443682498 ], [ -72.528651809884707, -37.588363559215097 ], [ -72.528420256592298, -37.5886612973935 ], [ -72.528383291011096, -37.588836530395902 ], [ -72.529729059944003, -37.588790283685199 ], [ -72.530964422718199, -37.588705614541603 ], [ -72.532800917366103, -37.588585042511198 ], [ -72.534060472658894, -37.588457901951799 ], [ -72.535407785121393, -37.588286402184004 ], [ -72.538040504686293, -37.587933295561498 ], [ -72.540545522110406, -37.587619721160998 ], [ -72.543869896360903, -37.587293384352698 ], [ -72.543738922340495, -37.586427285806899 ], [ -72.543505243050902, -37.585010095147197 ], [ -72.543345979042897, -37.584991103599201 ], [ -72.543045748133693, -37.584976289991801 ], [ -72.542798558787993, -37.584816863147203 ], [ -72.542658487832696, -37.584768631428503 ], [ -72.542268978145401, -37.584766033901403 ], [ -72.541835450700404, -37.584845802484701 ], [ -72.541522578101095, -37.584817062826502 ], [ -72.541165798982504, -37.584746736272997 ], [ -72.540945252972705, -37.584643711089598 ], [ -72.540781706536507, -37.584605718343198 ], [ -72.540611612134001, -37.584429669269198 ], [ -72.540558564127707, -37.584321613598497 ], [ -72.540478766066599, -37.584281104284997 ], [ -72.5403280871096, -37.584261792209404 ], [ -72.539811603388799, -37.5842343956392 ], [ -72.5395505405302, -37.584161190033498 ], [ -72.539426160709795, -37.5840648107013 ], [ -72.539313294548805, -37.5839585503306 ], [ -72.539233612554398, -37.583794085800903 ], [ -72.539218603719704, -37.583603843371002 ], [ -72.539217364923203, -37.583451326687303 ], [ -72.539166123796207, -37.583381354320302 ], [ -72.538996714105906, -37.583219584148502 ], [ -72.538666584323593, -37.582952988214799 ], [ -72.538388266853403, -37.582641931246499 ], [ -72.538207915352402, -37.582375606022403 ], [ -72.538162883824896, -37.582310215332299 ], [ -72.537961538699506, -37.582106495205899 ], [ -72.537718999349295, -37.581918312831299 ], [ -72.537463820289503, -37.581716208128803 ], [ -72.537107177968693, -37.581521913770402 ], [ -72.536692297605896, -37.581362736044198 ], [ -72.536473570164603, -37.581297787622098 ], [ -72.536178970774102, -37.581243457003502 ], [ -72.535983416922804, -37.581254606261801 ], [ -72.535903676770403, -37.581278451288703 ], [ -72.535859490243595, -37.581294078508499 ], [ -72.535860842814202, -37.581322641883197 ], [ -72.535880140754799, -37.5813506670385 ], [ -72.535936682061404, -37.581406179109003 ], [ -72.536001181131894, -37.581439999967301 ], [ -72.536084303072897, -37.581487563285499 ], [ -72.536186046919596, -37.581548870853098 ], [ -72.536216346266698, -37.581619471868898 ], [ -72.536211094123104, -37.581698290684898 ], [ -72.536161654060606, -37.581792735978503 ], [ -72.536131849184997, -37.581922348580498 ], [ -72.536047420253993, -37.582226652938097 ], [ -72.536008642783699, -37.582356533732202 ], [ -72.535989164684807, -37.582514440499402 ], [ -72.535904845916505, -37.582631385223898 ], [ -72.535848123463694, -37.5827618041872 ], [ -72.535791399698098, -37.582892223164798 ], [ -72.535635974604901, -37.583025603166497 ], [ -72.535088599645107, -37.583421020641403 ] ], [ [ -72.535458367112298, -37.585886958127901 ], [ -72.536742410254703, -37.585961667575297 ], [ -72.536811198316897, -37.585979874354997 ], [ -72.536650265247701, -37.586861881505001 ], [ -72.5365829654924, -37.586863900493597 ], [ -72.536239267944097, -37.586880169423701 ], [ -72.536002233191496, -37.586934952958799 ], [ -72.5355741560941, -37.587066975564397 ], [ -72.535458367112298, -37.585886958127901 ] ] ] } },
{ "type": "Feature", "properties": { "id": "monoparte.13", "Name": null, "description": null, "timestamp": null, "begin": null, "end": null, "altitudeMode": null, "tessellate": -1, "extrude": 0, "visibility": -1, "drawOrder": null, "icon": null, "REG": "Biobío", "COM": "Negrete", "LOC": "Negrete", "ZONA": "ZU-2", "NOM": "Area consolidada ZU-2", "UPERM": "Residencial. Equipamiento: cientifico, comercio, culto y cultura, deporte, educacion, esparcimiento, salud, seguridad, servicios, social.", "UPROH": "Todos los usos de suelo no mencionados como permitidos.", "P_DO": "27/09/1991", "N_DOC": "12", "T_DO": "Resolución", "OBS": "Publicacion PRC Negrete. Res V y U N°12. Fecha promulgacion 17.06.1991. Fecha publicacion D.O. 27.09.1991." }, "geometry": { "type": "Polygon", "coordinates": [ [ [ -72.531458611408198, -37.587239774597201 ], [ -72.532770118734007, -37.587375818589997 ], [ -72.532859954312201, -37.587501844178 ], [ -72.531457229796004, -37.587394153931697 ], [ -72.531456325833602, -37.587495209287397 ], [ -72.532169698844697, -37.5875669436995 ], [ -72.532817816791095, -37.587590428721398 ], [ -72.532941869317398, -37.587553339501198 ], [ -72.533245864036701, -37.587267723643002 ], [ -72.533500871007305, -37.586959738161497 ], [ -72.533777203874195, -37.586722623656399 ], [ -72.534079220829298, -37.586521922790602 ], [ -72.534197061832401, -37.586480251778298 ], [ -72.534249774858395, -37.586454834253303 ], [ -72.534291259560007, -37.5856860500148 ], [ -72.534313373399399, -37.585520437354099 ], [ -72.534329516891802, -37.5854818150844 ], [ -72.534486977635297, -37.585391282470397 ], [ -72.534627843942999, -37.5853298511364 ], [ -72.534651321985905, -37.585319611954397 ], [ -72.534415559738804, -37.585021571529602 ], [ -72.533743376671794, -37.584236043079102 ], [ -72.533212849246198, -37.583532076047803 ], [ -72.531886740510899, -37.5840572858624 ], [ -72.531701009328401, -37.584120058858502 ], [ -72.531650040910606, -37.584182368479397 ], [ -72.5314955524249, -37.584905673051402 ], [ -72.531444995422703, -37.585641595869902 ], [ -72.531400480469102, -37.586980166772499 ], [ -72.531459894461705, -37.587096378529203 ], [ -72.531458611408198, -37.587239774597201 ] ], [ [ -72.533340592313493, -37.586929661565499 ], [ -72.533451721466193, -37.586239834278203 ], [ -72.533967729188106, -37.586318732901397 ], [ -72.533680251087503, -37.586638208095401 ], [ -72.533428299347904, -37.586884126854002 ], [ -72.533340592313493, -37.586929661565499 ] ] ] } },
{ "type": "Feature", "properties": { "id": "monoparte.14", "Name": null, "description": null, "timestamp": null, "begin": null, "end": null, "altitudeMode": null, "tessellate": -1, "extrude": 0, "visibility": -1, "drawOrder": null, "icon": null, "REG": "Biobío", "COM": "Negrete", "LOC": "Negrete", "ZONA": "AV", "NOM": "Area verde", "UPERM": "Area verde.", "UPROH": "Todos los usos de suelo no mencionados como permitidos.", "P_DO": "27/09/1991", "N_DOC": "12", "T_DO": "Resolución", "OBS": "Publicacion PRC Negrete. Res V y U N°12. Fecha promulgacion 17.06.1991. Fecha publicacion D.O. 27.09.1991." }, "geometry": { "type": "Polygon", "coordinates": [ [ [ -72.531457229796004, -37.587394153931697 ], [ -72.532859954312201, -37.587501844178 ], [ -72.532770118734007, -37.587375818589997 ], [ -72.531458611408198, -37.587239774597201 ], [ -72.531457229796004, -37.587394153931697 ] ] ] } },
{ "type": "Feature", "properties": { "id": "monoparte.15", "Name": null, "description": null, "timestamp": null, "begin": null, "end": null, "altitudeMode": null, "tessellate": -1, "extrude": 0, "visibility": -1, "drawOrder": null, "icon": null, "REG": "Biobío", "COM": "Negrete", "LOC": "Negrete", "ZONA": "AV", "NOM": "Area verde", "UPERM": "Area verde.", "UPROH": "Todos los usos de suelo no mencionados como permitidos.", "P_DO": "27/09/1991", "N_DOC": "12", "T_DO": "Resolución", "OBS": "Publicacion PRC Negrete. Res V y U N°12. Fecha promulgacion 17.06.1991. Fecha publicacion D.O. 27.09.1991." }, "geometry": { "type": "Polygon", "coordinates": [ [ [ -72.533451721466193, -37.586239834278203 ], [ -72.533340592313493, -37.586929661565499 ], [ -72.533428299347904, -37.586884126854002 ], [ -72.533680251087503, -37.586638208095401 ], [ -72.533967729188106, -37.586318732901397 ], [ -72.533451721466193, -37.586239834278203 ] ] ] } },
{ "type": "Feature", "properties": { "id": "monoparte.16", "Name": null, "description": null, "timestamp": null, "begin": null, "end": null, "altitudeMode": null, "tessellate": -1, "extrude": 0, "visibility": -1, "drawOrder": null, "icon": null, "REG": "Biobío", "COM": "Negrete", "LOC": "Negrete", "ZONA": "AV", "NOM": "Area verde", "UPERM": "Area verde.", "UPROH": "Todos los usos de suelo no mencionados como permitidos.", "P_DO": "27/09/1991", "N_DOC": "12", "T_DO": "Resolución", "OBS": "Publicacion PRC Negrete. Res V y U N°12. Fecha promulgacion 17.06.1991. Fecha publicacion D.O. 27.09.1991." }, "geometry": { "type": "Polygon", "coordinates": [ [ [ -72.529004019083004, -37.586184750885998 ], [ -72.529928755401002, -37.586357293070201 ], [ -72.530039707151701, -37.585377793316603 ], [ -72.528758340334306, -37.585169510346603 ], [ -72.528597518445594, -37.5861397108186 ], [ -72.529004019083004, -37.586184750885998 ] ] ] } },
{ "type": "Feature", "properties": { "id": "monoparte.17", "Name": null, "description": null, "timestamp": null, "begin": null, "end": null, "altitudeMode": null, "tessellate": -1, "extrude": 0, "visibility": -1, "drawOrder": null, "icon": null, "REG": "Biobío", "COM": "Negrete", "LOC": "Negrete", "ZONA": "AV", "NOM": "Area verde", "UPERM": "Area verde.", "UPROH": "Todos los usos de suelo no mencionados como permitidos.", "P_DO": "27/09/1991", "N_DOC": "12", "T_DO": "Resolución", "OBS": "Publicacion PRC Negrete. Res V y U N°12. Fecha promulgacion 17.06.1991. Fecha publicacion D.O. 27.09.1991." }, "geometry": { "type": "Polygon", "coordinates": [ [ [ -72.533499477091993, -37.5815731974537 ], [ -72.533416406643695, -37.5815899891901 ], [ -72.533236726611307, -37.581590606666502 ], [ -72.532823754181706, -37.581598215896697 ], [ -72.532650280369396, -37.581603414127301 ], [ -72.532543958732603, -37.5816352039488 ], [ -72.532438220595395, -37.581665020311803 ], [ -72.532603658655603, -37.581832085173602 ], [ -72.532689650788797, -37.581940348573099 ], [ -72.532693367140098, -37.582018898563298 ], [ -72.532523369421398, -37.582224220218997 ], [ -72.532406092633096, -37.582344700569898 ], [ -72.532438556814, -37.582552390838501 ], [ -72.532582272135897, -37.5827411617758 ], [ -72.532865311465102, -37.583025871342798 ], [ -72.533106792925807, -37.583286797397797 ], [ -72.533282935075505, -37.583484834454303 ], [ -72.533508918348602, -37.583332509138998 ], [ -72.533822707488099, -37.583127642727298 ], [ -72.534032188946398, -37.583123747114101 ], [ -72.534427151521598, -37.583304983773203 ], [ -72.534667884950096, -37.583455088849597 ], [ -72.534848697310593, -37.583478271458603 ], [ -72.534956372693301, -37.583475042873097 ], [ -72.535088599645107, -37.583421020641403 ], [ -72.535635974604901, -37.583025603166497 ], [ -72.535791399698098, -37.582892223164798 ], [ -72.535848123463694, -37.5827618041872 ], [ -72.535904845916505, -37.582631385223898 ], [ -72.535989164684807, -37.582514440499402 ], [ -72.536008642783699, -37.582356533732202 ], [ -72.536047420253993, -37.582226652938097 ], [ -72.536131849184997, -37.581922348580498 ], [ -72.536161654060606, -37.581792735978503 ], [ -72.536211094123104, -37.581698290684898 ], [ -72.536216346266698, -37.581619471868898 ], [ -72.536186046919596, -37.581548870853098 ], [ -72.536084303072897, -37.581487563285499 ], [ -72.536001181131894, -37.581439999967301 ], [ -72.535936682061404, -37.581406179109003 ], [ -72.535880140754799, -37.5813506670385 ], [ -72.535860842814202, -37.581322641883197 ], [ -72.535859490243595, -37.581294078508499 ], [ -72.535903676770403, -37.581278451288703 ], [ -72.535983416922804, -37.581254606261801 ], [ -72.536178970774102, -37.581243457003502 ], [ -72.535958818431197, -37.5811371426501 ], [ -72.535671241383, -37.581136233185703 ], [ -72.535232768319105, -37.581111244026303 ], [ -72.534785260745096, -37.581148498728901 ], [ -72.534487522955502, -37.581186029317202 ], [ -72.534328944044205, -37.581252758982799 ], [ -72.534184806583099, -37.581371495800902 ], [ -72.534095755498498, -37.581388467296101 ], [ -72.533912346924097, -37.581436871126598 ], [ -72.533807828569607, -37.581506747231799 ], [ -72.533671823103106, -37.581544195444998 ], [ -72.533588528565502, -37.581556226391697 ], [ -72.533499477091993, -37.5815731974537 ] ] ] } },
{ "type": "Feature", "properties": { "id": "monoparte.18", "Name": null, "description": null, "timestamp": null, "begin": null, "end": null, "altitudeMode": null, "tessellate": -1, "extrude": 0, "visibility": -1, "drawOrder": null, "icon": null, "REG": "Biobío", "COM": "Negrete", "LOC": "Coigue", "ZONA": "ZU-1", "NOM": "Area consolidada ZU-1", "UPERM": "Residencial. Equipamiento: cientifico, comercio, culto y cultura, deporte, educacion, esparcimiento, salud, seguridad, servicios, social. Actividades productivas. Infraestructura: transporte.", "UPROH": "Todos los usos de suelo no mencionados como permitidos.", "P_DO": "27/09/1991", "N_DOC": "12", "T_DO": "Resolución", "OBS": "Publicacion PRC Negrete. Res V y U N°12. Fecha promulgacion 17.06.1991. Fecha publicacion D.O. 27.09.1991." }, "geometry": { "type": "Polygon", "coordinates": [ [ [ -72.576591159116305, -37.581776577848203 ], [ -72.576175167323498, -37.583596949786603 ], [ -72.575705047267604, -37.585413241439603 ], [ -72.576949031335204, -37.585682991530099 ], [ -72.5767234793895, -37.5869769998706 ], [ -72.577532682117507, -37.587174123296997 ], [ -72.577070314621395, -37.589806876601997 ], [ -72.577678326962797, -37.589954056423103 ], [ -72.577882939097094, -37.589107348713199 ], [ -72.578192510569707, -37.587316899569799 ], [ -72.578939026248094, -37.583394607755203 ], [ -72.580601436312804, -37.583648425859899 ], [ -72.580903151188295, -37.582044334994002 ], [ -72.579263986632995, -37.581925955121797 ], [ -72.579598616944196, -37.580409335961697 ], [ -72.579732069240094, -37.580253809056003 ], [ -72.5801595642682, -37.579799854694102 ], [ -72.580842791089296, -37.579062807368999 ], [ -72.579212895302902, -37.577980619517497 ], [ -72.578515258045201, -37.578609625601601 ], [ -72.577015390351903, -37.579967018488702 ], [ -72.576691762231306, -37.580244997046798 ], [ -72.576543299107598, -37.580428274239097 ], [ -72.576346421407493, -37.580851383174398 ], [ -72.575952658764095, -37.581697602160901 ], [ -72.576222608594506, -37.581773456734297 ], [ -72.576591159116305, -37.581776577848203 ] ], [ [ -72.577583020187404, -37.582646521792199 ], [ -72.577690653085, -37.581892408514001 ], [ -72.578288645912494, -37.581995824929201 ], [ -72.578166716352996, -37.582692879775102 ], [ -72.577583020187404, -37.582646521792199 ] ] ] } },
{ "type": "Feature", "properties": { "id": "monoparte.19", "Name": null, "description": null, "timestamp": null, "begin": null, "end": null, "altitudeMode": null, "tessellate": -1, "extrude": 0, "visibility": -1, "drawOrder": null, "icon": null, "REG": "Biobío", "COM": "Negrete", "LOC": "Coigue", "ZONA": "ZE-3", "NOM": "Area de extension urbana ZE-3", "UPERM": "Equipamiento: comerico. Actividades productivas. Area verde.", "UPROH": "Todos los usos de suelo no mencionados como permitidos.", "P_DO": "27/09/1991", "N_DOC": "12", "T_DO": "Resolución", "OBS": "Publicacion PRC Negrete. Res V y U N°12. Fecha promulgacion 17.06.1991. Fecha publicacion D.O. 27.09.1991." }, "geometry": { "type": "Polygon", "coordinates": [ [ [ -72.574458487174795, -37.581611721637799 ], [ -72.575952658764095, -37.581697602160901 ], [ -72.576346421407493, -37.580851383174398 ], [ -72.576543299107598, -37.580428274239097 ], [ -72.576691762231306, -37.580244997046798 ], [ -72.577015390351903, -37.579967018488702 ], [ -72.578515258045201, -37.578609625601601 ], [ -72.577984697374703, -37.578225277547602 ], [ -72.577612136533105, -37.577950546868401 ], [ -72.5773261416862, -37.577794754088401 ], [ -72.577298883526794, -37.577788430742501 ], [ -72.576865942539001, -37.578316432984103 ], [ -72.576516139162806, -37.578891968401102 ], [ -72.576168723301507, -37.579517486324903 ], [ -72.576002891722098, -37.579807123118698 ], [ -72.5754308206578, -37.580432302804901 ], [ -72.574761670527195, -37.581282102202401 ], [ -72.574458487174795, -37.581611721637799 ] ] ] } },
{ "type": "Feature", "properties": { "id": "monoparte.20", "Name": null, "description": null, "timestamp": null, "begin": null, "end": null, "altitudeMode": null, "tessellate": -1, "extrude": 0, "visibility": -1, "drawOrder": null, "icon": null, "REG": "Biobío", "COM": "Negrete", "LOC": "Coigue", "ZONA": "ZE-3", "NOM": "Area de extension urbana ZE-3", "UPERM": "Equipamiento: comerico. Actividades productivas. Area verde.", "UPROH": "Todos los usos de suelo no mencionados como permitidos.", "P_DO": "27/09/1991", "N_DOC": "12", "T_DO": "Resolución", "OBS": "Publicacion PRC Negrete. Res V y U N°12. Fecha promulgacion 17.06.1991. Fecha publicacion D.O. 27.09.1991." }, "geometry": { "type": "Polygon", "coordinates": [ [ [ -72.579212895302902, -37.577980619517497 ], [ -72.580842791089296, -37.579062807368999 ], [ -72.580864377283405, -37.579039521090998 ], [ -72.582837254031801, -37.576930844354003 ], [ -72.581441930402903, -37.5759665182578 ], [ -72.579212895302902, -37.577980619517497 ] ] ] } },
{ "type": "Feature", "properties": { "id": "monoparte.21", "Name": null, "description": null, "timestamp": null, "begin": null, "end": null, "altitudeMode": null, "tessellate": -1, "extrude": 0, "visibility": -1, "drawOrder": null, "icon": null, "REG": "Biobío", "COM": "Negrete", "LOC": "Coigue", "ZONA": "ZE-1", "NOM": "Area de extension urbana ZE-1", "UPERM": "Residencial. Equipamiento: cientifico, comercio, culto y cultura, deporte, educacion, esparcimiento, salud, seguridad, servicios, social. Actividades productivas.", "UPROH": "Todos los usos de suelo no mencionados como permitidos.", "P_DO": "27/09/1991", "N_DOC": "12", "T_DO": "Resolución", "OBS": "Publicacion PRC Negrete. Res V y U N°12. Fecha promulgacion 17.06.1991. Fecha publicacion D.O. 27.09.1991." }, "geometry": { "type": "Polygon", "coordinates": [ [ [ -72.577990186455807, -37.5900295459519 ], [ -72.579332880479399, -37.590357055530902 ], [ -72.579904579034903, -37.5874435779332 ], [ -72.580330747251097, -37.585087520678002 ], [ -72.580601436312804, -37.583648425859899 ], [ -72.578939026248094, -37.583394607755203 ], [ -72.578192510569707, -37.587316899569799 ], [ -72.577882939097094, -37.589107348713199 ], [ -72.577678326962797, -37.589954056423103 ], [ -72.577990186455807, -37.5900295459519 ] ] ] } },
{ "type": "Feature", "properties": { "id": "monoparte.22", "Name": null, "description": null, "timestamp": null, "begin": null, "end": null, "altitudeMode": null, "tessellate": -1, "extrude": 0, "visibility": -1, "drawOrder": null, "icon": null, "REG": "Biobío", "COM": "Negrete", "LOC": "Coigue", "ZONA": "ZE-1", "NOM": "Area de extension urbana ZE-1", "UPERM": "Residencial. Equipamiento: cientifico, comercio, culto y cultura, deporte, educacion, esparcimiento, salud, seguridad, servicios, social. Actividades productivas.", "UPROH": "Todos los usos de suelo no mencionados como permitidos.", "P_DO": "27/09/1991", "N_DOC": "12", "T_DO": "Resolución", "OBS": "Publicacion PRC Negrete. Res V y U N°12. Fecha promulgacion 17.06.1991. Fecha publicacion D.O. 27.09.1991." }, "geometry": { "type": "Polygon", "coordinates": [ [ [ -72.574670043751794, -37.585191489006299 ], [ -72.574263284761301, -37.586455232294703 ], [ -72.572815739960006, -37.586062907120002 ], [ -72.571053860209304, -37.585513803941602 ], [ -72.570993609682702, -37.585914201752999 ], [ -72.572318654987598, -37.586375812390898 ], [ -72.573773981006795, -37.586742879767399 ], [ -72.575441254382397, -37.587157132124702 ], [ -72.576228892083293, -37.587341808721703 ], [ -72.575980946373093, -37.588106135747402 ], [ -72.575940642137496, -37.588202703409301 ], [ -72.575879613895196, -37.588335655560499 ], [ -72.575354199929507, -37.588935583444702 ], [ -72.575080809470805, -37.589325257053602 ], [ -72.577070314621395, -37.589806876601997 ], [ -72.577532682117507, -37.587174123296997 ], [ -72.5767234793895, -37.5869769998706 ], [ -72.576949031335204, -37.585682991530099 ], [ -72.575705047267604, -37.585413241439603 ], [ -72.576175167323498, -37.583596949786603 ], [ -72.576591159116305, -37.581776577848203 ], [ -72.576222608594506, -37.581773456734297 ], [ -72.575102380075293, -37.584274501395498 ], [ -72.574670043751794, -37.585191489006299 ] ] ] } },
{ "type": "Feature", "properties": { "id": "monoparte.23", "Name": null, "description": null, "timestamp": null, "begin": null, "end": null, "altitudeMode": null, "tessellate": -1, "extrude": 0, "visibility": -1, "drawOrder": null, "icon": null, "REG": "Biobío", "COM": "Negrete", "LOC": "Coigue", "ZONA": "ZE-1", "NOM": "Area de extension urbana ZE-1", "UPERM": "Residencial. Equipamiento: cientifico, comercio, culto y cultura, deporte, educacion, esparcimiento, salud, seguridad, servicios, social. Actividades productivas.", "UPROH": "Todos los usos de suelo no mencionados como permitidos.", "P_DO": "27/09/1991", "N_DOC": "12", "T_DO": "Resolución", "OBS": "Publicacion PRC Negrete. Res V y U N°12. Fecha promulgacion 17.06.1991. Fecha publicacion D.O. 27.09.1991." }, "geometry": { "type": "Polygon", "coordinates": [ [ [ -72.579263986632995, -37.581925955121797 ], [ -72.580903151188295, -37.582044334994002 ], [ -72.580999011790098, -37.581534674042203 ], [ -72.5811846767307, -37.580722173555998 ], [ -72.579732069240094, -37.580253809056003 ], [ -72.579598616944196, -37.580409335961697 ], [ -72.579263986632995, -37.581925955121797 ] ] ] } },
{ "type": "Feature", "properties": { "id": "monoparte.24", "Name": null, "description": null, "timestamp": null, "begin": null, "end": null, "altitudeMode": null, "tessellate": -1, "extrude": 0, "visibility": -1, "drawOrder": null, "icon": null, "REG": "Biobío", "COM": "Negrete", "LOC": "Coigue", "ZONA": "ZU-3", "NOM": "Area consolidada ZU-3", "UPERM": "Actividades productivas. Infraestructura: transporte.", "UPROH": "Todos los usos de suelo no mencionados como permitidos.", "P_DO": "27/09/1991", "N_DOC": "12", "T_DO": "Resolución", "OBS": "Publicacion PRC Negrete. Res V y U N°12. Fecha promulgacion 17.06.1991. Fecha publicacion D.O. 27.09.1991." }, "geometry": { "type": "Polygon", "coordinates": [ [ [ -72.574256382628803, -37.5849722216986 ], [ -72.574719447234401, -37.585086703482297 ], [ -72.575102380075293, -37.584274501395498 ], [ -72.576222608594506, -37.581773456734297 ], [ -72.575952658764095, -37.581697602160901 ], [ -72.574458487174795, -37.581611721637799 ], [ -72.574240679079793, -37.581848519385098 ], [ -72.573800089577603, -37.582405347478399 ], [ -72.573443999510104, -37.582756525078302 ], [ -72.572872657634704, -37.583210049090603 ], [ -72.572434620531396, -37.583445002675496 ], [ -72.571750471458898, -37.583794675733301 ], [ -72.571520861235598, -37.583911740499801 ], [ -72.572078155967404, -37.584144379172599 ], [ -72.572959353516197, -37.584532427630101 ], [ -72.573460371697493, -37.584674562388699 ], [ -72.574256382628803, -37.5849722216986 ] ] ] } },
{ "type": "Feature", "properties": { "id": "monoparte.25", "Name": null, "description": null, "timestamp": null, "begin": null, "end": null, "altitudeMode": null, "tessellate": -1, "extrude": 0, "visibility": -1, "drawOrder": null, "icon": null, "REG": "Biobío", "COM": "Negrete", "LOC": "Coigue", "ZONA": "ZU-3", "NOM": "Area consolidada ZU-3", "UPERM": "Actividades productivas. Infraestructura: transporte.", "UPROH": "Todos los usos de suelo no mencionados como permitidos.", "P_DO": "27/09/1991", "N_DOC": "12", "T_DO": "Resolución", "OBS": "Publicacion PRC Negrete. Res V y U N°12. Fecha promulgacion 17.06.1991. Fecha publicacion D.O. 27.09.1991." }, "geometry": { "type": "Polygon", "coordinates": [ [ [ -72.579147696067196, -37.577932542171503 ], [ -72.579212895302902, -37.577980619517497 ], [ -72.581441930402903, -37.5759665182578 ], [ -72.580513891357398, -37.575325114862203 ], [ -72.579587295710397, -37.575919322375 ], [ -72.5779056029657, -37.577012021574497 ], [ -72.579147696067196, -37.577932542171503 ] ] ] } }
]
}
