{
"type": "FeatureCollection",
"name": "IPT_08_PRC_Alto_Biobio",
"crs": { "type": "name", "properties": { "name": "urn:ogc:def:crs:OGC:1.3:CRS84" } },
"features": [
{ "type": "Feature", "properties": { "id": "monoparte.1", "Name": null, "description": null, "timestamp": null, "begin": null, "end": null, "altitudeMode": null, "tessellate": -1, "extrude": 0, "visibility": -1, "drawOrder": null, "icon": null, "REG": "Biobío", "COM": "Alto Biobío", "LOC": "Ralco", "ZONA": "EX1", "NOM": "Zona EX1", "UPERM": "Residencial. Equipamiento: cientifico, comercio, culto y cultura, deporte, educacion, esparcimiento, salud, seguridad, servicios, social. Actividades productivas. Infraestructura: transporte.", "UPROH": "Todos los usos no mencionados precedentemente.", "P_DO": "01/04/1999", "N_DOC": "160", "T_DO": "Resolución", "OBS": null }, "geometry": { "type": "Polygon", "coordinates": [ [ [ -71.641624956452105, -37.877095296555801 ], [ -71.641553114201002, -37.8772581202713 ], [ -71.641365599176297, -37.877439840485899 ], [ -71.640834449868507, -37.877101030450802 ], [ -71.640849371034193, -37.876654603076098 ], [ -71.640856331407505, -37.8765408460782 ], [ -71.6408295609791, -37.876424410439903 ], [ -71.639892772107302, -37.872997548514299 ], [ -71.639378685774204, -37.873359796757804 ], [ -71.637282983431504, -37.874568627643797 ], [ -71.636989729950201, -37.875174432784299 ], [ -71.636801760756896, -37.875762641382202 ], [ -71.636276969683394, -37.875685500335202 ], [ -71.636002987227698, -37.875613929958 ], [ -71.635983168822307, -37.875370824967597 ], [ -71.635789303884906, -37.875486467029702 ], [ -71.635565188410098, -37.875647402140103 ], [ -71.634061847176994, -37.876513645547597 ], [ -71.634114940526004, -37.8765978262389 ], [ -71.634793191391907, -37.877905809198502 ], [ -71.6363824836573, -37.877095376367997 ], [ -71.636889765004298, -37.877150761783398 ], [ -71.637549994779903, -37.877324468991297 ], [ -71.638102915859406, -37.8774431624459 ], [ -71.638827509208895, -37.877619368498301 ], [ -71.639534937002097, -37.877803443052301 ], [ -71.641038390862093, -37.878217847180998 ], [ -71.641419436012995, -37.877592323851601 ], [ -71.641855865147903, -37.877188843777603 ], [ -71.641624956452105, -37.877095296555801 ] ] ] } },
{ "type": "Feature", "properties": { "id": "monoparte.2", "Name": null, "description": null, "timestamp": null, "begin": null, "end": null, "altitudeMode": null, "tessellate": -1, "extrude": 0, "visibility": -1, "drawOrder": null, "icon": null, "REG": "Biobío", "COM": "Alto Biobío", "LOC": "Ralco", "ZONA": "Z10", "NOM": "Zona Z10", "UPERM": "Residencial. Equipamiento: cientifico, comercio, culto y cultura, deporte, educacion, esparcimiento, salud, seguridad, servicios, social. Infraestructura: transporte.", "UPROH": "Todos los usos no mencionados precedentemente.", "P_DO": "01/04/1999", "N_DOC": "160", "T_DO": "Resolución", "OBS": null }, "geometry": { "type": "Polygon", "coordinates": [ [ [ -71.639492997574294, -37.881352449020298 ], [ -71.639492675581295, -37.8813532374731 ], [ -71.639298849046199, -37.881992426564899 ], [ -71.639292968258005, -37.882011819789902 ], [ -71.638959845563207, -37.883110343681302 ], [ -71.638663309591905, -37.883903743575701 ], [ -71.638644696177096, -37.884496061832301 ], [ -71.639623968424402, -37.884396319888502 ], [ -71.640551068557798, -37.8823796816109 ], [ -71.640552737562899, -37.882375610957297 ], [ -71.641998881715395, -37.878914850317301 ], [ -71.640879727327999, -37.878505374204401 ], [ -71.6407212603402, -37.878865286853703 ], [ -71.640139806829595, -37.879765217820498 ], [ -71.639492997574294, -37.881352449020298 ] ] ] } },
{ "type": "Feature", "properties": { "id": "monoparte.3", "Name": null, "description": null, "timestamp": null, "begin": null, "end": null, "altitudeMode": null, "tessellate": -1, "extrude": 0, "visibility": -1, "drawOrder": null, "icon": null, "REG": "Biobío", "COM": "Alto Biobío", "LOC": "Ralco", "ZONA": "EX4", "NOM": "Zona EX4", "UPERM": "Equipamiento: comercio, servicios. Activdades productivas. Area verde.", "UPROH": "Todos los usos no mencionados precedentemente.", "P_DO": "01/04/1999", "N_DOC": "160", "T_DO": "Resolución", "OBS": null }, "geometry": { "type": "Polygon", "coordinates": [ [ [ -71.633230126168897, -37.8769376646962 ], [ -71.634061847176994, -37.876513645547597 ], [ -71.635565188410098, -37.875647402140103 ], [ -71.635789303884906, -37.875486467029702 ], [ -71.635983168822307, -37.875370824967597 ], [ -71.637035051779904, -37.8747433523232 ], [ -71.637282983431504, -37.874568627643797 ], [ -71.639165033540493, -37.873242250116697 ], [ -71.639892772107302, -37.872997548514299 ], [ -71.639860843386401, -37.872880743523098 ], [ -71.639341568000106, -37.870986831613799 ], [ -71.635442735559494, -37.873280674132602 ], [ -71.634590740397599, -37.873820267737401 ], [ -71.634145012269101, -37.874041607314098 ], [ -71.633847546353294, -37.8740911607401 ], [ -71.633341960276397, -37.873997959004399 ], [ -71.633035326031404, -37.873833166500198 ], [ -71.6329371217805, -37.873778146106801 ], [ -71.631320434493603, -37.874663052702097 ], [ -71.632328270244997, -37.875937454589703 ], [ -71.633230126168897, -37.8769376646962 ] ] ] } },
{ "type": "Feature", "properties": { "id": "monoparte.4", "Name": null, "description": null, "timestamp": null, "begin": null, "end": null, "altitudeMode": null, "tessellate": -1, "extrude": 0, "visibility": -1, "drawOrder": null, "icon": null, "REG": "Biobío", "COM": "Alto Biobío", "LOC": "Ralco", "ZONA": "EX2", "NOM": "Zona EX2", "UPERM": "Residencial. Equipamiento: cientifico, comercio, culto y cultura, deporte, educacion, esparcimiento, salud, seguridad, servicios, social.", "UPROH": "Todos los usos no mencionados precedentemente.", "P_DO": "01/04/1999", "N_DOC": "160", "T_DO": "Resolución", "OBS": null }, "geometry": { "type": "Polygon", "coordinates": [ [ [ -71.639341568000106, -37.870986831613799 ], [ -71.639860843386401, -37.872880743523098 ], [ -71.6408295609791, -37.876424410439903 ], [ -71.640856331407505, -37.8765408460782 ], [ -71.641624956452105, -37.877095296555801 ], [ -71.641855865147903, -37.877188843777603 ], [ -71.642216415441297, -37.876769004308301 ], [ -71.642832207043199, -37.876326037028797 ], [ -71.643463466197105, -37.8758111965616 ], [ -71.644268897416296, -37.875120783399197 ], [ -71.645327777285402, -37.874453276377501 ], [ -71.646110927308797, -37.874149574216503 ], [ -71.648373296569801, -37.8735624036144 ], [ -71.648073522502202, -37.872826202460203 ], [ -71.647237535650206, -37.872997596482001 ], [ -71.645700844862503, -37.873423153536102 ], [ -71.644907042590802, -37.8737652374083 ], [ -71.644646674221903, -37.873885526411598 ], [ -71.644447091440497, -37.874023521560503 ], [ -71.640913155129795, -37.873435355024 ], [ -71.640135420418503, -37.870491803748898 ], [ -71.639341568000106, -37.870986831613799 ] ] ] } },
{ "type": "Feature", "properties": { "id": "monoparte.5", "Name": null, "description": null, "timestamp": null, "begin": null, "end": null, "altitudeMode": null, "tessellate": -1, "extrude": 0, "visibility": -1, "drawOrder": null, "icon": null, "REG": "Biobío", "COM": "Alto Biobío", "LOC": "Ralco", "ZONA": "EX8", "NOM": "Zona EX8", "UPERM": "Residencial. Equipamiento: cientifico, comercio, culto y cultura, deporte, educacion, esparcimiento, salud, seguridad, servicios, social.", "UPROH": "Todos los usos no mencionados precedentemente.", "P_DO": "01/04/1999", "N_DOC": "160", "T_DO": "Resolución", "OBS": null }, "geometry": { "type": "Polygon", "coordinates": [ [ [ -71.641419436012995, -37.877592323851601 ], [ -71.641038390862093, -37.878217847180998 ], [ -71.640879727327999, -37.878505374204401 ], [ -71.641998881715395, -37.878914850317301 ], [ -71.640551068557798, -37.8823796816109 ], [ -71.639623968424402, -37.884396319888502 ], [ -71.638644696177096, -37.884496061832301 ], [ -71.638554438025196, -37.884632906254602 ], [ -71.638532301598204, -37.8857948801191 ], [ -71.638403219238597, -37.886870670004903 ], [ -71.638207198345697, -37.887755545393297 ], [ -71.637969302259705, -37.888224970339898 ], [ -71.637223650750997, -37.888858908647798 ], [ -71.637789199306397, -37.889053512652602 ], [ -71.637981574126599, -37.889049198838499 ], [ -71.639465885898204, -37.888157632980899 ], [ -71.639937282638897, -37.8878800383767 ], [ -71.640456767816403, -37.8876013607548 ], [ -71.6410571087428, -37.886891731068701 ], [ -71.641738836186207, -37.886144519054497 ], [ -71.642075952261806, -37.885772173478003 ], [ -71.643152498214107, -37.883042062958502 ], [ -71.643594803730096, -37.882007065437101 ], [ -71.642085433271305, -37.881644612995402 ], [ -71.642998859809197, -37.8794172090739 ], [ -71.644367757717006, -37.879750146028599 ], [ -71.644472898712095, -37.879452938981601 ], [ -71.645085500516302, -37.8787525507921 ], [ -71.646441621453107, -37.876976901758198 ], [ -71.646782734079295, -37.876759428340499 ], [ -71.647548670395906, -37.876170013911199 ], [ -71.648140338289593, -37.875698953197599 ], [ -71.648917754880202, -37.874899471933702 ], [ -71.648373296569801, -37.8735624036144 ], [ -71.646110927308797, -37.874149574216503 ], [ -71.6453392123138, -37.874448841902201 ], [ -71.645327777285402, -37.874453276377501 ], [ -71.644268897416296, -37.875120783399197 ], [ -71.643463466197105, -37.8758111965616 ], [ -71.642832207043199, -37.876326037028797 ], [ -71.642216415441297, -37.876769004308301 ], [ -71.641855865147903, -37.877188843777603 ], [ -71.641419436012995, -37.877592323851601 ] ], [ [ -71.646918043524906, -37.875632381035203 ], [ -71.646904607567507, -37.875324105478697 ], [ -71.647219034037306, -37.875501074669103 ], [ -71.646918043524906, -37.875632381035203 ] ], [ [ -71.642850720266395, -37.879100467742802 ], [ -71.642826284997199, -37.879042560606202 ], [ -71.642750537422501, -37.878525518498002 ], [ -71.643159820682598, -37.878651620565499 ], [ -71.643174487366593, -37.878657296685901 ], [ -71.643028407525307, -37.878962517423503 ], [ -71.642931813007195, -37.879102782836597 ], [ -71.642850720266395, -37.879100467742802 ] ], [ [ -71.641434031547504, -37.882022069239397 ], [ -71.6418953981062, -37.881831241154202 ], [ -71.641960763810999, -37.881852531572598 ], [ -71.642001707757601, -37.881915650250399 ], [ -71.641809663088495, -37.882343862543003 ], [ -71.641434031547504, -37.882022069239397 ] ], [ [ -71.646033845804695, -37.874279244551303 ], [ -71.646044713400599, -37.874463512363697 ], [ -71.6460981453221, -37.874688673983101 ], [ -71.645953574045905, -37.8746023509335 ], [ -71.645690941506302, -37.874507426498504 ], [ -71.645543454473895, -37.874507509992902 ], [ -71.645687541357901, -37.874401686626399 ], [ -71.645876119375302, -37.874325537677599 ], [ -71.646033845804695, -37.874279244551303 ] ] ] } },
{ "type": "Feature", "properties": { "id": "monoparte.6", "Name": null, "description": null, "timestamp": null, "begin": null, "end": null, "altitudeMode": null, "tessellate": -1, "extrude": 0, "visibility": -1, "drawOrder": null, "icon": null, "REG": "Biobío", "COM": "Alto Biobío", "LOC": "Ralco", "ZONA": "EX6", "NOM": "Zona EX6", "UPERM": "Equipamiento: comercio, culto y cultura, esparcimiento. Area verde.", "UPROH": "Todos los usos no mencionados precedentemente.", "P_DO": "01/04/1999", "N_DOC": "160", "T_DO": "Resolución", "OBS": null }, "geometry": { "type": "Polygon", "coordinates": [ [ [ -71.643594803730096, -37.882007065437101 ], [ -71.644367757717006, -37.879750146028599 ], [ -71.642998859809197, -37.8794172090739 ], [ -71.642085433271305, -37.881644612995402 ], [ -71.643594803730096, -37.882007065437101 ] ] ] } },
{ "type": "Feature", "properties": { "id": "monoparte.7", "Name": null, "description": null, "timestamp": null, "begin": null, "end": null, "altitudeMode": null, "tessellate": -1, "extrude": 0, "visibility": -1, "drawOrder": null, "icon": null, "REG": "Biobío", "COM": "Alto Biobío", "LOC": "Ralco", "ZONA": "Z11", "NOM": "Zona Z11", "UPERM": "Residencial. Equipamiento: culto y cultura, educacion, esparcimiento, salud, seguridad. Area verde.", "UPROH": "Todos los usos no mencionados precedentemente.", "P_DO": "01/04/1999", "N_DOC": "160", "T_DO": "Resolución", "OBS": null }, "geometry": { "type": "Polygon", "coordinates": [ [ [ -71.632006274821705, -37.880243747492699 ], [ -71.631331350790703, -37.8820668478591 ], [ -71.631288350898998, -37.882210854854897 ], [ -71.631681190483505, -37.882289073481701 ], [ -71.632272831069201, -37.882459041251899 ], [ -71.632736920285694, -37.882680303060603 ], [ -71.6330361910139, -37.882847273420097 ], [ -71.633317525298693, -37.8830475840657 ], [ -71.633604924377494, -37.883346732864801 ], [ -71.633825411609195, -37.8835976812735 ], [ -71.633899073882503, -37.883821782963103 ], [ -71.633955787767704, -37.884330310664303 ], [ -71.634269979514997, -37.8848886934639 ], [ -71.634579915131198, -37.885453934069403 ], [ -71.634836821460297, -37.885896389394802 ], [ -71.634957259771994, -37.886237000849398 ], [ -71.636655328640799, -37.885755427418097 ], [ -71.637074468799199, -37.884770902598603 ], [ -71.638644696177096, -37.884496061832301 ], [ -71.638663309591905, -37.883903743575701 ], [ -71.638959845563207, -37.883110343681302 ], [ -71.639292968258005, -37.882011819789902 ], [ -71.639280376825099, -37.8820085871955 ], [ -71.638211220258796, -37.881734119155702 ], [ -71.638284945899599, -37.881823320810199 ], [ -71.638293276186005, -37.881904605239903 ], [ -71.638099254761698, -37.8820706840689 ], [ -71.637105011535297, -37.882638179206701 ], [ -71.636697265571101, -37.882874422780098 ], [ -71.636601799854205, -37.882857389389301 ], [ -71.636532098539604, -37.882802954429103 ], [ -71.636454529347901, -37.882712551075301 ], [ -71.636434533420996, -37.882770728131 ], [ -71.636305494200101, -37.8826949455418 ], [ -71.635936546426606, -37.882524330324898 ], [ -71.635177355687901, -37.8819318283333 ], [ -71.6346559677702, -37.881509221880599 ], [ -71.633932427433606, -37.881294963405701 ], [ -71.633685576539193, -37.880965529844197 ], [ -71.634484897687599, -37.880620633086203 ], [ -71.633537710966294, -37.879981855122999 ], [ -71.633346836925497, -37.879943213259999 ], [ -71.633203082835294, -37.879960735426401 ], [ -71.632006274821705, -37.880243747492699 ] ] ] } },
{ "type": "Feature", "properties": { "id": "monoparte.8", "Name": null, "description": null, "timestamp": null, "begin": null, "end": null, "altitudeMode": null, "tessellate": -1, "extrude": 0, "visibility": -1, "drawOrder": null, "icon": null, "REG": "Biobío", "COM": "Alto Biobío", "LOC": "Ralco", "ZONA": "Z5", "NOM": "Zona Z5", "UPERM": "Equipamiento: culto y cultura, educacion, salud, servicios.", "UPROH": "Todos los usos no mencionados precedentemente.", "P_DO": "01/04/1999", "N_DOC": "160", "T_DO": "Resolución", "OBS": null }, "geometry": { "type": "Polygon", "coordinates": [ [ [ -71.637648175802198, -37.880872014003799 ], [ -71.637844329939, -37.8803538926934 ], [ -71.637365103667804, -37.880272801504198 ], [ -71.637211641709698, -37.880776900423299 ], [ -71.637648175802198, -37.880872014003799 ] ] ] } },
{ "type": "Feature", "properties": { "id": "monoparte.9", "Name": null, "description": null, "timestamp": null, "begin": null, "end": null, "altitudeMode": null, "tessellate": -1, "extrude": 0, "visibility": -1, "drawOrder": null, "icon": null, "REG": "Biobío", "COM": "Alto Biobío", "LOC": "Ralco", "ZONA": "Z9", "NOM": "Zona Z9", "UPERM": "Equipamiento: comercio, culto y cultura, esparcimiento, servicios.", "UPROH": "Todos los usos no mencionados precedentemente.", "P_DO": "01/04/1999", "N_DOC": "160", "T_DO": "Resolución", "OBS": null }, "geometry": { "type": "Polygon", "coordinates": [ [ [ -71.637397448087, -37.877644789456802 ], [ -71.638034536103405, -37.877698897975002 ], [ -71.637674623860406, -37.878718560355402 ], [ -71.636965352753606, -37.878552091397303 ], [ -71.636534271923196, -37.878989710643701 ], [ -71.636405617037695, -37.879316334467902 ], [ -71.637443944224302, -37.879531966191401 ], [ -71.637094262350402, -37.880522050445201 ], [ -71.636044716217697, -37.880232567595698 ], [ -71.636037811075596, -37.880250099484101 ], [ -71.636076935698199, -37.880335049908297 ], [ -71.636463894006994, -37.880726905958198 ], [ -71.636129188057893, -37.881125396621698 ], [ -71.636384372691495, -37.881195969317403 ], [ -71.635936546426606, -37.882524330324898 ], [ -71.636305494200101, -37.8826949455418 ], [ -71.636434533420996, -37.882770728131 ], [ -71.636454529347901, -37.882712551075301 ], [ -71.636925052125505, -37.881343585447503 ], [ -71.637810631834995, -37.881631279770701 ], [ -71.638211220258796, -37.881734119155702 ], [ -71.639280376825099, -37.8820085871955 ], [ -71.639292968258005, -37.882011819789902 ], [ -71.639298849046199, -37.881992426564899 ], [ -71.639492675581295, -37.8813532374731 ], [ -71.639492997574294, -37.881352449020298 ], [ -71.637648175802198, -37.880872014003799 ], [ -71.637211641709698, -37.880776900423299 ], [ -71.637365103667804, -37.880272801504198 ], [ -71.637844329939, -37.8803538926934 ], [ -71.638703238292507, -37.8779024178817 ], [ -71.638827509208895, -37.877619368498301 ], [ -71.638102915859406, -37.8774431624459 ], [ -71.637549994779903, -37.877324468991297 ], [ -71.637397448087, -37.877644789456802 ] ], [ [ -71.639090117262995, -37.881841569040098 ], [ -71.638827970124893, -37.881786401893599 ], [ -71.639265523493293, -37.881555770945099 ], [ -71.6392695858775, -37.881552502632097 ], [ -71.639306056772, -37.881590300723701 ], [ -71.639271255627307, -37.881694189216901 ], [ -71.639222708202198, -37.881835823779802 ], [ -71.639161770276203, -37.881853151513702 ], [ -71.639090117262995, -37.881841569040098 ] ] ] } },
{ "type": "Feature", "properties": { "id": "monoparte.10", "Name": null, "description": null, "timestamp": null, "begin": null, "end": null, "altitudeMode": null, "tessellate": -1, "extrude": 0, "visibility": -1, "drawOrder": null, "icon": null, "REG": "Biobío", "COM": "Alto Biobío", "LOC": "Ralco", "ZONA": "Z6", "NOM": "Zona Z6", "UPERM": "Equipamiento: culto y cultura, deporte, educacion, esparcimiento. Area verde.", "UPROH": "Todos los usos no mencionados precedentemente.", "P_DO": "01/04/1999", "N_DOC": "160", "T_DO": "Resolución", "OBS": null }, "geometry": { "type": "Polygon", "coordinates": [ [ [ -71.638102608728801, -37.877443953265299 ], [ -71.637549994779903, -37.877324468991297 ], [ -71.637397448087, -37.877644789456802 ], [ -71.636965352753606, -37.878552091397303 ], [ -71.637674623860406, -37.878718560355402 ], [ -71.638102608728801, -37.877443953265299 ] ] ] } },
{ "type": "Feature", "properties": { "id": "monoparte.11", "Name": null, "description": null, "timestamp": null, "begin": null, "end": null, "altitudeMode": null, "tessellate": -1, "extrude": 0, "visibility": -1, "drawOrder": null, "icon": null, "REG": "Biobío", "COM": "Alto Biobío", "LOC": "Ralco", "ZONA": "Z8", "NOM": "Zona Z8", "UPERM": "Equipamiento: educacion.", "UPROH": "Todos los usos no mencionados precedentemente.", "P_DO": "01/04/1999", "N_DOC": "160", "T_DO": "Resolución", "OBS": null }, "geometry": { "type": "Polygon", "coordinates": [ [ [ -71.636044716217697, -37.880232567595698 ], [ -71.637094262350402, -37.880522050445201 ], [ -71.637443944224302, -37.879531966191401 ], [ -71.636405617037695, -37.879316334467902 ], [ -71.636044716217697, -37.880232567595698 ] ] ] } },
{ "type": "Feature", "properties": { "id": "monoparte.12", "Name": null, "description": null, "timestamp": null, "begin": null, "end": null, "altitudeMode": null, "tessellate": -1, "extrude": 0, "visibility": -1, "drawOrder": null, "icon": null, "REG": "Biobío", "COM": "Alto Biobío", "LOC": "Ralco", "ZONA": "Area verde", "NOM": "Area verde", "UPERM": "Area verde.", "UPROH": "Todos los usos no mencionados precedentemente.", "P_DO": "01/04/1999", "N_DOC": "160", "T_DO": "Resolución", "OBS": null }, "geometry": { "type": "Polygon", "coordinates": [ [ [ -71.635983168822307, -37.875370824967597 ], [ -71.636002987227698, -37.875613929958 ], [ -71.636276969683394, -37.875685500335202 ], [ -71.636801760756896, -37.875762641382202 ], [ -71.636989729950201, -37.875174432784299 ], [ -71.637282983431504, -37.874568627643797 ], [ -71.637035051779904, -37.8747433523232 ], [ -71.635983168822307, -37.875370824967597 ] ] ] } },
{ "type": "Feature", "properties": { "id": "monoparte.13", "Name": null, "description": null, "timestamp": null, "begin": null, "end": null, "altitudeMode": null, "tessellate": -1, "extrude": 0, "visibility": -1, "drawOrder": null, "icon": null, "REG": "Biobío", "COM": "Alto Biobío", "LOC": "Ralco", "ZONA": "Area verde", "NOM": "Area verde", "UPERM": "Area verde.", "UPROH": "Todos los usos no mencionados precedentemente.", "P_DO": "01/04/1999", "N_DOC": "160", "T_DO": "Resolución", "OBS": null }, "geometry": { "type": "Polygon", "coordinates": [ [ [ -71.641624956452105, -37.877095296555801 ], [ -71.640856331407505, -37.8765408460782 ], [ -71.640849371034193, -37.876654603076098 ], [ -71.640834449868507, -37.877101030450802 ], [ -71.641365599176297, -37.877439840485899 ], [ -71.641553114201002, -37.8772581202713 ], [ -71.641624956452105, -37.877095296555801 ] ] ] } },
{ "type": "Feature", "properties": { "id": "monoparte.14", "Name": null, "description": null, "timestamp": null, "begin": null, "end": null, "altitudeMode": null, "tessellate": -1, "extrude": 0, "visibility": -1, "drawOrder": null, "icon": null, "REG": "Biobío", "COM": "Alto Biobío", "LOC": "Ralco", "ZONA": "Area verde", "NOM": "Area verde", "UPERM": "Area verde.", "UPROH": "Todos los usos no mencionados precedentemente.", "P_DO": "01/04/1999", "N_DOC": "160", "T_DO": "Resolución", "OBS": null }, "geometry": { "type": "Polygon", "coordinates": [ [ [ -71.645687541357901, -37.874401686626399 ], [ -71.645543454473895, -37.874507509992902 ], [ -71.645690941506302, -37.874507426498504 ], [ -71.645953574045905, -37.8746023509335 ], [ -71.6460981453221, -37.874688673983101 ], [ -71.646044713400599, -37.874463512363697 ], [ -71.646033845804695, -37.874279244551303 ], [ -71.645876119375302, -37.874325537677599 ], [ -71.645687541357901, -37.874401686626399 ] ] ] } },
{ "type": "Feature", "properties": { "id": "monoparte.15", "Name": null, "description": null, "timestamp": null, "begin": null, "end": null, "altitudeMode": null, "tessellate": -1, "extrude": 0, "visibility": -1, "drawOrder": null, "icon": null, "REG": "Biobío", "COM": "Alto Biobío", "LOC": "Ralco", "ZONA": "Area verde", "NOM": "Area verde", "UPERM": "Area verde.", "UPROH": "Todos los usos no mencionados precedentemente.", "P_DO": "01/04/1999", "N_DOC": "160", "T_DO": "Resolución", "OBS": null }, "geometry": { "type": "Polygon", "coordinates": [ [ [ -71.646918043524906, -37.875632381035203 ], [ -71.647219034037306, -37.875501074669103 ], [ -71.646904607567507, -37.875324105478697 ], [ -71.646918043524906, -37.875632381035203 ] ] ] } },
{ "type": "Feature", "properties": { "id": "monoparte.16", "Name": null, "description": null, "timestamp": null, "begin": null, "end": null, "altitudeMode": null, "tessellate": -1, "extrude": 0, "visibility": -1, "drawOrder": null, "icon": null, "REG": "Biobío", "COM": "Alto Biobío", "LOC": "Ralco", "ZONA": "Area verde", "NOM": "Area verde", "UPERM": "Area verde.", "UPROH": "Todos los usos no mencionados precedentemente.", "P_DO": "01/04/1999", "N_DOC": "160", "T_DO": "Resolución", "OBS": null }, "geometry": { "type": "Polygon", "coordinates": [ [ [ -71.642850720266395, -37.879100467742802 ], [ -71.642931813007195, -37.879102782836597 ], [ -71.643028407525307, -37.878962517423503 ], [ -71.643174487366593, -37.878657296685901 ], [ -71.643159820682598, -37.878651620565499 ], [ -71.642750537422501, -37.878525518498002 ], [ -71.642826284997199, -37.879042560606202 ], [ -71.642850720266395, -37.879100467742802 ] ] ] } },
{ "type": "Feature", "properties": { "id": "monoparte.17", "Name": null, "description": null, "timestamp": null, "begin": null, "end": null, "altitudeMode": null, "tessellate": -1, "extrude": 0, "visibility": -1, "drawOrder": null, "icon": null, "REG": "Biobío", "COM": "Alto Biobío", "LOC": "Ralco", "ZONA": "Area verde", "NOM": "Area verde", "UPERM": "Area verde.", "UPROH": "Todos los usos no mencionados precedentemente.", "P_DO": "01/04/1999", "N_DOC": "160", "T_DO": "Resolución", "OBS": null }, "geometry": { "type": "Polygon", "coordinates": [ [ [ -71.641434031547504, -37.882022069239397 ], [ -71.641809663088495, -37.882343862543003 ], [ -71.642001707757601, -37.881915650250399 ], [ -71.641960763810999, -37.881852531572598 ], [ -71.6418953981062, -37.881831241154202 ], [ -71.641434031547504, -37.882022069239397 ] ] ] } },
{ "type": "Feature", "properties": { "id": "monoparte.18", "Name": null, "description": null, "timestamp": null, "begin": null, "end": null, "altitudeMode": null, "tessellate": -1, "extrude": 0, "visibility": -1, "drawOrder": null, "icon": null, "REG": "Biobío", "COM": "Alto Biobío", "LOC": "Ralco", "ZONA": "Area verde", "NOM": "Area verde", "UPERM": "Area verde.", "UPROH": "Todos los usos no mencionados precedentemente.", "P_DO": "01/04/1999", "N_DOC": "160", "T_DO": "Resolución", "OBS": null }, "geometry": { "type": "Polygon", "coordinates": [ [ [ -71.639090117262995, -37.881841569040098 ], [ -71.639161770276203, -37.881853151513702 ], [ -71.639222708202198, -37.881835823779802 ], [ -71.639271255627307, -37.881694189216901 ], [ -71.639306056772, -37.881590300723701 ], [ -71.6392695858775, -37.881552502632097 ], [ -71.639265523493293, -37.881555770945099 ], [ -71.638827970124893, -37.881786401893599 ], [ -71.639090117262995, -37.881841569040098 ] ] ] } },
{ "type": "Feature", "properties": { "id": "monoparte.19", "Name": null, "description": null, "timestamp": null, "begin": null, "end": null, "altitudeMode": null, "tessellate": -1, "extrude": 0, "visibility": -1, "drawOrder": null, "icon": null, "REG": "Biobío", "COM": "Alto Biobío", "LOC": "Ralco", "ZONA": "Area verde", "NOM": "Area verde", "UPERM": "Area verde.", "UPROH": "Todos los usos no mencionados precedentemente.", "P_DO": "01/04/1999", "N_DOC": "160", "T_DO": "Resolución", "OBS": null }, "geometry": { "type": "Polygon", "coordinates": [ [ [ -71.636454529347901, -37.882712551075301 ], [ -71.636532098539604, -37.882802954429103 ], [ -71.636601799854205, -37.882857389389301 ], [ -71.636697265571101, -37.882874422780098 ], [ -71.637105011535297, -37.882638179206701 ], [ -71.638099254761698, -37.8820706840689 ], [ -71.638293276186005, -37.881904605239903 ], [ -71.638284945899599, -37.881823320810199 ], [ -71.638211220258796, -37.881734119155702 ], [ -71.637810631834995, -37.881631279770701 ], [ -71.636925052125505, -37.881343585447503 ], [ -71.636454529347901, -37.882712551075301 ] ] ] } },
{ "type": "Feature", "properties": { "id": "monoparte.20", "Name": null, "description": null, "timestamp": null, "begin": null, "end": null, "altitudeMode": null, "tessellate": -1, "extrude": 0, "visibility": -1, "drawOrder": null, "icon": null, "REG": "Biobío", "COM": "Alto Biobío", "LOC": "Ralco", "ZONA": "R2", "NOM": "Zona R2", "UPERM": "Area verde.", "UPROH": "Todos los usos no mencionados precedentemente.", "P_DO": "01/04/1999", "N_DOC": "160", "T_DO": "Resolución", "OBS": null }, "geometry": { "type": "Polygon", "coordinates": [ [ [ -71.635485054373305, -37.888260635859602 ], [ -71.637223650750997, -37.888858908647798 ], [ -71.637969302259705, -37.888224970339898 ], [ -71.638207198345697, -37.887755545393297 ], [ -71.638403219238597, -37.886870670004903 ], [ -71.638532301598204, -37.8857948801191 ], [ -71.638554438025196, -37.884632906254602 ], [ -71.638162305132994, -37.884994495121198 ], [ -71.637802538327904, -37.885449579256999 ], [ -71.6374399288473, -37.886035850777603 ], [ -71.637305021624002, -37.886259403327799 ], [ -71.637169263438196, -37.886459134274801 ], [ -71.637077314954098, -37.886622121315597 ], [ -71.636978702481699, -37.886809098195599 ], [ -71.636912059585995, -37.887049000934098 ], [ -71.636864345783096, -37.887187155740698 ], [ -71.636814295162594, -37.887259800100601 ], [ -71.6367127060184, -37.887363400731601 ], [ -71.636507400726202, -37.887511047183501 ], [ -71.636310247030593, -37.887676391453901 ], [ -71.636261258000303, -37.887778813809703 ], [ -71.636047799396295, -37.887908761346601 ], [ -71.635580331990795, -37.8880861219222 ], [ -71.635485054373305, -37.888260635859602 ] ] ] } },
{ "type": "Feature", "properties": { "id": "monoparte.21", "Name": null, "description": null, "timestamp": null, "begin": null, "end": null, "altitudeMode": null, "tessellate": -1, "extrude": 0, "visibility": -1, "drawOrder": null, "icon": null, "REG": "Biobío", "COM": "Alto Biobío", "LOC": "Ralco", "ZONA": "EX9", "NOM": "Zona EX9", "UPERM": "Residencial. Equipamiento: cientifico, comercio, culto y cultura, deporte, educacion, esparcimiento, salud, seguridad, servicios, social.", "UPROH": "Todos los usos no mencionados precedentemente.", "P_DO": "01/04/1999", "N_DOC": "160", "T_DO": "Resolución", "OBS": null }, "geometry": { "type": "Polygon", "coordinates": [ [ [ -71.635278459614796, -37.888189541714702 ], [ -71.635485054373305, -37.888260635859602 ], [ -71.635580331990795, -37.8880861219222 ], [ -71.636047799396295, -37.887908761346601 ], [ -71.636261258000303, -37.887778813809703 ], [ -71.636310247030593, -37.887676391453901 ], [ -71.636507400726202, -37.887511047183501 ], [ -71.6367127060184, -37.887363400731601 ], [ -71.636814295162594, -37.887259800100601 ], [ -71.636864345783096, -37.887187155740698 ], [ -71.636912059585995, -37.887049000934098 ], [ -71.636978702481699, -37.886809098195599 ], [ -71.637077314954098, -37.886622121315597 ], [ -71.637169263438196, -37.886459134274801 ], [ -71.637305021624002, -37.886259403327799 ], [ -71.6374399288473, -37.886035850777603 ], [ -71.637802538327904, -37.885449579256999 ], [ -71.638162305132994, -37.884994495121198 ], [ -71.638554438025196, -37.884632906254602 ], [ -71.638644696177096, -37.884496061832301 ], [ -71.637074468799199, -37.884770902598603 ], [ -71.636655328640799, -37.885755427418097 ], [ -71.634957259771994, -37.886237000849398 ], [ -71.634146634362196, -37.887800044183898 ], [ -71.635278459614796, -37.888189541714702 ] ] ] } },
{ "type": "Feature", "properties": { "id": "monoparte.22", "Name": null, "description": null, "timestamp": null, "begin": null, "end": null, "altitudeMode": null, "tessellate": -1, "extrude": 0, "visibility": -1, "drawOrder": null, "icon": null, "REG": "Biobío", "COM": "Alto Biobío", "LOC": "Ralco", "ZONA": "EX9", "NOM": "Zona EX9", "UPERM": "Residencial. Equipamiento: cientifico, comercio, culto y cultura, deporte, educacion, esparcimiento, salud, seguridad, servicios, social.", "UPROH": "Todos los usos no mencionados precedentemente.", "P_DO": "01/04/1999", "N_DOC": "160", "T_DO": "Resolución", "OBS": null }, "geometry": { "type": "Polygon", "coordinates": [ [ [ -71.633230126168897, -37.8769376646962 ], [ -71.632006274821705, -37.880243747492699 ], [ -71.633203082835294, -37.879960735426401 ], [ -71.633346836925497, -37.879943213259999 ], [ -71.633537710966294, -37.879981855122999 ], [ -71.634484897687599, -37.880620633086203 ], [ -71.634615683979007, -37.880520364166301 ], [ -71.635135951988602, -37.879926994290102 ], [ -71.635551073375893, -37.879421803947402 ], [ -71.635671760906504, -37.879094863911 ], [ -71.6363824836573, -37.877095376367997 ], [ -71.634793191391907, -37.877905809198502 ], [ -71.634114940526004, -37.8765978262389 ], [ -71.634061847176994, -37.876513645547597 ], [ -71.633230126168897, -37.8769376646962 ] ] ] } },
{ "type": "Feature", "properties": { "id": "monoparte.23", "Name": null, "description": null, "timestamp": null, "begin": null, "end": null, "altitudeMode": null, "tessellate": -1, "extrude": 0, "visibility": -1, "drawOrder": null, "icon": null, "REG": "Biobío", "COM": "Alto Biobío", "LOC": "Ralco", "ZONA": "Z2", "NOM": "Zona Z2", "UPERM": "Vivienda; Equipamiento de todo tipo, almacenamiento y talleres inofensivos, centro de servicio automotriz y expendio de combustibles, terminal de buses.", "UPROH": "Todos los usos no mencionados precedentemente.", "P_DO": "01/04/1999", "N_DOC": "160", "T_DO": "Resolución", "OBS": null }, "geometry": { "type": "Polygon", "coordinates": [ [ [ -71.637648175802198, -37.880872014003799 ], [ -71.639492997574294, -37.881352449020298 ], [ -71.640139806829595, -37.879765217820498 ], [ -71.6407212603402, -37.878865286853703 ], [ -71.640879727327999, -37.878505374204401 ], [ -71.641038390862093, -37.878217847180998 ], [ -71.639534937002097, -37.877803443052301 ], [ -71.638827509208895, -37.877619368498301 ], [ -71.638703238292507, -37.8779024178817 ], [ -71.637844329939, -37.8803538926934 ], [ -71.637648175802198, -37.880872014003799 ] ] ] } },
{ "type": "Feature", "properties": { "id": "monoparte.24", "Name": null, "description": null, "timestamp": null, "begin": null, "end": null, "altitudeMode": null, "tessellate": -1, "extrude": 0, "visibility": -1, "drawOrder": null, "icon": null, "REG": "Biobío", "COM": "Alto Biobío", "LOC": "Ralco", "ZONA": "Z2", "NOM": "Zona Z2", "UPERM": "Residencial. Equipamiento: cientifico, comercio, culto y cultura, deporte, educacion, esparcimiento, salud, seguridad, servicios, social. Actividades productivas. Infraestructura: transporte.", "UPROH": "Todos los usos no mencionados precedentemente.", "P_DO": "01/04/1999", "N_DOC": "160", "T_DO": "Resolución", "OBS": null }, "geometry": { "type": "Polygon", "coordinates": [ [ [ -71.635177355687901, -37.8819318283333 ], [ -71.635936546426606, -37.882524330324898 ], [ -71.636384372691495, -37.881195969317403 ], [ -71.636129188057893, -37.881125396621698 ], [ -71.636463894006994, -37.880726905958198 ], [ -71.636076935698199, -37.880335049908297 ], [ -71.636037811075596, -37.880250099484101 ], [ -71.636044716217697, -37.880232567595698 ], [ -71.636405617037695, -37.879316334467902 ], [ -71.636534271923196, -37.878989710643701 ], [ -71.636965352753606, -37.878552091397303 ], [ -71.637397448087, -37.877644789456802 ], [ -71.637549994779903, -37.877324468991297 ], [ -71.636889765004298, -37.877150761783398 ], [ -71.6363824836573, -37.877095376367997 ], [ -71.635671760906504, -37.879094863911 ], [ -71.635551073375893, -37.879421803947402 ], [ -71.635135951988602, -37.879926994290102 ], [ -71.634615683979007, -37.880520364166301 ], [ -71.634484897687599, -37.880620633086203 ], [ -71.633685576539193, -37.880965529844197 ], [ -71.633932427433606, -37.881294963405701 ], [ -71.6346559677702, -37.881509221880599 ], [ -71.635177355687901, -37.8819318283333 ] ] ] } }
]
}
