{
"type": "FeatureCollection",
"name": "IPT_08_PRC_Mulchen",
"crs": { "type": "name", "properties": { "name": "urn:ogc:def:crs:OGC:1.3:CRS84" } },
"features": [
{ "type": "Feature", "properties": { "id": "monoparte.1", "Name": null, "description": null, "timestamp": null, "begin": null, "end": null, "altitudeMode": null, "tessellate": -1, "extrude": 0, "visibility": -1, "drawOrder": null, "icon": null, "REG": "Biobío", "COM": "Mulchén", "LOC": "Mulchén", "ZONA": "ZR", "NOM": "Area especial ZR", "UPERM": "Equipamiento: deporte. Area verde.", "UPROH": "Todos los usos de suelo no mencionados como permitidos.", "P_DO": "26/06/1989", "N_DOC": "10", "T_DO": "Resolución", "OBS": "Publicacion PRC Mulchen. Res. V y U N°10. Fecha promulgacion 20.04.1989. Fecha publicacion D.O. 26.06.1989." }, "geometry": { "type": "Polygon", "coordinates": [ [ [ -72.255088261987297, -37.719965642804901 ], [ -72.255337935667896, -37.720230709464801 ], [ -72.255517868264505, -37.720427991341801 ], [ -72.255645943279504, -37.720568414123001 ], [ -72.255782409315401, -37.720709704854997 ], [ -72.255778291950705, -37.720752727104397 ], [ -72.255694156399898, -37.720750285159198 ], [ -72.255595781240203, -37.720748894500403 ], [ -72.255465939970506, -37.720747059075897 ], [ -72.255390061379501, -37.720764701806203 ], [ -72.255156313558004, -37.720819636613797 ], [ -72.2550063530622, -37.720857391068598 ], [ -72.254797438299605, -37.720909130518699 ], [ -72.254715392626693, -37.720929261442301 ], [ -72.254581065813497, -37.720962220826799 ], [ -72.254303969242599, -37.721146046524296 ], [ -72.254067494553993, -37.721300741776602 ], [ -72.2537758900922, -37.721489836853202 ], [ -72.253505966996102, -37.721630787442599 ], [ -72.253281671000593, -37.721756183196099 ], [ -72.253218892281694, -37.721791281047999 ], [ -72.253071308914002, -37.721849565271498 ], [ -72.253010187161493, -37.721873703858499 ], [ -72.252764585830604, -37.721970696809997 ], [ -72.252477913877797, -37.722051966500203 ], [ -72.252208885992701, -37.722121450149899 ], [ -72.251702099000795, -37.722164128349199 ], [ -72.251467551635898, -37.722184990901702 ], [ -72.251219518132004, -37.722207053291399 ], [ -72.251035034565703, -37.722223462359104 ], [ -72.251012404989098, -37.722374445532999 ], [ -72.250845591078402, -37.722367380204503 ], [ -72.250008052870101, -37.722361891094302 ], [ -72.249200927725596, -37.722434222916 ], [ -72.248037851539607, -37.722602183078699 ], [ -72.247289594804201, -37.722744392391299 ], [ -72.246711015578597, -37.722896222091599 ], [ -72.246083475314407, -37.723163821248498 ], [ -72.245211313333598, -37.723602641406202 ], [ -72.245030710980501, -37.723712449075798 ], [ -72.244693853293896, -37.723917260237101 ], [ -72.244341322870298, -37.724091454929997 ], [ -72.244190944430599, -37.724152809915601 ], [ -72.243967427051203, -37.724394964520897 ], [ -72.243700816525205, -37.7246812142143 ], [ -72.243447874568204, -37.725074358657203 ], [ -72.243305287426693, -37.725314283070801 ], [ -72.243220972356596, -37.725445330737699 ], [ -72.243127040060998, -37.7255623403545 ], [ -72.242997136290299, -37.7256803404942 ], [ -72.242873419548602, -37.725733807770503 ], [ -72.242695745747397, -37.725788760673503 ], [ -72.2424017878363, -37.725861216982402 ], [ -72.242303801376195, -37.725885369538197 ], [ -72.242144112368706, -37.725939825554399 ], [ -72.241716106052905, -37.726104172527897 ], [ -72.240398036397096, -37.7264360410338 ], [ -72.239462408207402, -37.726728769524001 ], [ -72.239453740186306, -37.726805290164002 ], [ -72.239440555723803, -37.727053569307103 ], [ -72.239298328818293, -37.727095622281297 ], [ -72.239360825584598, -37.727427637653001 ], [ -72.239481669204295, -37.727996428528499 ], [ -72.239715417154997, -37.728676536870999 ], [ -72.239952437516806, -37.729156313783101 ], [ -72.240406547762603, -37.729658722345697 ], [ -72.240666810888996, -37.730120694626997 ], [ -72.240968369803994, -37.730703580941402 ], [ -72.241233959771705, -37.731287456388799 ], [ -72.2414337794348, -37.731739648079703 ], [ -72.241519027470005, -37.732042429031402 ], [ -72.241650579312207, -37.732305794636702 ], [ -72.241754824599099, -37.732493629699903 ], [ -72.241788368194804, -37.732712016742802 ], [ -72.241759875475495, -37.732884436083701 ], [ -72.241695406678105, -37.7330578449033 ], [ -72.241607787542506, -37.733250961729198 ], [ -72.241503603547002, -37.7333396467073 ], [ -72.241243111305494, -37.733423099183199 ], [ -72.2409429033046, -37.733421827143701 ], [ -72.240544683916696, -37.733375575136201 ], [ -72.240059615482906, -37.733264964256797 ], [ -72.239489776518695, -37.733137613567401 ], [ -72.238584951136204, -37.732762021314201 ], [ -72.238199558968901, -37.732734479244399 ], [ -72.237960557063801, -37.732760121200798 ], [ -72.237710808062602, -37.732814664769499 ], [ -72.237665332819802, -37.732873126507599 ], [ -72.237425546907303, -37.733156241188802 ], [ -72.237044393538298, -37.7337769760355 ], [ -72.237076671546305, -37.734036303332701 ], [ -72.237515067466802, -37.733898569792999 ], [ -72.237669483830302, -37.733722690035002 ], [ -72.237626658687404, -37.733566536137403 ], [ -72.237725244394298, -37.733349281878198 ], [ -72.238039055517604, -37.733111807562203 ], [ -72.238221421563793, -37.733164004153203 ], [ -72.239121842160799, -37.733410994685102 ], [ -72.239799844287504, -37.733678399728802 ], [ -72.240725939248193, -37.733853157153597 ], [ -72.241874030016703, -37.7337500400346 ], [ -72.242312280856098, -37.733704273280203 ], [ -72.242489689450096, -37.733486039598397 ], [ -72.242558314390706, -37.733407868759201 ], [ -72.242613282492997, -37.733291931556899 ], [ -72.242712060934906, -37.733079436885298 ], [ -72.242736810520896, -37.732821303430804 ], [ -72.242730572625106, -37.732678446866998 ], [ -72.242688361352506, -37.732536580011697 ], [ -72.242582866418502, -37.7323201745631 ], [ -72.2424389034054, -37.732047616882802 ], [ -72.242249406084397, -37.731557002239498 ], [ -72.241748844283507, -37.730540976056403 ], [ -72.241277267269993, -37.729638573235903 ], [ -72.240908749951501, -37.7291719531773 ], [ -72.240668399848104, -37.728615988686798 ], [ -72.240507476165703, -37.728229471301702 ], [ -72.240239715896493, -37.727044932730401 ], [ -72.242410729189004, -37.7264512030848 ], [ -72.242955227914095, -37.726274110742501 ], [ -72.243242932986007, -37.7259896656441 ], [ -72.2437757148505, -37.725269382462599 ], [ -72.244341546285497, -37.7244814411116 ], [ -72.244660617824707, -37.724336618070197 ], [ -72.244788855152606, -37.724278412366502 ], [ -72.245021587270102, -37.724109899596101 ], [ -72.245734778211101, -37.723727906587101 ], [ -72.246510310280797, -37.723344190793497 ], [ -72.247360686005905, -37.723025152503901 ], [ -72.248135035650805, -37.722889373987101 ], [ -72.248803971928297, -37.722813710701899 ], [ -72.249459667616406, -37.722709803317898 ], [ -72.250102235268798, -37.722649114433104 ], [ -72.2501506836971, -37.722644538378702 ], [ -72.250571422941405, -37.7226452871828 ], [ -72.252047491562905, -37.722647906303798 ], [ -72.2526753650328, -37.722579959064902 ], [ -72.252925275307206, -37.722530147892897 ], [ -72.253101792470105, -37.722471933115003 ], [ -72.253351277533397, -37.7223896548211 ], [ -72.253759894227798, -37.722194812378902 ], [ -72.254044656436804, -37.722050945580698 ], [ -72.254310339635893, -37.721916717686 ], [ -72.254610435626901, -37.721765101884401 ], [ -72.254633379607995, -37.721753509371702 ], [ -72.254747040333001, -37.721687604282799 ], [ -72.254803094648594, -37.721655101555001 ], [ -72.255065067618503, -37.7215031985141 ], [ -72.255413089660905, -37.721398226077397 ], [ -72.255468604921205, -37.721380329958201 ], [ -72.2557164112702, -37.721300448271002 ], [ -72.256031658789595, -37.721303651582197 ], [ -72.256304664086102, -37.721452788969899 ], [ -72.256434101249695, -37.721584540113199 ], [ -72.256476075933804, -37.721633473040498 ], [ -72.256695307308902, -37.721889047899097 ], [ -72.256813616028097, -37.722026968906 ], [ -72.257182759090597, -37.722315281465903 ], [ -72.257281598267696, -37.722379294722003 ], [ -72.257342799609603, -37.722406207541397 ], [ -72.257518156684199, -37.722353133952303 ], [ -72.257442154436504, -37.722427178170598 ], [ -72.257367054897202, -37.7225003423587 ], [ -72.257346237982603, -37.722517112067401 ], [ -72.257098924484495, -37.722716341469699 ], [ -72.257006794251296, -37.722750013313103 ], [ -72.256862002085199, -37.722802932818198 ], [ -72.2568242081677, -37.7228167464786 ], [ -72.256664113443904, -37.722875257767001 ], [ -72.256590877658994, -37.722902025259401 ], [ -72.256548228594198, -37.722913889163401 ], [ -72.256314516261597, -37.722978900870899 ], [ -72.256181715407195, -37.723015842744402 ], [ -72.256141707737399, -37.723025191856998 ], [ -72.256035653070896, -37.723049975232698 ], [ -72.255884032906906, -37.723085407226201 ], [ -72.255851069598904, -37.723360455771001 ], [ -72.256210243871095, -37.723338606286802 ], [ -72.256334317065196, -37.7234305272993 ], [ -72.256642985960397, -37.723759624416601 ], [ -72.257300689577406, -37.723211359827303 ], [ -72.257872592154698, -37.722736657671 ], [ -72.258998594993102, -37.721895009388803 ], [ -72.259736280174593, -37.721414197890802 ], [ -72.260056863098995, -37.721333809904003 ], [ -72.259693506947897, -37.720989547827401 ], [ -72.259795804283002, -37.720927121166298 ], [ -72.261831582561598, -37.720131774531502 ], [ -72.261928819229496, -37.720295947758302 ], [ -72.262204666310197, -37.721110718486202 ], [ -72.262781685849703, -37.722291401723098 ], [ -72.264358900359994, -37.7271106450346 ], [ -72.265292072380205, -37.729859266674701 ], [ -72.265734174948904, -37.729772490123104 ], [ -72.265605483163, -37.729457375566 ], [ -72.263585812854998, -37.723382233717203 ], [ -72.262149516688595, -37.719541198497197 ], [ -72.262051512609901, -37.719496237778202 ], [ -72.261062678152101, -37.719666651041102 ], [ -72.259657555252701, -37.719924860908698 ], [ -72.258635014149405, -37.720088019638702 ], [ -72.256956217528, -37.720011252896398 ], [ -72.255686679461206, -37.719596081773098 ], [ -72.254359720833605, -37.718898544334003 ], [ -72.2538750449433, -37.718520992497702 ], [ -72.253720334175298, -37.718277351073702 ], [ -72.253516416687305, -37.718006462264498 ], [ -72.253283103694798, -37.717612427598198 ], [ -72.253087009572397, -37.717245970899299 ], [ -72.252583276925407, -37.7167068398319 ], [ -72.252258230361903, -37.7164106890935 ], [ -72.251891386219498, -37.715982197226403 ], [ -72.251378181554799, -37.715500534352302 ], [ -72.251112090895802, -37.715267188785198 ], [ -72.250975221606396, -37.715322029176598 ], [ -72.250971369701901, -37.715322929253503 ], [ -72.251051998067297, -37.715437669694403 ], [ -72.251244327428097, -37.7157184179841 ], [ -72.251405933248904, -37.715914196235701 ], [ -72.251503035983404, -37.716075998450499 ], [ -72.251620309880906, -37.716287304019701 ], [ -72.251984805689005, -37.716799293671897 ], [ -72.252098332586002, -37.716924884302202 ], [ -72.252210295903495, -37.717014761376198 ], [ -72.252352048384395, -37.717168178859197 ], [ -72.252559556261801, -37.717384142436899 ], [ -72.252716553841594, -37.717680165747097 ], [ -72.2528663619388, -37.717811905382199 ], [ -72.253126886972495, -37.718004948837802 ], [ -72.253314539769903, -37.718178550959998 ], [ -72.253618539905005, -37.718542027026402 ], [ -72.253811747465505, -37.718636808887801 ], [ -72.253822308889198, -37.718646620511798 ], [ -72.254252819303204, -37.719046556345802 ], [ -72.2544040772664, -37.719250770680397 ], [ -72.254563751028201, -37.719395657957698 ], [ -72.254597835548097, -37.719426585847799 ], [ -72.254667322620406, -37.719505714503498 ], [ -72.254767407247996, -37.719598301213203 ], [ -72.254901012972397, -37.719771010349099 ], [ -72.255088261987297, -37.719965642804901 ] ] ] } },
{ "type": "Feature", "properties": { "id": "monoparte.2", "Name": null, "description": null, "timestamp": null, "begin": null, "end": null, "altitudeMode": null, "tessellate": -1, "extrude": 0, "visibility": -1, "drawOrder": null, "icon": null, "REG": "Biobío", "COM": "Mulchén", "LOC": "Mulchén", "ZONA": "ZR", "NOM": "Area especial ZR", "UPERM": "Equipamiento: deporte. Area verde.", "UPROH": "Todos los usos de suelo no mencionados como permitidos.", "P_DO": "26/06/1989", "N_DOC": "10", "T_DO": "Resolución", "OBS": "Publicacion PRC Mulchen. Res. V y U N°10. Fecha promulgacion 20.04.1989. Fecha publicacion D.O. 26.06.1989." }, "geometry": { "type": "Polygon", "coordinates": [ [ [ -72.237067726320006, -37.709867691887297 ], [ -72.236479921805199, -37.710012571578503 ], [ -72.235976426666994, -37.7100264059697 ], [ -72.235726543905997, -37.710076180717202 ], [ -72.235260256487607, -37.710117595651099 ], [ -72.234937201501097, -37.710140771943102 ], [ -72.234524857875002, -37.710180702352098 ], [ -72.234007107587004, -37.710280737220302 ], [ -72.233264325349197, -37.711001973319398 ], [ -72.231998205209806, -37.712109444462598 ], [ -72.230913713094793, -37.712840042747601 ], [ -72.230684283257702, -37.712946458457601 ], [ -72.230466650493099, -37.713324302746997 ], [ -72.230296155983098, -37.713958308877899 ], [ -72.230121934951796, -37.7145065986155 ], [ -72.229979332331197, -37.714953900620799 ], [ -72.229812555743294, -37.715673621562999 ], [ -72.229502529571306, -37.716411572417002 ], [ -72.229891361314998, -37.716658362818599 ], [ -72.230014785102199, -37.717012551472699 ], [ -72.230434644714606, -37.717558849975703 ], [ -72.230669082744797, -37.717981507235798 ], [ -72.230940732731, -37.718431748898702 ], [ -72.231151602239706, -37.718726324635099 ], [ -72.231312868040206, -37.719122382127502 ], [ -72.231474135699003, -37.719518439297502 ], [ -72.231621769598206, -37.720014990570498 ], [ -72.231704890274997, -37.720270162709603 ], [ -72.231553591140795, -37.720517463578098 ], [ -72.231763848265103, -37.720797752800998 ], [ -72.231849455790396, -37.7211100681155 ], [ -72.232320201093401, -37.721583448059199 ], [ -72.232514965345899, -37.721921372569298 ], [ -72.232621670030298, -37.722304621654899 ], [ -72.232639072233198, -37.722704625717597 ], [ -72.232603762341498, -37.723134682438697 ], [ -72.232466717446201, -37.723295776769703 ], [ -72.2323836265344, -37.723455389168699 ], [ -72.232288144365697, -37.723744068488202 ], [ -72.232261495696093, -37.723959343191602 ], [ -72.2322199688588, -37.724246541564298 ], [ -72.232136877621201, -37.724406153809497 ], [ -72.231945251503404, -37.724554441778203 ], [ -72.231770366303195, -37.724673665164097 ], [ -72.231614709936295, -37.7248209655124 ], [ -72.2314596742942, -37.724982551517897 ], [ -72.231258135505897, -37.725317048847103 ], [ -72.230951166330499, -37.725711650000797 ], [ -72.230924513470001, -37.725926924551203 ], [ -72.230620645066907, -37.726392954259801 ], [ -72.230450724033105, -37.726626462696103 ], [ -72.230337244933096, -37.726915634222102 ], [ -72.2301574093201, -37.727335350865602 ], [ -72.230109688718599, -37.727894474215198 ], [ -72.229782256770804, -37.728647205961003 ], [ -72.229617296930201, -37.728995000302398 ], [ -72.229438075201799, -37.729429002862901 ], [ -72.229382896342102, -37.729816694902901 ], [ -72.229354996208798, -37.730003397537402 ], [ -72.229196273923193, -37.730172951813202 ], [ -72.229044327414798, -37.730405964556198 ], [ -72.228790966914303, -37.730584547128601 ], [ -72.228547220159896, -37.730777167585501 ], [ -72.228359605491406, -37.731018309272002 ], [ -72.227996153978296, -37.731357240053399 ], [ -72.227760154180103, -37.731521040805603 ], [ -72.227270480159106, -37.732063669576299 ], [ -72.226922213343698, -37.732337818466597 ], [ -72.226638720400601, -37.732428295690497 ], [ -72.225867408154002, -37.732215819650499 ], [ -72.227228955834207, -37.734148591148099 ], [ -72.227326473446794, -37.7341260467567 ], [ -72.227342871652894, -37.733945504392103 ], [ -72.227308990613295, -37.733778964400798 ], [ -72.227441720718701, -37.733517874672302 ], [ -72.227661723998096, -37.733358803342298 ], [ -72.228814567225797, -37.732812294085498 ], [ -72.229461482367896, -37.732503727934898 ], [ -72.229749480631398, -37.732362335474001 ], [ -72.229902266558994, -37.732286630501598 ], [ -72.230861696236005, -37.728909289044502 ], [ -72.230980518419699, -37.728190883068898 ], [ -72.231357306422794, -37.728228221285498 ], [ -72.2315531666097, -37.727901031481402 ], [ -72.231895998895496, -37.727364799667797 ], [ -72.232074153968796, -37.726768723255901 ], [ -72.232335411625598, -37.726151294841799 ], [ -72.232355835713506, -37.725241069104499 ], [ -72.232388492280194, -37.725163890413299 ], [ -72.232407501360797, -37.7250489455867 ], [ -72.232401286143798, -37.724906086442502 ], [ -72.232451292993602, -37.7246758677109 ], [ -72.232527767856695, -37.724502133982597 ], [ -72.2325802613679, -37.724329057577897 ], [ -72.232797691000101, -37.723808184388801 ], [ -72.233049844995406, -37.723257751772998 ], [ -72.233211435009807, -37.722557240337999 ], [ -72.233295750477495, -37.722287937715997 ], [ -72.232467902657007, -37.720918512304202 ], [ -72.232048259660701, -37.720930029663897 ], [ -72.231943845996199, -37.720185329099998 ], [ -72.231862773062502, -37.719701254638601 ], [ -72.231363685503197, -37.718713744921402 ], [ -72.230831127330006, -37.717784362523503 ], [ -72.2301571984097, -37.716916066407897 ], [ -72.229981057131198, -37.716453668391203 ], [ -72.230142417918302, -37.715747445488802 ], [ -72.230307334777393, -37.715123128466601 ], [ -72.230529296782606, -37.714430499018803 ], [ -72.230773972832694, -37.7134321170861 ], [ -72.230864500074404, -37.7133056755453 ], [ -72.231024888145299, -37.7131296398898 ], [ -72.231807829700799, -37.712640929825596 ], [ -72.232502865638196, -37.712063087862802 ], [ -72.233830147953498, -37.710844276858801 ], [ -72.234014086067901, -37.710658056629001 ], [ -72.234093858757504, -37.710560512923102 ], [ -72.234332791629001, -37.710534881062998 ], [ -72.234632493773503, -37.710526650646798 ], [ -72.235551014937201, -37.710396533265403 ], [ -72.236064013986194, -37.7103252279475 ], [ -72.236744013588293, -37.7102302612332 ], [ -72.237662111400695, -37.710090603245398 ], [ -72.238380559250004, -37.7100517817724 ], [ -72.239186242097503, -37.710086838272801 ], [ -72.240232099241894, -37.710124817041802 ], [ -72.241531685645, -37.710146268695802 ], [ -72.241616431251501, -37.710163007108697 ], [ -72.241662777767104, -37.710400113375499 ], [ -72.242842584067603, -37.710482058558803 ], [ -72.244038120298896, -37.710649376683897 ], [ -72.245143577565798, -37.710952657268201 ], [ -72.2457942863402, -37.711284497515997 ], [ -72.246482988822393, -37.711679519431399 ], [ -72.246736478546694, -37.711987194668303 ], [ -72.248112525884395, -37.712988596377897 ], [ -72.248163151952795, -37.712708857298203 ], [ -72.247377309464795, -37.712029686757703 ], [ -72.2469903212573, -37.711825812487902 ], [ -72.246451367171304, -37.711440188671901 ], [ -72.246231838846796, -37.711360422415197 ], [ -72.246024677469507, -37.711151589179998 ], [ -72.245904043021596, -37.711101588284002 ], [ -72.245474612090007, -37.710923598362399 ], [ -72.244816034738903, -37.7106842915858 ], [ -72.243908208557102, -37.710509058515001 ], [ -72.242114909644997, -37.710258074966099 ], [ -72.241761416004906, -37.7099960503799 ], [ -72.241487951031303, -37.709917759596102 ], [ -72.240030174207206, -37.709929264017099 ], [ -72.238779119211202, -37.709892158255798 ], [ -72.238382272559207, -37.709874464453897 ], [ -72.237948217794795, -37.709829186434703 ], [ -72.237622677843007, -37.709795226830003 ], [ -72.237067726320006, -37.709867691887297 ] ] ] } },
{ "type": "Feature", "properties": { "id": "monoparte.3", "Name": null, "description": null, "timestamp": null, "begin": null, "end": null, "altitudeMode": null, "tessellate": -1, "extrude": 0, "visibility": -1, "drawOrder": null, "icon": null, "REG": "Biobío", "COM": "Mulchén", "LOC": "Mulchén", "ZONA": "ZR", "NOM": "Area especial ZR", "UPERM": "Equipamiento: deporte. Area verde.", "UPROH": "Todos los usos de suelo no mencionados como permitidos.", "P_DO": "26/06/1989", "N_DOC": "10", "T_DO": "Resolución", "OBS": "Publicacion PRC Mulchen. Res. V y U N°10. Fecha promulgacion 20.04.1989. Fecha publicacion D.O. 26.06.1989." }, "geometry": { "type": "Polygon", "coordinates": [ [ [ -72.2582488661062, -37.7059184543089 ], [ -72.258321623049696, -37.705935512336801 ], [ -72.258460318001596, -37.705814039121201 ], [ -72.258586703936402, -37.7057070784711 ], [ -72.258067814412897, -37.704120471473701 ], [ -72.256427766102107, -37.699050623972497 ], [ -72.255951309679105, -37.6988457629758 ], [ -72.256400442847806, -37.700250070841903 ], [ -72.257832938061199, -37.704580368235597 ], [ -72.257952498368297, -37.7049476391159 ], [ -72.257954569986694, -37.704954001192696 ], [ -72.2582488661062, -37.7059184543089 ] ] ] } },
{ "type": "Feature", "properties": { "id": "monoparte.4", "Name": null, "description": null, "timestamp": null, "begin": null, "end": null, "altitudeMode": null, "tessellate": -1, "extrude": 0, "visibility": -1, "drawOrder": null, "icon": null, "REG": "Biobío", "COM": "Mulchén", "LOC": "Mulchén", "ZONA": "ZR", "NOM": "Area especial ZR", "UPERM": "Equipamiento: deporte. Area verde.", "UPROH": "Todos los usos de suelo no mencionados como permitidos.", "P_DO": "26/06/1989", "N_DOC": "10", "T_DO": "Resolución", "OBS": "Publicacion PRC Mulchen. Res. V y U N°10. Fecha promulgacion 20.04.1989. Fecha publicacion D.O. 26.06.1989." }, "geometry": { "type": "Polygon", "coordinates": [ [ [ -72.2561448985889, -37.7029408828149 ], [ -72.254600308961201, -37.703946331936599 ], [ -72.253740264714807, -37.704498309918499 ], [ -72.252717745085803, -37.705313878672698 ], [ -72.251882129950701, -37.705990704166801 ], [ -72.250697974892404, -37.707036858427301 ], [ -72.251022417220497, -37.7079386260231 ], [ -72.250845104284394, -37.708000731478997 ], [ -72.250737841851802, -37.708017994782203 ], [ -72.250307683180907, -37.708158912609399 ], [ -72.249654724389401, -37.708362547085002 ], [ -72.249229425192993, -37.708364797874999 ], [ -72.248952203964606, -37.7083533213031 ], [ -72.249130543727205, -37.708811417695799 ], [ -72.249665223769696, -37.7088460847243 ], [ -72.249899988370103, -37.709411721959398 ], [ -72.250665245020301, -37.709414441599797 ], [ -72.250415491520798, -37.7088492196551 ], [ -72.251333190644601, -37.7089073233048 ], [ -72.251332500359595, -37.708905308878698 ], [ -72.251332629788806, -37.708904923296103 ], [ -72.251394449984701, -37.708895915303799 ], [ -72.251395484437595, -37.708895764215796 ], [ -72.251396863518494, -37.708817537573097 ], [ -72.251406488897203, -37.708685184768903 ], [ -72.251412685315302, -37.708666748420001 ], [ -72.251476651792601, -37.708407262911898 ], [ -72.251119378370404, -37.7084175532393 ], [ -72.251053985231593, -37.708354834646002 ], [ -72.2512850323224, -37.707310480368697 ], [ -72.252837862523506, -37.706071734876197 ], [ -72.254251524597606, -37.704892416096399 ], [ -72.254629215876093, -37.704636536430399 ], [ -72.256335542246404, -37.703547631374299 ], [ -72.2563839067641, -37.703555829191401 ], [ -72.256798988250196, -37.704812539606898 ], [ -72.256864044263097, -37.705041728528101 ], [ -72.254823921945601, -37.705506636615297 ], [ -72.254461240916797, -37.705607818069801 ], [ -72.254206448447704, -37.7057038021835 ], [ -72.254013638430806, -37.705779125162998 ], [ -72.253733612160005, -37.705936706215802 ], [ -72.253349752600499, -37.706168795925898 ], [ -72.252859545866798, -37.706593819084198 ], [ -72.252578443018706, -37.706887523584399 ], [ -72.252168358822203, -37.707399726160098 ], [ -72.252023030988795, -37.7077613621354 ], [ -72.251870191877202, -37.708284299922298 ], [ -72.251732623326106, -37.709011490259897 ], [ -72.251827967323294, -37.709378375753303 ], [ -72.2520952110618, -37.710259060508697 ], [ -72.252532150047998, -37.711451864973498 ], [ -72.252598405877194, -37.711791802247802 ], [ -72.252484774367403, -37.712135209882 ], [ -72.252278902106198, -37.712321529635197 ], [ -72.252077186834001, -37.712374776013199 ], [ -72.251656351410801, -37.712357788858498 ], [ -72.2509755237636, -37.712433795816402 ], [ -72.250654451543696, -37.7124960455238 ], [ -72.250764257856204, -37.712694858271803 ], [ -72.251421035490296, -37.712638779089303 ], [ -72.252436282588704, -37.712524929256801 ], [ -72.252577224494203, -37.712454290776598 ], [ -72.252805014183195, -37.711976808222403 ], [ -72.252776556323198, -37.711517545695401 ], [ -72.252054223443295, -37.709402348074597 ], [ -72.252023843569901, -37.708868143558597 ], [ -72.2520685690059, -37.708472534057698 ], [ -72.252184579786999, -37.707869145769003 ], [ -72.252618437541898, -37.7071857345721 ], [ -72.253015255468895, -37.706714903471301 ], [ -72.253475737679395, -37.7063222039274 ], [ -72.253974212147796, -37.706027830527098 ], [ -72.254429711673296, -37.7057906807919 ], [ -72.254859628179304, -37.705664283898301 ], [ -72.256082103447, -37.705379580106602 ], [ -72.257315355729801, -37.705156613410303 ], [ -72.256884968580394, -37.703898593025997 ], [ -72.256096314181704, -37.7015103655364 ], [ -72.255082969224006, -37.698427232618499 ], [ -72.254669114157807, -37.698273636579302 ], [ -72.254825051821598, -37.698903054308197 ], [ -72.2561448985889, -37.7029408828149 ] ] ] } },
{ "type": "Feature", "properties": { "id": "monoparte.5", "Name": null, "description": null, "timestamp": null, "begin": null, "end": null, "altitudeMode": null, "tessellate": -1, "extrude": 0, "visibility": -1, "drawOrder": null, "icon": null, "REG": "Biobío", "COM": "Mulchén", "LOC": "Mulchén", "ZONA": "ZR", "NOM": "Area especial ZR", "UPERM": "Equipamiento: deporte. Area verde.", "UPROH": "Todos los usos de suelo no mencionados como permitidos.", "P_DO": "26/06/1989", "N_DOC": "10", "T_DO": "Resolución", "OBS": "Publicacion PRC Mulchen. Res. V y U N°10. Fecha promulgacion 20.04.1989. Fecha publicacion D.O. 26.06.1989." }, "geometry": { "type": "Polygon", "coordinates": [ [ [ -72.250149158873796, -37.700181804041797 ], [ -72.2501528672787, -37.700525808282798 ], [ -72.251707344847603, -37.698724787592703 ], [ -72.252439434926899, -37.6978774244402 ], [ -72.251564106069395, -37.697839937238903 ], [ -72.250130039762197, -37.699581418579598 ], [ -72.250149158873796, -37.700181804041797 ] ] ] } },
{ "type": "Feature", "properties": { "id": "monoparte.6", "Name": null, "description": null, "timestamp": null, "begin": null, "end": null, "altitudeMode": null, "tessellate": -1, "extrude": 0, "visibility": -1, "drawOrder": null, "icon": null, "REG": "Biobío", "COM": "Mulchén", "LOC": "Mulchén", "ZONA": "ZE3", "NOM": "Area especial 3", "UPERM": "Equipamiento: culto y cultura, deporte, esparcimiento. Area verde.", "UPROH": "Todos los usos de suelo no mencionados como permitidos.", "P_DO": "26/06/1989", "N_DOC": "10", "T_DO": "Resolución", "OBS": "Publicacion PRC Mulchen. Res. V y U N°10. Fecha promulgacion 20.04.1989. Fecha publicacion D.O. 26.06.1989." }, "geometry": { "type": "Polygon", "coordinates": [ [ [ -72.248163151952795, -37.712708857298203 ], [ -72.248112525884395, -37.712988596377897 ], [ -72.246736478546694, -37.711987194668303 ], [ -72.246482988822393, -37.711679519431399 ], [ -72.2457942863402, -37.711284497515997 ], [ -72.245692948453097, -37.711453376333097 ], [ -72.246132714483807, -37.712728516369097 ], [ -72.246857761516395, -37.712565502111097 ], [ -72.247822117887594, -37.715132500749597 ], [ -72.249366485740595, -37.714765703852699 ], [ -72.249680116215401, -37.715624758397198 ], [ -72.250975221606396, -37.715322029176598 ], [ -72.251112090895802, -37.715267188785198 ], [ -72.248869373310797, -37.713300379663302 ], [ -72.249258744303404, -37.713146608855801 ], [ -72.249898201712995, -37.712947796517099 ], [ -72.250595930939397, -37.712709230082901 ], [ -72.250764257856204, -37.712694858271803 ], [ -72.250351567591807, -37.711947642687598 ], [ -72.248163151952795, -37.712708857298203 ] ] ] } },
{ "type": "Feature", "properties": { "id": "monoparte.7", "Name": null, "description": null, "timestamp": null, "begin": null, "end": null, "altitudeMode": null, "tessellate": -1, "extrude": 0, "visibility": -1, "drawOrder": null, "icon": null, "REG": "Biobío", "COM": "Mulchén", "LOC": "Mulchén", "ZONA": "ZI", "NOM": "Area consolidada ZI", "UPERM": "Equipamiento: deportes, servicios. Actividades productivas. Area verde.", "UPROH": "Todos los usos de suelo no mencionados como permitidos.", "P_DO": "26/06/1989", "N_DOC": "10", "T_DO": "Resolución", "OBS": "Publicacion PRC Mulchen. Res. V y U N°10. Fecha promulgacion 20.04.1989. Fecha publicacion D.O. 26.06.1989." }, "geometry": { "type": "Polygon", "coordinates": [ [ [ -72.249130543727205, -37.708811417695799 ], [ -72.250351567591807, -37.711947642687598 ], [ -72.250654451543696, -37.7124960455238 ], [ -72.2509755237636, -37.712433795816402 ], [ -72.251656351410801, -37.712357788858498 ], [ -72.252077186834001, -37.712374776013199 ], [ -72.252278902106198, -37.712321529635197 ], [ -72.252484774367403, -37.712135209882 ], [ -72.252598405877194, -37.711791802247802 ], [ -72.252532150047998, -37.711451864973498 ], [ -72.2520952110618, -37.710259060508697 ], [ -72.251827967323294, -37.709378375753303 ], [ -72.251417655437905, -37.7091089316881 ], [ -72.251394449984701, -37.708895915303799 ], [ -72.251332629788806, -37.708904923296103 ], [ -72.251332500359595, -37.708905308878698 ], [ -72.251333190644601, -37.7089073233048 ], [ -72.250415491520798, -37.7088492196551 ], [ -72.250665245020301, -37.709414441599797 ], [ -72.249899988370103, -37.709411721959398 ], [ -72.249665223769696, -37.7088460847243 ], [ -72.249130543727205, -37.708811417695799 ] ] ] } },
{ "type": "Feature", "properties": { "id": "monoparte.8", "Name": null, "description": null, "timestamp": null, "begin": null, "end": null, "altitudeMode": null, "tessellate": -1, "extrude": 0, "visibility": -1, "drawOrder": null, "icon": null, "REG": "Biobío", "COM": "Mulchén", "LOC": "Mulchén", "ZONA": "ZI", "NOM": "Area consolidada ZI", "UPERM": "Equipamiento: deportes, servicios. Actividades productivas. Area verde.", "UPROH": "Todos los usos de suelo no mencionados como permitidos.", "P_DO": "26/06/1989", "N_DOC": "10", "T_DO": "Resolución", "OBS": "Publicacion PRC Mulchen. Res. V y U N°10. Fecha promulgacion 20.04.1989. Fecha publicacion D.O. 26.06.1989." }, "geometry": { "type": "Polygon", "coordinates": [ [ [ -72.258067814412897, -37.704120471473701 ], [ -72.258586703936402, -37.7057070784711 ], [ -72.259221502177198, -37.7052163645997 ], [ -72.261142989093997, -37.703769213726503 ], [ -72.261206554708394, -37.703576749245997 ], [ -72.260225041822096, -37.700693290814399 ], [ -72.256427766102107, -37.699050623972497 ], [ -72.258067814412897, -37.704120471473701 ] ] ] } },
{ "type": "Feature", "properties": { "id": "monoparte.9", "Name": null, "description": null, "timestamp": null, "begin": null, "end": null, "altitudeMode": null, "tessellate": -1, "extrude": 0, "visibility": -1, "drawOrder": null, "icon": null, "REG": "Biobío", "COM": "Mulchén", "LOC": "Mulchén", "ZONA": "ZEX2", "NOM": "Area de extension urbana 2", "UPERM": "Residencial. Equipamiento: cientifico, comercio, culto y cultura, deporte, educacion, esparcimiento, salud, seguridad, servicios, social.", "UPROH": "Todos los usos de suelo no mencionados como permitidos.", "P_DO": "26/06/1989", "N_DOC": "10", "T_DO": "Resolución", "OBS": "Publicacion PRC Mulchen. Res. V y U N°10. Fecha promulgacion 20.04.1989. Fecha publicacion D.O. 26.06.1989." }, "geometry": { "type": "Polygon", "coordinates": [ [ [ -72.248319459567796, -37.724595385777498 ], [ -72.247942538572502, -37.724623421863903 ], [ -72.247338136867299, -37.724699684985197 ], [ -72.246941480900404, -37.724722541830303 ], [ -72.246747680833295, -37.724751722783701 ], [ -72.246592649454499, -37.724809632274798 ], [ -72.246378187654003, -37.724881099662603 ], [ -72.246150557128502, -37.724994646186403 ], [ -72.245682647656807, -37.725275721956699 ], [ -72.245257878925599, -37.725513889647303 ], [ -72.244866676806097, -37.725661738889798 ], [ -72.244735164043405, -37.7257428366132 ], [ -72.244692280288902, -37.725791693708601 ], [ -72.244606511559994, -37.725889409690197 ], [ -72.244522821012296, -37.726034743884803 ], [ -72.244462133597196, -37.726191364054898 ], [ -72.244293601121399, -37.726627477160299 ], [ -72.244334190864805, -37.726697873121097 ], [ -72.244353077941199, -37.726786745748797 ], [ -72.244303998476994, -37.726865571058703 ], [ -72.244239454490696, -37.727105730439099 ], [ -72.244267915708605, -37.727242015743201 ], [ -72.244357630423195, -37.7274064111608 ], [ -72.244380416999803, -37.727584569296397 ], [ -72.244364432889199, -37.727733997921703 ], [ -72.244334284181804, -37.728074521564302 ], [ -72.244354212656901, -37.728187203239997 ], [ -72.244372060422805, -37.728252265815101 ], [ -72.244423264380998, -37.728393884364003 ], [ -72.244427163793404, -37.728483169876498 ], [ -72.244415034986801, -37.7285490583225 ], [ -72.244396451272607, -37.728638963263997 ], [ -72.244326967303394, -37.728766028065799 ], [ -72.243962649577099, -37.7290144457466 ], [ -72.243833989174107, -37.729161018273203 ], [ -72.243750554915906, -37.729312304789303 ], [ -72.243677732970198, -37.729534813115798 ], [ -72.243538846577493, -37.730134591650398 ], [ -72.243553661321798, -37.730473876606098 ], [ -72.243485516186794, -37.730803526806604 ], [ -72.243413992951602, -37.731055796848601 ], [ -72.243418671250694, -37.731162939702202 ], [ -72.243484086154496, -37.7312862884271 ], [ -72.243555435668696, -37.731373716111001 ], [ -72.244067927096694, -37.7314251530345 ], [ -72.244502872136906, -37.731419129949202 ], [ -72.2446209658942, -37.731374159612599 ], [ -72.244687896590506, -37.731360395650597 ], [ -72.244750713598407, -37.731424219935903 ], [ -72.244769862817805, -37.731519045080603 ], [ -72.244746125267099, -37.7316627274475 ], [ -72.244826577466299, -37.731958486935703 ], [ -72.244932069004406, -37.732140324818097 ], [ -72.245125936603998, -37.732283970549801 ], [ -72.245542351916001, -37.7325406729138 ], [ -72.2461192311563, -37.732691638690902 ], [ -72.246616223193101, -37.732731572677601 ], [ -72.246923244934294, -37.732717147587501 ], [ -72.247190452185194, -37.732650184267797 ], [ -72.247462550526194, -37.732523491140398 ], [ -72.247603907804603, -37.732495754095503 ], [ -72.247686349611499, -37.732493480399697 ], [ -72.247813758731297, -37.732489966418498 ], [ -72.247935494661206, -37.732528325247998 ], [ -72.247992381957303, -37.732628067861199 ], [ -72.248020332289698, -37.732752447230702 ], [ -72.248027620419705, -37.732919112980802 ], [ -72.247987316391303, -37.733078936813598 ], [ -72.251541456836904, -37.732682534801498 ], [ -72.251685105705505, -37.7326659213631 ], [ -72.251573061974995, -37.732214587959 ], [ -72.251515847402302, -37.731936070696499 ], [ -72.251470557773501, -37.731758535729 ], [ -72.251391703871406, -37.731671320243201 ], [ -72.251326537450396, -37.731553929196302 ], [ -72.251306336641804, -37.731435296602399 ], [ -72.2512817078956, -37.731215473739098 ], [ -72.251221951673401, -37.731050256919403 ], [ -72.251142317369499, -37.730945185853997 ], [ -72.250971186665694, -37.730806881461298 ], [ -72.250806768935504, -37.730650513652797 ], [ -72.250657341701, -37.730493731793501 ], [ -72.250600452763294, -37.730393990528398 ], [ -72.250589832214601, -37.730322769647898 ], [ -72.250593159529402, -37.730227325132702 ], [ -72.250602157284007, -37.7300900076348 ], [ -72.250652996185096, -37.729880021991903 ], [ -72.250864846928096, -37.729405755186797 ], [ -72.251015656356302, -37.7290797781558 ], [ -72.251027718563293, -37.728841064371203 ], [ -72.251088655278593, -37.728690394069503 ], [ -72.251192151039902, -37.728312087725001 ], [ -72.251201408226606, -37.728180722893299 ], [ -72.251187662693198, -37.728038073370797 ], [ -72.251139310647602, -37.727961934345899 ], [ -72.251079036959396, -37.727784813663902 ], [ -72.251039422858796, -37.7275654052291 ], [ -72.251134226028597, -37.727159924335503 ], [ -72.251234133923802, -37.726871108892503 ], [ -72.251384675711094, -37.726539178925997 ], [ -72.2516328990761, -37.726210511537197 ], [ -72.2517646031461, -37.725962535083703 ], [ -72.251822148397096, -37.725734484123997 ], [ -72.2518339488783, -37.725489818469697 ], [ -72.251871137451005, -37.725105236498102 ], [ -72.251952162535005, -37.724487977164202 ], [ -72.2504798767593, -37.724585835047698 ], [ -72.248319459567796, -37.724595385777498 ] ] ] } },
{ "type": "Feature", "properties": { "id": "monoparte.10", "Name": null, "description": null, "timestamp": null, "begin": null, "end": null, "altitudeMode": null, "tessellate": -1, "extrude": 0, "visibility": -1, "drawOrder": null, "icon": null, "REG": "Biobío", "COM": "Mulchén", "LOC": "Mulchén", "ZONA": "ZH1", "NOM": "Area consolidada 1", "UPERM": "Residencial. Equipamiento: cientifico, comercio, culto y cultura, deporte, educacion, esparcimiento, salud, seguridad, servicios, social.", "UPROH": "Todos los usos de suelo no mencionados como permitidos.", "P_DO": "26/06/1989", "N_DOC": "10", "T_DO": "Resolución", "OBS": "Publicacion PRC Mulchen. Res. V y U N°10. Fecha promulgacion 20.04.1989. Fecha publicacion D.O. 26.06.1989." }, "geometry": { "type": "Polygon", "coordinates": [ [ [ -72.230385590525202, -37.716866218592301 ], [ -72.230653448983702, -37.717038213022001 ], [ -72.230814689867501, -37.717157749000997 ], [ -72.230929632194503, -37.717316695654901 ], [ -72.231145475104597, -37.717863821134699 ], [ -72.231398532995797, -37.718438529932797 ], [ -72.231697481731999, -37.7189643031017 ], [ -72.231859143908494, -37.7190933609144 ], [ -72.232114236436402, -37.719162642851799 ], [ -72.232286797662795, -37.7191006953868 ], [ -72.232722122440805, -37.718898041379603 ], [ -72.232760576516, -37.718954197415101 ], [ -72.2328184784282, -37.7191814543012 ], [ -72.232873479370696, -37.719342044253203 ], [ -72.232947488001003, -37.719387689263002 ], [ -72.233045476113006, -37.719432675943203 ], [ -72.233202583536894, -37.7194569687137 ], [ -72.233358446760406, -37.719452689652101 ], [ -72.234051767319102, -37.719385976168397 ], [ -72.234234096587599, -37.719438180720303 ], [ -72.234616135249595, -37.7196660705456 ], [ -72.235018424278707, -37.719807585528201 ], [ -72.235816784896798, -37.719947752395903 ], [ -72.236365441046701, -37.720142452570997 ], [ -72.236787191911901, -37.720455061065401 ], [ -72.237775763211403, -37.720194273096901 ], [ -72.242125907618899, -37.719132989423599 ], [ -72.243139413067297, -37.721727279553498 ], [ -72.246497912066303, -37.720979195425798 ], [ -72.246160207364497, -37.720118413170503 ], [ -72.248972418280204, -37.719576022039902 ], [ -72.253363254822006, -37.718763502820501 ], [ -72.253822308889198, -37.718646620511798 ], [ -72.253811747465505, -37.718636808887801 ], [ -72.253618539905005, -37.718542027026402 ], [ -72.253314539769903, -37.718178550959998 ], [ -72.253126886972495, -37.718004948837802 ], [ -72.2528663619388, -37.717811905382199 ], [ -72.252716553841594, -37.717680165747097 ], [ -72.252559556261801, -37.717384142436899 ], [ -72.252352048384395, -37.717168178859197 ], [ -72.252210295903495, -37.717014761376198 ], [ -72.252098332586002, -37.716924884302202 ], [ -72.251984805689005, -37.716799293671897 ], [ -72.251620309880906, -37.716287304019701 ], [ -72.251503035983404, -37.716075998450499 ], [ -72.251405933248904, -37.715914196235701 ], [ -72.251244327428097, -37.7157184179841 ], [ -72.251051998067297, -37.715437669694403 ], [ -72.250971369701901, -37.715322929253503 ], [ -72.249680116215401, -37.715624758397198 ], [ -72.249366485740595, -37.714765703852699 ], [ -72.247822117887594, -37.715132500749597 ], [ -72.247228711246706, -37.713552951123802 ], [ -72.245823902214994, -37.713820113420603 ], [ -72.240401564456505, -37.7149896979383 ], [ -72.237484092218395, -37.715689724210698 ], [ -72.236083087865097, -37.7160428921758 ], [ -72.2367091989139, -37.717465512745299 ], [ -72.236689782860395, -37.717570934441497 ], [ -72.235518123880496, -37.717402888332103 ], [ -72.233367384552807, -37.717023331270298 ], [ -72.232958510885894, -37.7170059500259 ], [ -72.230673118906495, -37.716897028389802 ], [ -72.230385590525202, -37.716866218592301 ] ], [ [ -72.244948073174299, -37.7203306038815 ], [ -72.243937277282598, -37.720549155423001 ], [ -72.243677465609906, -37.719822097378703 ], [ -72.244648280460098, -37.719613729682102 ], [ -72.244948073174299, -37.7203306038815 ] ] ] } },
{ "type": "Feature", "properties": { "id": "monoparte.11", "Name": null, "description": null, "timestamp": null, "begin": null, "end": null, "altitudeMode": null, "tessellate": -1, "extrude": 0, "visibility": -1, "drawOrder": null, "icon": null, "REG": "Biobío", "COM": "Mulchén", "LOC": "Mulchén", "ZONA": "ZH3", "NOM": "Area consolidada 3", "UPERM": "Residencial. Equipamiento: cientifico, comercio, culto y cultura, deporte, educacion, esparcimiento, salud, segurrdad, servicios, social. Actividades productivas.", "UPROH": "Todos los usos de suelo no mencionados como permitidos.", "P_DO": "26/06/1989", "N_DOC": "10", "T_DO": "Resolución", "OBS": "Publicacion PRC Mulchen. Res. V y U N°10. Fecha promulgacion 20.04.1989. Fecha publicacion D.O. 26.06.1989." }, "geometry": { "type": "Polygon", "coordinates": [ [ [ -72.232335411625598, -37.726151294841799 ], [ -72.237524337407507, -37.724968817598501 ], [ -72.238177153759295, -37.727139211241699 ], [ -72.239462408207402, -37.726728769524001 ], [ -72.240398036397096, -37.7264360410338 ], [ -72.241716106052905, -37.726104172527897 ], [ -72.242144112368706, -37.725939825554399 ], [ -72.242303801376195, -37.725885369538197 ], [ -72.2424017878363, -37.725861216982402 ], [ -72.242695745747397, -37.725788760673503 ], [ -72.242873419548602, -37.725733807770503 ], [ -72.242997136290299, -37.7256803404942 ], [ -72.243127040060998, -37.7255623403545 ], [ -72.243220972356596, -37.725445330737699 ], [ -72.243305287426693, -37.725314283070801 ], [ -72.243447874568204, -37.725074358657203 ], [ -72.243700816525205, -37.7246812142143 ], [ -72.243967427051203, -37.724394964520897 ], [ -72.244190944430599, -37.724152809915601 ], [ -72.244341322870298, -37.724091454929997 ], [ -72.244693853293896, -37.723917260237101 ], [ -72.245030710980501, -37.723712449075798 ], [ -72.2448285024619, -37.7231658670852 ], [ -72.239358161456906, -37.724489302186903 ], [ -72.237713330267596, -37.720210742867899 ], [ -72.236787191911901, -37.720455061065401 ], [ -72.235665043965099, -37.720729045818999 ], [ -72.235430729509304, -37.721550749196098 ], [ -72.235292449624794, -37.721683273956998 ], [ -72.234721289067807, -37.721799084343601 ], [ -72.233894653848395, -37.722250873854897 ], [ -72.233295750477495, -37.722287937715997 ], [ -72.233211435009807, -37.722557240337999 ], [ -72.233049844995406, -37.723257751772998 ], [ -72.232797691000101, -37.723808184388801 ], [ -72.2325802613679, -37.724329057577897 ], [ -72.232527767856695, -37.724502133982597 ], [ -72.232451292993602, -37.7246758677109 ], [ -72.232401286143798, -37.724906086442502 ], [ -72.232407501360797, -37.7250489455867 ], [ -72.232388492280194, -37.725163890413299 ], [ -72.232355835713506, -37.725241069104499 ], [ -72.232335411625598, -37.726151294841799 ] ] ] } },
{ "type": "Feature", "properties": { "id": "monoparte.12", "Name": null, "description": null, "timestamp": null, "begin": null, "end": null, "altitudeMode": null, "tessellate": -1, "extrude": 0, "visibility": -1, "drawOrder": null, "icon": null, "REG": "Biobío", "COM": "Mulchén", "LOC": "Mulchén", "ZONA": "ZEX1", "NOM": "Area de extension urbana 1", "UPERM": "Residencial. Equipamiento: cientifico, comercio, culto y cultura, deporte, educacion, esparcimiento, salud, seguridad, servicios, social.", "UPROH": "Todos los usos de suelo no mencionados como permitidos.", "P_DO": "26/06/1989", "N_DOC": "10", "T_DO": "Resolución", "OBS": "Publicacion PRC Mulchen. Res. V y U N°10. Fecha promulgacion 20.04.1989. Fecha publicacion D.O. 26.06.1989." }, "geometry": { "type": "Polygon", "coordinates": [ [ [ -72.232074153968796, -37.726768723255901 ], [ -72.231895998895496, -37.727364799667797 ], [ -72.2315531666097, -37.727901031481402 ], [ -72.231357306422794, -37.728228221285498 ], [ -72.230980518419699, -37.728190883068898 ], [ -72.230861696236005, -37.728909289044502 ], [ -72.229902266558994, -37.732286630501598 ], [ -72.2295054943271, -37.732482120274497 ], [ -72.229177027025003, -37.732639407713698 ], [ -72.228635508844206, -37.7328971781116 ], [ -72.228299693672398, -37.733056373756902 ], [ -72.227986758998895, -37.733204720666599 ], [ -72.227661723998096, -37.733358803342298 ], [ -72.227531701918295, -37.733452814520597 ], [ -72.227441720718701, -37.733517874672302 ], [ -72.227401582257301, -37.733596829326302 ], [ -72.227333279074799, -37.733731187950703 ], [ -72.227308990613295, -37.733778964400798 ], [ -72.227331652892801, -37.733890358107203 ], [ -72.227340059164703, -37.733976463996903 ], [ -72.227326473446794, -37.7341260467567 ], [ -72.227228955834207, -37.734148591148099 ], [ -72.228496868487895, -37.7359483327931 ], [ -72.228681265347205, -37.736277730091203 ], [ -72.228899412205607, -37.736462453863901 ], [ -72.230440288806093, -37.736003023479199 ], [ -72.231737413702106, -37.735630595278799 ], [ -72.232520190391099, -37.735408869407799 ], [ -72.233872983942902, -37.735042758833501 ], [ -72.237076671546305, -37.734036303332701 ], [ -72.237044393538298, -37.7337769760355 ], [ -72.237425546907303, -37.733156241188802 ], [ -72.237665332819802, -37.732873126507599 ], [ -72.237710808062602, -37.732814664769499 ], [ -72.237960557063801, -37.732760121200798 ], [ -72.238199558968901, -37.732734479244399 ], [ -72.238584951136204, -37.732762021314201 ], [ -72.239489776518695, -37.733137613567401 ], [ -72.240059615482906, -37.733264964256797 ], [ -72.240544683916696, -37.733375575136201 ], [ -72.240572621326507, -37.733378820123001 ], [ -72.239960598895905, -37.731756762308898 ], [ -72.241286221880699, -37.731405724787002 ], [ -72.241233959771705, -37.731287456388799 ], [ -72.240968369803994, -37.730703580941402 ], [ -72.240666810888996, -37.730120694626997 ], [ -72.240406547762603, -37.729658722345697 ], [ -72.239952437516806, -37.729156313783101 ], [ -72.239715417154997, -37.728676536870999 ], [ -72.239481669204295, -37.727996428528499 ], [ -72.239360825584598, -37.727427637653001 ], [ -72.239298328818293, -37.727095622281297 ], [ -72.239440555723803, -37.727053569307103 ], [ -72.239453740186306, -37.726805290164002 ], [ -72.239462408207402, -37.726728769524001 ], [ -72.238177153759295, -37.727139211241699 ], [ -72.237524337407507, -37.724968817598501 ], [ -72.232335411625598, -37.726151294841799 ], [ -72.232074153968796, -37.726768723255901 ] ] ] } },
{ "type": "Feature", "properties": { "id": "monoparte.13", "Name": null, "description": null, "timestamp": null, "begin": null, "end": null, "altitudeMode": null, "tessellate": -1, "extrude": 0, "visibility": -1, "drawOrder": null, "icon": null, "REG": "Biobío", "COM": "Mulchén", "LOC": "Mulchén", "ZONA": "ZEX1", "NOM": "Area de extension urbana 1", "UPERM": "Residencial. Equipamiento: cientifico, comercio, culto y cultura, deporte, educacion, esparcimiento, salud, seguridad, servicios, social.", "UPROH": "Todos los usos de suelo no mencionados como permitidos.", "P_DO": "26/06/1989", "N_DOC": "10", "T_DO": "Resolución", "OBS": "Publicacion PRC Mulchen. Res. V y U N°10. Fecha promulgacion 20.04.1989. Fecha publicacion D.O. 26.06.1989." }, "geometry": { "type": "Polygon", "coordinates": [ [ [ -72.241748844283507, -37.730540976056403 ], [ -72.242249406084397, -37.731557002239498 ], [ -72.2424389034054, -37.732047616882802 ], [ -72.242582866418502, -37.7323201745631 ], [ -72.242688361352506, -37.732536580011697 ], [ -72.242730572625106, -37.732678446866998 ], [ -72.242736810520896, -37.732821303430804 ], [ -72.242712060934906, -37.733079436885298 ], [ -72.242613282492997, -37.733291931556899 ], [ -72.242558314390706, -37.733407868759201 ], [ -72.242489689450096, -37.733486039598397 ], [ -72.242312280856098, -37.733704273280203 ], [ -72.243362009316996, -37.7335946430183 ], [ -72.247987316391303, -37.733078936813598 ], [ -72.248027620419705, -37.732919112980802 ], [ -72.248020332289698, -37.732752447230702 ], [ -72.247992381957303, -37.732628067861199 ], [ -72.247935494661206, -37.732528325247998 ], [ -72.247813758731297, -37.732489966418498 ], [ -72.247686349611499, -37.732493480399697 ], [ -72.247603907804603, -37.732495754095503 ], [ -72.247462550526194, -37.732523491140398 ], [ -72.247190452185194, -37.732650184267797 ], [ -72.246923244934294, -37.732717147587501 ], [ -72.246616223193101, -37.732731572677601 ], [ -72.2461192311563, -37.732691638690902 ], [ -72.245542351916001, -37.7325406729138 ], [ -72.245125936603998, -37.732283970549801 ], [ -72.244932069004406, -37.732140324818097 ], [ -72.244826577466299, -37.731958486935703 ], [ -72.244746125267099, -37.7316627274475 ], [ -72.244769862817805, -37.731519045080603 ], [ -72.244750713598407, -37.731424219935903 ], [ -72.244687896590506, -37.731360395650597 ], [ -72.2446209658942, -37.731374159612599 ], [ -72.244502872136906, -37.731419129949202 ], [ -72.244067927096694, -37.7314251530345 ], [ -72.243555435668696, -37.731373716111001 ], [ -72.243484086154496, -37.7312862884271 ], [ -72.243418671250694, -37.731162939702202 ], [ -72.243413992951602, -37.731055796848601 ], [ -72.243485516186794, -37.730803526806604 ], [ -72.243553661321798, -37.730473876606098 ], [ -72.243538846577493, -37.730134591650398 ], [ -72.243677732970198, -37.729534813115798 ], [ -72.243750554915906, -37.729312304789303 ], [ -72.243833989174107, -37.729161018273203 ], [ -72.243962649577099, -37.7290144457466 ], [ -72.244326967303394, -37.728766028065799 ], [ -72.244396451272607, -37.728638963263997 ], [ -72.244415034986801, -37.7285490583225 ], [ -72.244427163793404, -37.728483169876498 ], [ -72.244423264380998, -37.728393884364003 ], [ -72.244372060422805, -37.728252265815101 ], [ -72.244354212656901, -37.728187203239997 ], [ -72.244334284181804, -37.728074521564302 ], [ -72.244364432889199, -37.727733997921703 ], [ -72.244380416999803, -37.727584569296397 ], [ -72.244357630423195, -37.7274064111608 ], [ -72.244267915708605, -37.727242015743201 ], [ -72.244239454490696, -37.727105730439099 ], [ -72.244303998476994, -37.726865571058703 ], [ -72.244353077941199, -37.726786745748797 ], [ -72.244334190864805, -37.726697873121097 ], [ -72.244293601121399, -37.726627477160299 ], [ -72.244462133597196, -37.726191364054898 ], [ -72.244522821012296, -37.726034743884803 ], [ -72.244606511559994, -37.725889409690197 ], [ -72.244692280288902, -37.725791693708601 ], [ -72.244735164043405, -37.7257428366132 ], [ -72.244866676806097, -37.725661738889798 ], [ -72.245257878925599, -37.725513889647303 ], [ -72.245682647656807, -37.725275721956699 ], [ -72.246150557128502, -37.724994646186403 ], [ -72.246378187654003, -37.724881099662603 ], [ -72.246592649454499, -37.724809632274798 ], [ -72.246747680833295, -37.724751722783701 ], [ -72.246941480900404, -37.724722541830303 ], [ -72.247338136867299, -37.724699684985197 ], [ -72.247942538572502, -37.724623421863903 ], [ -72.248319459567796, -37.724595385777498 ], [ -72.248634824944801, -37.723296807575103 ], [ -72.248573833878694, -37.723274652283997 ], [ -72.248408711724906, -37.723273247180401 ], [ -72.248069464890804, -37.723407754792703 ], [ -72.247763053364295, -37.723606910179598 ], [ -72.247489945397405, -37.723709793606702 ], [ -72.246799006495195, -37.723865914205497 ], [ -72.245721504719796, -37.7241041996527 ], [ -72.244660617824707, -37.724336618070197 ], [ -72.244341546285497, -37.7244814411116 ], [ -72.2437757148505, -37.725269382462599 ], [ -72.243242932986007, -37.7259896656441 ], [ -72.242955227914095, -37.726274110742501 ], [ -72.242410729189004, -37.7264512030848 ], [ -72.240239715896493, -37.727044932730401 ], [ -72.240507476165703, -37.728229471301702 ], [ -72.240668399848104, -37.728615988686798 ], [ -72.240908749951501, -37.7291719531773 ], [ -72.241277267269993, -37.729638573235903 ], [ -72.241748844283507, -37.730540976056403 ] ] ] } },
{ "type": "Feature", "properties": { "id": "monoparte.14", "Name": null, "description": null, "timestamp": null, "begin": null, "end": null, "altitudeMode": null, "tessellate": -1, "extrude": 0, "visibility": -1, "drawOrder": null, "icon": null, "REG": "Biobío", "COM": "Mulchén", "LOC": "Mulchén", "ZONA": "ZE1", "NOM": "Area especial 1", "UPERM": "Equipamiento: salud.", "UPROH": "Todos los usos de suelo no mencionados como permitidos.", "P_DO": "26/06/1989", "N_DOC": "10", "T_DO": "Resolución", "OBS": "Publicacion PRC Mulchen. Res. V y U N°10. Fecha promulgacion 20.04.1989. Fecha publicacion D.O. 26.06.1989." }, "geometry": { "type": "Polygon", "coordinates": [ [ [ -72.232467902657007, -37.720918512304202 ], [ -72.233295750477495, -37.722287937715997 ], [ -72.233894653848395, -37.722250873854897 ], [ -72.234721289067807, -37.721799084343601 ], [ -72.234778726664004, -37.721787438376197 ], [ -72.234659773050893, -37.7207995695438 ], [ -72.234622974817896, -37.720781510329303 ], [ -72.232880291246204, -37.7204574854252 ], [ -72.232643838681696, -37.720816781221302 ], [ -72.232467902657007, -37.720918512304202 ] ] ] } },
{ "type": "Feature", "properties": { "id": "monoparte.15", "Name": null, "description": null, "timestamp": null, "begin": null, "end": null, "altitudeMode": null, "tessellate": -1, "extrude": 0, "visibility": -1, "drawOrder": null, "icon": null, "REG": "Biobío", "COM": "Mulchén", "LOC": "Mulchén", "ZONA": "ZE2", "NOM": "Area especial 2", "UPERM": "Equipamiento: culto y cultura, deporte, esparcimiento. Area verde.", "UPROH": "Todos los usos de suelo no mencionados como permitidos.", "P_DO": "26/06/1989", "N_DOC": "10", "T_DO": "Resolución", "OBS": "Publicacion PRC Mulchen. Res. V y U N°10. Fecha promulgacion 20.04.1989. Fecha publicacion D.O. 26.06.1989." }, "geometry": { "type": "Polygon", "coordinates": [ [ [ -72.232467902657007, -37.720918512304202 ], [ -72.232643838681696, -37.720816781221302 ], [ -72.232880291246204, -37.7204574854252 ], [ -72.234622974817896, -37.720781510329303 ], [ -72.234659773050893, -37.7207995695438 ], [ -72.234778726664004, -37.721787438376197 ], [ -72.235292449624794, -37.721683273956998 ], [ -72.235430729509304, -37.721550749196098 ], [ -72.235665043965099, -37.720729045818999 ], [ -72.236787191911901, -37.720455061065401 ], [ -72.236365441046701, -37.720142452570997 ], [ -72.235816784896798, -37.719947752395903 ], [ -72.235018424278707, -37.719807585528201 ], [ -72.234616135249595, -37.7196660705456 ], [ -72.234234096587599, -37.719438180720303 ], [ -72.234051767319102, -37.719385976168397 ], [ -72.233358446760406, -37.719452689652101 ], [ -72.233202583536894, -37.7194569687137 ], [ -72.233045476113006, -37.719432675943203 ], [ -72.232947488001003, -37.719387689263002 ], [ -72.232873479370696, -37.719342044253203 ], [ -72.2328184784282, -37.7191814543012 ], [ -72.232760576516, -37.718954197415101 ], [ -72.232722122440805, -37.718898041379603 ], [ -72.232286797662795, -37.7191006953868 ], [ -72.232114236436402, -37.719162642851799 ], [ -72.231859143908494, -37.7190933609144 ], [ -72.231697481731999, -37.7189643031017 ], [ -72.231398532995797, -37.718438529932797 ], [ -72.231145475104597, -37.717863821134699 ], [ -72.230929632194503, -37.717316695654901 ], [ -72.230814689867501, -37.717157749000997 ], [ -72.230653448983702, -37.717038213022001 ], [ -72.230385590525202, -37.716866218592301 ], [ -72.230127681065596, -37.7168385825412 ], [ -72.2301571984097, -37.716916066407897 ], [ -72.230831127330006, -37.717784362523503 ], [ -72.231363685503197, -37.718713744921402 ], [ -72.231862773062502, -37.719701254638601 ], [ -72.231943845996199, -37.720185329099998 ], [ -72.232048259660701, -37.720930029663897 ], [ -72.232467902657007, -37.720918512304202 ] ] ] } },
{ "type": "Feature", "properties": { "id": "monoparte.16", "Name": null, "description": null, "timestamp": null, "begin": null, "end": null, "altitudeMode": null, "tessellate": -1, "extrude": 0, "visibility": -1, "drawOrder": null, "icon": null, "REG": "Biobío", "COM": "Mulchén", "LOC": "Mulchén", "ZONA": "ZEX3", "NOM": "Area de extension urbana 3", "UPERM": "Residencial. Equipamiento: cientifico, comercio, culto y cultura, deporte, educacion, esparcimiento, salud, seguridad, servicios, social. Actividades productivas.", "UPROH": "Todos los usos de suelo no mencionados como permitidos.", "P_DO": "26/06/1989", "N_DOC": "10", "T_DO": "Resolución", "OBS": "Publicacion PRC Mulchen. Res. V y U N°10. Fecha promulgacion 20.04.1989. Fecha publicacion D.O. 26.06.1989." }, "geometry": { "type": "Polygon", "coordinates": [ [ [ -72.253766398067199, -37.725002826987598 ], [ -72.251871137451005, -37.725105236498102 ], [ -72.2518339488783, -37.725489818469697 ], [ -72.251822148397096, -37.725734484123997 ], [ -72.2517646031461, -37.725962535083703 ], [ -72.2516328990761, -37.726210511537197 ], [ -72.251384675711094, -37.726539178925997 ], [ -72.251234133923802, -37.726871108892503 ], [ -72.251134226028597, -37.727159924335503 ], [ -72.251039422858796, -37.7275654052291 ], [ -72.251079036959396, -37.727784813663902 ], [ -72.251139310647602, -37.727961934345899 ], [ -72.251187662693198, -37.728038073370797 ], [ -72.251201408226606, -37.728180722893299 ], [ -72.251192151039902, -37.728312087725001 ], [ -72.251088655278593, -37.728690394069503 ], [ -72.251027718563293, -37.728841064371203 ], [ -72.251015656356302, -37.7290797781558 ], [ -72.250864846928096, -37.729405755186797 ], [ -72.250652996185096, -37.729880021991903 ], [ -72.250602157284007, -37.7300900076348 ], [ -72.250593159529402, -37.730227325132702 ], [ -72.250589832214601, -37.730322769647898 ], [ -72.250600452763294, -37.730393990528398 ], [ -72.250657341701, -37.730493731793501 ], [ -72.250806768935504, -37.730650513652797 ], [ -72.250971186665694, -37.730806881461298 ], [ -72.251142317369499, -37.730945185853997 ], [ -72.251221951673401, -37.731050256919403 ], [ -72.2512817078956, -37.731215473739098 ], [ -72.251306336641804, -37.731435296602399 ], [ -72.251326537450396, -37.731553929196302 ], [ -72.251391703871406, -37.731671320243201 ], [ -72.251470557773501, -37.731758535729 ], [ -72.251515847402302, -37.731936070696499 ], [ -72.251573061974995, -37.732214587959 ], [ -72.251685105705505, -37.7326659213631 ], [ -72.253978320111301, -37.732400678582501 ], [ -72.253935300388306, -37.731829754644203 ], [ -72.253873830192703, -37.731659819668401 ], [ -72.253845204965302, -37.731417462203197 ], [ -72.253853805034893, -37.731202682615297 ], [ -72.253897126864501, -37.730958337092197 ], [ -72.253967444564395, -37.730853258030898 ], [ -72.254043650206697, -37.730640185299002 ], [ -72.254128379940695, -37.7304161500929 ], [ -72.254232503776294, -37.730223759494898 ], [ -72.254325913430407, -37.729992333338103 ], [ -72.2544112675143, -37.729782582582601 ], [ -72.254503175300499, -37.729582820721397 ], [ -72.254561212478905, -37.729402989912401 ], [ -72.2546307697408, -37.729243736733203 ], [ -72.254750644296905, -37.728897155538199 ], [ -72.254850301195901, -37.728397378188497 ], [ -72.254920795895202, -37.7282595526842 ], [ -72.255039812596493, -37.728098932194897 ], [ -72.255218204731605, -37.727818112504401 ], [ -72.2553202214485, -37.727511916367703 ], [ -72.255351498198905, -37.727403780331301 ], [ -72.255408995523197, -37.7272407255792 ], [ -72.255642232860794, -37.727052474950099 ], [ -72.255829119428498, -37.7267970087169 ], [ -72.255960797019895, -37.726514463077997 ], [ -72.256063928531304, -37.726196950046699 ], [ -72.256677720336498, -37.725695958198102 ], [ -72.257061726242, -37.7255072923504 ], [ -72.257206862353897, -37.7255318837015 ], [ -72.257451766828098, -37.7253677788907 ], [ -72.257387163508795, -37.725126417471401 ], [ -72.257274117358307, -37.724907673969199 ], [ -72.256536751248802, -37.724940553272098 ], [ -72.253766398067199, -37.725002826987598 ] ] ] } },
{ "type": "Feature", "properties": { "id": "monoparte.17", "Name": null, "description": null, "timestamp": null, "begin": null, "end": null, "altitudeMode": null, "tessellate": -1, "extrude": 0, "visibility": -1, "drawOrder": null, "icon": null, "REG": "Biobío", "COM": "Mulchén", "LOC": "Mulchén", "ZONA": "ZEX3", "NOM": "Area de extension urbana 3", "UPERM": "Residencial. Equipamiento: cientifico, comercio, culto y cultura, deporte, educacion, esparcimiento, salud, seguridad, servicios, social. Actividades productivas.", "UPROH": "Todos los usos de suelo no mencionados como permitidos.", "P_DO": "26/06/1989", "N_DOC": "10", "T_DO": "Resolución", "OBS": "Publicacion PRC Mulchen. Res. V y U N°10. Fecha promulgacion 20.04.1989. Fecha publicacion D.O. 26.06.1989." }, "geometry": { "type": "Polygon", "coordinates": [ [ [ -72.260052084208894, -37.725739209709403 ], [ -72.259802362274996, -37.726203812573402 ], [ -72.259943111449601, -37.7261284024503 ], [ -72.2603126549633, -37.7259322349136 ], [ -72.261044412660297, -37.725783248475601 ], [ -72.261732872080103, -37.725878604015698 ], [ -72.262410248055502, -37.7261315939583 ], [ -72.262833532224505, -37.726749189644302 ], [ -72.263031583071793, -37.727158483295803 ], [ -72.263069019963794, -37.727600832727198 ], [ -72.262901294425703, -37.728292014947002 ], [ -72.262748832921403, -37.7285107808273 ], [ -72.262561652285498, -37.728759114874599 ], [ -72.262265300521705, -37.728981866612799 ], [ -72.262045281453496, -37.729302623448802 ], [ -72.261751435024294, -37.729582515629801 ], [ -72.261332308556106, -37.729880180508303 ], [ -72.260314182130799, -37.7304804852781 ], [ -72.260174051280998, -37.730570181611597 ], [ -72.259948376214794, -37.730762366323397 ], [ -72.259794020442897, -37.7309382726731 ], [ -72.265292072380205, -37.729859266674701 ], [ -72.264358900359994, -37.7271106450346 ], [ -72.262781685849703, -37.722291401723098 ], [ -72.262204666310197, -37.721110718486202 ], [ -72.261928819229496, -37.720295947758302 ], [ -72.261831582561598, -37.720131774531502 ], [ -72.259795804283002, -37.720927121166298 ], [ -72.259693506947897, -37.720989547827401 ], [ -72.260056863098995, -37.721333809904003 ], [ -72.260239213717497, -37.721385973044498 ], [ -72.260352760443993, -37.721511554688099 ], [ -72.260692776132203, -37.721874014310501 ], [ -72.261208450091502, -37.722546270794901 ], [ -72.261536133901004, -37.723037794311701 ], [ -72.261789375891098, -37.723474167560802 ], [ -72.261752981220397, -37.723875654367802 ], [ -72.261673090964806, -37.724106711580397 ], [ -72.261521887646197, -37.724354047494899 ], [ -72.261441369168196, -37.724570819178403 ], [ -72.261236834966098, -37.724833934507899 ], [ -72.260887792401505, -37.725086747382598 ], [ -72.260518253453, -37.725282916515503 ], [ -72.260259131406301, -37.725533237907698 ], [ -72.260052084208894, -37.725739209709403 ] ] ] } },
{ "type": "Feature", "properties": { "id": "monoparte.18", "Name": null, "description": null, "timestamp": null, "begin": null, "end": null, "altitudeMode": null, "tessellate": -1, "extrude": 0, "visibility": -1, "drawOrder": null, "icon": null, "REG": "Biobío", "COM": "Mulchén", "LOC": "Mulchén", "ZONA": "ZH2", "NOM": "Area consolidada 2", "UPERM": "Residencial. Equipamiento: cientifico, comercio, culto y cultura, deporte, educacion, esparcimiento, salud, segurrdad, servicios, social. Actividades productivas.", "UPROH": "Todos los usos de suelo no mencionados como permitidos.", "P_DO": "26/06/1989", "N_DOC": "10", "T_DO": "Resolución", "OBS": "Publicacion PRC Mulchen. Res. V y U N°10. Fecha promulgacion 20.04.1989. Fecha publicacion D.O. 26.06.1989." }, "geometry": { "type": "Polygon", "coordinates": [ [ [ -72.230519448535404, -37.716880561868798 ], [ -72.230673118906495, -37.716897028389802 ], [ -72.232958510885894, -37.7170059500259 ], [ -72.233367384552807, -37.717023331270298 ], [ -72.235518123880496, -37.717402888332103 ], [ -72.236689782860395, -37.717570934441497 ], [ -72.2367091989139, -37.717465512745299 ], [ -72.236083087865097, -37.7160428921758 ], [ -72.237484092218395, -37.715689724210698 ], [ -72.240401564456505, -37.7149896979383 ], [ -72.245823902214994, -37.713820113420603 ], [ -72.247228711246706, -37.713552951123802 ], [ -72.246857761516395, -37.712565502111097 ], [ -72.246132714483807, -37.712728516369097 ], [ -72.245692948453097, -37.711453376333097 ], [ -72.2457942863402, -37.711284497515997 ], [ -72.245143577565798, -37.710952657268201 ], [ -72.244038120298896, -37.710649376683897 ], [ -72.242842584067603, -37.710482058558803 ], [ -72.241662777767104, -37.710400113375499 ], [ -72.240844409149503, -37.710321917940398 ], [ -72.238845181745305, -37.710233882969497 ], [ -72.237749722314902, -37.710228244269402 ], [ -72.236019752538397, -37.710466493483402 ], [ -72.234708318207296, -37.710669385655798 ], [ -72.234265498808099, -37.710836495229898 ], [ -72.233603109757397, -37.711474476348798 ], [ -72.231483615227205, -37.7137972783338 ], [ -72.231249558573595, -37.714280464712303 ], [ -72.231057373767001, -37.715036641121699 ], [ -72.230750057480194, -37.715905631714698 ], [ -72.230551137305, -37.7165070441078 ], [ -72.230519448535404, -37.716880561868798 ] ] ] } },
{ "type": "Feature", "properties": { "id": "monoparte.19", "Name": null, "description": null, "timestamp": null, "begin": null, "end": null, "altitudeMode": null, "tessellate": -1, "extrude": 0, "visibility": -1, "drawOrder": null, "icon": null, "REG": "Biobío", "COM": "Mulchén", "LOC": "Mulchén", "ZONA": "Area verde", "NOM": "Area verde", "UPERM": "Area verde.", "UPROH": "Todos los usos de suelo no mencionados como permitidos.", "P_DO": "26/06/1989", "N_DOC": "10", "T_DO": "Resolución", "OBS": "Publicacion PRC Mulchen. Res. V y U N°10. Fecha promulgacion 20.04.1989. Fecha publicacion D.O. 26.06.1989." }, "geometry": { "type": "Polygon", "coordinates": [ [ [ -72.243677465609906, -37.719822097378703 ], [ -72.243937277282598, -37.720549155423001 ], [ -72.244948073174299, -37.7203306038815 ], [ -72.244648280460098, -37.719613729682102 ], [ -72.243677465609906, -37.719822097378703 ] ] ] } },
{ "type": "Feature", "properties": { "id": "monoparte.20", "Name": null, "description": null, "timestamp": null, "begin": null, "end": null, "altitudeMode": null, "tessellate": -1, "extrude": 0, "visibility": -1, "drawOrder": null, "icon": null, "REG": "Biobío", "COM": "Mulchén", "LOC": "Mulchén", "ZONA": "Area verde", "NOM": "Area verde", "UPERM": "Area verde.", "UPROH": "Todos los usos de suelo no mencionados como permitidos.", "P_DO": "26/06/1989", "N_DOC": "10", "T_DO": "Resolución", "OBS": "Publicacion PRC Mulchen. Res. V y U N°10. Fecha promulgacion 20.04.1989. Fecha publicacion D.O. 26.06.1989." }, "geometry": { "type": "Polygon", "coordinates": [ [ [ -72.236744013588293, -37.7102302612332 ], [ -72.236064013986194, -37.7103252279475 ], [ -72.235551014937201, -37.710396533265403 ], [ -72.234632493773503, -37.710526650646798 ], [ -72.234332791629001, -37.710534881062998 ], [ -72.234093858757504, -37.710560512923102 ], [ -72.234014086067901, -37.710658056629001 ], [ -72.233830147953498, -37.710844276858801 ], [ -72.232502865638196, -37.712063087862802 ], [ -72.231807829700799, -37.712640929825596 ], [ -72.231024888145299, -37.7131296398898 ], [ -72.230864500074404, -37.7133056755453 ], [ -72.230773972832694, -37.7134321170861 ], [ -72.230529296782606, -37.714430499018803 ], [ -72.230307334777393, -37.715123128466601 ], [ -72.230142417918302, -37.715747445488802 ], [ -72.229981057131198, -37.716453668391203 ], [ -72.230127681065596, -37.7168385825412 ], [ -72.230519448535404, -37.716880561868798 ], [ -72.230551137305, -37.7165070441078 ], [ -72.230750057480194, -37.715905631714698 ], [ -72.231057373767001, -37.715036641121699 ], [ -72.231249558573595, -37.714280464712303 ], [ -72.231483615227205, -37.7137972783338 ], [ -72.233603109757397, -37.711474476348798 ], [ -72.234265498808099, -37.710836495229898 ], [ -72.234708318207296, -37.710669385655798 ], [ -72.236019752538397, -37.710466493483402 ], [ -72.237749722314902, -37.710228244269402 ], [ -72.238845181745305, -37.710233882969497 ], [ -72.240844409149503, -37.710321917940398 ], [ -72.241662777767104, -37.710400113375499 ], [ -72.241616431251501, -37.710163007108697 ], [ -72.241531685645, -37.710146268695802 ], [ -72.240232099241894, -37.710124817041802 ], [ -72.239186242097503, -37.710086838272801 ], [ -72.238380559250004, -37.7100517817724 ], [ -72.237662111400695, -37.710090603245398 ], [ -72.236744013588293, -37.7102302612332 ] ] ] } },
{ "type": "Feature", "properties": { "id": "monoparte.21", "Name": null, "description": null, "timestamp": null, "begin": null, "end": null, "altitudeMode": null, "tessellate": -1, "extrude": 0, "visibility": -1, "drawOrder": null, "icon": null, "REG": "Biobío", "COM": "Mulchén", "LOC": "Mulchén", "ZONA": "ZM", "NOM": "Area consolidada ZM", "UPERM": "Residencial. Equipamiento: cientifico, comercio, culto y cultura, deporte, educacion, esparcimiento, salud, seguirdad, servicios, social. Actividades productivas.", "UPROH": "Todos los usos de suelo no mencionados como permitidos.", "P_DO": "26/06/1989", "N_DOC": "10", "T_DO": "Resolución", "OBS": "2da modificacion PRC Mulchen. Res. Gore N°15. Fecha promulgacion 28.01.2010. Fecha publicacion D.O. 04.05.2010." }, "geometry": { "type": "Polygon", "coordinates": [ [ [ -72.253101792470105, -37.722471933115003 ], [ -72.252925275307206, -37.722530147892897 ], [ -72.2526753650328, -37.722579959064902 ], [ -72.252047491562905, -37.722647906303798 ], [ -72.250571422941405, -37.7226452871828 ], [ -72.250102235268798, -37.722649114433104 ], [ -72.249459667616406, -37.722709803317898 ], [ -72.248803971928297, -37.722813710701899 ], [ -72.248135035650805, -37.722889373987101 ], [ -72.247360686005905, -37.723025152503901 ], [ -72.246510310280797, -37.723344190793497 ], [ -72.245734778211101, -37.723727906587101 ], [ -72.245021587270102, -37.724109899596101 ], [ -72.244788855152606, -37.724278412366502 ], [ -72.244660617824707, -37.724336618070197 ], [ -72.245721504719796, -37.7241041996527 ], [ -72.246799006495195, -37.723865914205497 ], [ -72.247489945397405, -37.723709793606702 ], [ -72.247763053364295, -37.723606910179598 ], [ -72.248069464890804, -37.723407754792703 ], [ -72.248408711724906, -37.723273247180401 ], [ -72.248573833878694, -37.723274652283997 ], [ -72.248634824944801, -37.723296807575103 ], [ -72.248319459567796, -37.724595385777498 ], [ -72.2504798767593, -37.724585835047698 ], [ -72.251952162535005, -37.724487977164202 ], [ -72.251871137451005, -37.725105236498102 ], [ -72.253766398067199, -37.725002826987598 ], [ -72.256536751248802, -37.724940553272098 ], [ -72.257274117358307, -37.724907673969199 ], [ -72.257190401879996, -37.724745683455801 ], [ -72.257087950137802, -37.724462461170901 ], [ -72.257242301335097, -37.724286557604501 ], [ -72.257395398127002, -37.7240820838514 ], [ -72.257247760899205, -37.724000350669698 ], [ -72.256903541155097, -37.723952659757202 ], [ -72.2564892604492, -37.723949813610602 ], [ -72.256538833437602, -37.7238483222837 ], [ -72.256642985960397, -37.723759624416601 ], [ -72.256334317065196, -37.7234305272993 ], [ -72.256210243871095, -37.723338606286802 ], [ -72.255851069598904, -37.723360455771001 ], [ -72.255884032906906, -37.723085407226201 ], [ -72.256035653070896, -37.723049975232698 ], [ -72.256141707737399, -37.723025191856998 ], [ -72.256314516261597, -37.722978900870899 ], [ -72.256548228594198, -37.722913889163401 ], [ -72.256590877658994, -37.722902025259401 ], [ -72.256664113443904, -37.722875257767001 ], [ -72.2568242081677, -37.7228167464786 ], [ -72.256862002085199, -37.722802932818198 ], [ -72.257006794251296, -37.722750013313103 ], [ -72.257098924484495, -37.722716341469699 ], [ -72.257346237982603, -37.722517112067401 ], [ -72.257442154436504, -37.722427178170598 ], [ -72.257518156684199, -37.722353133952303 ], [ -72.257342799609603, -37.722406207541397 ], [ -72.257281598267696, -37.722379294722003 ], [ -72.257182759090597, -37.722315281465903 ], [ -72.256813616028097, -37.722026968906 ], [ -72.256695307308902, -37.721889047899097 ], [ -72.256476075933804, -37.721633473040498 ], [ -72.256434101249695, -37.721584540113199 ], [ -72.256304664086102, -37.721452788969899 ], [ -72.256031658789595, -37.721303651582197 ], [ -72.2557164112702, -37.721300448271002 ], [ -72.255468604921205, -37.721380329958201 ], [ -72.255413089660905, -37.721398226077397 ], [ -72.255065067618503, -37.7215031985141 ], [ -72.254803094648594, -37.721655101555001 ], [ -72.254747040333001, -37.721687604282799 ], [ -72.254610435626901, -37.721765101884401 ], [ -72.254310339635893, -37.721916717686 ], [ -72.254044656436804, -37.722050945580698 ], [ -72.253759894227798, -37.722194812378902 ], [ -72.253351277533397, -37.7223896548211 ], [ -72.253101792470105, -37.722471933115003 ] ] ] } },
{ "type": "Feature", "properties": { "id": "monoparte.22", "Name": null, "description": null, "timestamp": null, "begin": null, "end": null, "altitudeMode": null, "tessellate": -1, "extrude": 0, "visibility": -1, "drawOrder": null, "icon": null, "REG": "Biobío", "COM": "Mulchén", "LOC": "Mulchén", "ZONA": "ZM", "NOM": "Area consolidada ZM", "UPERM": "Residencial. Equipamiento: cientifico, comercio, culto y cultura, deporte, educacion, esparcimiento, salud, seguirdad, servicios, social. Actividades productivas.", "UPROH": "Todos los usos de suelo no mencionados como permitidos.", "P_DO": "26/06/1989", "N_DOC": "10", "T_DO": "Resolución", "OBS": "2da modificacion PRC Mulchen. Res. Gore N°15. Fecha promulgacion 28.01.2010. Fecha publicacion D.O. 04.05.2010." }, "geometry": { "type": "Polygon", "coordinates": [ [ [ -72.246497912066303, -37.720979195425798 ], [ -72.243139413067297, -37.721727279553498 ], [ -72.242125907618899, -37.719132989423599 ], [ -72.237775763211403, -37.720194273096901 ], [ -72.237713330267596, -37.720210742867899 ], [ -72.239358161456906, -37.724489302186903 ], [ -72.2448285024619, -37.7231658670852 ], [ -72.245030710980501, -37.723712449075798 ], [ -72.245211313333598, -37.723602641406202 ], [ -72.246083475314407, -37.723163821248498 ], [ -72.246711015578597, -37.722896222091599 ], [ -72.247289594804201, -37.722744392391299 ], [ -72.248037851539607, -37.722602183078699 ], [ -72.249200927725596, -37.722434222916 ], [ -72.250008052870101, -37.722361891094302 ], [ -72.250845591078402, -37.722367380204503 ], [ -72.251012404989098, -37.722374445532999 ], [ -72.251035034565703, -37.722223462359104 ], [ -72.251219518132004, -37.722207053291399 ], [ -72.251467551635898, -37.722184990901702 ], [ -72.251702099000795, -37.722164128349199 ], [ -72.251734560958198, -37.722161240892603 ], [ -72.252208885992701, -37.722121450149899 ], [ -72.252242873927301, -37.722118598796598 ], [ -72.252477913877797, -37.722051966500203 ], [ -72.252764585830604, -37.721970696809997 ], [ -72.253010187161493, -37.721873703858499 ], [ -72.253071308914002, -37.721849565271498 ], [ -72.253218892281694, -37.721791281047999 ], [ -72.253281671000593, -37.721756183196099 ], [ -72.253505966996102, -37.721630787442599 ], [ -72.2537758900922, -37.721489836853202 ], [ -72.254067494553993, -37.721300741776602 ], [ -72.254213613857203, -37.721205987902799 ], [ -72.254303969242599, -37.721146046524296 ], [ -72.254581065813497, -37.720962220826799 ], [ -72.254715392626693, -37.720929261442301 ], [ -72.254797438299605, -37.720909130518699 ], [ -72.2549314192932, -37.720876256128903 ], [ -72.2550063530622, -37.720857391068598 ], [ -72.255156313558004, -37.720819636613797 ], [ -72.255186690229905, -37.720811989298497 ], [ -72.255390061379501, -37.720764701806203 ], [ -72.255465939970506, -37.720747059075897 ], [ -72.255595781240203, -37.720748894500403 ], [ -72.255694156399898, -37.720750285159198 ], [ -72.255778291950705, -37.720752727104397 ], [ -72.255782409315401, -37.720709704854997 ], [ -72.255707133394594, -37.720635503948401 ], [ -72.255645943279504, -37.720568414123001 ], [ -72.255517868264505, -37.720427991341801 ], [ -72.255337935667896, -37.720230709464801 ], [ -72.255240577379695, -37.720123963141802 ], [ -72.255088261987297, -37.719965642804901 ], [ -72.254901012972397, -37.719771010349099 ], [ -72.254767407247996, -37.719598301213203 ], [ -72.254667322620406, -37.719505714503498 ], [ -72.254597835548097, -37.719426585847799 ], [ -72.254563751028201, -37.719395657957698 ], [ -72.2544040772664, -37.719250770680397 ], [ -72.254252819303204, -37.719046556345802 ], [ -72.253822308889198, -37.718646620511798 ], [ -72.253363254822006, -37.718763502820501 ], [ -72.248972418280204, -37.719576022039902 ], [ -72.246160207364497, -37.720118413170503 ], [ -72.246497912066303, -37.720979195425798 ] ] ] } },
{ "type": "Feature", "properties": { "id": "monoparte.23", "Name": null, "description": null, "timestamp": null, "begin": null, "end": null, "altitudeMode": null, "tessellate": -1, "extrude": 0, "visibility": -1, "drawOrder": null, "icon": null, "REG": "Biobío", "COM": "Mulchén", "LOC": "Mulchén", "ZONA": "ZM", "NOM": "Area consolidada ZM", "UPERM": "Residencial. Equipamiento: cientifico, comercio, culto y cultura, deporte, educacion, esparcimiento, salud, seguirdad, servicios, social. Actividades productivas.", "UPROH": "Todos los usos de suelo no mencionados como permitidos.", "P_DO": "26/06/1989", "N_DOC": "10", "T_DO": "Resolución", "OBS": "2da modificacion PRC Mulchen. Res. Gore N°15. Fecha promulgacion 28.01.2010. Fecha publicacion D.O. 04.05.2010." }, "geometry": { "type": "Polygon", "coordinates": [ [ [ -72.251417655437905, -37.7091089316881 ], [ -72.251827967323294, -37.709378375753303 ], [ -72.251732623326106, -37.709011490259897 ], [ -72.251870191877202, -37.708284299922298 ], [ -72.252023030988795, -37.7077613621354 ], [ -72.252168358822203, -37.707399726160098 ], [ -72.252578443018706, -37.706887523584399 ], [ -72.252859545866798, -37.706593819084198 ], [ -72.253349752600499, -37.706168795925898 ], [ -72.253733612160005, -37.705936706215802 ], [ -72.254013638430806, -37.705779125162998 ], [ -72.254206448447704, -37.7057038021835 ], [ -72.254461240916797, -37.705607818069801 ], [ -72.254823921945601, -37.705506636615297 ], [ -72.256864044263097, -37.705041728528101 ], [ -72.256798988250196, -37.704812539606898 ], [ -72.2563839067641, -37.703555829191401 ], [ -72.256335542246404, -37.703547631374299 ], [ -72.254629215876093, -37.704636536430399 ], [ -72.254251524597606, -37.704892416096399 ], [ -72.252837862523506, -37.706071734876197 ], [ -72.2512850323224, -37.707310480368697 ], [ -72.251053985231593, -37.708354834646002 ], [ -72.251119378370404, -37.7084175532393 ], [ -72.251476651792601, -37.708407262911898 ], [ -72.251412685315302, -37.708666748420001 ], [ -72.251406488897203, -37.708685184768903 ], [ -72.251396863518494, -37.708817537573097 ], [ -72.251395484437595, -37.708895764215796 ], [ -72.251394449984701, -37.708895915303799 ], [ -72.251417655437905, -37.7091089316881 ] ] ] } },
{ "type": "Feature", "properties": { "id": "monoparte.24", "Name": null, "description": null, "timestamp": null, "begin": null, "end": null, "altitudeMode": null, "tessellate": -1, "extrude": 0, "visibility": -1, "drawOrder": null, "icon": null, "REG": "Biobío", "COM": "Mulchén", "LOC": "Mulchén", "ZONA": "ZM", "NOM": "Area consolidada ZM", "UPERM": "Residencial. Equipamiento: cientifico, comercio, culto y cultura, deporte, educacion, esparcimiento, salud, seguirdad, servicios, social. Actividades productivas.", "UPROH": "Todos los usos de suelo no mencionados como permitidos.", "P_DO": "26/06/1989", "N_DOC": "10", "T_DO": "Resolución", "OBS": "2da modificacion PRC Mulchen. Res. Gore N°15. Fecha promulgacion 28.01.2010. Fecha publicacion D.O. 04.05.2010." }, "geometry": { "type": "Polygon", "coordinates": [ [ [ -72.250697974892404, -37.707036858427301 ], [ -72.251882129950701, -37.705990704166801 ], [ -72.252717745085803, -37.705313878672698 ], [ -72.253740264714807, -37.704498309918499 ], [ -72.254600308961201, -37.703946331936599 ], [ -72.2561448985889, -37.7029408828149 ], [ -72.254825051821598, -37.698903054308197 ], [ -72.254669114157807, -37.698273636579302 ], [ -72.253621275651597, -37.698045109668101 ], [ -72.253070196751494, -37.697935543472099 ], [ -72.252439434926899, -37.6978774244402 ], [ -72.2501528672787, -37.700525808282798 ], [ -72.2501820156333, -37.700803994913898 ], [ -72.250184958392495, -37.701130446880597 ], [ -72.250196921846296, -37.701873467211598 ], [ -72.250237968840693, -37.7028527709003 ], [ -72.250311763885605, -37.703866009366301 ], [ -72.250386925419704, -37.705020860868402 ], [ -72.250459435711903, -37.705948384832801 ], [ -72.250497340203395, -37.706320859860099 ], [ -72.250697974892404, -37.707036858427301 ] ] ] } },
{ "type": "Feature", "properties": { "id": "monoparte.25", "Name": null, "description": null, "timestamp": null, "begin": null, "end": null, "altitudeMode": null, "tessellate": -1, "extrude": 0, "visibility": -1, "drawOrder": null, "icon": null, "REG": "Biobío", "COM": "Mulchén", "LOC": "Mulchén", "ZONA": "ZM", "NOM": "Area consolidada ZM", "UPERM": "Residencial. Equipamiento: cientifico, comercio, culto y cultura, deporte, educacion, esparcimiento, salud, seguirdad, servicios, social. Actividades productivas.", "UPROH": "Todos los usos de suelo no mencionados como permitidos.", "P_DO": "26/06/1989", "N_DOC": "10", "T_DO": "Resolución", "OBS": "2da modificacion PRC Mulchen. Res. Gore N°15. Fecha promulgacion 28.01.2010. Fecha publicacion D.O. 04.05.2010." }, "geometry": { "type": "Polygon", "coordinates": [ [ [ -72.250130039762197, -37.699581418579598 ], [ -72.251564106069395, -37.697839937238903 ], [ -72.250836534905702, -37.6978240199306 ], [ -72.249429801724304, -37.697773441378502 ], [ -72.249613512977803, -37.698043851549699 ], [ -72.249848497295503, -37.698374600944803 ], [ -72.250082363649, -37.698846264099899 ], [ -72.250130039762197, -37.699581418579598 ] ] ] } },
{ "type": "Feature", "properties": { "id": "monoparte.26", "Name": null, "description": null, "timestamp": null, "begin": null, "end": null, "altitudeMode": null, "tessellate": -1, "extrude": 0, "visibility": -1, "drawOrder": null, "icon": null, "REG": "Biobío", "COM": "Mulchén", "LOC": "Mulchén", "ZONA": "ZR", "NOM": "Area especial ZR", "UPERM": "Equipamiento: deporte. Area verde.", "UPROH": "Todos los usos de suelo no mencionados como permitidos.", "P_DO": "26/06/1989", "N_DOC": "10", "T_DO": "Resolución", "OBS": "Publicacion PRC Mulchen. Res. V y U N°10. Fecha promulgacion 20.04.1989. Fecha publicacion D.O. 26.06.1989." }, "geometry": { "type": "Polygon", "coordinates": [ [ [ -72.257315355729801, -37.705156613410303 ], [ -72.257952498368297, -37.7049476391159 ], [ -72.257832938061199, -37.704580368235597 ], [ -72.256400442847806, -37.700250070841903 ], [ -72.255951309679105, -37.6988457629758 ], [ -72.255082969224006, -37.698427232618499 ], [ -72.256096314181704, -37.7015103655364 ], [ -72.256884968580394, -37.703898593025997 ], [ -72.257315355729801, -37.705156613410303 ] ] ] } },
{ "type": "Feature", "properties": { "id": "monoparte.27", "Name": null, "description": null, "timestamp": null, "begin": null, "end": null, "altitudeMode": null, "tessellate": -1, "extrude": 0, "visibility": -1, "drawOrder": null, "icon": null, "REG": "Biobío", "COM": "Mulchén", "LOC": "Mulchén", "ZONA": "ZE2", "NOM": "Area especial 2", "UPERM": "Equipamiento: culto y cultura, deporte, esparcimiento. Area verde.", "UPROH": "Todos los usos de suelo no mencionados como permitidos.", "P_DO": "26/06/1989", "N_DOC": "10", "T_DO": "Resolución", "OBS": "Publicacion PRC Mulchen. Res. V y U N°10. Fecha promulgacion 20.04.1989. Fecha publicacion D.O. 26.06.1989." }, "geometry": { "type": "Polygon", "coordinates": [ [ [ -72.240572621326507, -37.733378820123001 ], [ -72.2409429033046, -37.733421827143701 ], [ -72.241243111305494, -37.733423099183199 ], [ -72.241503603547002, -37.7333396467073 ], [ -72.241607787542506, -37.733250961729198 ], [ -72.241695406678105, -37.7330578449033 ], [ -72.241759875475495, -37.732884436083701 ], [ -72.241788368194804, -37.732712016742802 ], [ -72.241754824599099, -37.732493629699903 ], [ -72.241650579312207, -37.732305794636702 ], [ -72.241519027470005, -37.732042429031402 ], [ -72.2414337794348, -37.731739648079703 ], [ -72.241286221880699, -37.731405724787002 ], [ -72.239960598895905, -37.731756762308898 ], [ -72.240572621326507, -37.733378820123001 ] ] ] } }
]
}
