{
"type": "FeatureCollection",
"name": "IPT_08_PRC_Florida",
"crs": { "type": "name", "properties": { "name": "urn:ogc:def:crs:OGC:1.3:CRS84" } },
"features": [
{ "type": "Feature", "properties": { "id": "ipt_08_prc_florida.1", "Name": null, "description": null, "timestamp": null, "begin": null, "end": null, "altitudeMode": null, "tessellate": -1, "extrude": 0, "visibility": -1, "drawOrder": null, "icon": null, "REG": "Biobío", "COM": "Florida", "LOC": "Florida", "ZONA": "ZEXHC", "NOM": "ZEXHC Zona de extension habitacional condicionada", "UPERM": "Residencial. Equipamiento: comercio, deporte, educacion, esparcimiento, salud. Infraestructura: transporte.", "UPROH": "Todos los usos de suelo no mencionados como permitidos.", "P_DO": "17/11/2007", "N_DOC": "53", "T_DO": "Resolución", "OBS": "Publicacion PRC Florida. Res Gore N°53. Fecha promulgacion 25.04.2007. Fecha publicaicon D.O. 17.11.2007." }, "geometry": { "type": "MultiPolygon", "coordinates": [ [ [ [ -72.651626270993802, -36.808309070601702 ], [ -72.647957160937395, -36.809584969670802 ], [ -72.6478723495662, -36.810784927838498 ], [ -72.647676564082303, -36.8132312598769 ], [ -72.647492037633995, -36.816213203304997 ], [ -72.649803188527002, -36.816199212456098 ], [ -72.649969673911002, -36.813137998601 ], [ -72.649132421228302, -36.813426005041798 ], [ -72.649109443822397, -36.813315528132698 ], [ -72.649196849260093, -36.812916575587899 ], [ -72.649265358064497, -36.812418424956299 ], [ -72.649168530368996, -36.811127120603203 ], [ -72.650835357407999, -36.810539934297999 ], [ -72.651306342024995, -36.811050009106097 ], [ -72.652001466587294, -36.812545280711603 ], [ -72.652001260055997, -36.812606593221602 ], [ -72.651985499344207, -36.817278157252197 ], [ -72.653533838995699, -36.817179217365997 ], [ -72.653520422879495, -36.812501412018896 ], [ -72.651626270993802, -36.808309070601702 ] ] ] ] } },
{ "type": "Feature", "properties": { "id": "ipt_08_prc_florida.2", "Name": null, "description": null, "timestamp": null, "begin": null, "end": null, "altitudeMode": null, "tessellate": -1, "extrude": 0, "visibility": -1, "drawOrder": null, "icon": null, "REG": "Biobío", "COM": "Florida", "LOC": "Florida", "ZONA": "ZH-4", "NOM": "ZH-4 Zona residencial 4", "UPERM": "Residencial. Equipamiento: comercio, culto y cultura, deporte, educacion, servicios, social.", "UPROH": "Todos los usos de suelo no mencionados como permitidos.", "P_DO": "17/11/2007", "N_DOC": "53", "T_DO": "Resolución", "OBS": "Publicacion PRC Florida. Res Gore N°53. Fecha promulgacion 25.04.2007. Fecha publicaicon D.O. 17.11.2007." }, "geometry": { "type": "MultiPolygon", "coordinates": [ [ [ [ -72.652001466587294, -36.812545280711603 ], [ -72.651306342024995, -36.811050009106097 ], [ -72.650835357407999, -36.810539934297999 ], [ -72.649168530368996, -36.811127120603203 ], [ -72.649265358064497, -36.812418424956299 ], [ -72.649196849260093, -36.812916575587899 ], [ -72.649109443822397, -36.813315528132698 ], [ -72.649132421228302, -36.813426005041798 ], [ -72.649969673911002, -36.813137998601 ], [ -72.650988236402299, -36.812823031183399 ], [ -72.651118396986803, -36.812876047276603 ], [ -72.652001260055997, -36.812606593221602 ], [ -72.652001466587294, -36.812545280711603 ] ], [ [ -72.650483812255104, -36.811609826993603 ], [ -72.650586147905202, -36.811823345038398 ], [ -72.650159230372495, -36.811941948945503 ], [ -72.650071600590493, -36.811739380984299 ], [ -72.650483812255104, -36.811609826993603 ] ] ] ] } },
{ "type": "Feature", "properties": { "id": "ipt_08_prc_florida.3", "Name": null, "description": null, "timestamp": null, "begin": null, "end": null, "altitudeMode": null, "tessellate": -1, "extrude": 0, "visibility": -1, "drawOrder": null, "icon": null, "REG": "Biobío", "COM": "Florida", "LOC": "Florida", "ZONA": "AVP", "NOM": "AVP Area verde publica", "UPERM": "Area verde.", "UPROH": "Todos los usos de suelo no mencionados como permitidos.", "P_DO": "17/11/2007", "N_DOC": "53", "T_DO": "Resolución", "OBS": "Publicacion PRC Florida. Res Gore N°53. Fecha promulgacion 25.04.2007. Fecha publicaicon D.O. 17.11.2007." }, "geometry": { "type": "MultiPolygon", "coordinates": [ [ [ [ -72.650483812255104, -36.811609826993603 ], [ -72.650071600590493, -36.811739380984299 ], [ -72.650159230372495, -36.811941948945503 ], [ -72.650586147905202, -36.811823345038398 ], [ -72.650483812255104, -36.811609826993603 ] ] ] ] } },
{ "type": "Feature", "properties": { "id": "ipt_08_prc_florida.4", "Name": null, "description": null, "timestamp": null, "begin": null, "end": null, "altitudeMode": null, "tessellate": -1, "extrude": 0, "visibility": -1, "drawOrder": null, "icon": null, "REG": "Biobío", "COM": "Florida", "LOC": "Florida", "ZONA": "ZH-3", "NOM": "ZH-3 Zona residencial 3", "UPERM": "Residencial. Equipamiento: cientifico, comercio, sulto y cultura, deporte, educacion, esparcimiento, salud, seguridad, servicios, social. Actividades productivas.", "UPROH": "Todos los usos de suelo no mencionados como permitidos.", "P_DO": "17/11/2007", "N_DOC": "53", "T_DO": "Resolución", "OBS": "Publicacion PRC Florida. Res Gore N°53. Fecha promulgacion 25.04.2007. Fecha publicaicon D.O. 17.11.2007." }, "geometry": { "type": "MultiPolygon", "coordinates": [ [ [ [ -72.652001260055997, -36.812606593221602 ], [ -72.651118396986803, -36.812876047276603 ], [ -72.650988236402299, -36.812823031183399 ], [ -72.649969673911002, -36.813137998601 ], [ -72.649803188527002, -36.816199212456098 ], [ -72.647492037633995, -36.816213203304997 ], [ -72.647399185770098, -36.817206721920599 ], [ -72.647243758044397, -36.819457955823403 ], [ -72.647454330790197, -36.8193374547579 ], [ -72.647654121861507, -36.819288555241997 ], [ -72.647832510547502, -36.819311583564897 ], [ -72.648024226395705, -36.819391219872898 ], [ -72.648162944090302, -36.819549455966303 ], [ -72.648221714822995, -36.8197415074319 ], [ -72.648068396872901, -36.820544452051898 ], [ -72.648009035811, -36.820936840163498 ], [ -72.648011696054496, -36.821142018744901 ], [ -72.648104656604005, -36.821307362585202 ], [ -72.648295815208101, -36.821449733396797 ], [ -72.649722969637594, -36.8220815259006 ], [ -72.650915794930498, -36.822632130991202 ], [ -72.651455724438804, -36.822800833572998 ], [ -72.651883743183006, -36.822853239854801 ], [ -72.654423970314696, -36.8230288168903 ], [ -72.654403367595606, -36.820808653814197 ], [ -72.653434437642005, -36.820790002830002 ], [ -72.653533838995699, -36.817179217365997 ], [ -72.651985499344207, -36.817278157252197 ], [ -72.652001260055997, -36.812606593221602 ] ], [ [ -72.652161038276702, -36.819067358949603 ], [ -72.652081984741798, -36.820386875160899 ], [ -72.651444651141503, -36.820406474147198 ], [ -72.651434637528396, -36.819152414721003 ], [ -72.652161038276702, -36.819067358949603 ] ], [ [ -72.650971533477104, -36.818510961790103 ], [ -72.650958413621396, -36.818682415286403 ], [ -72.650774298940803, -36.8186880756028 ], [ -72.650766174693203, -36.818517275216401 ], [ -72.650971533477104, -36.818510961790103 ] ] ] ] } },
{ "type": "Feature", "properties": { "id": "ipt_08_prc_florida.5", "Name": null, "description": null, "timestamp": null, "begin": null, "end": null, "altitudeMode": null, "tessellate": -1, "extrude": 0, "visibility": -1, "drawOrder": null, "icon": null, "REG": "Biobío", "COM": "Florida", "LOC": "Florida", "ZONA": "ZEC", "NOM": "ZEC Zona equipamiento de cementerio", "UPERM": "Equipamiento: salud.", "UPROH": "Todos los usos de suelo no mencionados como permitidos.", "P_DO": "17/11/2007", "N_DOC": "53", "T_DO": "Resolución", "OBS": "Publicacion PRC Florida. Res Gore N°53. Fecha promulgacion 25.04.2007. Fecha publicaicon D.O. 17.11.2007." }, "geometry": { "type": "MultiPolygon", "coordinates": [ [ [ [ -72.652161038276702, -36.819067358949603 ], [ -72.651434637528396, -36.819152414721003 ], [ -72.651444651141503, -36.820406474147198 ], [ -72.652081984741798, -36.820386875160899 ], [ -72.652161038276702, -36.819067358949603 ] ] ] ] } },
{ "type": "Feature", "properties": { "id": "ipt_08_prc_florida.6", "Name": null, "description": null, "timestamp": null, "begin": null, "end": null, "altitudeMode": null, "tessellate": -1, "extrude": 0, "visibility": -1, "drawOrder": null, "icon": null, "REG": "Biobío", "COM": "Florida", "LOC": "Florida", "ZONA": "AVP", "NOM": "AVP Area verde publica", "UPERM": "Area verde.", "UPROH": "Todos los usos de suelo no mencionados como permitidos.", "P_DO": "17/11/2007", "N_DOC": "53", "T_DO": "Resolución", "OBS": "Publicacion PRC Florida. Res Gore N°53. Fecha promulgacion 25.04.2007. Fecha publicaicon D.O. 17.11.2007." }, "geometry": { "type": "MultiPolygon", "coordinates": [ [ [ [ -72.650971533477104, -36.818510961790103 ], [ -72.650766174693203, -36.818517275216401 ], [ -72.650774298940803, -36.8186880756028 ], [ -72.650958413621396, -36.818682415286403 ], [ -72.650971533477104, -36.818510961790103 ] ] ] ] } },
{ "type": "Feature", "properties": { "id": "ipt_08_prc_florida.7", "Name": null, "description": null, "timestamp": null, "begin": null, "end": null, "altitudeMode": null, "tessellate": -1, "extrude": 0, "visibility": -1, "drawOrder": null, "icon": null, "REG": "Biobío", "COM": "Florida", "LOC": "Florida", "ZONA": "ZEXH-1", "NOM": "ZEXH-1 Zona de extension habitacional 1", "UPERM": "Residencial. Equipamiento: cientifico, comercio, culto y cultura, deporte, educacion, esparcimiento, salud, seguridad, servicios, social. Actividades productivas.", "UPROH": "Todos los usos de suelo no mencionados como permitidos.", "P_DO": "17/11/2007", "N_DOC": "53", "T_DO": "Resolución", "OBS": "Publicacion PRC Florida. Res Gore N°53. Fecha promulgacion 25.04.2007. Fecha publicaicon D.O. 17.11.2007." }, "geometry": { "type": "MultiPolygon", "coordinates": [ [ [ [ -72.653533838995699, -36.817179217365997 ], [ -72.653434437642005, -36.820790002830002 ], [ -72.654403367595606, -36.820808653814197 ], [ -72.654423970314696, -36.8230288168903 ], [ -72.656910143106501, -36.823186047725201 ], [ -72.656798879896598, -36.822488169696101 ], [ -72.656965242258593, -36.821365522325799 ], [ -72.657964768252199, -36.820165896726998 ], [ -72.658267395048796, -36.819968420037704 ], [ -72.658614461023006, -36.819512998471197 ], [ -72.6587682353112, -36.818573188983599 ], [ -72.659053266030398, -36.817709158269601 ], [ -72.659557138581206, -36.817568196212399 ], [ -72.6592473464612, -36.816722493931302 ], [ -72.656864724667997, -36.817320439963403 ], [ -72.653533838995699, -36.817179217365997 ] ] ] ] } },
{ "type": "Feature", "properties": { "id": "ipt_08_prc_florida.8", "Name": null, "description": null, "timestamp": null, "begin": null, "end": null, "altitudeMode": null, "tessellate": -1, "extrude": 0, "visibility": -1, "drawOrder": null, "icon": null, "REG": "Biobío", "COM": "Florida", "LOC": "Florida", "ZONA": "ZIS", "NOM": "ZIS Zona infraestructura sanitaria", "UPERM": "Infraestructura: sanitaria.", "UPROH": "Todos los usos de suelo no mencionados como permitidos.", "P_DO": "17/11/2007", "N_DOC": "53", "T_DO": "Resolución", "OBS": "Publicacion PRC Florida. Res Gore N°53. Fecha promulgacion 25.04.2007. Fecha publicaicon D.O. 17.11.2007." }, "geometry": { "type": "MultiPolygon", "coordinates": [ [ [ [ -72.6592473464612, -36.816722493931302 ], [ -72.659557138581206, -36.817568196212399 ], [ -72.660018560057907, -36.818916671067903 ], [ -72.660149234642404, -36.819277549386698 ], [ -72.663651296073297, -36.818359923077502 ], [ -72.663424221749906, -36.817762553587002 ], [ -72.662722884372997, -36.815845626722499 ], [ -72.6592473464612, -36.816722493931302 ] ] ] ] } },
{ "type": "Feature", "properties": { "id": "ipt_08_prc_florida.9", "Name": null, "description": null, "timestamp": null, "begin": null, "end": null, "altitudeMode": null, "tessellate": -1, "extrude": 0, "visibility": -1, "drawOrder": null, "icon": null, "REG": "Biobío", "COM": "Florida", "LOC": "Florida", "ZONA": "ZER", "NOM": "ZER Zona de equipamiento recreativo", "UPERM": "Residencial. Equipamiento: comercio, culto y cultura, deporte, esparcimiento.", "UPROH": "Todos los usos de suelo no mencionados como permitidos.", "P_DO": "17/11/2007", "N_DOC": "53", "T_DO": "Resolución", "OBS": "Publicacion PRC Florida. Res Gore N°53. Fecha promulgacion 25.04.2007. Fecha publicaicon D.O. 17.11.2007." }, "geometry": { "type": "MultiPolygon", "coordinates": [ [ [ [ -72.660018560057907, -36.818916671067903 ], [ -72.659557138581206, -36.817568196212399 ], [ -72.659053266030398, -36.817709158269601 ], [ -72.6587682353112, -36.818573188983599 ], [ -72.658614461023006, -36.819512998471197 ], [ -72.658267395048796, -36.819968420037704 ], [ -72.657964768252199, -36.820165896726998 ], [ -72.656965242258593, -36.821365522325799 ], [ -72.656798879896598, -36.822488169696101 ], [ -72.656910143106501, -36.823186047725201 ], [ -72.657221538533506, -36.824958224267 ], [ -72.657302612135794, -36.825468876295098 ], [ -72.658223597125001, -36.826637853806602 ], [ -72.658225717315105, -36.826979887697298 ], [ -72.654710848091298, -36.827042508962002 ], [ -72.654666884376098, -36.828799972238201 ], [ -72.658125176564099, -36.828739092475203 ], [ -72.658174133384804, -36.829170910690898 ], [ -72.657356178226394, -36.830461873902799 ], [ -72.657202865440297, -36.831709556459202 ], [ -72.657258717850993, -36.833178861456197 ], [ -72.658044666704996, -36.834488835271102 ], [ -72.658239084620703, -36.834995994602501 ], [ -72.658668302421006, -36.835666966135101 ], [ -72.659646001886102, -36.837575394104498 ], [ -72.663763009797293, -36.835629600122097 ], [ -72.663349904708497, -36.835519762273002 ], [ -72.663154878007305, -36.835297712994702 ], [ -72.663076438661406, -36.8351404879905 ], [ -72.663240472854298, -36.834713505798298 ], [ -72.663244307857696, -36.834496725155702 ], [ -72.662543744264397, -36.833788527375098 ], [ -72.662136823447398, -36.833287931023698 ], [ -72.661956549585994, -36.832780343209301 ], [ -72.661728313354402, -36.832456686785797 ], [ -72.661409655414005, -36.8320217853069 ], [ -72.661252210770598, -36.831992430392297 ], [ -72.661004343341801, -36.831851831310502 ], [ -72.660705832951294, -36.831541742758198 ], [ -72.660296263618406, -36.830687718896101 ], [ -72.659946120334695, -36.8295923923665 ], [ -72.660092238765998, -36.828789658465702 ], [ -72.659651105575705, -36.827868184738001 ], [ -72.659029651528897, -36.827032088864598 ], [ -72.658924580384493, -36.826613404316497 ], [ -72.658475977320094, -36.824939538125101 ], [ -72.658347727299301, -36.823141766459301 ], [ -72.658339586025207, -36.822970967612498 ], [ -72.658331444819794, -36.822800168759201 ], [ -72.658864523421201, -36.820890795992 ], [ -72.6594017254411, -36.820258463960002 ], [ -72.660018560057907, -36.818916671067903 ] ] ] ] } },
{ "type": "Feature", "properties": { "id": "ipt_08_prc_florida.10", "Name": null, "description": null, "timestamp": null, "begin": null, "end": null, "altitudeMode": null, "tessellate": -1, "extrude": 0, "visibility": -1, "drawOrder": null, "icon": null, "REG": "Biobío", "COM": "Florida", "LOC": "Florida", "ZONA": "ZH-1", "NOM": "ZH-1 Zona residencial 1", "UPERM": "Residencial. Equipamiento: cientifico, comercio, culto y cultura, deporte, educacion, esparcimiento, salud, seguridad, servicios, social. Actividades productivas.", "UPROH": "Todos los usos de suelo no mencionados como permitidos.", "P_DO": "17/11/2007", "N_DOC": "53", "T_DO": "Resolución", "OBS": "Publicacion PRC Florida. Res Gore N°53. Fecha promulgacion 25.04.2007. Fecha publicaicon D.O. 17.11.2007." }, "geometry": { "type": "MultiPolygon", "coordinates": [ [ [ [ -72.650915794930498, -36.822632130991202 ], [ -72.651137547333207, -36.823491966579603 ], [ -72.651112851866699, -36.824165521812098 ], [ -72.651484434643507, -36.824969434006398 ], [ -72.651818718963796, -36.825734580642603 ], [ -72.651841552388902, -36.825916331725303 ], [ -72.651904987407605, -36.827100327155001 ], [ -72.654710848091298, -36.827042508962002 ], [ -72.658225717315105, -36.826979887697298 ], [ -72.658223597125001, -36.826637853806602 ], [ -72.657302612135794, -36.825468876295098 ], [ -72.657221538533506, -36.824958224267 ], [ -72.656910143106501, -36.823186047725201 ], [ -72.654423970314696, -36.8230288168903 ], [ -72.651883743183006, -36.822853239854801 ], [ -72.651455724438804, -36.822800833572998 ], [ -72.650915794930498, -36.822632130991202 ] ] ] ] } },
{ "type": "Feature", "properties": { "id": "ipt_08_prc_florida.11", "Name": null, "description": null, "timestamp": null, "begin": null, "end": null, "altitudeMode": null, "tessellate": -1, "extrude": 0, "visibility": -1, "drawOrder": null, "icon": null, "REG": "Biobío", "COM": "Florida", "LOC": "Florida", "ZONA": "ZEXH-2", "NOM": "ZEXH-2 Zona de extension habitacional 2", "UPERM": "Residencial. Equipamiento: cientifico, comercio, culto y cultura, deporte, educacion, esparcimiento, salud, seguridad, servicios, social. Actividades productivas. Infraestructura: transporte.", "UPROH": "Todos los usos de suelo no mencionados como permitidos.", "P_DO": "17/11/2007", "N_DOC": "53", "T_DO": "Resolución", "OBS": "Publicacion PRC Florida. Res Gore N°53. Fecha promulgacion 25.04.2007. Fecha publicaicon D.O. 17.11.2007." }, "geometry": { "type": "MultiPolygon", "coordinates": [ [ [ [ -72.650915794930498, -36.822632130991202 ], [ -72.649722969637594, -36.8220815259006 ], [ -72.648295815208101, -36.821449733396797 ], [ -72.648104656604005, -36.821307362585202 ], [ -72.648011696054496, -36.821142018744901 ], [ -72.648009035811, -36.820936840163498 ], [ -72.648068396872901, -36.820544452051898 ], [ -72.648221714822995, -36.8197415074319 ], [ -72.648162944090302, -36.819549455966303 ], [ -72.648024226395705, -36.819391219872898 ], [ -72.647832510547502, -36.819311583564897 ], [ -72.647654121861507, -36.819288555241997 ], [ -72.647454330790197, -36.8193374547579 ], [ -72.647243758044397, -36.819457955823403 ], [ -72.646687130477801, -36.827146653095902 ], [ -72.651904987407605, -36.827100327155001 ], [ -72.651841552388902, -36.825916331725303 ], [ -72.651818718963796, -36.825734580642603 ], [ -72.651484434643507, -36.824969434006398 ], [ -72.651112851866699, -36.824165521812098 ], [ -72.651137547333207, -36.823491966579603 ], [ -72.650915794930498, -36.822632130991202 ] ] ] ] } },
{ "type": "Feature", "properties": { "id": "ipt_08_prc_florida.12", "Name": null, "description": null, "timestamp": null, "begin": null, "end": null, "altitudeMode": null, "tessellate": -1, "extrude": 0, "visibility": -1, "drawOrder": null, "icon": null, "REG": "Biobío", "COM": "Florida", "LOC": "Florida", "ZONA": "ZEXH-2", "NOM": "ZEXH-2 Zona de extension habitacional 2", "UPERM": "Residencial. Equipamiento: cientifico, comercio, culto y cultura, deporte, educacion, esparcimiento, salud, seguridad, servicios, social. Actividades productivas. Infraestructura: transporte.", "UPROH": "Todos los usos de suelo no mencionados como permitidos.", "P_DO": "17/11/2007", "N_DOC": "53", "T_DO": "Resolución", "OBS": "Publicacion PRC Florida. Res Gore N°53. Fecha promulgacion 25.04.2007. Fecha publicaicon D.O. 17.11.2007." }, "geometry": { "type": "MultiPolygon", "coordinates": [ [ [ [ -72.663424221749906, -36.817762553587002 ], [ -72.663651296073297, -36.818359923077502 ], [ -72.660149234642404, -36.819277549386698 ], [ -72.660018560057907, -36.818916671067903 ], [ -72.6594017254411, -36.820258463960002 ], [ -72.658864523421201, -36.820890795992 ], [ -72.658331444819794, -36.822800168759201 ], [ -72.658339586025207, -36.822970967612498 ], [ -72.659693722799901, -36.822664116066001 ], [ -72.660438305306101, -36.821324084160899 ], [ -72.664607735053707, -36.820420064074099 ], [ -72.664757288091494, -36.820136068595403 ], [ -72.665623412926394, -36.819858464362198 ], [ -72.666210628903201, -36.819680690480403 ], [ -72.666671063408998, -36.821451087000597 ], [ -72.666888082729699, -36.822282526470097 ], [ -72.667196124582006, -36.822347135555901 ], [ -72.667421093732202, -36.822454220530297 ], [ -72.667694810328399, -36.822690937564602 ], [ -72.667625113994305, -36.822122926330699 ], [ -72.667654808945102, -36.822002274294 ], [ -72.667861004740899, -36.821716524743898 ], [ -72.667954702872606, -36.821599598692799 ], [ -72.667979778931894, -36.821233919228099 ], [ -72.668039439269094, -36.820998308728399 ], [ -72.668188427085298, -36.8208511660036 ], [ -72.668808065213895, -36.820461416613199 ], [ -72.669013430240099, -36.820306829903203 ], [ -72.669057011890899, -36.8201800464144 ], [ -72.669067381120797, -36.819655176244503 ], [ -72.669181243052094, -36.819218333663997 ], [ -72.669282301074702, -36.818810394354699 ], [ -72.668688622023097, -36.817665603376902 ], [ -72.666936880035905, -36.817514448902898 ], [ -72.663424221749906, -36.817762553587002 ] ] ] ] } },
{ "type": "Feature", "properties": { "id": "ipt_08_prc_florida.13", "Name": null, "description": null, "timestamp": null, "begin": null, "end": null, "altitudeMode": null, "tessellate": -1, "extrude": 0, "visibility": -1, "drawOrder": null, "icon": null, "REG": "Biobío", "COM": "Florida", "LOC": "Florida", "ZONA": "ZEXHC", "NOM": "ZEXHC Zona de extension habitacional condicionada", "UPERM": "Residencial. Equipamiento: comercio, deporte, educacion, esparcimiento, salud. Infraestructura: transporte.", "UPROH": "Todos los usos de suelo no mencionados como permitidos.", "P_DO": "17/11/2007", "N_DOC": "53", "T_DO": "Resolución", "OBS": "Publicacion PRC Florida. Res Gore N°53. Fecha promulgacion 25.04.2007. Fecha publicaicon D.O. 17.11.2007." }, "geometry": { "type": "MultiPolygon", "coordinates": [ [ [ [ -72.666724650996002, -36.826729149837298 ], [ -72.666411065283896, -36.827884860887899 ], [ -72.666069627536402, -36.829942291723697 ], [ -72.664648787074995, -36.830339653801602 ], [ -72.661800267563507, -36.830991997105798 ], [ -72.661509112389794, -36.830687385815601 ], [ -72.661836601530794, -36.830118524459202 ], [ -72.661690700711802, -36.829290583636599 ], [ -72.661696226116902, -36.8286632330815 ], [ -72.661688441046607, -36.827756911818298 ], [ -72.661644317422102, -36.827724062597802 ], [ -72.659651105575705, -36.827868184738001 ], [ -72.660092238765998, -36.828789658465702 ], [ -72.659946120334695, -36.8295923923665 ], [ -72.660296263618406, -36.830687718896101 ], [ -72.660705832951294, -36.831541742758198 ], [ -72.661004343341801, -36.831851831310502 ], [ -72.661252210770598, -36.831992430392297 ], [ -72.661409655414005, -36.8320217853069 ], [ -72.661728313354402, -36.832456686785797 ], [ -72.661956549585994, -36.832780343209301 ], [ -72.662136823447398, -36.833287931023698 ], [ -72.662543744264397, -36.833788527375098 ], [ -72.663244307857696, -36.834496725155702 ], [ -72.663240472854298, -36.834713505798298 ], [ -72.663076438661406, -36.8351404879905 ], [ -72.663154878007305, -36.835297712994702 ], [ -72.663349904708497, -36.835519762273002 ], [ -72.663763009797293, -36.835629600122097 ], [ -72.664827370649107, -36.835117814212303 ], [ -72.664480613088699, -36.834837733812599 ], [ -72.664435942329106, -36.834793498494001 ], [ -72.664461293408607, -36.834581755931502 ], [ -72.664441689249102, -36.834468329119098 ], [ -72.664001255880194, -36.833860442297798 ], [ -72.663574980306294, -36.833400360334302 ], [ -72.663208089771103, -36.832995460060999 ], [ -72.663080618333098, -36.832851150082 ], [ -72.663000023436794, -36.832500135610204 ], [ -72.662675379050299, -36.8319399853672 ], [ -72.664155339472899, -36.831888622181303 ], [ -72.665753259650003, -36.831634041031599 ], [ -72.667952902653695, -36.831206907292298 ], [ -72.667728544014096, -36.829035815297601 ], [ -72.667674097877196, -36.828341897551603 ], [ -72.667562195447502, -36.827336164840602 ], [ -72.667531993847803, -36.826704216460698 ], [ -72.666724650996002, -36.826729149837298 ] ] ] ] } },
{ "type": "Feature", "properties": { "id": "ipt_08_prc_florida.14", "Name": null, "description": null, "timestamp": null, "begin": null, "end": null, "altitudeMode": null, "tessellate": -1, "extrude": 0, "visibility": -1, "drawOrder": null, "icon": null, "REG": "Biobío", "COM": "Florida", "LOC": "Florida", "ZONA": "ZAP", "NOM": "ZAP Zona de actividades productivas", "UPERM": "Residencial. Equipamiento: cientifico, comercio, seguridad, servicios, social. Actividades productivas. Infraestructura de transporte.", "UPROH": "Todos los usos de suelo no mencionados como permitidos.", "P_DO": "17/11/2007", "N_DOC": "53", "T_DO": "Resolución", "OBS": "Publicacion PRC Florida. Res Gore N°53. Fecha promulgacion 25.04.2007. Fecha publicaicon D.O. 17.11.2007." }, "geometry": { "type": "MultiPolygon", "coordinates": [ [ [ [ -72.666724650996002, -36.826729149837298 ], [ -72.667531993847803, -36.826704216460698 ], [ -72.672686876293398, -36.8266033279452 ], [ -72.672864196596805, -36.826603545344497 ], [ -72.674767788491494, -36.824885476572 ], [ -72.676263682679803, -36.825169867479197 ], [ -72.677661249210004, -36.825326146922102 ], [ -72.678162497565097, -36.823058483130801 ], [ -72.676765791574994, -36.8229192863677 ], [ -72.676172025433303, -36.8228122342164 ], [ -72.672098506345094, -36.8221628520838 ], [ -72.670898199541597, -36.821829357436798 ], [ -72.670193053777197, -36.821617387329503 ], [ -72.669119091997501, -36.820662767918101 ], [ -72.668875197153795, -36.820567674091201 ], [ -72.668808065213895, -36.820461416613199 ], [ -72.668188427085298, -36.8208511660036 ], [ -72.668039439269094, -36.820998308728399 ], [ -72.667979778931894, -36.821233919228099 ], [ -72.667954702872606, -36.821599598692799 ], [ -72.667861004740899, -36.821716524743898 ], [ -72.667654808945102, -36.822002274294 ], [ -72.667625113994305, -36.822122926330699 ], [ -72.667694810328399, -36.822690937564602 ], [ -72.667902344994403, -36.8228783830099 ], [ -72.668199703882294, -36.824351621554001 ], [ -72.668236724531297, -36.824829415409297 ], [ -72.667713158956104, -36.826042932068198 ], [ -72.666724650996002, -36.826729149837298 ] ] ] ] } },
{ "type": "Feature", "properties": { "id": "ipt_08_prc_florida.15", "Name": null, "description": null, "timestamp": null, "begin": null, "end": null, "altitudeMode": null, "tessellate": -1, "extrude": 0, "visibility": -1, "drawOrder": null, "icon": null, "REG": "Biobío", "COM": "Florida", "LOC": "Florida", "ZONA": "ZH-5", "NOM": "ZH-5 Zono residencial 5", "UPERM": "Residencial. Equipamiento: comercio, culto y cultura, deporte, educacion, esparcimiento, salud, seguridad, servicios, social.", "UPROH": "Todos los usos de suelo no mencionados como permitidos.", "P_DO": "17/11/2007", "N_DOC": "53", "T_DO": "Resolución", "OBS": "Publicacion PRC Florida. Res Gore N°53. Fecha promulgacion 25.04.2007. Fecha publicaicon D.O. 17.11.2007." }, "geometry": { "type": "MultiPolygon", "coordinates": [ [ [ [ -72.677661249210004, -36.825326146922102 ], [ -72.676263682679803, -36.825169867479197 ], [ -72.674767788491494, -36.824885476572 ], [ -72.672864196596805, -36.826603545344497 ], [ -72.672686876293398, -36.8266033279452 ], [ -72.673129184147498, -36.830657755687099 ], [ -72.671845725104404, -36.835851720248201 ], [ -72.675027402103694, -36.836303487969197 ], [ -72.677661249210004, -36.825326146922102 ] ] ] ] } },
{ "type": "Feature", "properties": { "id": "ipt_08_prc_florida.16", "Name": null, "description": null, "timestamp": null, "begin": null, "end": null, "altitudeMode": null, "tessellate": -1, "extrude": 0, "visibility": -1, "drawOrder": null, "icon": null, "REG": "Biobío", "COM": "Florida", "LOC": "Florida", "ZONA": "ZH-1", "NOM": "ZH-1 Zona residencial 1", "UPERM": "Residencial. Equipamiento: cientifico, comercio, culto y cultura, deporte, educacion, esparcimiento, salud, seguridad, servicios, social. Actividades productivas.", "UPROH": "Todos los usos de suelo no mencionados como permitidos.", "P_DO": "17/11/2007", "N_DOC": "53", "T_DO": "Resolución", "OBS": "Publicacion PRC Florida. Res Gore N°53. Fecha promulgacion 25.04.2007. Fecha publicaicon D.O. 17.11.2007." }, "geometry": { "type": "MultiPolygon", "coordinates": [ [ [ [ -72.666888082729699, -36.822282526470097 ], [ -72.664238485465106, -36.822452692631501 ], [ -72.662034464300206, -36.822634714851603 ], [ -72.660396371299896, -36.823084336255398 ], [ -72.659093345003697, -36.823124495235703 ], [ -72.658348132979498, -36.823147456066899 ], [ -72.658475977320094, -36.824939538125101 ], [ -72.658924580384493, -36.826613404316497 ], [ -72.659029651528897, -36.827032088864598 ], [ -72.659651105575705, -36.827868184738001 ], [ -72.661644317422102, -36.827724062597802 ], [ -72.661688441046607, -36.827756911818298 ], [ -72.661696226116902, -36.8286632330815 ], [ -72.661690700711802, -36.829290583636599 ], [ -72.661836601530794, -36.830118524459202 ], [ -72.661509112389794, -36.830687385815601 ], [ -72.661800267563507, -36.830991997105798 ], [ -72.664648787074995, -36.830339653801602 ], [ -72.666069627536402, -36.829942291723697 ], [ -72.666411065283896, -36.827884860887899 ], [ -72.666724650996002, -36.826729149837298 ], [ -72.667713158956104, -36.826042932068198 ], [ -72.668236724531297, -36.824829415409297 ], [ -72.668199703882294, -36.824351621554001 ], [ -72.667902344994403, -36.8228783830099 ], [ -72.667694810328399, -36.822690937564602 ], [ -72.667421093732202, -36.822454220530297 ], [ -72.667196124582006, -36.822347135555901 ], [ -72.666888082729699, -36.822282526470097 ] ], [ [ -72.663404344170601, -36.8232153664677 ], [ -72.663737346604606, -36.826922563100702 ], [ -72.660994418506405, -36.827109793221602 ], [ -72.659665711791604, -36.8272077684096 ], [ -72.659269734457595, -36.823365656648299 ], [ -72.663404344170601, -36.8232153664677 ] ], [ [ -72.664311885818194, -36.829003038702197 ], [ -72.664333933518705, -36.829167705448903 ], [ -72.663988537650994, -36.8292125738595 ], [ -72.663928347095194, -36.829140309380399 ], [ -72.663966761376997, -36.829053599847398 ], [ -72.664311885818194, -36.829003038702197 ] ] ] ] } },
{ "type": "Feature", "properties": { "id": "ipt_08_prc_florida.17", "Name": null, "description": null, "timestamp": null, "begin": null, "end": null, "altitudeMode": null, "tessellate": -1, "extrude": 0, "visibility": -1, "drawOrder": null, "icon": null, "REG": "Biobío", "COM": "Florida", "LOC": "Florida", "ZONA": "AVP", "NOM": "AVP Area verde publica", "UPERM": "Area verde.", "UPROH": "Todos los usos de suelo no mencionados como permitidos.", "P_DO": "17/11/2007", "N_DOC": "53", "T_DO": "Resolución", "OBS": "Publicacion PRC Florida. Res Gore N°53. Fecha promulgacion 25.04.2007. Fecha publicaicon D.O. 17.11.2007." }, "geometry": { "type": "MultiPolygon", "coordinates": [ [ [ [ -72.665129701227002, -36.821326196151702 ], [ -72.664539207057899, -36.821435646426302 ], [ -72.664214546125393, -36.8214684715172 ], [ -72.664229223168803, -36.821775907491698 ], [ -72.665179231550397, -36.821769395633801 ], [ -72.665129701227002, -36.821326196151702 ] ] ] ] } },
{ "type": "Feature", "properties": { "id": "ipt_08_prc_florida.18", "Name": null, "description": null, "timestamp": null, "begin": null, "end": null, "altitudeMode": null, "tessellate": -1, "extrude": 0, "visibility": -1, "drawOrder": null, "icon": null, "REG": "Biobío", "COM": "Florida", "LOC": "Florida", "ZONA": "AVP", "NOM": "AVP Area verde publica", "UPERM": "Area verde.", "UPROH": "Todos los usos de suelo no mencionados como permitidos.", "P_DO": "17/11/2007", "N_DOC": "53", "T_DO": "Resolución", "OBS": "Publicacion PRC Florida. Res Gore N°53. Fecha promulgacion 25.04.2007. Fecha publicaicon D.O. 17.11.2007." }, "geometry": { "type": "MultiPolygon", "coordinates": [ [ [ [ -72.661976212841907, -36.821822601143801 ], [ -72.661303990598, -36.822002975595801 ], [ -72.661446123683902, -36.8223064822974 ], [ -72.662104728292505, -36.822137930245603 ], [ -72.661976212841907, -36.821822601143801 ] ] ] ] } },
{ "type": "Feature", "properties": { "id": "ipt_08_prc_florida.19", "Name": null, "description": null, "timestamp": null, "begin": null, "end": null, "altitudeMode": null, "tessellate": -1, "extrude": 0, "visibility": -1, "drawOrder": null, "icon": null, "REG": "Biobío", "COM": "Florida", "LOC": "Florida", "ZONA": "AVP", "NOM": "AVP Area verde publica", "UPERM": "Area verde.", "UPROH": "Todos los usos de suelo no mencionados como permitidos.", "P_DO": "17/11/2007", "N_DOC": "53", "T_DO": "Resolución", "OBS": "Publicacion PRC Florida. Res Gore N°53. Fecha promulgacion 25.04.2007. Fecha publicaicon D.O. 17.11.2007." }, "geometry": { "type": "MultiPolygon", "coordinates": [ [ [ [ -72.664311885818194, -36.829003038702197 ], [ -72.663966761376997, -36.829053599847398 ], [ -72.663928347095194, -36.829140309380399 ], [ -72.663988537650994, -36.8292125738595 ], [ -72.664333933518705, -36.829167705448903 ], [ -72.664311885818194, -36.829003038702197 ] ] ] ] } },
{ "type": "Feature", "properties": { "id": "ipt_08_prc_florida.20", "Name": null, "description": null, "timestamp": null, "begin": null, "end": null, "altitudeMode": null, "tessellate": -1, "extrude": 0, "visibility": -1, "drawOrder": null, "icon": null, "REG": "Biobío", "COM": "Florida", "LOC": "Florida", "ZONA": "ZHCC", "NOM": "ZHCC Zona centro civico", "UPERM": "Residencial. Equipamiento: cientifico, comercio, culto y cultura, deporte, educacion, esparcimiento, salud, seguridad, servicios, social. Actividades productivas.", "UPROH": "Todos los usos de suelo no mencionados como permitidos.", "P_DO": "17/11/2007", "N_DOC": "53", "T_DO": "Resolución", "OBS": "Publicacion PRC Florida. Res Gore N°53. Fecha promulgacion 25.04.2007. Fecha publicaicon D.O. 17.11.2007." }, "geometry": { "type": "MultiPolygon", "coordinates": [ [ [ [ -72.663404344170601, -36.8232153664677 ], [ -72.659269734457595, -36.823365656648299 ], [ -72.659665711791604, -36.8272077684096 ], [ -72.663737346604606, -36.826922563100702 ], [ -72.663404344170601, -36.8232153664677 ] ], [ [ -72.662082598107204, -36.824869701878903 ], [ -72.662154148580598, -36.825551692015999 ], [ -72.660994077709802, -36.8256159726512 ], [ -72.660941789088099, -36.825560568262901 ], [ -72.6608619336114, -36.824927296972398 ], [ -72.662082598107204, -36.824869701878903 ] ] ] ] } },
{ "type": "Feature", "properties": { "id": "ipt_08_prc_florida.21", "Name": null, "description": null, "timestamp": null, "begin": null, "end": null, "altitudeMode": null, "tessellate": -1, "extrude": 0, "visibility": -1, "drawOrder": null, "icon": null, "REG": "Biobío", "COM": "Florida", "LOC": "Florida", "ZONA": "AVP", "NOM": "AVP Area verde publica", "UPERM": "Area verde.", "UPROH": "Todos los usos de suelo no mencionados como permitidos.", "P_DO": "17/11/2007", "N_DOC": "53", "T_DO": "Resolución", "OBS": "Publicacion PRC Florida. Res Gore N°53. Fecha promulgacion 25.04.2007. Fecha publicaicon D.O. 17.11.2007." }, "geometry": { "type": "MultiPolygon", "coordinates": [ [ [ [ -72.662082598107204, -36.824869701878903 ], [ -72.6608619336114, -36.824927296972398 ], [ -72.660941789088099, -36.825560568262901 ], [ -72.660994077709802, -36.8256159726512 ], [ -72.662154148580598, -36.825551692015999 ], [ -72.662082598107204, -36.824869701878903 ] ] ] ] } },
{ "type": "Feature", "properties": { "id": "ipt_08_prc_florida.22", "Name": null, "description": null, "timestamp": null, "begin": null, "end": null, "altitudeMode": null, "tessellate": -1, "extrude": 0, "visibility": -1, "drawOrder": null, "icon": null, "REG": "Biobío", "COM": "Florida", "LOC": "Copiulemu", "ZONA": "ZAP", "NOM": "ZAP Zona de actividades productivas", "UPERM": "Residencial. Equipamiento: cientifico, comercio, seguridad, servicios, social. Actividades productivas. Infraestructura de transporte.", "UPROH": "Todos los usos de suelo no mencionados como permitidos.", "P_DO": "17/11/2007", "N_DOC": "53", "T_DO": "Resolución", "OBS": "Publicacion PRC Florida. Res Gore N°53. Fecha promulgacion 25.04.2007. Fecha publicaicon D.O. 17.11.2007." }, "geometry": { "type": "MultiPolygon", "coordinates": [ [ [ [ -72.805477827040207, -36.891399681798497 ], [ -72.804125736915395, -36.890758877053798 ], [ -72.803995837095101, -36.891430100335498 ], [ -72.803622969212995, -36.8923542694098 ], [ -72.802820848908198, -36.893782513372997 ], [ -72.801722112034795, -36.895670662653401 ], [ -72.800558668916594, -36.897686306190899 ], [ -72.801076635133697, -36.897538581387799 ], [ -72.801381996228599, -36.897255133035898 ], [ -72.8014554524907, -36.897019024439302 ], [ -72.801616237471407, -36.896683194210603 ], [ -72.801888437252103, -36.896303884649399 ], [ -72.802420087651399, -36.895431644443498 ], [ -72.802452429222399, -36.895225360162101 ], [ -72.802516797771901, -36.8950921656809 ], [ -72.802668473198295, -36.895001783825698 ], [ -72.802970673537899, -36.894940786171603 ], [ -72.803103948189104, -36.894622940404098 ], [ -72.803300141024096, -36.894428506495899 ], [ -72.803397679584194, -36.894248638391701 ], [ -72.8034132984926, -36.893991577348501 ], [ -72.803461525645901, -36.893676456584998 ], [ -72.803924205847295, -36.8932739319728 ], [ -72.804309775271406, -36.892890982607 ], [ -72.804393418775604, -36.892717260182003 ], [ -72.804451838719402, -36.892464526679703 ], [ -72.804570647018295, -36.892141442395697 ], [ -72.804786971443207, -36.891781021997403 ], [ -72.805110432851706, -36.891576803240497 ], [ -72.805477827040207, -36.891399681798497 ] ] ] ] } },
{ "type": "Feature", "properties": { "id": "ipt_08_prc_florida.23", "Name": null, "description": null, "timestamp": null, "begin": null, "end": null, "altitudeMode": null, "tessellate": -1, "extrude": 0, "visibility": -1, "drawOrder": null, "icon": null, "REG": "Biobío", "COM": "Florida", "LOC": "Copiulemu", "ZONA": "ZER", "NOM": "ZER Zona de equipamiento recreativo", "UPERM": "Residencial. Equipamiento: comercio, culto y cultura, deporte, esparcimiento.", "UPROH": "Todos los usos de suelo no mencionados como permitidos.", "P_DO": "17/11/2007", "N_DOC": "53", "T_DO": "Resolución", "OBS": "Publicacion PRC Florida. Res Gore N°53. Fecha promulgacion 25.04.2007. Fecha publicaicon D.O. 17.11.2007." }, "geometry": { "type": "MultiPolygon", "coordinates": [ [ [ [ -72.805477827040207, -36.891399681798497 ], [ -72.805110432851706, -36.891576803240497 ], [ -72.804786971443207, -36.891781021997403 ], [ -72.804570647018295, -36.892141442395697 ], [ -72.804451838719402, -36.892464526679703 ], [ -72.804393418775604, -36.892717260182003 ], [ -72.804309775271406, -36.892890982607 ], [ -72.803924205847295, -36.8932739319728 ], [ -72.803461525645901, -36.893676456584998 ], [ -72.8034132984926, -36.893991577348501 ], [ -72.803397679584194, -36.894248638391701 ], [ -72.803300141024096, -36.894428506495899 ], [ -72.803103948189104, -36.894622940404098 ], [ -72.802970673537899, -36.894940786171603 ], [ -72.802668473198295, -36.895001783825698 ], [ -72.802516797771901, -36.8950921656809 ], [ -72.802452429222399, -36.895225360162101 ], [ -72.802420087651399, -36.895431644443498 ], [ -72.801888437252103, -36.896303884649399 ], [ -72.801616237471407, -36.896683194210603 ], [ -72.8014554524907, -36.897019024439302 ], [ -72.801381996228599, -36.897255133035898 ], [ -72.801076635133697, -36.897538581387799 ], [ -72.800558668916594, -36.897686306190899 ], [ -72.800091508924595, -36.898356926193401 ], [ -72.799680087758802, -36.898792003388401 ], [ -72.800065639451901, -36.898836668608503 ], [ -72.800645220967596, -36.898071225730703 ], [ -72.801421767805095, -36.897698564304299 ], [ -72.801587907171196, -36.897613422970998 ], [ -72.801955020640406, -36.897715685563803 ], [ -72.802060554029893, -36.897125065788302 ], [ -72.802120682810397, -36.896906486621802 ], [ -72.8030832879314, -36.895564324281104 ], [ -72.803709181822597, -36.894660552406201 ], [ -72.803905386252495, -36.894323582949099 ], [ -72.803911639558393, -36.894163745555602 ], [ -72.804209325947099, -36.893869133754102 ], [ -72.804370346692295, -36.893824060975 ], [ -72.804678779497806, -36.893745755658699 ], [ -72.804940999649006, -36.893737345933502 ], [ -72.804941025768201, -36.893452278554697 ], [ -72.805010250897695, -36.892845714676398 ], [ -72.805026997477398, -36.892611423661997 ], [ -72.805021903182194, -36.892508962745801 ], [ -72.805123962822194, -36.892420169043703 ], [ -72.805917728039702, -36.8919671087721 ], [ -72.806185057261004, -36.891776090339697 ], [ -72.8063664842512, -36.891713257670403 ], [ -72.806600642489897, -36.891568913246601 ], [ -72.806880444768694, -36.891343285068601 ], [ -72.807167331591501, -36.891117428943403 ], [ -72.807376828279999, -36.890905457314901 ], [ -72.807485969238797, -36.890816435351702 ], [ -72.807605876731401, -36.8908011848307 ], [ -72.807740516197498, -36.8909393981859 ], [ -72.807967559207299, -36.891222880802196 ], [ -72.807942280336107, -36.892141607173699 ], [ -72.807967222595806, -36.892214923701502 ], [ -72.808421900191703, -36.892508203831099 ], [ -72.808584042189594, -36.8926284288342 ], [ -72.808652355167496, -36.892717457491599 ], [ -72.8087107318715, -36.893177391855701 ], [ -72.808940906536506, -36.893380952977402 ], [ -72.809188367802406, -36.893789206007703 ], [ -72.809287571531897, -36.894213621139201 ], [ -72.809614390332001, -36.895360499383401 ], [ -72.809435500400497, -36.895759636087 ], [ -72.809359794830797, -36.896235277499997 ], [ -72.809572976640595, -36.896239835342797 ], [ -72.809898705952605, -36.896223675206102 ], [ -72.810102540102207, -36.895897854660497 ], [ -72.810203746417301, -36.895791980472801 ], [ -72.810256193056304, -36.895704775668698 ], [ -72.810264983210601, -36.8955961675072 ], [ -72.810149611412896, -36.895274896733603 ], [ -72.810176549123796, -36.894960458511001 ], [ -72.809826188375098, -36.894053793247998 ], [ -72.809640808893803, -36.893466807232102 ], [ -72.809338342163898, -36.893379596271899 ], [ -72.809249616189902, -36.893308326988702 ], [ -72.809130276515106, -36.893192429735102 ], [ -72.809024827859602, -36.893070386414898 ], [ -72.8089616176904, -36.8929412843382 ], [ -72.808932709854702, -36.892788276573498 ], [ -72.808897280040597, -36.892646879948401 ], [ -72.808761220306096, -36.892480207390904 ], [ -72.808611834868003, -36.892331065985999 ], [ -72.808476624916807, -36.892181471169202 ], [ -72.808448568005005, -36.892045538608798 ], [ -72.808430436914904, -36.891823768642503 ], [ -72.808391894618296, -36.891619757394601 ], [ -72.808162308210299, -36.891142511603398 ], [ -72.808005565750193, -36.890845371385701 ], [ -72.807840030891796, -36.890656838196797 ], [ -72.807618660768298, -36.890344667844701 ], [ -72.807450845275298, -36.890395662867398 ], [ -72.807296627076795, -36.890577353663602 ], [ -72.806809324344499, -36.890912264563298 ], [ -72.806608337199904, -36.891009934377699 ], [ -72.806008759002594, -36.891513782742997 ], [ -72.805898766274197, -36.891585727131002 ], [ -72.805477827040207, -36.891399681798497 ] ] ] ] } },
{ "type": "Feature", "properties": { "id": "ipt_08_prc_florida.24", "Name": null, "description": null, "timestamp": null, "begin": null, "end": null, "altitudeMode": null, "tessellate": -1, "extrude": 0, "visibility": -1, "drawOrder": null, "icon": null, "REG": "Biobío", "COM": "Florida", "LOC": "Copiulemu", "ZONA": "ZEXH-2", "NOM": "ZEXH-2 Zona de extension habitacional 2", "UPERM": "Residencial. Equipamiento: cientifico, comercio, culto y cultura, deporte, educacion, esparcimiento, salud, seguridad, servicios, social. Actividades productivas. Infraestructura: transporte.", "UPROH": "Todos los usos de suelo no mencionados como permitidos.", "P_DO": "17/11/2007", "N_DOC": "53", "T_DO": "Resolución", "OBS": "Publicacion PRC Florida. Res Gore N°53. Fecha promulgacion 25.04.2007. Fecha publicaicon D.O. 17.11.2007." }, "geometry": { "type": "MultiPolygon", "coordinates": [ [ [ [ -72.806185057261004, -36.891776090339697 ], [ -72.807506140106398, -36.892434970098797 ], [ -72.807683020679903, -36.892566126102501 ], [ -72.808022616671494, -36.892686357852298 ], [ -72.8087107318715, -36.893177391855701 ], [ -72.808652355167496, -36.892717457491599 ], [ -72.808584042189594, -36.8926284288342 ], [ -72.808421900191703, -36.892508203831099 ], [ -72.807967222595806, -36.892214923701502 ], [ -72.807942280336107, -36.892141607173699 ], [ -72.807967559207299, -36.891222880802196 ], [ -72.807740516197498, -36.8909393981859 ], [ -72.807605876731401, -36.8908011848307 ], [ -72.807485969238797, -36.890816435351702 ], [ -72.807376828279999, -36.890905457314901 ], [ -72.807167331591501, -36.891117428943403 ], [ -72.806880444768694, -36.891343285068601 ], [ -72.806600642489897, -36.891568913246601 ], [ -72.8063664842512, -36.891713257670403 ], [ -72.806185057261004, -36.891776090339697 ] ] ] ] } },
{ "type": "Feature", "properties": { "id": "ipt_08_prc_florida.25", "Name": null, "description": null, "timestamp": null, "begin": null, "end": null, "altitudeMode": null, "tessellate": -1, "extrude": 0, "visibility": -1, "drawOrder": null, "icon": null, "REG": "Biobío", "COM": "Florida", "LOC": "Copiulemu", "ZONA": "ZH-4", "NOM": "ZH-4 Zona residencial 4", "UPERM": "Residencial. Equipamiento: comercio, culto y cultura, deporte, educacion, servicios, social.", "UPROH": "Todos los usos de suelo no mencionados como permitidos.", "P_DO": "17/11/2007", "N_DOC": "53", "T_DO": "Resolución", "OBS": "Publicacion PRC Florida. Res Gore N°53. Fecha promulgacion 25.04.2007. Fecha publicaicon D.O. 17.11.2007." }, "geometry": { "type": "MultiPolygon", "coordinates": [ [ [ [ -72.806185057261004, -36.891776090339697 ], [ -72.805917728039702, -36.8919671087721 ], [ -72.805123962822194, -36.892420169043703 ], [ -72.805021903182194, -36.892508962745801 ], [ -72.805026997477398, -36.892611423661997 ], [ -72.805010250897695, -36.892845714676398 ], [ -72.804941025768201, -36.893452278554697 ], [ -72.804940999649006, -36.893737345933502 ], [ -72.806149324221195, -36.8938411242302 ], [ -72.806146503904102, -36.893641667124598 ], [ -72.8064543795128, -36.893409438314499 ], [ -72.8076421496568, -36.8934568465029 ], [ -72.807648678354795, -36.893302701150098 ], [ -72.808940906536506, -36.893380952977402 ], [ -72.8087107318715, -36.893177391855701 ], [ -72.808022616671494, -36.892686357852298 ], [ -72.807683020679903, -36.892566126102501 ], [ -72.807506140106398, -36.892434970098797 ], [ -72.806185057261004, -36.891776090339697 ] ] ] ] } },
{ "type": "Feature", "properties": { "id": "ipt_08_prc_florida.26", "Name": null, "description": null, "timestamp": null, "begin": null, "end": null, "altitudeMode": null, "tessellate": -1, "extrude": 0, "visibility": -1, "drawOrder": null, "icon": null, "REG": "Biobío", "COM": "Florida", "LOC": "Copiulemu", "ZONA": "ZEXHC", "NOM": "ZEXHC Zona de extension habitacional condicionada", "UPERM": "Residencial. Equipamiento: comercio, deporte, educacion, esparcimiento, salud. Infraestructura: transporte.", "UPROH": "Todos los usos de suelo no mencionados como permitidos.", "P_DO": "17/11/2007", "N_DOC": "53", "T_DO": "Resolución", "OBS": "Publicacion PRC Florida. Res Gore N°53. Fecha promulgacion 25.04.2007. Fecha publicaicon D.O. 17.11.2007." }, "geometry": { "type": "MultiPolygon", "coordinates": [ [ [ [ -72.806149324221195, -36.8938411242302 ], [ -72.804940999649006, -36.893737345933502 ], [ -72.804967464022496, -36.894198306032301 ], [ -72.804851497183904, -36.894435780692703 ], [ -72.804954036289104, -36.895356110780398 ], [ -72.804660874997694, -36.895741800954099 ], [ -72.803896560103098, -36.896074180791501 ], [ -72.803399228942098, -36.896922520816901 ], [ -72.803352713875, -36.897129260534399 ], [ -72.803836220197098, -36.898430771075397 ], [ -72.804360179510795, -36.8978324337712 ], [ -72.804557803923501, -36.897523925757298 ], [ -72.804932622715796, -36.897067200835501 ], [ -72.805229452578104, -36.896898043454499 ], [ -72.805801836664102, -36.896702943098397 ], [ -72.806149324221195, -36.8938411242302 ] ] ] ] } },
{ "type": "Feature", "properties": { "id": "ipt_08_prc_florida.27", "Name": null, "description": null, "timestamp": null, "begin": null, "end": null, "altitudeMode": null, "tessellate": -1, "extrude": 0, "visibility": -1, "drawOrder": null, "icon": null, "REG": "Biobío", "COM": "Florida", "LOC": "Copiulemu", "ZONA": "ZEXH-1", "NOM": "ZEXH-1 Zona de extension habitacional 1", "UPERM": "Residencial. Equipamiento: cientifico, comercio, culto y cultura, deporte, educacion, esparcimiento, salud, seguridad, servicios, social. Actividades productivas.", "UPROH": "Todos los usos de suelo no mencionados como permitidos.", "P_DO": "17/11/2007", "N_DOC": "53", "T_DO": "Resolución", "OBS": "Publicacion PRC Florida. Res Gore N°53. Fecha promulgacion 25.04.2007. Fecha publicaicon D.O. 17.11.2007." }, "geometry": { "type": "MultiPolygon", "coordinates": [ [ [ [ -72.810149611412896, -36.895274896733603 ], [ -72.810264983210601, -36.8955961675072 ], [ -72.810256193056304, -36.895704775668698 ], [ -72.810203746417301, -36.895791980472801 ], [ -72.810102540102207, -36.895897854660497 ], [ -72.809898705952605, -36.896223675206102 ], [ -72.809989842196302, -36.896414593230297 ], [ -72.810755823963902, -36.896686462696998 ], [ -72.810861848773399, -36.8968198893051 ], [ -72.812366891828205, -36.896395250718903 ], [ -72.811679151066201, -36.894843779049801 ], [ -72.810149611412896, -36.895274896733603 ] ] ] ] } },
{ "type": "Feature", "properties": { "id": "ipt_08_prc_florida.28", "Name": null, "description": null, "timestamp": null, "begin": null, "end": null, "altitudeMode": null, "tessellate": -1, "extrude": 0, "visibility": -1, "drawOrder": null, "icon": null, "REG": "Biobío", "COM": "Florida", "LOC": "Copiulemu", "ZONA": "ZH-1", "NOM": "ZH-1 Zona residencial 1", "UPERM": "Residencial. Equipamiento: cientifico, comercio, culto y cultura, deporte, educacion, esparcimiento, salud, seguridad, servicios, social. Actividades productivas.", "UPROH": "Todos los usos de suelo no mencionados como permitidos.", "P_DO": "17/11/2007", "N_DOC": "53", "T_DO": "Resolución", "OBS": "Publicacion PRC Florida. Res Gore N°53. Fecha promulgacion 25.04.2007. Fecha publicaicon D.O. 17.11.2007." }, "geometry": { "type": "MultiPolygon", "coordinates": [ [ [ [ -72.809359794830797, -36.896235277499997 ], [ -72.809435500400497, -36.895759636087 ], [ -72.809614390332001, -36.895360499383401 ], [ -72.809287571531897, -36.894213621139201 ], [ -72.809188367802406, -36.893789206007703 ], [ -72.808940906536506, -36.893380952977402 ], [ -72.807648678354795, -36.893302701150098 ], [ -72.8076421496568, -36.8934568465029 ], [ -72.8064543795128, -36.893409438314499 ], [ -72.806146503904102, -36.893641667124598 ], [ -72.806149324221195, -36.8938411242302 ], [ -72.805801836664102, -36.896702943098397 ], [ -72.8060187110854, -36.896638971835401 ], [ -72.807309726545498, -36.896620356644597 ], [ -72.807305787352206, -36.896113063978902 ], [ -72.809359794830797, -36.896235277499997 ] ], [ [ -72.807528442240695, -36.894024928109701 ], [ -72.807458105477096, -36.894608723224401 ], [ -72.806766694754302, -36.8945510900719 ], [ -72.8068160583652, -36.893973670854201 ], [ -72.807528442240695, -36.894024928109701 ] ] ] ] } },
{ "type": "Feature", "properties": { "id": "ipt_08_prc_florida.29", "Name": null, "description": null, "timestamp": null, "begin": null, "end": null, "altitudeMode": null, "tessellate": -1, "extrude": 0, "visibility": -1, "drawOrder": null, "icon": null, "REG": "Biobío", "COM": "Florida", "LOC": "Copiulemu", "ZONA": "AVP", "NOM": "AVP Area verde publica", "UPERM": "Area verde.", "UPROH": "Todos los usos de suelo no mencionados como permitidos.", "P_DO": "17/11/2007", "N_DOC": "53", "T_DO": "Resolución", "OBS": "Publicacion PRC Florida. Res Gore N°53. Fecha promulgacion 25.04.2007. Fecha publicaicon D.O. 17.11.2007." }, "geometry": { "type": "MultiPolygon", "coordinates": [ [ [ [ -72.807528442240695, -36.894024928109701 ], [ -72.8068160583652, -36.893973670854201 ], [ -72.806766694754302, -36.8945510900719 ], [ -72.807458105477096, -36.894608723224401 ], [ -72.807528442240695, -36.894024928109701 ] ] ] ] } },
{ "type": "Feature", "properties": { "id": "ipt_08_prc_florida.30", "Name": null, "description": null, "timestamp": null, "begin": null, "end": null, "altitudeMode": null, "tessellate": -1, "extrude": 0, "visibility": -1, "drawOrder": null, "icon": null, "REG": "Biobío", "COM": "Florida", "LOC": "Copiulemu", "ZONA": "ZAP", "NOM": "ZAP Zona de actividades productivas", "UPERM": "Residencial. Equipamiento: cientifico, comercio, seguridad, servicios, social. Actividades productivas. Infraestructura de transporte.", "UPROH": "Todos los usos de suelo no mencionados como permitidos.", "P_DO": "17/11/2007", "N_DOC": "53", "T_DO": "Resolución", "OBS": "Publicacion PRC Florida. Res Gore N°53. Fecha promulgacion 25.04.2007. Fecha publicaicon D.O. 17.11.2007." }, "geometry": { "type": "MultiPolygon", "coordinates": [ [ [ [ -72.799680087758802, -36.898792003388401 ], [ -72.799582404790698, -36.898897755254801 ], [ -72.799663477109902, -36.898957874227598 ], [ -72.799680999809198, -36.899310797091402 ], [ -72.799607231209194, -36.899683747258102 ], [ -72.799422016337402, -36.900242709800203 ], [ -72.799298915267201, -36.900622941437 ], [ -72.799301369369303, -36.901244310127801 ], [ -72.799291694033798, -36.9014783759769 ], [ -72.799189787158795, -36.902285529969099 ], [ -72.8006223801695, -36.902256749827899 ], [ -72.800790927417793, -36.901219405986701 ], [ -72.800777073786193, -36.900940483080298 ], [ -72.800817358339401, -36.900751047431299 ], [ -72.800939262335504, -36.9007756492271 ], [ -72.800969045533094, -36.900660668001699 ], [ -72.800995778173004, -36.900055469085999 ], [ -72.801747066724204, -36.900031396326398 ], [ -72.8019460858157, -36.900036422407098 ], [ -72.801960702038102, -36.898758850443201 ], [ -72.801914535422199, -36.898401145148398 ], [ -72.801955020640406, -36.897715685563803 ], [ -72.801587907171196, -36.897613422970998 ], [ -72.801421767805095, -36.897698564304299 ], [ -72.800645220967596, -36.898071225730703 ], [ -72.800065639451901, -36.898836668608503 ], [ -72.799680087758802, -36.898792003388401 ] ] ] ] } },
{ "type": "Feature", "properties": { "id": "ipt_08_prc_florida.31", "Name": null, "description": null, "timestamp": null, "begin": null, "end": null, "altitudeMode": null, "tessellate": -1, "extrude": 0, "visibility": -1, "drawOrder": null, "icon": null, "REG": "Biobío", "COM": "Florida", "LOC": "Copiulemu", "ZONA": "ZEC", "NOM": "ZEC Zona equipamiento de cementerio", "UPERM": "Equipamiento: salud.", "UPROH": "Todos los usos de suelo no mencionados como permitidos.", "P_DO": "17/11/2007", "N_DOC": "53", "T_DO": "Resolución", "OBS": "Publicacion PRC Florida. Res Gore N°53. Fecha promulgacion 25.04.2007. Fecha publicaicon D.O. 17.11.2007." }, "geometry": { "type": "MultiPolygon", "coordinates": [ [ [ [ -72.801747066724204, -36.900031396326398 ], [ -72.800995778173004, -36.900055469085999 ], [ -72.800969045533094, -36.900660668001699 ], [ -72.800939262335504, -36.9007756492271 ], [ -72.800817358339401, -36.900751047431299 ], [ -72.800777073786193, -36.900940483080298 ], [ -72.800790927417793, -36.901219405986701 ], [ -72.801370708099398, -36.901172323370901 ], [ -72.8013282188098, -36.900888617191498 ], [ -72.801410160826407, -36.900823277270398 ], [ -72.801716646464996, -36.900705130544402 ], [ -72.801791782477807, -36.900645709361498 ], [ -72.801747066724204, -36.900031396326398 ] ] ] ] } },
{ "type": "Feature", "properties": { "id": "ipt_08_prc_florida.32", "Name": null, "description": null, "timestamp": null, "begin": null, "end": null, "altitudeMode": null, "tessellate": -1, "extrude": 0, "visibility": -1, "drawOrder": null, "icon": null, "REG": "Biobío", "COM": "Florida", "LOC": "Copiulemu", "ZONA": "ZEXH-1", "NOM": "ZEXH-1 Zona de extension habitacional 1", "UPERM": "Residencial. Equipamiento: cientifico, comercio, culto y cultura, deporte, educacion, esparcimiento, salud, seguridad, servicios, social. Actividades productivas.", "UPROH": "Todos los usos de suelo no mencionados como permitidos.", "P_DO": "17/11/2007", "N_DOC": "53", "T_DO": "Resolución", "OBS": "Publicacion PRC Florida. Res Gore N°53. Fecha promulgacion 25.04.2007. Fecha publicaicon D.O. 17.11.2007." }, "geometry": { "type": "MultiPolygon", "coordinates": [ [ [ [ -72.807309726545498, -36.896620356644597 ], [ -72.8060187110854, -36.896638971835401 ], [ -72.805801836664102, -36.896702943098397 ], [ -72.805799643450996, -36.897586721527802 ], [ -72.805797619013106, -36.898117011097703 ], [ -72.805629708497307, -36.899165742795503 ], [ -72.805346968102199, -36.900332185214502 ], [ -72.805104527352896, -36.900881588425598 ], [ -72.806641966723902, -36.901105932283201 ], [ -72.806847825313, -36.9005348946447 ], [ -72.806985930221401, -36.899886212023297 ], [ -72.807133383399702, -36.8992828400145 ], [ -72.807223854061405, -36.898675594624102 ], [ -72.807310918241299, -36.898142576377403 ], [ -72.807304710381402, -36.897589744949201 ], [ -72.807309726545498, -36.896620356644597 ] ] ] ] } },
{ "type": "Feature", "properties": { "id": "ipt_08_prc_florida.33", "Name": null, "description": null, "timestamp": null, "begin": null, "end": null, "altitudeMode": null, "tessellate": -1, "extrude": 0, "visibility": -1, "drawOrder": null, "icon": null, "REG": "Biobío", "COM": "Florida", "LOC": "Copiulemu", "ZONA": "ZH-4", "NOM": "ZH-4 Zona residencial 4", "UPERM": "Residencial. Equipamiento: comercio, culto y cultura, deporte, educacion, servicios, social.", "UPROH": "Todos los usos de suelo no mencionados como permitidos.", "P_DO": "17/11/2007", "N_DOC": "53", "T_DO": "Resolución", "OBS": "Publicacion PRC Florida. Res Gore N°53. Fecha promulgacion 25.04.2007. Fecha publicaicon D.O. 17.11.2007." }, "geometry": { "type": "MultiPolygon", "coordinates": [ [ [ [ -72.805801836664102, -36.896702943098397 ], [ -72.805229452578104, -36.896898043454499 ], [ -72.804932622715796, -36.897067200835501 ], [ -72.804557803923501, -36.897523925757298 ], [ -72.804360179510795, -36.8978324337712 ], [ -72.803836220197098, -36.898430771075397 ], [ -72.804531926165296, -36.899966357239599 ], [ -72.804886374014004, -36.9008130418081 ], [ -72.805104527352896, -36.900881588425598 ], [ -72.805346968102199, -36.900332185214502 ], [ -72.805629708497307, -36.899165742795503 ], [ -72.805797619013106, -36.898117011097703 ], [ -72.805799643450996, -36.897586721527802 ], [ -72.805801836664102, -36.896702943098397 ] ] ] ] } },
{ "type": "Feature", "properties": { "id": "ipt_08_prc_florida.34", "Name": null, "description": null, "timestamp": null, "begin": null, "end": null, "altitudeMode": null, "tessellate": -1, "extrude": 0, "visibility": -1, "drawOrder": null, "icon": null, "REG": "Biobío", "COM": "Florida", "LOC": "Copiulemu", "ZONA": "ZEXH-2", "NOM": "ZEXH-2 Zona de extension habitacional 2", "UPERM": "Residencial. Equipamiento: cientifico, comercio, culto y cultura, deporte, educacion, esparcimiento, salud, seguridad, servicios, social. Actividades productivas. Infraestructura: transporte.", "UPROH": "Todos los usos de suelo no mencionados como permitidos.", "P_DO": "17/11/2007", "N_DOC": "53", "T_DO": "Resolución", "OBS": "Publicacion PRC Florida. Res Gore N°53. Fecha promulgacion 25.04.2007. Fecha publicaicon D.O. 17.11.2007." }, "geometry": { "type": "MultiPolygon", "coordinates": [ [ [ [ -72.805104527352896, -36.900881588425598 ], [ -72.804886374014004, -36.9008130418081 ], [ -72.804531926165296, -36.899966357239599 ], [ -72.803836220197098, -36.898430771075397 ], [ -72.803352713875, -36.897129260534399 ], [ -72.803399228942098, -36.896922520816901 ], [ -72.803896560103098, -36.896074180791501 ], [ -72.804660874997694, -36.895741800954099 ], [ -72.804954036289104, -36.895356110780398 ], [ -72.804851497183904, -36.894435780692703 ], [ -72.804967464022496, -36.894198306032301 ], [ -72.804940999649006, -36.893737345933502 ], [ -72.804678779497806, -36.893745755658699 ], [ -72.804370346692295, -36.893824060975 ], [ -72.804209325947099, -36.893869133754102 ], [ -72.803911639558393, -36.894163745555602 ], [ -72.803905386252495, -36.894323582949099 ], [ -72.803709181822597, -36.894660552406201 ], [ -72.8030832879314, -36.895564324281104 ], [ -72.802120682810397, -36.896906486621802 ], [ -72.802060554029893, -36.897125065788302 ], [ -72.801955020640406, -36.897715685563803 ], [ -72.801914535422199, -36.898401145148398 ], [ -72.801960702038102, -36.898758850443201 ], [ -72.8019460858157, -36.900036422407098 ], [ -72.801747066724204, -36.900031396326398 ], [ -72.801791782477807, -36.900645709361498 ], [ -72.801716646464996, -36.900705130544402 ], [ -72.801410160826407, -36.900823277270398 ], [ -72.8013282188098, -36.900888617191498 ], [ -72.801370708099398, -36.901172323370901 ], [ -72.800790927417793, -36.901219405986701 ], [ -72.8006223801695, -36.902256749827899 ], [ -72.801054733068099, -36.902278531885599 ], [ -72.801830982929502, -36.902327776322899 ], [ -72.803042420749307, -36.902420080585102 ], [ -72.803688813047401, -36.902570397783997 ], [ -72.804222382647893, -36.902593200487097 ], [ -72.805115721164, -36.902712785641 ], [ -72.805239622361498, -36.902634693744297 ], [ -72.804971192051099, -36.901947740074 ], [ -72.805021430453905, -36.901244863917803 ], [ -72.805104527352896, -36.900881588425598 ] ] ] ] } },
{ "type": "Feature", "properties": { "id": "ipt_08_prc_florida.35", "Name": null, "description": null, "timestamp": null, "begin": null, "end": null, "altitudeMode": null, "tessellate": -1, "extrude": 0, "visibility": -1, "drawOrder": null, "icon": null, "REG": "Biobío", "COM": "Florida", "LOC": "Florida", "ZONA": "ZH-2", "NOM": "ZH-2 Zona residencial 2", "UPERM": "Residencial. Equipamiento: cientifico, comercio, culto y cultura, deporte, educacion, esparcimiento, salud, seguridad, servicios, social. Actividades productivas.", "UPROH": "Todos los usos de suelo no mencionados como permitidos.", "P_DO": "17/11/2007", "N_DOC": "53", "T_DO": "Resolución", "OBS": "Publicacion PRC Florida. Res Gore N°53. Fecha promulgacion 25.04.2007. Fecha publicaicon D.O. 17.11.2007." }, "geometry": { "type": "MultiPolygon", "coordinates": [ [ [ [ -72.658348132979498, -36.823147456066899 ], [ -72.659093345003697, -36.823124495235703 ], [ -72.660396371299896, -36.823084336255398 ], [ -72.662034464300206, -36.822634714851603 ], [ -72.664238485465106, -36.822452692631501 ], [ -72.666888082729699, -36.822282526470097 ], [ -72.666671063408998, -36.821451087000597 ], [ -72.666210628903201, -36.819680690480403 ], [ -72.665623412926394, -36.819858464362198 ], [ -72.664757288091494, -36.820136068595403 ], [ -72.664607735053707, -36.820420064074099 ], [ -72.660438305306101, -36.821324084160899 ], [ -72.659693722799901, -36.822664116066001 ], [ -72.658339586025207, -36.822970967612498 ], [ -72.658347727299301, -36.823141766459301 ], [ -72.658348132979498, -36.823147456066899 ] ], [ [ -72.665129701227002, -36.821326196151702 ], [ -72.665179231550397, -36.821769395633801 ], [ -72.664229223168803, -36.821775907491698 ], [ -72.664214546125393, -36.8214684715172 ], [ -72.664539207057899, -36.821435646426302 ], [ -72.665129701227002, -36.821326196151702 ] ], [ [ -72.661976212841907, -36.821822601143801 ], [ -72.662104728292505, -36.822137930245603 ], [ -72.661446123683902, -36.8223064822974 ], [ -72.661303990598, -36.822002975595801 ], [ -72.661976212841907, -36.821822601143801 ] ] ] ] } }
]
}
