{
"type": "FeatureCollection",
"name": "IPT_08_PRC_Curanilahue",
"crs": { "type": "name", "properties": { "name": "urn:ogc:def:crs:OGC:1.3:CRS84" } },
"features": [
{ "type": "Feature", "properties": { "id": "monoparte.1", "Name": null, "description": null, "timestamp": null, "begin": null, "end": null, "altitudeMode": null, "tessellate": -1, "extrude": 0, "visibility": -1, "drawOrder": null, "icon": null, "REG": "Biobío", "COM": "Curanilahue", "LOC": "Curanilahue", "ZONA": "Z-4", "NOM": "Zona Z-4", "UPERM": "Actividades productivas. Area verde.", "UPROH": "Todos los usos de suelo no mencionados como permitidos.", "P_DO": "27/05/1982", "N_DOC": "56", "T_DO": "Decreto", "OBS": "4ta Modificacion PRC Curanilahue. Decreto V y U N°27. Fecha promulgacion 27.04.2012. Fecha publicacion D.O. 22.04.2013." }, "geometry": { "type": "Polygon", "coordinates": [ [ [ -73.360193548341698, -37.461635473564897 ], [ -73.360134288234704, -37.461468067983901 ], [ -73.360141154700202, -37.461586092741001 ], [ -73.360193548341698, -37.461635473564897 ] ] ] } },
{ "type": "Feature", "properties": { "id": "monoparte.2", "Name": null, "description": null, "timestamp": null, "begin": null, "end": null, "altitudeMode": null, "tessellate": -1, "extrude": 0, "visibility": -1, "drawOrder": null, "icon": null, "REG": "Biobío", "COM": "Curanilahue", "LOC": "Curanilahue", "ZONA": "Z-3", "NOM": "Zona Z-3", "UPERM": "Residencial. Equipamiento: cientifico, comercio, culto y cultura, deporte, educacion, esparcimiento, salud, seguridad, servicios, social. Actividades productivas. Area verde.", "UPROH": "Todos los usos de suelo no mencionados como permitidos.", "P_DO": "27/05/1982", "N_DOC": "56", "T_DO": "Decreto", "OBS": "Publicacion PRC Curanilahue. Decreto supremo V y U N°56. Fecha promulgacion 22.04.1982. Fecha publicacion D.O. 27.05.1982." }, "geometry": { "type": "Polygon", "coordinates": [ [ [ -73.353208805893601, -37.473050107623898 ], [ -73.3509195922842, -37.473478354996601 ], [ -73.351847914523205, -37.476494366635599 ], [ -73.351700138622405, -37.476543472707498 ], [ -73.351495176680501, -37.476551035811703 ], [ -73.351229863719993, -37.476462605814497 ], [ -73.351004911527895, -37.476361772417398 ], [ -73.350817157447196, -37.476194086822602 ], [ -73.3506300356146, -37.4760372912626 ], [ -73.350476318448401, -37.475748302469697 ], [ -73.3502542824599, -37.475461834520097 ], [ -73.350034144321199, -37.475208036254699 ], [ -73.349830833893193, -37.475008182588702 ], [ -73.3495747663071, -37.474843014517802 ], [ -73.3492093883509, -37.474681877172699 ], [ -73.348678782226202, -37.474505004986298 ], [ -73.347837070629296, -37.474394166130402 ], [ -73.346849481306293, -37.474365092238401 ], [ -73.346725956645301, -37.475068096693498 ], [ -73.346598639923201, -37.475705760414897 ], [ -73.350607256495707, -37.476823888003501 ], [ -73.350767683484094, -37.476992582083099 ], [ -73.350763518882204, -37.477141270611597 ], [ -73.350706605240902, -37.477237655638497 ], [ -73.350633190026201, -37.477270376052502 ], [ -73.350392924984803, -37.477377459232997 ], [ -73.350008425828904, -37.477358902651602 ], [ -73.349761203002998, -37.477346195177503 ], [ -73.349687437451493, -37.4774907893893 ], [ -73.349928835052594, -37.477874763656096 ], [ -73.350128610100597, -37.4782493599538 ], [ -73.350181621283596, -37.4784547572403 ], [ -73.350205405158803, -37.478628492510701 ], [ -73.350124300415004, -37.478882490059199 ], [ -73.350005996873307, -37.479203339132397 ], [ -73.349846696804306, -37.479525701217099 ], [ -73.349529111625998, -37.479952119097298 ], [ -73.349515062097296, -37.480181816565597 ], [ -73.349432056542994, -37.4804031445669 ], [ -73.349316029003703, -37.480527469977503 ], [ -73.349089416121899, -37.480634047260999 ], [ -73.3489622516541, -37.480802436017697 ], [ -73.3489345372098, -37.481032637400901 ], [ -73.3489964013079, -37.481390494923602 ], [ -73.349161262615496, -37.4816354205417 ], [ -73.349348012586404, -37.4820214110702 ], [ -73.349498578405203, -37.482255950612704 ], [ -73.349804524425295, -37.482572064407201 ], [ -73.349917261536604, -37.482862564418703 ], [ -73.350029997369006, -37.4831530643403 ], [ -73.350069347115294, -37.483358964578102 ], [ -73.350008610790198, -37.483492165646098 ], [ -73.349880180260996, -37.4836387756785 ], [ -73.349683421456703, -37.4837879059735 ], [ -73.349433262768301, -37.483960832941897 ], [ -73.348908776276701, -37.484362141531001 ], [ -73.348902067071805, -37.484482435881503 ], [ -73.352390193789503, -37.483469766913601 ], [ -73.352732834072796, -37.483238854557101 ], [ -73.352845695495006, -37.483060075251203 ], [ -73.353329704938901, -37.480313889875397 ], [ -73.353259221380796, -37.480043659074802 ], [ -73.353205568567901, -37.4798273752656 ], [ -73.352925051868098, -37.479477591591497 ], [ -73.352662000244393, -37.479192642775701 ], [ -73.352356434007106, -37.478647343227003 ], [ -73.352446250962601, -37.477836445164399 ], [ -73.353374013363705, -37.477071010004501 ], [ -73.353891203755495, -37.476309814008602 ], [ -73.354625739719594, -37.475518764137398 ], [ -73.355268311009993, -37.4752658553423 ], [ -73.355593077056795, -37.475199295381799 ], [ -73.355915310480896, -37.4750891734246 ], [ -73.355492832653098, -37.474417241672597 ], [ -73.355470937236106, -37.474276177158103 ], [ -73.355739145976401, -37.474178965579902 ], [ -73.356204074361699, -37.473932614828399 ], [ -73.356478344117207, -37.473704218272701 ], [ -73.356803465828904, -37.473408461412902 ], [ -73.357177538037803, -37.473012676730903 ], [ -73.357613861914601, -37.472745551086902 ], [ -73.3580308173036, -37.4723809194033 ], [ -73.358354026702997, -37.472052490920198 ], [ -73.3588230937156, -37.471642277028302 ], [ -73.359112910521105, -37.471446040147001 ], [ -73.359606404780806, -37.471220446233197 ], [ -73.359860933077798, -37.471123730445598 ], [ -73.3587960144731, -37.4702354674722 ], [ -73.3582220865203, -37.470725948206002 ], [ -73.3580161478652, -37.470951823464901 ], [ -73.357640551279303, -37.471085747966498 ], [ -73.356214425840804, -37.471520398914997 ], [ -73.355759375460096, -37.471700906126401 ], [ -73.355372639134302, -37.471878887868399 ], [ -73.355177185828595, -37.472049804650602 ], [ -73.354930878068998, -37.4722880792594 ], [ -73.354777679231205, -37.4724792624271 ], [ -73.354624479586406, -37.4726704445415 ], [ -73.354294920774805, -37.472889965438 ], [ -73.353208805893601, -37.473050107623898 ] ] ] } },
{ "type": "Feature", "properties": { "id": "monoparte.3", "Name": null, "description": null, "timestamp": null, "begin": null, "end": null, "altitudeMode": null, "tessellate": -1, "extrude": 0, "visibility": -1, "drawOrder": null, "icon": null, "REG": "Biobío", "COM": "Curanilahue", "LOC": "Curanilahue", "ZONA": "Z-1", "NOM": "Zona Z-1", "UPERM": "Residencial. Equipamiento: cientifico, comercio, culto y cultura, deporte, educacion, esparcimiento, salud, seguridad, servicios, social. Actividades productivas. Area verde.", "UPROH": "Todos los usos de suelo no mencionados como permitidos.", "P_DO": "27/05/1982", "N_DOC": "56", "T_DO": "Decreto", "OBS": "Publicacion PRC Curanilahue. Decreto supremo V y U N°56. Fecha promulgacion 22.04.1982. Fecha publicacion D.O. 27.05.1982." }, "geometry": { "type": "Polygon", "coordinates": [ [ [ -73.353208805893601, -37.473050107623898 ], [ -73.352797377595493, -37.472803374513198 ], [ -73.352677946917595, -37.472633170865201 ], [ -73.352532830483398, -37.4722565614532 ], [ -73.3518709158826, -37.472411947343602 ], [ -73.351417498286196, -37.471206389538203 ], [ -73.3475403839564, -37.472113310190998 ], [ -73.346091029403397, -37.472384997121303 ], [ -73.343389259610205, -37.473019283173301 ], [ -73.341926204545999, -37.4732914231435 ], [ -73.341636331798, -37.4734876209425 ], [ -73.340050104893095, -37.474942912263899 ], [ -73.340206306150606, -37.475275477487898 ], [ -73.340368818946402, -37.475716942890998 ], [ -73.340777920939104, -37.476160245577901 ], [ -73.341044073703102, -37.476499675189402 ], [ -73.341320738060702, -37.476784151279404 ], [ -73.341514154714602, -37.477049863064501 ], [ -73.341641776313395, -37.477361651655698 ], [ -73.341494213542205, -37.477650829999497 ], [ -73.341331723417099, -37.477918732071799 ], [ -73.340760774158795, -37.478463588708998 ], [ -73.340291562939498, -37.478873738232998 ], [ -73.340079236634196, -37.478990686231803 ], [ -73.339811618403104, -37.479098754928799 ], [ -73.339594242891806, -37.479128581719102 ], [ -73.339334610266604, -37.479138134686302 ], [ -73.338836998845693, -37.479058224084 ], [ -73.338563070111206, -37.479057389400197 ], [ -73.338194748691606, -37.479081852174403 ], [ -73.338109818569805, -37.479270503526699 ], [ -73.338208838525205, -37.479561520759198 ], [ -73.338292302619095, -37.4798203707713 ], [ -73.338530498477596, -37.480149920701102 ], [ -73.338877387106294, -37.480464558167903 ], [ -73.339019084786898, -37.480546650773199 ], [ -73.339240250503906, -37.480582166911397 ], [ -73.339568843733801, -37.480580988282703 ], [ -73.340230230239499, -37.480414775101103 ], [ -73.341497070051403, -37.480062569550199 ], [ -73.343229538138303, -37.479474936434997 ], [ -73.343564212050197, -37.479342563703597 ], [ -73.343832456468306, -37.479245377204997 ], [ -73.345178248167898, -37.478366385828899 ], [ -73.345519627294905, -37.478113713553597 ], [ -73.346020319150895, -37.477538684612803 ], [ -73.346319436607203, -37.477265741121997 ], [ -73.3471369221092, -37.476722683862299 ], [ -73.347449936368307, -37.476689319484898 ], [ -73.347671094014899, -37.476724819323998 ], [ -73.3479551240777, -37.476899873313499 ], [ -73.348403762017298, -37.477079770793601 ], [ -73.3490748241597, -37.477316944300597 ], [ -73.349374806998, -37.477294968115601 ], [ -73.349656066692901, -37.477186374059698 ], [ -73.349997674367103, -37.477173773797603 ], [ -73.350388689295997, -37.4771866336811 ], [ -73.350706605240902, -37.477237655638497 ], [ -73.350763518882204, -37.477141270611597 ], [ -73.350767683484094, -37.476992582083099 ], [ -73.350607256495707, -37.476823888003501 ], [ -73.346598639923201, -37.475705760414897 ], [ -73.346725956645301, -37.475068096693498 ], [ -73.346849481306293, -37.474365092238401 ], [ -73.347837070629296, -37.474394166130402 ], [ -73.348678782226202, -37.474505004986298 ], [ -73.3492093883509, -37.474681877172699 ], [ -73.3495747663071, -37.474843014517802 ], [ -73.349830833893193, -37.475008182588702 ], [ -73.350034144321199, -37.475208036254699 ], [ -73.3502542824599, -37.475461834520097 ], [ -73.350476318448401, -37.475748302469697 ], [ -73.3506300356146, -37.4760372912626 ], [ -73.350817157447196, -37.476194086822602 ], [ -73.351004911527895, -37.476361772417398 ], [ -73.351229863719993, -37.476462605814497 ], [ -73.351495176680501, -37.476551035811703 ], [ -73.351700138622405, -37.476543472707498 ], [ -73.351847914523205, -37.476494366635599 ], [ -73.3509195922842, -37.473478354996601 ], [ -73.353208805893601, -37.473050107623898 ] ] ] } },
{ "type": "Feature", "properties": { "id": "monoparte.4", "Name": null, "description": null, "timestamp": null, "begin": null, "end": null, "altitudeMode": null, "tessellate": -1, "extrude": 0, "visibility": -1, "drawOrder": null, "icon": null, "REG": "Biobío", "COM": "Curanilahue", "LOC": "Curanilahue", "ZONA": "Z-2", "NOM": "Zona Z-2", "UPERM": "Residencial. Equipamiento: cientifico, comercio, culto y cultura, deporte, educacion, esparcimiento, salud, seguridad, servicios, social. Actividades productivas. Area verde.", "UPROH": "Todos los usos de suelo no mencionados como permitidos.", "P_DO": "27/05/1982", "N_DOC": "56", "T_DO": "Decreto", "OBS": "3ra Modificacion PRC Curanilahue. Res. Gore N°82. Fecha promulgacion 13.07.2009. Fecha publicacion D.O. 21.08.2009." }, "geometry": { "type": "Polygon", "coordinates": [ [ [ -73.344905365379603, -37.488001975475598 ], [ -73.344968721783601, -37.487677700005101 ], [ -73.344871834800401, -37.487070124620303 ], [ -73.344825309990497, -37.486504347354 ], [ -73.344899604979304, -37.4862506038479 ], [ -73.345164039670607, -37.485733390783899 ], [ -73.345487362144098, -37.485404990960298 ], [ -73.345628956870399, -37.485367031875199 ], [ -73.346183886048095, -37.485253817842803 ], [ -73.346713061021504, -37.485168833442799 ], [ -73.347266404848199, -37.485028388131902 ], [ -73.348353095790301, -37.484639096670399 ], [ -73.348902067071805, -37.484482435881503 ], [ -73.348908776276701, -37.484362141531001 ], [ -73.349433262768301, -37.483960832941897 ], [ -73.349683421456703, -37.4837879059735 ], [ -73.349880180260996, -37.4836387756785 ], [ -73.350008610790198, -37.483492165646098 ], [ -73.350069347115294, -37.483358964578102 ], [ -73.350029997369006, -37.4831530643403 ], [ -73.349917261536604, -37.482862564418703 ], [ -73.349804524425295, -37.482572064407201 ], [ -73.349498578405203, -37.482255950612704 ], [ -73.349348012586404, -37.4820214110702 ], [ -73.349161262615496, -37.4816354205417 ], [ -73.3489964013079, -37.481390494923602 ], [ -73.3489345372098, -37.481032637400901 ], [ -73.3489622516541, -37.480802436017697 ], [ -73.349089416121899, -37.480634047260999 ], [ -73.349316029003703, -37.480527469977503 ], [ -73.349432056542994, -37.4804031445669 ], [ -73.349515062097296, -37.480181816565597 ], [ -73.349529111625998, -37.479952119097298 ], [ -73.349846696804306, -37.479525701217099 ], [ -73.350005996873307, -37.479203339132397 ], [ -73.350124300415004, -37.478882490059199 ], [ -73.350205405158803, -37.478628492510701 ], [ -73.350181621283596, -37.4784547572403 ], [ -73.350128610100597, -37.4782493599538 ], [ -73.349928835052594, -37.477874763656096 ], [ -73.349687437451493, -37.4774907893893 ], [ -73.349761203002998, -37.477346195177503 ], [ -73.350008425828904, -37.477358902651602 ], [ -73.350392924984803, -37.477377459232997 ], [ -73.350633190026201, -37.477270376052502 ], [ -73.350706605240902, -37.477237655638497 ], [ -73.350388689295997, -37.4771866336811 ], [ -73.349997674367103, -37.477173773797603 ], [ -73.349656066692901, -37.477186374059698 ], [ -73.349374806998, -37.477294968115601 ], [ -73.3490748241597, -37.477316944300597 ], [ -73.348403762017298, -37.477079770793601 ], [ -73.3479551240777, -37.476899873313499 ], [ -73.347671094014899, -37.476724819323998 ], [ -73.347449936368307, -37.476689319484898 ], [ -73.3471369221092, -37.476722683862299 ], [ -73.346319436607203, -37.477265741121997 ], [ -73.346020319150895, -37.477538684612803 ], [ -73.345519627294905, -37.478113713553597 ], [ -73.345178248167898, -37.478366385828899 ], [ -73.343832456468306, -37.479245377204997 ], [ -73.343564212050197, -37.479342563703597 ], [ -73.343229538138303, -37.479474936434997 ], [ -73.341497070051403, -37.480062569550199 ], [ -73.340230230239499, -37.480414775101103 ], [ -73.339568843733801, -37.480580988282703 ], [ -73.339240250503906, -37.480582166911397 ], [ -73.339019084786898, -37.480546650773199 ], [ -73.338877387106294, -37.480464558167903 ], [ -73.338530498477596, -37.480149920701102 ], [ -73.338292302619095, -37.4798203707713 ], [ -73.338208838525205, -37.479561520759198 ], [ -73.338109818569805, -37.479270503526699 ], [ -73.338194748691606, -37.479081852174403 ], [ -73.338563070111206, -37.479057389400197 ], [ -73.338836998845693, -37.479058224084 ], [ -73.339334610266604, -37.479138134686302 ], [ -73.339594242891806, -37.479128581719102 ], [ -73.339811618403104, -37.479098754928799 ], [ -73.340079236634196, -37.478990686231803 ], [ -73.340291562939498, -37.478873738232998 ], [ -73.340760774158795, -37.478463588708998 ], [ -73.341331723417099, -37.477918732071799 ], [ -73.341494213542205, -37.477650829999497 ], [ -73.341641776313395, -37.477361651655698 ], [ -73.341514154714602, -37.477049863064501 ], [ -73.341320738060702, -37.476784151279404 ], [ -73.341044073703102, -37.476499675189402 ], [ -73.340777920939104, -37.476160245577901 ], [ -73.340368818946402, -37.475716942890998 ], [ -73.340206306150606, -37.475275477487898 ], [ -73.340050104893095, -37.474942912263899 ], [ -73.341636331798, -37.4734876209425 ], [ -73.341926204545999, -37.4732914231435 ], [ -73.343389259610205, -37.473019283173301 ], [ -73.343344026770396, -37.472475283177403 ], [ -73.342659011468101, -37.472527792135402 ], [ -73.341862325297996, -37.472720825862702 ], [ -73.341287189392702, -37.4727201711394 ], [ -73.340365630655896, -37.472885051193003 ], [ -73.3400997120753, -37.472785704788002 ], [ -73.339520576239707, -37.472479615939598 ], [ -73.338853787475699, -37.472078528917301 ], [ -73.338077695845897, -37.471681458479601 ], [ -73.337252634932, -37.4713844036309 ], [ -73.336863751848199, -37.471289570830798 ], [ -73.336495469665195, -37.471314026772099 ], [ -73.336022288284994, -37.471418731794103 ], [ -73.335587147120293, -37.471707562046298 ], [ -73.335066440693595, -37.472174150503498 ], [ -73.335989020851201, -37.473209742757497 ], [ -73.336755470044395, -37.472494020669203 ], [ -73.337161174874097, -37.4726428019138 ], [ -73.337919823741402, -37.472975039243003 ], [ -73.338362319339197, -37.473286162616297 ], [ -73.338997375339602, -37.473612026295399 ], [ -73.339506306247003, -37.473887960547501 ], [ -73.340200226613007, -37.474047951874503 ], [ -73.339780647140998, -37.474368966076199 ], [ -73.339341934698396, -37.474832555910702 ], [ -73.338795797623007, -37.475332836784197 ], [ -73.338434644844597, -37.475717176580901 ], [ -73.337956816242993, -37.476214940894103 ], [ -73.337651573765001, -37.476619048423998 ], [ -73.337509463206203, -37.476766148473601 ], [ -73.337204008541804, -37.476930169621902 ], [ -73.336883626413098, -37.477072912397297 ], [ -73.336381822402899, -37.477156844869697 ], [ -73.335863829382703, -37.477197718185103 ], [ -73.334894274449198, -37.477244274008399 ], [ -73.334024781911495, -37.477363538040301 ], [ -73.332800001889893, -37.477495850521699 ], [ -73.331888246401903, -37.477594825921699 ], [ -73.331329253638799, -37.477637184473998 ], [ -73.330960306050201, -37.477650734558502 ], [ -73.330644757643896, -37.477640495956003 ], [ -73.330285695133995, -37.477588200170402 ], [ -73.329859570425, -37.4775601921231 ], [ -73.329475070010105, -37.477541569075797 ], [ -73.329377448573794, -37.478221781840503 ], [ -73.329095805641799, -37.479508985269398 ], [ -73.328875559219597, -37.480673887545301 ], [ -73.3286534170647, -37.481806118686599 ], [ -73.328422641320699, -37.4830259728706 ], [ -73.327856679491404, -37.482948524853001 ], [ -73.327528701744299, -37.482960561220899 ], [ -73.327108838820806, -37.483041449120599 ], [ -73.326799559123799, -37.483140103895799 ], [ -73.326596006404898, -37.483409493737803 ], [ -73.326421671432698, -37.483710550820803 ], [ -73.326301370794596, -37.483998712447502 ], [ -73.3262897678337, -37.484271972432403 ], [ -73.326275647121193, -37.4845016715105 ], [ -73.326365193182895, -37.484629346092802 ], [ -73.326519925498204, -37.484700062839899 ], [ -73.326712509488502, -37.484714823534397 ], [ -73.326985831165203, -37.484704794774601 ], [ -73.327218155217096, -37.484696269806498 ], [ -73.327409479440206, -37.484689248953899 ], [ -73.327603951529696, -37.4847366792822 ], [ -73.327738904500507, -37.484939080904198 ], [ -73.327736567937393, -37.485135607172701 ], [ -73.327583272934604, -37.485326759738001 ], [ -73.327260947513295, -37.485436809363499 ], [ -73.3269739576738, -37.485447340364402 ], [ -73.326754038323301, -37.485433583130501 ], [ -73.326382710150995, -37.485643647764803 ], [ -73.326252514154604, -37.485997652331498 ], [ -73.326049406966206, -37.486037844055701 ], [ -73.325820854296296, -37.486111708379603 ], [ -73.325717184753302, -37.4862137307518 ], [ -73.325608027632597, -37.486457829732501 ], [ -73.325435569922703, -37.486791557112397 ], [ -73.325366153028895, -37.487012371550001 ], [ -73.324816345380995, -37.486977970321298 ], [ -73.324397714271896, -37.487080629712899 ], [ -73.323953005509097, -37.487206071415699 ], [ -73.323118250532204, -37.487454944984997 ], [ -73.322596402656004, -37.4874304221429 ], [ -73.322381042665398, -37.487732977629904 ], [ -73.322301091980805, -37.488008742808802 ], [ -73.322243446185496, -37.488196383738099 ], [ -73.322180304187796, -37.488526099840897 ], [ -73.322067687507896, -37.489185030115799 ], [ -73.321934020776297, -37.489953866930399 ], [ -73.321911249951299, -37.490271189439603 ], [ -73.321999703740801, -37.4906171757316 ], [ -73.322104969842499, -37.491017112783702 ], [ -73.322171749637803, -37.491462114618997 ], [ -73.322285356593696, -37.492243713486701 ], [ -73.322354024384396, -37.492721384543501 ], [ -73.322398503212099, -37.493254510199897 ], [ -73.322718353257002, -37.493100911304602 ], [ -73.323071198251597, -37.493044322245197 ], [ -73.323670689388507, -37.492989601271198 ], [ -73.324013638856002, -37.492998852173201 ], [ -73.3245399293708, -37.4930995984327 ], [ -73.324841246738799, -37.493099460897 ], [ -73.325102820147507, -37.493122606137703 ], [ -73.325441994649495, -37.493066512325001 ], [ -73.3256146406396, -37.492972870714098 ], [ -73.325795919030995, -37.492791607468803 ], [ -73.325872084234405, -37.492450498299903 ], [ -73.3260060638151, -37.492161835055597 ], [ -73.326186711210397, -37.4919696806571 ], [ -73.3263865097869, -37.491634949831301 ], [ -73.326646010501904, -37.491385333675701 ], [ -73.3269341038405, -37.4911564944017 ], [ -73.327155746326198, -37.490962834298003 ], [ -73.327373610861201, -37.490703831694297 ], [ -73.327634364172198, -37.490475995050403 ], [ -73.327777778894699, -37.490350684695201 ], [ -73.327916785250594, -37.490149141474902 ], [ -73.328175647449001, -37.489888632749903 ], [ -73.328315281599203, -37.489697980713899 ], [ -73.328367877121494, -37.4894232152105 ], [ -73.3284496948379, -37.489180119194103 ], [ -73.328542030227894, -37.488882068266399 ], [ -73.328869664136107, -37.488389852912903 ], [ -73.328994367496307, -37.488177920770497 ], [ -73.329484292325802, -37.487887099902203 ], [ -73.330069878158497, -37.487592764393597 ], [ -73.330965819552304, -37.486981454469301 ], [ -73.331865525010301, -37.486435478647401 ], [ -73.332509341600996, -37.485964378725001 ], [ -73.333038344840205, -37.485639367588497 ], [ -73.333514570028299, -37.485349034054899 ], [ -73.333923721625396, -37.485082990395 ], [ -73.334208817561404, -37.485039771747203 ], [ -73.335143354699795, -37.485332819532097 ], [ -73.337564140323707, -37.485985906549701 ], [ -73.339774921764999, -37.486559363500596 ], [ -73.343393187146106, -37.487550217203903 ], [ -73.344905365379603, -37.488001975475598 ] ] ] } },
{ "type": "Feature", "properties": { "id": "monoparte.5", "Name": null, "description": null, "timestamp": null, "begin": null, "end": null, "altitudeMode": null, "tessellate": -1, "extrude": 0, "visibility": -1, "drawOrder": null, "icon": null, "REG": "Biobío", "COM": "Curanilahue", "LOC": "Curanilahue", "ZONA": "Z-2", "NOM": "Zona Z-2", "UPERM": "Residencial. Equipamiento: cientifico, comercio, culto y cultura, deporte, educacion, esparcimiento, salud, seguridad, servicios, social. Actividades productivas. Area verde.", "UPROH": "Todos los usos de suelo no mencionados como permitidos.", "P_DO": "27/05/1982", "N_DOC": "56", "T_DO": "Decreto", "OBS": "Publicacion PRC Curanilahue. Decreto supremo V y U N°56. Fecha promulgacion 22.04.1982. Fecha publicacion D.O. 27.05.1982." }, "geometry": { "type": "Polygon", "coordinates": [ [ [ -73.361947457640198, -37.462912949625597 ], [ -73.361985392691807, -37.463179579145098 ], [ -73.3617387505751, -37.463771234949803 ], [ -73.360940253427501, -37.464540132816701 ], [ -73.359474350171794, -37.465916233470203 ], [ -73.357255519205907, -37.467880264958197 ], [ -73.357165062737593, -37.467908436190797 ], [ -73.3557500209062, -37.469420375937702 ], [ -73.354626549892203, -37.4705859323916 ], [ -73.354069417070704, -37.471130339998403 ], [ -73.353589827705207, -37.471595489600602 ], [ -73.353238637541907, -37.4719140255214 ], [ -73.353012688667405, -37.472031498801201 ], [ -73.352735249538696, -37.472205437779799 ], [ -73.352532830483398, -37.4722565614532 ], [ -73.352677946917595, -37.472633170865201 ], [ -73.352797377595493, -37.472803374513198 ], [ -73.353208805893601, -37.473050107623898 ], [ -73.354294920774805, -37.472889965438 ], [ -73.354624479586406, -37.4726704445415 ], [ -73.354777679231205, -37.4724792624271 ], [ -73.354930878068998, -37.4722880792594 ], [ -73.355177185828595, -37.472049804650602 ], [ -73.355372639134302, -37.471878887868399 ], [ -73.355759375460096, -37.471700906126401 ], [ -73.356214425840804, -37.471520398914997 ], [ -73.357640551279303, -37.471085747966498 ], [ -73.3580161478652, -37.470951823464901 ], [ -73.3582220865203, -37.470725948206002 ], [ -73.3587960144731, -37.4702354674722 ], [ -73.359860933077798, -37.471123730445598 ], [ -73.359606404780806, -37.471220446233197 ], [ -73.359112910521105, -37.471446040147001 ], [ -73.3588230937156, -37.471642277028302 ], [ -73.358354026702997, -37.472052490920198 ], [ -73.3580308173036, -37.4723809194033 ], [ -73.357613861914601, -37.472745551086902 ], [ -73.357177538037803, -37.473012676730903 ], [ -73.356803465828904, -37.473408461412902 ], [ -73.356478344117207, -37.473704218272701 ], [ -73.356204074361699, -37.473932614828399 ], [ -73.355739145976401, -37.474178965579902 ], [ -73.355470937236106, -37.474276177158103 ], [ -73.355492832653098, -37.474417241672597 ], [ -73.355915310480896, -37.4750891734246 ], [ -73.356515614929705, -37.474815993642203 ], [ -73.357087954158004, -37.474532931344598 ], [ -73.357569438931506, -37.4741004376544 ], [ -73.358129097628293, -37.4735995731115 ], [ -73.358603877243098, -37.473287368953002 ], [ -73.358977305149907, -37.472880688947399 ], [ -73.359864584080796, -37.472127615458803 ], [ -73.360402872875596, -37.471965842236798 ], [ -73.361185826202899, -37.471773191860201 ], [ -73.362059345256398, -37.4714898810536 ], [ -73.362578887345904, -37.471241485932403 ], [ -73.363069197501005, -37.470961430035601 ], [ -73.363765031458001, -37.470621515125202 ], [ -73.364466536605804, -37.469996195230301 ], [ -73.364832484081106, -37.469499286958602 ], [ -73.365299002186802, -37.468576220881502 ], [ -73.365954917788301, -37.4671441329074 ], [ -73.365029446681504, -37.466534508175599 ], [ -73.365708870438596, -37.465036072539299 ], [ -73.365525557524194, -37.464944638824399 ], [ -73.3639799779084, -37.464030558679397 ], [ -73.362975127180604, -37.463467506071801 ], [ -73.361947457640198, -37.462912949625597 ] ] ] } },
{ "type": "Feature", "properties": { "id": "monoparte.6", "Name": null, "description": null, "timestamp": null, "begin": null, "end": null, "altitudeMode": null, "tessellate": -1, "extrude": 0, "visibility": -1, "drawOrder": null, "icon": null, "REG": "Biobío", "COM": "Curanilahue", "LOC": "Curanilahue", "ZONA": "Z-4", "NOM": "Zona Z-4", "UPERM": "Actividades productivas. Area verde.", "UPROH": "Todos los usos de suelo no mencionados como permitidos.", "P_DO": "27/05/1982", "N_DOC": "56", "T_DO": "Decreto", "OBS": "4ta Modificacion PRC Curanilahue. Decreto V y U N°27. Fecha promulgacion 27.04.2012. Fecha publicacion D.O. 22.04.2013." }, "geometry": { "type": "Polygon", "coordinates": [ [ [ -73.360134288234704, -37.461468067983901 ], [ -73.360193548341698, -37.461635473564897 ], [ -73.360286004455304, -37.461722610955697 ], [ -73.360760905365197, -37.4621197570603 ], [ -73.361858465592405, -37.462864926758797 ], [ -73.362975127180604, -37.463467506071801 ], [ -73.3639799779084, -37.464030558679397 ], [ -73.365525557524194, -37.464944638824399 ], [ -73.365510965032001, -37.4646941743312 ], [ -73.365459195826006, -37.464510565008098 ], [ -73.365204743781902, -37.464138020084398 ], [ -73.365019237979993, -37.4637738355976 ], [ -73.364941757168296, -37.463383825621499 ], [ -73.3651146235364, -37.463060944039697 ], [ -73.365343107916303, -37.4625177381292 ], [ -73.365352669344702, -37.462211814061398 ], [ -73.365268210809205, -37.461702016988397 ], [ -73.3652186895591, -37.4613218868366 ], [ -73.365100569009897, -37.4607042025998 ], [ -73.3648896547259, -37.460373697961501 ], [ -73.364691767370502, -37.460031797173002 ], [ -73.364493247781695, -37.459679005746601 ], [ -73.364446903379402, -37.459353323042599 ], [ -73.364724320379395, -37.4587100893892 ], [ -73.364435253168594, -37.458447954033403 ], [ -73.363853610346098, -37.458098424678703 ], [ -73.363328516464605, -37.457779540413398 ], [ -73.362815820200495, -37.457438367795397 ], [ -73.362415580304798, -37.4571476000798 ], [ -73.362130330819497, -37.456950798479703 ], [ -73.361871135990697, -37.456731205315002 ], [ -73.361577018469504, -37.456381944427299 ], [ -73.361397254021895, -37.456115759176498 ], [ -73.361916415513804, -37.455627291150797 ], [ -73.362079423425499, -37.455370257798002 ], [ -73.362122657074394, -37.455172220311098 ], [ -73.362071537515106, -37.454999498613702 ], [ -73.361967045749097, -37.454850577061997 ], [ -73.3618085483062, -37.454714565275701 ], [ -73.361431491746899, -37.454586635851598 ], [ -73.361137662836597, -37.454477454400099 ], [ -73.360844469315097, -37.454379161459798 ], [ -73.360670414065396, -37.454210984053603 ], [ -73.360484957944706, -37.453846789993101 ], [ -73.360145530569994, -37.452953534712798 ], [ -73.359990293359402, -37.452402695726299 ], [ -73.359966860746496, -37.451999771498002 ], [ -73.360080656996402, -37.4516026876084 ], [ -73.360277040354305, -37.451213463572302 ], [ -73.360785054851505, -37.4507690659822 ], [ -73.3616285621939, -37.4499739496624 ], [ -73.365277201795806, -37.446575916494801 ], [ -73.365095550024407, -37.446277067141899 ], [ -73.364552096405802, -37.446111650317903 ], [ -73.364029974049004, -37.445607131908901 ], [ -73.3635539019768, -37.445188211405501 ], [ -73.362790733995396, -37.444539816579699 ], [ -73.362400070484995, -37.444412393032202 ], [ -73.362053549939404, -37.444337900563397 ], [ -73.361677457356507, -37.444460940171602 ], [ -73.360827758584705, -37.444677879747502 ], [ -73.357178892252605, -37.445718516524899 ], [ -73.357823324864, -37.447386270462303 ], [ -73.358651589455107, -37.449625631369997 ], [ -73.359221467233596, -37.451186999018802 ], [ -73.358438716548207, -37.451379622733803 ], [ -73.358175656176996, -37.451563954911997 ], [ -73.358092068255104, -37.451774394955102 ], [ -73.358078674922197, -37.452014982527402 ], [ -73.358241592396396, -37.452227228503197 ], [ -73.358430562681093, -37.452416685133997 ], [ -73.358764091843796, -37.452502580222799 ], [ -73.359321243288505, -37.452667516672001 ], [ -73.359590276515902, -37.452821273160502 ], [ -73.359777984995304, -37.452988946787599 ], [ -73.359937107226401, -37.453135851196102 ], [ -73.360065387452806, -37.453458507771202 ], [ -73.3604168518997, -37.454558669739299 ], [ -73.360614978139907, -37.455140661489096 ], [ -73.3606993922904, -37.455650463904803 ], [ -73.360710439405395, -37.456075673872697 ], [ -73.360655717783501, -37.456546967272203 ], [ -73.360539663024994, -37.457140573886001 ], [ -73.3602755168546, -37.458012487594303 ], [ -73.360140728836797, -37.458519480724497 ], [ -73.360129244604394, -37.458792736885002 ], [ -73.360108533510498, -37.459142727052303 ], [ -73.360092891477095, -37.4595798355112 ], [ -73.360085403368203, -37.460627786797303 ], [ -73.360134288234704, -37.461468067983901 ] ] ] } },
{ "type": "Feature", "properties": { "id": "monoparte.7", "Name": null, "description": null, "timestamp": null, "begin": null, "end": null, "altitudeMode": null, "tessellate": -1, "extrude": 0, "visibility": -1, "drawOrder": null, "icon": null, "REG": "Biobío", "COM": "Curanilahue", "LOC": "Curanilahue", "ZONA": "Z-2", "NOM": "Zona Z-2", "UPERM": "Residencial. Equipamiento: cientifico, comercio, culto y cultura, deporte, educacion, esparcimiento, salud, seguridad, servicios, social. Actividades productivas. Area verde.", "UPROH": "Todos los usos de suelo no mencionados como permitidos.", "P_DO": "27/05/1982", "N_DOC": "56", "T_DO": "Decreto", "OBS": "Publicacion PRC Curanilahue. Decreto supremo V y U N°56. Fecha promulgacion 22.04.1982. Fecha publicacion D.O. 27.05.1982." }, "geometry": { "type": "Polygon", "coordinates": [ [ [ -73.3601234728268, -37.4642431642921 ], [ -73.360120527211294, -37.464245711353797 ], [ -73.360122022862598, -37.464245510150299 ], [ -73.3601234728268, -37.4642431642921 ] ] ] } },
{ "type": "Feature", "properties": { "id": "monoparte.8", "Name": null, "description": null, "timestamp": null, "begin": null, "end": null, "altitudeMode": null, "tessellate": -1, "extrude": 0, "visibility": -1, "drawOrder": null, "icon": null, "REG": "Biobío", "COM": "Curanilahue", "LOC": "Curanilahue", "ZONA": "Z-2", "NOM": "Zona Z-2", "UPERM": "Residencial. Equipamiento: cientifico, comercio, culto y cultura, deporte, educacion, esparcimiento, salud, seguridad, servicios, social. Actividades productivas. Area verde.", "UPROH": "Todos los usos de suelo no mencionados como permitidos.", "P_DO": "27/05/1982", "N_DOC": "56", "T_DO": "Decreto", "OBS": "Publicacion PRC Curanilahue. Decreto supremo V y U N°56. Fecha promulgacion 22.04.1982. Fecha publicacion D.O. 27.05.1982." }, "geometry": { "type": "Polygon", "coordinates": [ [ [ -73.359642109840095, -37.464659264288102 ], [ -73.360120527211294, -37.464245711353797 ], [ -73.359889504761099, -37.464276746378701 ], [ -73.359814064364798, -37.4644356336632 ], [ -73.359642109840095, -37.464659264288102 ] ] ] } },
{ "type": "Feature", "properties": { "id": "monoparte.9", "Name": null, "description": null, "timestamp": null, "begin": null, "end": null, "altitudeMode": null, "tessellate": -1, "extrude": 0, "visibility": -1, "drawOrder": null, "icon": null, "REG": "Biobío", "COM": "Curanilahue", "LOC": "Curanilahue", "ZONA": "Z-2", "NOM": "Zona Z-2", "UPERM": "Residencial. Equipamiento: cientifico, comercio, culto y cultura, deporte, educacion, esparcimiento, salud, seguridad, servicios, social. Actividades productivas. Area verde.", "UPROH": "Todos los usos de suelo no mencionados como permitidos.", "P_DO": "27/05/1982", "N_DOC": "56", "T_DO": "Decreto", "OBS": "Publicacion PRC Curanilahue. Decreto supremo V y U N°56. Fecha promulgacion 22.04.1982. Fecha publicacion D.O. 27.05.1982." }, "geometry": { "type": "Polygon", "coordinates": [ [ [ -73.3601234728268, -37.4642431642921 ], [ -73.360229011876498, -37.464151933566001 ], [ -73.360307804083504, -37.463944969407997 ], [ -73.3601234728268, -37.4642431642921 ] ] ] } },
{ "type": "Feature", "properties": { "id": "monoparte.10", "Name": null, "description": null, "timestamp": null, "begin": null, "end": null, "altitudeMode": null, "tessellate": -1, "extrude": 0, "visibility": -1, "drawOrder": null, "icon": null, "REG": "Biobío", "COM": "Curanilahue", "LOC": "Curanilahue", "ZONA": "Z-2", "NOM": "Zona Z-2", "UPERM": "Residencial. Equipamiento: cientifico, comercio, culto y cultura, deporte, educacion, esparcimiento, salud, seguridad, servicios, social. Actividades productivas. Area verde.", "UPROH": "Todos los usos de suelo no mencionados como permitidos.", "P_DO": "27/05/1982", "N_DOC": "56", "T_DO": "Decreto", "OBS": "Publicacion PRC Curanilahue. Decreto supremo V y U N°56. Fecha promulgacion 22.04.1982. Fecha publicacion D.O. 27.05.1982." }, "geometry": { "type": "Polygon", "coordinates": [ [ [ -73.358953289716894, -37.465215552993698 ], [ -73.358957206172406, -37.465240786087698 ], [ -73.357005871559707, -37.466970874679099 ], [ -73.355953546668701, -37.467726712787297 ], [ -73.354575762298197, -37.4682032919264 ], [ -73.353837910142303, -37.468566610665498 ], [ -73.353314584032006, -37.4692356813636 ], [ -73.353079821545904, -37.469593526821903 ], [ -73.353002150278499, -37.469729183522801 ], [ -73.352750404484794, -37.470109526731399 ], [ -73.352544448797403, -37.470335394306197 ], [ -73.3523965869866, -37.470434125029598 ], [ -73.352160901079102, -37.470667384996901 ], [ -73.3513643119325, -37.470988047170501 ], [ -73.351357544705195, -37.470960197066198 ], [ -73.350755340534405, -37.471121686731799 ], [ -73.3497438769962, -37.471388175700099 ], [ -73.347640211099105, -37.471945930055497 ], [ -73.347464483136605, -37.471985148292703 ], [ -73.346307675818494, -37.471634907435103 ], [ -73.343280214881901, -37.470666021444401 ], [ -73.343344026770396, -37.472475283177403 ], [ -73.343389259610205, -37.473019283173301 ], [ -73.346091029403397, -37.472384997121303 ], [ -73.3475403839564, -37.472113310190998 ], [ -73.351417498286196, -37.471206389538203 ], [ -73.3518709158826, -37.472411947343602 ], [ -73.352532830483398, -37.4722565614532 ], [ -73.352735249538696, -37.472205437779799 ], [ -73.353012688667405, -37.472031498801201 ], [ -73.353238637541907, -37.4719140255214 ], [ -73.353589827705207, -37.471595489600602 ], [ -73.354069417070704, -37.471130339998403 ], [ -73.354626549892203, -37.4705859323916 ], [ -73.3557500209062, -37.469420375937702 ], [ -73.357165062737593, -37.467908436190797 ], [ -73.357255519205907, -37.467880264958197 ], [ -73.359474350171794, -37.465916233470203 ], [ -73.360940253427501, -37.464540132816701 ], [ -73.3617387505751, -37.463771234949803 ], [ -73.361985392691807, -37.463179579145098 ], [ -73.361947457640198, -37.462912949625597 ], [ -73.361858465592405, -37.462864926758797 ], [ -73.360760905365197, -37.4621197570603 ], [ -73.360286004455304, -37.461722610955697 ], [ -73.360193548341698, -37.461635473564897 ], [ -73.360666223193704, -37.4629706994846 ], [ -73.360533062129704, -37.4635805637053 ], [ -73.360307804083504, -37.463944969407997 ], [ -73.360229011876498, -37.464151933566001 ], [ -73.3601234728268, -37.4642431642921 ], [ -73.360122022862598, -37.464245510150299 ], [ -73.360120527211294, -37.464245711353797 ], [ -73.359642109840095, -37.464659264288102 ], [ -73.359572229754093, -37.464750143772598 ], [ -73.359206900519595, -37.465035462807201 ], [ -73.359205535462607, -37.465036530139798 ], [ -73.358969121634701, -37.465208966566998 ], [ -73.358953289716894, -37.465215552993698 ] ] ] } }
]
}
