{
"type": "FeatureCollection",
"name": "IPT_08_PRC_Antuco",
"crs": { "type": "name", "properties": { "name": "urn:ogc:def:crs:OGC:1.3:CRS84" } },
"features": [
{ "type": "Feature", "properties": { "id": "monoparte.1", "Name": null, "description": null, "timestamp": null, "begin": null, "end": null, "altitudeMode": null, "tessellate": -1, "extrude": 0, "visibility": -1, "drawOrder": null, "icon": null, "REG": "Biobío", "COM": "Antuco", "LOC": "Antuco", "ZONA": "ZAV", "NOM": "ZAV Zon area verde", "UPERM": "Zonas destinadas al uso de suelo de areas verdes, establecidas por el presente Plan Regulador, que pueden ser terrenos particulares como fiscales, que no son bienes nacionales de uso publico.", "UPROH": "Todos los usos de suelo no indiados como permitidos.", "P_DO": "20/03/2013", "N_DOC": "253", "T_DO": "Resolución", "OBS": null }, "geometry": { "type": "Polygon", "coordinates": [ [ [ -71.679673830053801, -37.331284078335599 ], [ -71.680151492660201, -37.329686489401098 ], [ -71.680617572587806, -37.329596027353503 ], [ -71.683216987576301, -37.329018491805599 ], [ -71.684741799712498, -37.328658428901697 ], [ -71.684847453801595, -37.326385039785897 ], [ -71.684842808875402, -37.3255824329568 ], [ -71.6847080995352, -37.325630573420703 ], [ -71.683965281493201, -37.325717533586698 ], [ -71.683580344122504, -37.325773479262203 ], [ -71.683303174914897, -37.325837563611998 ], [ -71.683007466354198, -37.325934398729899 ], [ -71.6824020957839, -37.326078312967397 ], [ -71.682130426775899, -37.3261459896774 ], [ -71.681738528107701, -37.326207809484302 ], [ -71.681442616859599, -37.326278894646002 ], [ -71.681048205377806, -37.326370810130904 ], [ -71.680958810454399, -37.326375698219799 ], [ -71.680623222212901, -37.326409057661898 ], [ -71.680367353935395, -37.326467787964503 ], [ -71.680282461874995, -37.326468282285802 ], [ -71.679962422587394, -37.326485550050997 ], [ -71.679769326533403, -37.326445579273702 ], [ -71.679614224644695, -37.326416192377501 ], [ -71.679318228287798, -37.326404302626401 ], [ -71.678998889331893, -37.326360610273298 ], [ -71.678759408721703, -37.326325981771703 ], [ -71.678609221812806, -37.3262836068414 ], [ -71.678407266011604, -37.326296765119999 ], [ -71.678092152651999, -37.326250973164498 ], [ -71.677812837783804, -37.3262043687144 ], [ -71.677415709995302, -37.3261089318298 ], [ -71.677069306169201, -37.326039525949703 ], [ -71.676526383143994, -37.3259345124848 ], [ -71.676027472252898, -37.325827928184601 ], [ -71.675771275933698, -37.325776503535202 ], [ -71.675382896280894, -37.325685153838798 ], [ -71.6750820046298, -37.325636170883399 ], [ -71.674712387298399, -37.325568713292398 ], [ -71.674366748396295, -37.325520739825301 ], [ -71.674040900720996, -37.325475179743997 ], [ -71.673672872655899, -37.325401960740898 ], [ -71.673352192192297, -37.3253505588129 ], [ -71.673073389672695, -37.325318237815502 ], [ -71.672725710048596, -37.325263153357803 ], [ -71.672405081311595, -37.325213177761398 ], [ -71.672073765415703, -37.325164874702097 ], [ -71.671679904338802, -37.325120844150497 ], [ -71.671389654871305, -37.325068750140801 ], [ -71.671156212376502, -37.3250425520391 ], [ -71.670753351631703, -37.324997290688302 ], [ -71.670456196667601, -37.324952502626701 ], [ -71.670298331985805, -37.324946054522499 ], [ -71.670003776528105, -37.324924095363798 ], [ -71.669664846899394, -37.324863082042803 ], [ -71.668955418956401, -37.324790402752399 ], [ -71.668508894989102, -37.324726092496697 ], [ -71.667793546019794, -37.324627790845497 ], [ -71.667361646196795, -37.324571729547301 ], [ -71.666719421013894, -37.324494660505501 ], [ -71.666590102665495, -37.324464673925497 ], [ -71.666334977598297, -37.324443246408499 ], [ -71.665120230885094, -37.324294675674899 ], [ -71.664757259049296, -37.324262800123499 ], [ -71.663991990394706, -37.3242013644618 ], [ -71.663620171440201, -37.324172546723602 ], [ -71.663206377158701, -37.324121784453801 ], [ -71.662885785865797, -37.324123282647001 ], [ -71.662908622577703, -37.3242825600625 ], [ -71.664242091554996, -37.324374848561703 ], [ -71.665585843922102, -37.324509076657201 ], [ -71.667624269678498, -37.324784979180301 ], [ -71.667894271495399, -37.324821803793199 ], [ -71.667909819945606, -37.325008139699399 ], [ -71.667894531201298, -37.325841780816802 ], [ -71.667862606527393, -37.326711560450498 ], [ -71.667779796793695, -37.328548109852697 ], [ -71.6664323279917, -37.3285641998255 ], [ -71.664274508008901, -37.328587808333502 ], [ -71.663342022403, -37.3286004452588 ], [ -71.663344617574595, -37.328809078390101 ], [ -71.664373742339393, -37.328800416676302 ], [ -71.666253865829006, -37.328775916425101 ], [ -71.666271981438896, -37.329794775119097 ], [ -71.664745108690497, -37.329804162845399 ], [ -71.664745125429803, -37.330058084507598 ], [ -71.666283355119305, -37.330116392270497 ], [ -71.666361447021899, -37.330804871441799 ], [ -71.666326531000095, -37.330830694103099 ], [ -71.666351077602101, -37.331144860942203 ], [ -71.666425373942303, -37.332612359522201 ], [ -71.665034468323299, -37.332668755044203 ], [ -71.663576305457596, -37.332723072828202 ], [ -71.663522729172399, -37.332727856400602 ], [ -71.663467442125096, -37.332694535351699 ], [ -71.663477329906101, -37.332857495081598 ], [ -71.663746495790207, -37.332880042062001 ], [ -71.663944063275906, -37.3328941882897 ], [ -71.664486540215407, -37.3329348939859 ], [ -71.664791309987805, -37.332940900621097 ], [ -71.665304910445698, -37.332935045770903 ], [ -71.665779184090397, -37.3329214921173 ], [ -71.666246447626804, -37.332912385836202 ], [ -71.666513797563198, -37.332873454374102 ], [ -71.666649276086105, -37.332884704270697 ], [ -71.667048688194996, -37.333084554871803 ], [ -71.667186677291497, -37.3330857341344 ], [ -71.667424051484204, -37.3330603512984 ], [ -71.667532741577006, -37.333043593615699 ], [ -71.667819104812295, -37.333035701340599 ], [ -71.668467728473701, -37.333028216914002 ], [ -71.669323693514499, -37.333017478018299 ], [ -71.670286233024896, -37.333063587933196 ], [ -71.6719326901231, -37.333140835178099 ], [ -71.674138423152002, -37.3332018335256 ], [ -71.675842426491698, -37.333259842478398 ], [ -71.676725310563796, -37.333275620493502 ], [ -71.677181035730499, -37.333215823698303 ], [ -71.677213022498194, -37.3330333640478 ], [ -71.677647898064706, -37.332869016334101 ], [ -71.677780215978203, -37.332841700782801 ], [ -71.677980564577794, -37.332782802317404 ], [ -71.678123629649505, -37.332725200195902 ], [ -71.678267572208796, -37.332641829148798 ], [ -71.678733139908999, -37.332353184205999 ], [ -71.6788943201297, -37.332250824351497 ], [ -71.678956933390793, -37.332197906086002 ], [ -71.679034805695807, -37.332070253788402 ], [ -71.679075273470701, -37.3320073742453 ], [ -71.678936049131707, -37.332016151072899 ], [ -71.678845099365105, -37.332077451169503 ], [ -71.678367213713301, -37.332367234353299 ], [ -71.677774999474806, -37.332716826834599 ], [ -71.677666166414099, -37.332805124317296 ], [ -71.677590596003796, -37.332821141230802 ], [ -71.677457229990694, -37.332849196703599 ], [ -71.676928362612998, -37.332964886907398 ], [ -71.676790520562506, -37.332993042077597 ], [ -71.676670452240202, -37.333017218118499 ], [ -71.676571997668503, -37.333019447030601 ], [ -71.676051226189998, -37.332984743405802 ], [ -71.675836290566494, -37.332986031511403 ], [ -71.675924018382403, -37.332933976505402 ], [ -71.675954583297994, -37.332911827015302 ], [ -71.675958170811796, -37.3328867106232 ], [ -71.675943729673605, -37.332858426594797 ], [ -71.675925067923103, -37.332837391260099 ], [ -71.675884284833003, -37.332824008859298 ], [ -71.675844007990094, -37.332824920426397 ], [ -71.675799255689597, -37.332825933268303 ], [ -71.675696580619501, -37.3328354092341 ], [ -71.675630593631098, -37.332869090041299 ], [ -71.675531089158397, -37.332967904241997 ], [ -71.672083326469505, -37.3328670573285 ], [ -71.671139878826096, -37.332860956354899 ], [ -71.670792417341204, -37.332850924733698 ], [ -71.668211648596198, -37.332801903603396 ], [ -71.667483373315406, -37.332788533736299 ], [ -71.666874162271995, -37.332659222226802 ], [ -71.6666526572414, -37.332622493255002 ], [ -71.666555535858393, -37.330931866712298 ], [ -71.666612676282895, -37.330859050633798 ], [ -71.666518375497304, -37.330092256672401 ], [ -71.666518672477395, -37.329889588040203 ], [ -71.666494831730901, -37.3287933710956 ], [ -71.668366440789598, -37.328739226077801 ], [ -71.668360971105201, -37.328559386243299 ], [ -71.668397030646005, -37.327968637324503 ], [ -71.668462876617497, -37.326454582890698 ], [ -71.668500809458905, -37.3249111161659 ], [ -71.668863626177, -37.324955381402901 ], [ -71.669455201164595, -37.325018323317003 ], [ -71.669967936131101, -37.325080658160999 ], [ -71.670906138448998, -37.325185833779699 ], [ -71.671484673336096, -37.325251444415798 ], [ -71.672132064958006, -37.325356028105297 ], [ -71.673055624028294, -37.325502764942897 ], [ -71.673833502513006, -37.325633000127901 ], [ -71.674788152069794, -37.3257806900071 ], [ -71.675620578231801, -37.325933521445897 ], [ -71.676272337839606, -37.326059918703201 ], [ -71.677119940110103, -37.326219549128098 ], [ -71.678039565196897, -37.326389463191802 ], [ -71.678820864956506, -37.326531508753497 ], [ -71.679073485685393, -37.3265830068162 ], [ -71.679207137448202, -37.326563288576203 ], [ -71.679505541007998, -37.326558910911103 ], [ -71.679597745623596, -37.326583955258499 ], [ -71.679717035904105, -37.326612531770103 ], [ -71.680075866969702, -37.326628240832299 ], [ -71.680505871352594, -37.326630415139498 ], [ -71.680832413586302, -37.326577711106502 ], [ -71.681269926399594, -37.326539179576301 ], [ -71.681389000468798, -37.326529326108599 ], [ -71.681811953621704, -37.326417211204699 ], [ -71.682160063961106, -37.326333019072798 ], [ -71.682397023503796, -37.326279958459999 ], [ -71.682607388981907, -37.3262346539181 ], [ -71.683067068864602, -37.326147927769703 ], [ -71.683743246816107, -37.3260205228909 ], [ -71.684062715668006, -37.325936975302 ], [ -71.684343231872106, -37.325849543327003 ], [ -71.684471645267806, -37.325809229241401 ], [ -71.684459900848097, -37.326032149592002 ], [ -71.684400849418196, -37.327392508330199 ], [ -71.6843435384271, -37.3282986295063 ], [ -71.684345319554495, -37.328348658495798 ], [ -71.683580726729701, -37.328509069129701 ], [ -71.681989796352994, -37.328857026962702 ], [ -71.681915884737705, -37.328869193565701 ], [ -71.680775749109003, -37.329165900409102 ], [ -71.680731444555207, -37.329181949291502 ], [ -71.680510026124693, -37.329252535488799 ], [ -71.680340180873102, -37.329304071024801 ], [ -71.680145170425504, -37.329382642044799 ], [ -71.680081747293301, -37.329412690573399 ], [ -71.680052210983703, -37.329455322989197 ], [ -71.679972148580504, -37.329487655416699 ], [ -71.678536060992897, -37.3292703290183 ], [ -71.678208894184806, -37.330415311476997 ], [ -71.679666159588507, -37.330555865565898 ], [ -71.6794555232416, -37.331259270645702 ], [ -71.679295323708502, -37.3319169517112 ], [ -71.679445607811402, -37.331884128595 ], [ -71.679532500423505, -37.331859577941202 ], [ -71.679673830053801, -37.331284078335599 ] ] ] } },
{ "type": "Feature", "properties": { "id": "monoparte.2", "Name": null, "description": null, "timestamp": null, "begin": null, "end": null, "altitudeMode": null, "tessellate": -1, "extrude": 0, "visibility": -1, "drawOrder": null, "icon": null, "REG": "Biobío", "COM": "Antuco", "LOC": "Antuco", "ZONA": "ZM1", "NOM": "ZM1 Zona con equipamiento (mixta)", "UPERM": "Residencial. Equipamiento: cientifico, comercio, culto y cultura, deporte, educacion, esparcimiento, salud, seguridad, servicios, social. Espacio publico. Area verde.", "UPROH": "Todos los usos de suelo no indiados como permitidos.", "P_DO": "20/03/2013", "N_DOC": "253", "T_DO": "Resolución", "OBS": null }, "geometry": { "type": "Polygon", "coordinates": [ [ [ -71.680142856938502, -37.331324946701599 ], [ -71.680239290998898, -37.331331944060501 ], [ -71.680617572587806, -37.329596027353503 ], [ -71.680151492660201, -37.329686489401098 ], [ -71.679673830053801, -37.331284078335599 ], [ -71.680142856938502, -37.331324946701599 ] ] ] } },
{ "type": "Feature", "properties": { "id": "monoparte.3", "Name": null, "description": null, "timestamp": null, "begin": null, "end": null, "altitudeMode": null, "tessellate": -1, "extrude": 0, "visibility": -1, "drawOrder": null, "icon": null, "REG": "Biobío", "COM": "Antuco", "LOC": "Antuco", "ZONA": "ZM1", "NOM": "ZM1 Zona con equipamiento (mixta)", "UPERM": "Residencial. Equipamiento: cientifico, comercio, culto y cultura, deporte, educacion, esparcimiento, salud, seguridad, servicios, social. Espacio publico. Area verde.", "UPROH": "Todos los usos de suelo no indiados como permitidos.", "P_DO": "20/03/2013", "N_DOC": "253", "T_DO": "Resolución", "OBS": null }, "geometry": { "type": "Polygon", "coordinates": [ [ [ -71.669603444551498, -37.328613595692097 ], [ -71.669413464754996, -37.330356717801102 ], [ -71.669418777113094, -37.330354058472999 ], [ -71.670416717314396, -37.330456422866902 ], [ -71.672682181965797, -37.330667500568303 ], [ -71.674390099898304, -37.330837502174397 ], [ -71.675677601900304, -37.330939506633499 ], [ -71.677031059843799, -37.331048942836702 ], [ -71.678509498243002, -37.331167454080799 ], [ -71.6794555232416, -37.331259270645702 ], [ -71.679666159588507, -37.330555865565898 ], [ -71.678208894184806, -37.330415311476997 ], [ -71.678536060992897, -37.3292703290183 ], [ -71.679972148580504, -37.329487655416699 ], [ -71.680052210983703, -37.329455322989197 ], [ -71.680081747293301, -37.329412690573399 ], [ -71.680145170425504, -37.329382642044799 ], [ -71.680340180873102, -37.329304071024801 ], [ -71.680510026124693, -37.329252535488799 ], [ -71.680731444555207, -37.329181949291502 ], [ -71.680775749109003, -37.329165900409102 ], [ -71.680877680802993, -37.328757790773899 ], [ -71.678933051551496, -37.3286135124617 ], [ -71.678445083685403, -37.328576882549001 ], [ -71.677703368397104, -37.3285412287699 ], [ -71.676470605335595, -37.328516687964402 ], [ -71.675726838482205, -37.328507295582597 ], [ -71.674716627846806, -37.328477698860098 ], [ -71.673856184602599, -37.328428017696602 ], [ -71.673428391921206, -37.328404311579902 ], [ -71.672782144165495, -37.328366469048902 ], [ -71.672560452160894, -37.328345253770699 ], [ -71.671454553877595, -37.328227190349303 ], [ -71.670448036388294, -37.3281330994039 ], [ -71.669659889491797, -37.3280507593145 ], [ -71.668397030646005, -37.327968637324503 ], [ -71.668360971105201, -37.328559386243299 ], [ -71.669603444551498, -37.328613595692097 ] ] ] } },
{ "type": "Feature", "properties": { "id": "monoparte.4", "Name": null, "description": null, "timestamp": null, "begin": null, "end": null, "altitudeMode": null, "tessellate": -1, "extrude": 0, "visibility": -1, "drawOrder": null, "icon": null, "REG": "Biobío", "COM": "Antuco", "LOC": "Antuco", "ZONA": "ZH2", "NOM": "ZH2 Zona residencial densidad media", "UPERM": "Residencial. Equipamiento: cientifico, comercio, culto y cultura, deporte, educacion, esparcimiento, salud, seguridad, servicios, social. Actividades productivas. Espacio publico. Area verde.", "UPROH": "Todos los usos de suelo no indiados como permitidos.", "P_DO": "20/03/2013", "N_DOC": "253", "T_DO": "Resolución", "OBS": null }, "geometry": { "type": "Polygon", "coordinates": [ [ [ -71.679673830053801, -37.331284078335599 ], [ -71.679532500423505, -37.331859577941202 ], [ -71.679605238213696, -37.331839025539502 ], [ -71.6796853964821, -37.331775695005497 ], [ -71.679858878355304, -37.331767470887797 ], [ -71.680072682266697, -37.331663917575398 ], [ -71.680151252609505, -37.331606344899399 ], [ -71.680181522843199, -37.331597034002897 ], [ -71.680239290998898, -37.331331944060501 ], [ -71.680142856938502, -37.331324946701599 ], [ -71.679673830053801, -37.331284078335599 ] ] ] } },
{ "type": "Feature", "properties": { "id": "monoparte.5", "Name": null, "description": null, "timestamp": null, "begin": null, "end": null, "altitudeMode": null, "tessellate": -1, "extrude": 0, "visibility": -1, "drawOrder": null, "icon": null, "REG": "Biobío", "COM": "Antuco", "LOC": "Antuco", "ZONA": "ZH2", "NOM": "ZH2 Zona residencial densidad media", "UPERM": "Residencial. Equipamiento: cientifico, comercio, culto y cultura, deporte, educacion, esparcimiento, salud, seguridad, servicios, social. Actividades productivas. Espacio publico. Area verde.", "UPROH": "Todos los usos de suelo no indiados como permitidos.", "P_DO": "20/03/2013", "N_DOC": "253", "T_DO": "Resolución", "OBS": null }, "geometry": { "type": "Polygon", "coordinates": [ [ [ -71.669352833146107, -37.331005457820702 ], [ -71.669400360022905, -37.331012014677903 ], [ -71.669519627866407, -37.331007414164603 ], [ -71.670259014547, -37.331044125030097 ], [ -71.670878726522801, -37.3310739980828 ], [ -71.6719176738074, -37.331124912131301 ], [ -71.672228825028597, -37.331142676515597 ], [ -71.672271989651605, -37.331147423109101 ], [ -71.672281738414597, -37.331152924951198 ], [ -71.672310784270493, -37.331163711920098 ], [ -71.6722167354433, -37.331812445887003 ], [ -71.673503774021896, -37.331867275871502 ], [ -71.674307339812998, -37.331894880065398 ], [ -71.675674237023102, -37.331938342402097 ], [ -71.676415681167796, -37.331965430361798 ], [ -71.677390957063494, -37.3319853119065 ], [ -71.6780412324065, -37.332001103004202 ], [ -71.678866009054701, -37.332020565791602 ], [ -71.679075273470701, -37.3320073742453 ], [ -71.679094227222706, -37.3319779238835 ], [ -71.679143688123204, -37.331958206493297 ], [ -71.679196729051696, -37.3319384070561 ], [ -71.679248284170299, -37.331927225425197 ], [ -71.679295323708502, -37.3319169517112 ], [ -71.6794555232416, -37.331259270645702 ], [ -71.678509498243002, -37.331167454080799 ], [ -71.677031059843799, -37.331048942836702 ], [ -71.675677601900304, -37.330939506633499 ], [ -71.674390099898304, -37.330837502174397 ], [ -71.672682181965797, -37.330667500568303 ], [ -71.670416717314396, -37.330456422866902 ], [ -71.669418777113094, -37.330354058472999 ], [ -71.669413464754996, -37.330356717801102 ], [ -71.669352833146107, -37.331005457820702 ] ] ] } },
{ "type": "Feature", "properties": { "id": "monoparte.6", "Name": null, "description": null, "timestamp": null, "begin": null, "end": null, "altitudeMode": null, "tessellate": -1, "extrude": 0, "visibility": -1, "drawOrder": null, "icon": null, "REG": "Biobío", "COM": "Antuco", "LOC": "Antuco", "ZONA": "ZH2", "NOM": "ZH2 Zona residencial densidad media", "UPERM": "Residencial. Equipamiento: cientifico, comercio, culto y cultura, deporte, educacion, esparcimiento, salud, seguridad, servicios, social. Actividades productivas. Espacio publico. Area verde.", "UPROH": "Todos los usos de suelo no indiados como permitidos.", "P_DO": "20/03/2013", "N_DOC": "253", "T_DO": "Resolución", "OBS": null }, "geometry": { "type": "Polygon", "coordinates": [ [ [ -71.668462876617497, -37.326454582890698 ], [ -71.668397030646005, -37.327968637324503 ], [ -71.669659889491797, -37.3280507593145 ], [ -71.670448036388294, -37.3281330994039 ], [ -71.671454553877595, -37.328227190349303 ], [ -71.672560452160894, -37.328345253770699 ], [ -71.672782144165495, -37.328366469048902 ], [ -71.673428391921206, -37.328404311579902 ], [ -71.673856184602599, -37.328428017696602 ], [ -71.674716627846806, -37.328477698860098 ], [ -71.675726838482205, -37.328507295582597 ], [ -71.676470605335595, -37.328516687964402 ], [ -71.677703368397104, -37.3285412287699 ], [ -71.678445083685403, -37.328576882549001 ], [ -71.678933051551496, -37.3286135124617 ], [ -71.680877680802993, -37.328757790773899 ], [ -71.680775749109003, -37.329165900409102 ], [ -71.681915884737705, -37.328869193565701 ], [ -71.682047017581098, -37.327855300530302 ], [ -71.682137755865298, -37.3267970220191 ], [ -71.682160063961106, -37.326333019072798 ], [ -71.681811953621704, -37.326417211204699 ], [ -71.681389000468798, -37.326529326108599 ], [ -71.681269926399594, -37.326539179576301 ], [ -71.680832413586302, -37.326577711106502 ], [ -71.680505871352594, -37.326630415139498 ], [ -71.680075866969702, -37.326628240832299 ], [ -71.679717035904105, -37.326612531770103 ], [ -71.679597745623596, -37.326583955258499 ], [ -71.679361748580504, -37.327620773796099 ], [ -71.678954504257504, -37.327587085356598 ], [ -71.678532259597205, -37.327551350933803 ], [ -71.676943252591499, -37.327449051938899 ], [ -71.675701470631907, -37.327371776372303 ], [ -71.674744043883194, -37.327314758605397 ], [ -71.672951254600207, -37.327190787112002 ], [ -71.672909151198397, -37.327182203150102 ], [ -71.672893981855495, -37.327175392891398 ], [ -71.672962788217703, -37.326589697054402 ], [ -71.673036743614304, -37.325896593332097 ], [ -71.673055624028294, -37.325502764942897 ], [ -71.672132064958006, -37.325356028105297 ], [ -71.671484673336096, -37.325251444415798 ], [ -71.670906138448998, -37.325185833779699 ], [ -71.669967936131101, -37.325080658160999 ], [ -71.669455201164595, -37.325018323317003 ], [ -71.668863626177, -37.324955381402901 ], [ -71.668500809458905, -37.3249111161659 ], [ -71.668462876617497, -37.326454582890698 ] ] ] } },
{ "type": "Feature", "properties": { "id": "monoparte.7", "Name": null, "description": null, "timestamp": null, "begin": null, "end": null, "altitudeMode": null, "tessellate": -1, "extrude": 0, "visibility": -1, "drawOrder": null, "icon": null, "REG": "Biobío", "COM": "Antuco", "LOC": "Antuco", "ZONA": "ZH1", "NOM": "ZH1 Zona con densidad alta", "UPERM": "Residencial. Equipamiento: cientifico, comercio, culto y cultura, deporte, educacion, esparcimiento, salud, seguridad, servicios, social. Actividades productivas. Espacio publico. Area verde.", "UPROH": "Todos los usos de suelo no indiados como permitidos.", "P_DO": "20/03/2013", "N_DOC": "253", "T_DO": "Resolución", "OBS": null }, "geometry": { "type": "Polygon", "coordinates": [ [ [ -71.663355552772103, -37.329765384669997 ], [ -71.663373049906895, -37.330108608704201 ], [ -71.6633804443873, -37.331129283176601 ], [ -71.663421577481202, -37.331938620819599 ], [ -71.663467442125096, -37.332694535351699 ], [ -71.663522729172399, -37.332727856400602 ], [ -71.663576305457596, -37.332723072828202 ], [ -71.665034468323299, -37.332668755044203 ], [ -71.666425373942303, -37.332612359522201 ], [ -71.666351077602101, -37.331144860942203 ], [ -71.666326531000095, -37.330830694103099 ], [ -71.666361447021899, -37.330804871441799 ], [ -71.666283355119305, -37.330116392270497 ], [ -71.664745125429803, -37.330058084507598 ], [ -71.664745108690497, -37.329804162845399 ], [ -71.666271981438896, -37.329794775119097 ], [ -71.666253865829006, -37.328775916425101 ], [ -71.664373742339393, -37.328800416676302 ], [ -71.663344617574595, -37.328809078390101 ], [ -71.663347297315497, -37.329024544703898 ], [ -71.663347894884794, -37.3293964747646 ], [ -71.663355552772103, -37.329765384669997 ] ] ] } },
{ "type": "Feature", "properties": { "id": "monoparte.8", "Name": null, "description": null, "timestamp": null, "begin": null, "end": null, "altitudeMode": null, "tessellate": -1, "extrude": 0, "visibility": -1, "drawOrder": null, "icon": null, "REG": "Biobío", "COM": "Antuco", "LOC": "Antuco", "ZONA": "ZH1", "NOM": "ZH1 Zona con densidad alta", "UPERM": "Residencial. Equipamiento: cientifico, comercio, culto y cultura, deporte, educacion, esparcimiento, salud, seguridad, servicios, social. Actividades productivas. Espacio publico. Area verde.", "UPROH": "Todos los usos de suelo no indiados como permitidos.", "P_DO": "20/03/2013", "N_DOC": "253", "T_DO": "Resolución", "OBS": null }, "geometry": { "type": "Polygon", "coordinates": [ [ [ -71.666555535858393, -37.330931866712298 ], [ -71.6666526572414, -37.332622493255002 ], [ -71.666874162271995, -37.332659222226802 ], [ -71.667483373315406, -37.332788533736299 ], [ -71.668211648596198, -37.332801903603396 ], [ -71.670792417341204, -37.332850924733698 ], [ -71.671139878826096, -37.332860956354899 ], [ -71.672083326469505, -37.3328670573285 ], [ -71.6722167354433, -37.331812445887003 ], [ -71.672310784270493, -37.331163711920098 ], [ -71.672281738414597, -37.331152924951198 ], [ -71.672271989651605, -37.331147423109101 ], [ -71.672228825028597, -37.331142676515597 ], [ -71.6719176738074, -37.331124912131301 ], [ -71.670878726522801, -37.3310739980828 ], [ -71.670259014547, -37.331044125030097 ], [ -71.669519627866407, -37.331007414164603 ], [ -71.669400360022905, -37.331012014677903 ], [ -71.669352833146107, -37.331005457820702 ], [ -71.669413464754996, -37.330356717801102 ], [ -71.669603444551498, -37.328613595692097 ], [ -71.668360971105201, -37.328559386243299 ], [ -71.668366440789598, -37.328739226077801 ], [ -71.666494831730901, -37.3287933710956 ], [ -71.666518672477395, -37.329889588040203 ], [ -71.666518375497304, -37.330092256672401 ], [ -71.666612676282895, -37.330859050633798 ], [ -71.666555535858393, -37.330931866712298 ] ] ] } },
{ "type": "Feature", "properties": { "id": "monoparte.9", "Name": null, "description": null, "timestamp": null, "begin": null, "end": null, "altitudeMode": null, "tessellate": -1, "extrude": 0, "visibility": -1, "drawOrder": null, "icon": null, "REG": "Biobío", "COM": "Antuco", "LOC": "Antuco", "ZONA": "ZH1", "NOM": "ZH1 Zona con densidad alta", "UPERM": "Residencial. Equipamiento: cientifico, comercio, culto y cultura, deporte, educacion, esparcimiento, salud, seguridad, servicios, social. Actividades productivas. Espacio publico. Area verde.", "UPROH": "Todos los usos de suelo no indiados como permitidos.", "P_DO": "20/03/2013", "N_DOC": "253", "T_DO": "Resolución", "OBS": null }, "geometry": { "type": "Polygon", "coordinates": [ [ [ -71.672962788217703, -37.326589697054402 ], [ -71.672893981855495, -37.327175392891398 ], [ -71.672909151198397, -37.327182203150102 ], [ -71.672951254600207, -37.327190787112002 ], [ -71.674744043883194, -37.327314758605397 ], [ -71.675701470631907, -37.327371776372303 ], [ -71.676943252591499, -37.327449051938899 ], [ -71.678532259597205, -37.327551350933803 ], [ -71.678954504257504, -37.327587085356598 ], [ -71.679361748580504, -37.327620773796099 ], [ -71.679597745623596, -37.326583955258499 ], [ -71.679505541007998, -37.326558910911103 ], [ -71.679207137448202, -37.326563288576203 ], [ -71.679073485685393, -37.3265830068162 ], [ -71.678820864956506, -37.326531508753497 ], [ -71.678039565196897, -37.326389463191802 ], [ -71.677119940110103, -37.326219549128098 ], [ -71.676272337839606, -37.326059918703201 ], [ -71.675620578231801, -37.325933521445897 ], [ -71.674788152069794, -37.3257806900071 ], [ -71.673833502513006, -37.325633000127901 ], [ -71.673055624028294, -37.325502764942897 ], [ -71.673036743614304, -37.325896593332097 ], [ -71.672962788217703, -37.326589697054402 ] ] ] } },
{ "type": "Feature", "properties": { "id": "monoparte.10", "Name": null, "description": null, "timestamp": null, "begin": null, "end": null, "altitudeMode": null, "tessellate": -1, "extrude": 0, "visibility": -1, "drawOrder": null, "icon": null, "REG": "Biobío", "COM": "Antuco", "LOC": "Antuco", "ZONA": "ZH3", "NOM": "ZH3 Zona habitacional y densidad baja", "UPERM": "Residencial. Equipamiento: comercio, culto y cultura, deporte, esparcimiento, seguridad, social. Actividades productivas. Espacio publico. Area verde.", "UPROH": "Todos los usos de suelo no indiados como permitidos.", "P_DO": "20/03/2013", "N_DOC": "253", "T_DO": "Resolución", "OBS": null }, "geometry": { "type": "Polygon", "coordinates": [ [ [ -71.669323693514499, -37.333017478018299 ], [ -71.669346793019798, -37.333588889197998 ], [ -71.669364274362096, -37.334031964612002 ], [ -71.669586298305006, -37.334028382601304 ], [ -71.669636269425098, -37.334022962174402 ], [ -71.669693097265096, -37.334008804525403 ], [ -71.669856421290604, -37.333966491289203 ], [ -71.669959285498805, -37.333936988460302 ], [ -71.670141692209697, -37.333877077346102 ], [ -71.670472441646098, -37.333756593600199 ], [ -71.670562976596003, -37.333733090915501 ], [ -71.670625630611994, -37.333731675680802 ], [ -71.670856601551804, -37.333737902563598 ], [ -71.670910709688101, -37.333748125495198 ], [ -71.670992023195495, -37.333767745359999 ], [ -71.671248159832103, -37.333766250665697 ], [ -71.671462972751598, -37.333761397064997 ], [ -71.671618913335706, -37.333763595593801 ], [ -71.671810707642805, -37.333766413779401 ], [ -71.671953408803105, -37.333748883424697 ], [ -71.672186433205994, -37.333732172575203 ], [ -71.6723206403272, -37.333727709111798 ], [ -71.672557439722596, -37.333736662013699 ], [ -71.672816075040998, -37.333755134161201 ], [ -71.673080689561701, -37.333790637992102 ], [ -71.673278817812502, -37.333820491381601 ], [ -71.673329599511405, -37.333837940683303 ], [ -71.6733633926642, -37.333881523002503 ], [ -71.673440285050802, -37.333978492341402 ], [ -71.673470751613905, -37.334029303021701 ], [ -71.673481982785702, -37.334093424008202 ], [ -71.673494548385804, -37.334144639466999 ], [ -71.673558368568195, -37.3341760983716 ], [ -71.673664051144698, -37.334125069983301 ], [ -71.673874535277704, -37.334058796913403 ], [ -71.674215903298901, -37.333985271023003 ], [ -71.674287050874895, -37.333970786378401 ], [ -71.674614690174394, -37.333964805005799 ], [ -71.674815030145396, -37.3339559815239 ], [ -71.674853905101202, -37.333940796573998 ], [ -71.674904143604195, -37.333892452452901 ], [ -71.674914833444504, -37.333890779603998 ], [ -71.674966645349997, -37.333886746274501 ], [ -71.675160170304807, -37.333918130731902 ], [ -71.675253914777102, -37.333934607078596 ], [ -71.675327866167706, -37.333948669245203 ], [ -71.675512334251295, -37.333997425487802 ], [ -71.675532227691704, -37.334002697476897 ], [ -71.675563319462597, -37.334020591387201 ], [ -71.675700266353701, -37.334093310536701 ], [ -71.675793300813197, -37.334089774905003 ], [ -71.675924601132394, -37.334053900259903 ], [ -71.676002974261706, -37.333990613461701 ], [ -71.676043790714203, -37.333979675360197 ], [ -71.6760777523847, -37.333977476563398 ], [ -71.676112220326303, -37.333989570833097 ], [ -71.6764338669864, -37.334198302487202 ], [ -71.676647729056796, -37.334116211609697 ], [ -71.676697090488602, -37.334093635481103 ], [ -71.676940557927296, -37.334038054592 ], [ -71.677045607953502, -37.3336665949099 ], [ -71.677062026955696, -37.333473099319903 ], [ -71.677083775775301, -37.333429690559001 ], [ -71.677177268947503, -37.333237310824202 ], [ -71.677181035730499, -37.333215823698303 ], [ -71.676725310563796, -37.333275620493502 ], [ -71.675842426491698, -37.333259842478398 ], [ -71.674138423152002, -37.3332018335256 ], [ -71.6719326901231, -37.333140835178099 ], [ -71.670286233024896, -37.333063587933196 ], [ -71.669323693514499, -37.333017478018299 ] ] ] } },
{ "type": "Feature", "properties": { "id": "monoparte.11", "Name": null, "description": null, "timestamp": null, "begin": null, "end": null, "altitudeMode": null, "tessellate": -1, "extrude": 0, "visibility": -1, "drawOrder": null, "icon": null, "REG": "Biobío", "COM": "Antuco", "LOC": "Antuco", "ZONA": "ZH3", "NOM": "ZH3 Zona habitacional y densidad baja", "UPERM": "Residencial. Equipamiento: comercio, culto y cultura, deporte, esparcimiento, seguridad, social. Actividades productivas. Espacio publico. Area verde.", "UPROH": "Todos los usos de suelo no indiados como permitidos.", "P_DO": "20/03/2013", "N_DOC": "253", "T_DO": "Resolución", "OBS": null }, "geometry": { "type": "Polygon", "coordinates": [ [ [ -71.6722167354433, -37.331812445887003 ], [ -71.672083326469505, -37.3328670573285 ], [ -71.675531089158397, -37.332967904241997 ], [ -71.675630593631098, -37.332869090041299 ], [ -71.675696580619501, -37.3328354092341 ], [ -71.675799255689597, -37.332825933268303 ], [ -71.675844007990094, -37.332824920426397 ], [ -71.675884284833003, -37.332824008859298 ], [ -71.675925067923103, -37.332837391260099 ], [ -71.675943729673605, -37.332858426594797 ], [ -71.675958170811796, -37.3328867106232 ], [ -71.675954583297994, -37.332911827015302 ], [ -71.675924018382403, -37.332933976505402 ], [ -71.675836290566494, -37.332986031511403 ], [ -71.676051226189998, -37.332984743405802 ], [ -71.676571997668503, -37.333019447030601 ], [ -71.676670452240202, -37.333017218118499 ], [ -71.676790520562506, -37.332993042077597 ], [ -71.676928362612998, -37.332964886907398 ], [ -71.677457229990694, -37.332849196703599 ], [ -71.677590596003796, -37.332821141230802 ], [ -71.677666166414099, -37.332805124317296 ], [ -71.677774999474806, -37.332716826834599 ], [ -71.678367213713301, -37.332367234353299 ], [ -71.678845099365105, -37.332077451169503 ], [ -71.678936049131707, -37.332016151072899 ], [ -71.678866009054701, -37.332020565791602 ], [ -71.6780412324065, -37.332001103004202 ], [ -71.677390957063494, -37.3319853119065 ], [ -71.676415681167796, -37.331965430361798 ], [ -71.675674237023102, -37.331938342402097 ], [ -71.674307339812998, -37.331894880065398 ], [ -71.673503774021896, -37.331867275871502 ], [ -71.6722167354433, -37.331812445887003 ] ] ] } },
{ "type": "Feature", "properties": { "id": "monoparte.12", "Name": null, "description": null, "timestamp": null, "begin": null, "end": null, "altitudeMode": null, "tessellate": -1, "extrude": 0, "visibility": -1, "drawOrder": null, "icon": null, "REG": "Biobío", "COM": "Antuco", "LOC": "Antuco", "ZONA": "ZH3", "NOM": "ZH3 Zona habitacional y densidad baja", "UPERM": "Residencial. Equipamiento: comercio, culto y cultura, deporte, esparcimiento, seguridad, social. Actividades productivas. Espacio publico. Area verde.", "UPROH": "Todos los usos de suelo no indiados como permitidos.", "P_DO": "20/03/2013", "N_DOC": "253", "T_DO": "Resolución", "OBS": null }, "geometry": { "type": "Polygon", "coordinates": [ [ [ -71.682047017581098, -37.327855300530302 ], [ -71.681915884737705, -37.328869193565701 ], [ -71.681989796352994, -37.328857026962702 ], [ -71.683580726729701, -37.328509069129701 ], [ -71.684345319554495, -37.328348658495798 ], [ -71.6843435384271, -37.3282986295063 ], [ -71.684400849418196, -37.327392508330199 ], [ -71.684459900848097, -37.326032149592002 ], [ -71.684471645267806, -37.325809229241401 ], [ -71.684343231872106, -37.325849543327003 ], [ -71.684062715668006, -37.325936975302 ], [ -71.683743246816107, -37.3260205228909 ], [ -71.683067068864602, -37.326147927769703 ], [ -71.682607388981907, -37.3262346539181 ], [ -71.682397023503796, -37.326279958459999 ], [ -71.682160063961106, -37.326333019072798 ], [ -71.682137755865298, -37.3267970220191 ], [ -71.682047017581098, -37.327855300530302 ] ] ] } },
{ "type": "Feature", "properties": { "id": "monoparte.13", "Name": null, "description": null, "timestamp": null, "begin": null, "end": null, "altitudeMode": null, "tessellate": -1, "extrude": 0, "visibility": -1, "drawOrder": null, "icon": null, "REG": "Biobío", "COM": "Antuco", "LOC": "Antuco", "ZONA": "ZH3", "NOM": "ZH3 Zona habitacional y densidad baja", "UPERM": "Residencial. Equipamiento: comercio, culto y cultura, deporte, esparcimiento, seguridad, social. Actividades productivas. Espacio publico. Area verde.", "UPROH": "Todos los usos de suelo no indiados como permitidos.", "P_DO": "20/03/2013", "N_DOC": "253", "T_DO": "Resolución", "OBS": null }, "geometry": { "type": "Polygon", "coordinates": [ [ [ -71.680617572587806, -37.329596027353503 ], [ -71.680181522843199, -37.331597034002897 ], [ -71.680362132800695, -37.331541481556698 ], [ -71.680392309798194, -37.331533644264702 ], [ -71.680436958394694, -37.331529770959598 ], [ -71.680651509223495, -37.331517754421398 ], [ -71.680809031969304, -37.331514182833601 ], [ -71.680962961415602, -37.331480078452302 ], [ -71.681069611045203, -37.331406132946199 ], [ -71.681245066658903, -37.331251946705301 ], [ -71.681281234315506, -37.331211071305098 ], [ -71.681335719027203, -37.3311311562924 ], [ -71.681404574570706, -37.3310523445301 ], [ -71.681474276630297, -37.330987247640202 ], [ -71.681627058730299, -37.330900811027703 ], [ -71.681763009191201, -37.330844796942003 ], [ -71.681938797358001, -37.330800754381301 ], [ -71.681992040106294, -37.330786672202798 ], [ -71.682034045091399, -37.330708470061801 ], [ -71.682218027883906, -37.330592713180302 ], [ -71.682319042881403, -37.330561810675398 ], [ -71.682556411605205, -37.330486329193903 ], [ -71.682630829979601, -37.330463182127403 ], [ -71.682671948648704, -37.330460819072798 ], [ -71.682722119586302, -37.330461110790601 ], [ -71.682791278272305, -37.330390875522298 ], [ -71.682845904171401, -37.330365316341201 ], [ -71.682911626107298, -37.3303495195943 ], [ -71.683002661235605, -37.330340301556802 ], [ -71.683048794289306, -37.330327810337202 ], [ -71.683112888329205, -37.330266273070499 ], [ -71.683136880024605, -37.330235686778501 ], [ -71.683193549489104, -37.330217234225401 ], [ -71.683243109826805, -37.330200373976297 ], [ -71.683327808659598, -37.330164117837498 ], [ -71.683407901154297, -37.330149425667599 ], [ -71.683440992121106, -37.330142952466502 ], [ -71.683521490420205, -37.330139694445698 ], [ -71.683537499180105, -37.330136470012498 ], [ -71.683551055992993, -37.3301147046325 ], [ -71.683573409552295, -37.330088447512502 ], [ -71.683699125848506, -37.330046968945197 ], [ -71.683736410960094, -37.330037539378097 ], [ -71.683775231099105, -37.3300209226962 ], [ -71.683943355670195, -37.329912676309398 ], [ -71.6839928138224, -37.329892956085303 ], [ -71.684060629814695, -37.329885694423297 ], [ -71.684298749609098, -37.329881719539003 ], [ -71.684631950799798, -37.329831238031701 ], [ -71.684735769952994, -37.329828880651696 ], [ -71.684966984010799, -37.3298322134888 ], [ -71.685091672052707, -37.329812214481201 ], [ -71.685092306179598, -37.329796464572297 ], [ -71.685200597137793, -37.328310053547703 ], [ -71.685236845952303, -37.327651180097902 ], [ -71.685277532969707, -37.326949288628199 ], [ -71.685308915407802, -37.325818445712898 ], [ -71.685308971298596, -37.325485436702401 ], [ -71.685015875014102, -37.325520584738399 ], [ -71.684842808875402, -37.3255824329568 ], [ -71.684847453801595, -37.326385039785897 ], [ -71.684741799712498, -37.328658428901697 ], [ -71.683216987576301, -37.329018491805599 ], [ -71.680617572587806, -37.329596027353503 ] ] ] } },
{ "type": "Feature", "properties": { "id": "monoparte.14", "Name": null, "description": null, "timestamp": null, "begin": null, "end": null, "altitudeMode": null, "tessellate": -1, "extrude": 0, "visibility": -1, "drawOrder": null, "icon": null, "REG": "Biobío", "COM": "Antuco", "LOC": "Antuco", "ZONA": "ZH3", "NOM": "ZH3 Zona habitacional y densidad baja", "UPERM": "Residencial. Equipamiento: comercio, culto y cultura, deporte, esparcimiento, seguridad, social. Actividades productivas. Espacio publico. Area verde.", "UPROH": "Todos los usos de suelo no indiados como permitidos.", "P_DO": "20/03/2013", "N_DOC": "253", "T_DO": "Resolución", "OBS": null }, "geometry": { "type": "Polygon", "coordinates": [ [ [ -71.6664323279917, -37.3285641998255 ], [ -71.667779796793695, -37.328548109852697 ], [ -71.667862606527393, -37.326711560450498 ], [ -71.667894531201298, -37.325841780816802 ], [ -71.667909819945606, -37.325008139699399 ], [ -71.667894271495399, -37.324821803793199 ], [ -71.667624269678498, -37.324784979180301 ], [ -71.665585843922102, -37.324509076657201 ], [ -71.664242091554996, -37.324374848561703 ], [ -71.662908622577703, -37.3242825600625 ], [ -71.663018880325893, -37.325051574274497 ], [ -71.663052621520507, -37.3252968697455 ], [ -71.663144480226805, -37.3260718760963 ], [ -71.663186470481804, -37.3263985274356 ], [ -71.663256721895195, -37.327170301244003 ], [ -71.663280762290796, -37.327495925796903 ], [ -71.6633253034598, -37.328199039980802 ], [ -71.663341455688695, -37.328554883222097 ], [ -71.663342022403, -37.3286004452588 ], [ -71.664274508008901, -37.328587808333502 ], [ -71.6664323279917, -37.3285641998255 ] ] ] } }
]
}
