{
"type": "FeatureCollection",
"name": "IPT_15_PRC_Putre",
"crs": { "type": "name", "properties": { "name": "urn:ogc:def:crs:OGC:1.3:CRS84" } },
"features": [
{ "type": "Feature", "properties": { "id": "monoparte.1", "Name": null, "description": null, "timestamp": null, "begin": null, "end": null, "altitudeMode": null, "tessellate": -1, "extrude": 0, "visibility": -1, "drawOrder": null, "icon": null, "REG": "Arica y Parinacota", "COM": "Putre", "SECTOR": "Putre", "ZONA": "U", "NOMBRE": "Zona U", "UPERM": "Vivienda, Comercio y Oficinas, Equipamiento, Talleres artesanales inofensivos , Áreas verdes", "UPROM": "Talleres artesanales molestos y peligrosos. Industrias y bodegas de todo tipo.", "Capa": "PRC Putre", "CUT": "15201" }, "geometry": { "type": "Polygon", "coordinates": [ [ [ -69.562237312946294, -18.196460469258 ], [ -69.562283578788595, -18.196366869816298 ], [ -69.562820734870797, -18.1951782818258 ], [ -69.562820413412098, -18.195178004394599 ], [ -69.562780863480697, -18.1951438442367 ], [ -69.562729484795994, -18.195116494610101 ], [ -69.562700589645601, -18.195078317398501 ], [ -69.562651674742, -18.195039004020799 ], [ -69.562606474664094, -18.1949877223316 ], [ -69.562556386405205, -18.1949723253827 ], [ -69.562505092178299, -18.194971280848399 ], [ -69.562457501260297, -18.194954680814799 ], [ -69.562404860121902, -18.194923747573299 ], [ -69.562352223781602, -18.194894010044099 ], [ -69.5623058341139, -18.194861862720799 ], [ -69.562243223878994, -18.1948429151415 ], [ -69.562206826395496, -18.1948059564678 ], [ -69.562177919913495, -18.1947641928856 ], [ -69.562168933522599, -18.194692478339402 ], [ -69.561765788234297, -18.194538381079099 ], [ -69.5616948556804, -18.195045552227199 ], [ -69.559560812784099, -18.1945430273868 ], [ -69.558816310311599, -18.194368095084101 ], [ -69.5587188937549, -18.194345204904899 ], [ -69.558700375876597, -18.194419212223401 ], [ -69.558570847381006, -18.194936861824601 ], [ -69.558534486585998, -18.194989577545599 ], [ -69.558499167358207, -18.195055202976398 ], [ -69.558458853017001, -18.195123712531402 ], [ -69.558390249469994, -18.195241613576499 ], [ -69.558317835127397, -18.195365216978299 ], [ -69.558247697335304, -18.1954967058102 ], [ -69.558173772952401, -18.195617443950901 ], [ -69.558106868239804, -18.195742744881102 ], [ -69.558027497067101, -18.1958032381146 ], [ -69.557753501850797, -18.196030732763202 ], [ -69.557573807201706, -18.196171865162999 ], [ -69.557287251898202, -18.196344634645701 ], [ -69.557173622416599, -18.196411324096498 ], [ -69.557054968637502, -18.1964714519331 ], [ -69.5569369189502, -18.1965250018166 ], [ -69.556818857798504, -18.1965749644365 ], [ -69.556693293969005, -18.196626144485201 ], [ -69.556511998450603, -18.1966968565103 ], [ -69.556431010228593, -18.196721004317801 ], [ -69.556382917606001, -18.1967039261168 ], [ -69.555846919534204, -18.196524694103701 ], [ -69.555687410463094, -18.196976520987501 ], [ -69.555971995383103, -18.197074129202299 ], [ -69.556126636245494, -18.197091809889699 ], [ -69.556541031662306, -18.197190327247 ], [ -69.5588779573892, -18.197958283107699 ], [ -69.560195936160497, -18.1984006650145 ], [ -69.560279646267105, -18.198428930480901 ], [ -69.560404497349595, -18.198469206741098 ], [ -69.560409135584194, -18.198457024296498 ], [ -69.560438991450695, -18.198404328132298 ], [ -69.5604826082198, -18.198351590878399 ], [ -69.560523749563401, -18.198307231031499 ], [ -69.560562401143699, -18.1982664656705 ], [ -69.560589982120703, -18.198232236453901 ], [ -69.560601028822106, -18.1982185259251 ], [ -69.5606471400082, -18.198163390771501 ], [ -69.560673235821696, -18.198108314072499 ], [ -69.560715402548894, -18.197993406984502 ], [ -69.560773526634904, -18.1978349302806 ], [ -69.560834027305702, -18.197663533876501 ], [ -69.560873685561702, -18.197546720716101 ], [ -69.560933250766894, -18.197395414199701 ], [ -69.560997760121893, -18.197225919396001 ], [ -69.561203402387093, -18.196723455873101 ], [ -69.561402886574299, -18.196293389089501 ], [ -69.562056580676597, -18.196425247396299 ], [ -69.562225851290705, -18.196458235167501 ], [ -69.562235270987003, -18.196460071235499 ], [ -69.562237312946294, -18.196460469258 ] ] ] } },
{ "type": "Feature", "properties": { "id": "monoparte.2", "Name": null, "description": null, "timestamp": null, "begin": null, "end": null, "altitudeMode": null, "tessellate": -1, "extrude": 0, "visibility": -1, "drawOrder": null, "icon": null, "REG": "Arica y Parinacota", "COM": "Putre", "SECTOR": "Putre", "ZONA": "E", "NOMBRE": "Zona E", "UPERM": "Vivienda, Comercio y Oficinas, Equipamiento, Talleres artesanales inofensivos y molestos, Áreas verdes.", "UPROM": "Talleres artesanales peligrosos. Industrias y bodegas de todo tipo.", "Capa": "PRC Putre", "CUT": "15201" }, "geometry": { "type": "Polygon", "coordinates": [ [ [ -69.558937564003799, -18.1993198049482 ], [ -69.559898543190798, -18.199772554308499 ], [ -69.560328595798893, -18.198699980410201 ], [ -69.560386804343295, -18.198515677193399 ], [ -69.560403862470395, -18.198470872509599 ], [ -69.560404497349595, -18.198469206741098 ], [ -69.560279646267105, -18.198428930480901 ], [ -69.560195936160497, -18.1984006650145 ], [ -69.5588779573892, -18.197958283107699 ], [ -69.556541031662306, -18.197190327247 ], [ -69.556126636245494, -18.197091809889699 ], [ -69.555971995383103, -18.197074129202299 ], [ -69.555990232033196, -18.1970803840792 ], [ -69.556051105556307, -18.1971038821797 ], [ -69.556090793187593, -18.197139677429998 ], [ -69.556144038146499, -18.197164034528601 ], [ -69.556192904842106, -18.197188404298 ], [ -69.556240545130095, -18.197220548575501 ], [ -69.5562881825972, -18.197252096333401 ], [ -69.556338962454305, -18.197287818712599 ], [ -69.5563903816291, -18.197328323096102 ], [ -69.556431198476503, -18.197378422326501 ], [ -69.556464479499198, -18.1974189783623 ], [ -69.556501265714601, -18.1974683725389 ], [ -69.556537465893697, -18.197522311864301 ], [ -69.556609344825404, -18.197623496573001 ], [ -69.556675720816699, -18.197725175326699 ], [ -69.556769357209504, -18.197858495131499 ], [ -69.556804564858695, -18.197915187575799 ], [ -69.556838499615594, -18.197964709254901 ], [ -69.556870544958599, -18.198010051764602 ], [ -69.556900726519999, -18.1980595843199 ], [ -69.556935903869004, -18.1981067108911 ], [ -69.556975733867802, -18.198160998404799 ], [ -69.557008184901903, -18.198216144251301 ], [ -69.557043621070093, -18.198265542229802 ], [ -69.557076791071097, -18.1983106419273 ], [ -69.557113734846993, -18.1983621883933 ], [ -69.557147657056504, -18.198408003519699 ], [ -69.5571920868353, -18.1984530705118 ], [ -69.557237259689799, -18.1984959833622 ], [ -69.557283167443799, -18.198533872494998 ], [ -69.557338839167599, -18.198573885238702 ], [ -69.557386984847199, -18.198607462996701 ], [ -69.557434156761403, -18.198633678416599 ], [ -69.557781824128895, -18.198794084483101 ], [ -69.558937564003799, -18.1993198049482 ] ] ] } },
{ "type": "Feature", "properties": { "id": "monoparte.3", "Name": null, "description": null, "timestamp": null, "begin": null, "end": null, "altitudeMode": null, "tessellate": -1, "extrude": 0, "visibility": -1, "drawOrder": null, "icon": null, "REG": "Arica y Parinacota", "COM": "Putre", "SECTOR": "Putre", "ZONA": "E", "NOMBRE": "Zona E", "UPERM": "Vivienda, Comercio y Oficinas, Equipamiento, Talleres artesanales inofensivos y molestos, Áreas verdes.", "UPROM": "Talleres artesanales peligrosos. Industrias y bodegas de todo tipo.", "Capa": "PRC Putre", "CUT": "15201" }, "geometry": { "type": "Polygon", "coordinates": [ [ [ -69.564820521568905, -18.197060015763999 ], [ -69.565063510462195, -18.197151366323599 ], [ -69.565072209209006, -18.197133406416999 ], [ -69.565092017299193, -18.197068781734298 ], [ -69.565091809227198, -18.1970042159749 ], [ -69.564976601986501, -18.1969686855874 ], [ -69.564917697710698, -18.196935380019799 ], [ -69.564870125302903, -18.1969247592546 ], [ -69.564821220953604, -18.196889032748601 ], [ -69.564789745898807, -18.196826950463901 ], [ -69.5647595681464, -18.196779213243499 ], [ -69.564724383236594, -18.196730294103801 ], [ -69.564691955032103, -18.196683184409402 ], [ -69.564653756243899, -18.1966306878032 ], [ -69.564621558187298, -18.196577216403799 ], [ -69.564583392372498, -18.196535240937301 ], [ -69.564543197913906, -18.196484662638198 ], [ -69.564501035458605, -18.196444612273599 ], [ -69.564469844115706, -18.1963930512511 ], [ -69.564450660114801, -18.1963404986857 ], [ -69.564434449831097, -18.196279327679601 ], [ -69.564418258980098, -18.196223896712102 ], [ -69.5643710738957, -18.196178121889101 ], [ -69.564316945204297, -18.196151497510201 ], [ -69.564263807769905, -18.196122001508499 ], [ -69.564221651619505, -18.196083863521 ], [ -69.564179480102595, -18.196040943509399 ], [ -69.564120402625306, -18.196031552103602 ], [ -69.5640643007645, -18.196013542240902 ], [ -69.564002230172406, -18.196007029190302 ], [ -69.563968098222801, -18.195974607667399 ], [ -69.5639602825038, -18.195923426168399 ], [ -69.563915766469194, -18.195890675424799 ], [ -69.563876824007295, -18.195840572316101 ], [ -69.563852915428896, -18.195797000260601 ], [ -69.563801465275802, -18.195747531291001 ], [ -69.5637501160342, -18.195729149465802 ], [ -69.5636962829536, -18.195716752720799 ], [ -69.563668625105905, -18.195674388294201 ], [ -69.5636365707972, -18.195626655485398 ], [ -69.563578285538696, -18.195590956185601 ], [ -69.563530039538406, -18.1955653907435 ], [ -69.563481695803304, -18.195547957156499 ], [ -69.563426773587494, -18.1955079430893 ], [ -69.563379363716606, -18.195470060739201 ], [ -69.563334945634693, -18.195428581470601 ], [ -69.563295790664, -18.195389956345501 ], [ -69.563233411532394, -18.195365030617999 ], [ -69.563174070680901, -18.195351574347502 ], [ -69.563118488560093, -18.195339541379902 ], [ -69.563070364828505, -18.195313138531201 ], [ -69.563028923870107, -18.195263759288299 ], [ -69.562983048036301, -18.195235915476999 ], [ -69.562927436029796, -18.195214557025199 ], [ -69.562874102241096, -18.195201799766799 ], [ -69.562820734870797, -18.1951782818258 ], [ -69.562283578788595, -18.196366869816298 ], [ -69.562237312946294, -18.196460469258 ], [ -69.563595962325394, -18.196725240287201 ], [ -69.563763714970705, -18.196761813847001 ], [ -69.564050414388802, -18.196830320071498 ], [ -69.564494944047098, -18.196961732430498 ], [ -69.564820521568905, -18.197060015763999 ] ] ] } }
]
}
