{
"type": "FeatureCollection",
"name": "PRC_02_SanPedroAtacama_Toconao",
"crs": { "type": "name", "properties": { "name": "urn:ogc:def:crs:OGC:1.3:CRS84" } },
"features": [
{ "type": "Feature", "properties": { "id": "prc_sanpedroatacama_toconao_mono.1", "Name": null, "description": null, "timestamp": null, "begin": null, "end": null, "altitudeMode": null, "tessellate": -1, "extrude": 0, "visibility": -1, "drawOrder": null, "icon": null, "REG": "Antofagasta", "COM": "San Pedro de Atacama", "LOCALIDAD": "Toconao", "ZONA": "H2", "NOMBRE": "H2 Casco Antiguo", "UPERM": "Vivienda; Equipamiento Vecinal y Comunal; Vialidad", "UPROH": "Todos los no permitidos, especialmente Quintas de Recreo, Discotecas, Playas de Estacionamientos y Ferias Libres", "Capa": "PRC San Pedro de Atacama - Toconao", "CUT": "02203", "Shape_STAr": 98529.1367188, "Shape_STLe": 2046.4458229 }, "geometry": { "type": "MultiPolygon", "coordinates": [ [ [ [ -68.004277385793799, -23.1878081991856 ], [ -68.004184171389397, -23.1878286393077 ], [ -68.004070319377703, -23.187843213283799 ], [ -68.004035150022304, -23.187844902869902 ], [ -68.003981339631096, -23.187850297847799 ], [ -68.003935773138494, -23.187859568346099 ], [ -68.003885821827893, -23.1878649931331 ], [ -68.003939214943301, -23.1878807202534 ], [ -68.004235144077199, -23.187967281310701 ], [ -68.004034171246104, -23.1883668678527 ], [ -68.004403749807906, -23.188641045403099 ], [ -68.004583241961896, -23.1885421680607 ], [ -68.004583087632795, -23.188541766051198 ], [ -68.004617988792305, -23.1884754739451 ], [ -68.005069504313795, -23.1886814613719 ], [ -68.004901996278505, -23.1889600084798 ], [ -68.004831988964398, -23.188988243329099 ], [ -68.004971686249604, -23.189283310821299 ], [ -68.005098488130002, -23.189562642824502 ], [ -68.005199369989995, -23.189903826555099 ], [ -68.005301444346401, -23.190083706583099 ], [ -68.005338187529404, -23.1903587659279 ], [ -68.005378410002805, -23.190687616433401 ], [ -68.005400927527404, -23.190788927547398 ], [ -68.005409994863896, -23.190961049853801 ], [ -68.005409894218204, -23.190967392590402 ], [ -68.005992365763305, -23.190952182577998 ], [ -68.0060414410909, -23.191505389376498 ], [ -68.006666651366302, -23.191536683133901 ], [ -68.006605049082495, -23.192176760044902 ], [ -68.006576656855202, -23.1925207108386 ], [ -68.006601094854403, -23.192712049656301 ], [ -68.006687434229207, -23.1929228960438 ], [ -68.006820198220893, -23.193148375052299 ], [ -68.006873156938198, -23.1931903101814 ], [ -68.0070307501895, -23.192099029604002 ], [ -68.007055020869799, -23.191962965044901 ], [ -68.0078848223785, -23.191968198649899 ], [ -68.008040084838797, -23.1919476688273 ], [ -68.008026213869101, -23.191725330217601 ], [ -68.008016626214001, -23.1909222975729 ], [ -68.007997485086804, -23.190362964439998 ], [ -68.008022495670403, -23.190126532112 ], [ -68.007953863224799, -23.189968373143898 ], [ -68.007862072146594, -23.189795728491902 ], [ -68.007700221286797, -23.1896584894203 ], [ -68.007553298851903, -23.189600207954499 ], [ -68.007437290738807, -23.189556460085299 ], [ -68.007329408572502, -23.1894625781839 ], [ -68.007229863155402, -23.1892898842748 ], [ -68.007184814973996, -23.189088857485 ], [ -68.007166373489596, -23.188710917788399 ], [ -68.007011206319504, -23.188619381140199 ], [ -68.006907807359298, -23.188618728734099 ], [ -68.006818728364294, -23.188639197407898 ], [ -68.006684181563898, -23.188655554802398 ], [ -68.006427609755903, -23.188673053017499 ], [ -68.006287056663993, -23.188662606774201 ], [ -68.006043457832305, -23.188603713507302 ], [ -68.005814505009994, -23.188521970377501 ], [ -68.005573708973799, -23.188363678431202 ], [ -68.005460520990297, -23.1882884017039 ], [ -68.005425199558204, -23.188252239937199 ], [ -68.005398948257593, -23.188224901315301 ], [ -68.005333225660095, -23.1881633075865 ], [ -68.005265307582505, -23.188118905557801 ], [ -68.005187077287701, -23.188070615856699 ], [ -68.005082496840103, -23.188002562199099 ], [ -68.004909125401497, -23.187955582141601 ], [ -68.004783487870597, -23.1878859617327 ], [ -68.004641264581906, -23.1878219718376 ], [ -68.004589706435596, -23.1878025271285 ], [ -68.004465543241395, -23.187813212812902 ], [ -68.004424283184505, -23.187799568689201 ], [ -68.004411946104099, -23.187789931782799 ], [ -68.004339439094906, -23.187806679617299 ], [ -68.004277385793799, -23.1878081991856 ] ], [ [ -68.007161698475599, -23.190333873098101 ], [ -68.007136972247494, -23.190775891822099 ], [ -68.006742755747894, -23.190773404246499 ], [ -68.006775255978596, -23.190310586359601 ], [ -68.007161698475599, -23.190333873098101 ] ] ] ] } },
{ "type": "Feature", "properties": { "id": "prc_sanpedroatacama_toconao_mono.2", "Name": null, "description": null, "timestamp": null, "begin": null, "end": null, "altitudeMode": null, "tessellate": -1, "extrude": 0, "visibility": -1, "drawOrder": null, "icon": null, "REG": "Antofagasta", "COM": "San Pedro de Atacama", "LOCALIDAD": "Toconao", "ZONA": "E5", "NOMBRE": "E5 Área campamento", "UPERM": "Área para campamentos provisorios ligados a algún tipo de actividad económica particular", "UPROH": "Área para campamentos provisorios ligados a algún tipo de actividad económica particular", "Capa": "PRC San Pedro de Atacama - Toconao", "CUT": "02203", "Shape_STAr": 20946.5629883, "Shape_STLe": 875.25314625600004 }, "geometry": { "type": "MultiPolygon", "coordinates": [ [ [ [ -67.999501148323006, -23.1924036179513 ], [ -67.999502518319005, -23.192740587250402 ], [ -67.9997602256487, -23.192502052005601 ], [ -68.000248548170802, -23.192017637316301 ], [ -68.000416563018007, -23.191846638918001 ], [ -68.000391164346894, -23.191090107793599 ], [ -68.000437987844506, -23.1910509739084 ], [ -68.000613143122393, -23.1909624689978 ], [ -68.000444263347504, -23.190728391776702 ], [ -68.000453030264794, -23.190592229020201 ], [ -68.000263138012002, -23.1905766840955 ], [ -68.000259659937896, -23.1905228910666 ], [ -67.999523169717705, -23.190485949258701 ], [ -67.999519286627105, -23.190486640832098 ], [ -67.999509980264094, -23.191459706028699 ], [ -67.999501148323006, -23.1924036179513 ] ] ] ] } },
{ "type": "Feature", "properties": { "id": "prc_sanpedroatacama_toconao_mono.3", "Name": null, "description": null, "timestamp": null, "begin": null, "end": null, "altitudeMode": null, "tessellate": -1, "extrude": 0, "visibility": -1, "drawOrder": null, "icon": null, "REG": "Antofagasta", "COM": "San Pedro de Atacama", "LOCALIDAD": "Toconao", "ZONA": "E5", "NOMBRE": "E5 Área campamento", "UPERM": "Área para campamentos provisorios ligados a algún tipo de actividad económica particular", "UPROH": "Área para campamentos provisorios ligados a algún tipo de actividad económica particular", "Capa": "PRC San Pedro de Atacama - Toconao", "CUT": "02203", "Shape_STAr": 20946.5629883, "Shape_STLe": 875.25314625600004 }, "geometry": { "type": "MultiPolygon", "coordinates": [ [ [ [ -68.000003472122003, -23.190142601581901 ], [ -68.000334246654205, -23.190159041753901 ], [ -68.000363542128497, -23.189695608388 ], [ -68.000265311894395, -23.189694984424001 ], [ -68.000288052661602, -23.189417912094601 ], [ -68.000112379462195, -23.1894024573545 ], [ -68.000089673872495, -23.189674749992498 ], [ -68.000037939047601, -23.1896792011675 ], [ -68.000003472122003, -23.190142601581901 ] ] ] ] } },
{ "type": "Feature", "properties": { "id": "prc_sanpedroatacama_toconao_mono.4", "Name": null, "description": null, "timestamp": null, "begin": null, "end": null, "altitudeMode": null, "tessellate": -1, "extrude": 0, "visibility": -1, "drawOrder": null, "icon": null, "REG": "Antofagasta", "COM": "San Pedro de Atacama", "LOCALIDAD": "Toconao", "ZONA": "E1", "NOMBRE": "E1 Cementerio", "UPERM": "Uso exclusivo cementerios", "UPROH": "Todos los no mencionados como permitidos", "Capa": "PRC San Pedro de Atacama - Toconao", "CUT": "02203", "Shape_STAr": 10259.2514648, "Shape_STLe": 404.98551181400001 }, "geometry": { "type": "MultiPolygon", "coordinates": [ [ [ [ -67.998550312593295, -23.193434541084802 ], [ -67.999032940751505, -23.1942369973506 ], [ -67.9998920093675, -23.193784814452201 ], [ -67.999419637390005, -23.192993179711902 ], [ -67.999414502507904, -23.1929883671848 ], [ -67.998550312593295, -23.193434541084802 ] ] ] ] } },
{ "type": "Feature", "properties": { "id": "prc_sanpedroatacama_toconao_mono.5", "Name": null, "description": null, "timestamp": null, "begin": null, "end": null, "altitudeMode": null, "tessellate": -1, "extrude": 0, "visibility": -1, "drawOrder": null, "icon": null, "REG": "Antofagasta", "COM": "San Pedro de Atacama", "LOCALIDAD": "Toconao", "ZONA": "E-3", "NOMBRE": "E-3 Áreas Arqueológicas", "UPERM": "Área regida por la Ley de Monumentos Nacionales N 17.288", "UPROH": "Área regida por la Ley de Monumentos Nacionales N 17.288", "Capa": "PRC San Pedro de Atacama - Toconao", "CUT": "02203", "Shape_STAr": 49395.4770508, "Shape_STLe": 1160.1863855199999 }, "geometry": { "type": "MultiPolygon", "coordinates": [ [ [ [ -67.992259497659802, -23.190054171041801 ], [ -67.992767229731101, -23.190466553873101 ], [ -67.992765395872794, -23.191263775412001 ], [ -67.994385671528207, -23.191864415603199 ], [ -67.994574600762107, -23.190971602243401 ], [ -67.995572439196295, -23.190802324527599 ], [ -67.995577632684302, -23.1901069283489 ], [ -67.995576347238398, -23.190105964531199 ], [ -67.995454305952407, -23.190109008943001 ], [ -67.995334218740894, -23.190127360972198 ], [ -67.995199627576, -23.1901494436643 ], [ -67.995048505990894, -23.190169508553399 ], [ -67.994932582931895, -23.1901840635059 ], [ -67.994745991198499, -23.190245962115799 ], [ -67.994594840873901, -23.190269849737401 ], [ -67.994140007568106, -23.190249736903901 ], [ -67.993800954612496, -23.190234187310899 ], [ -67.993724681373706, -23.190201197943001 ], [ -67.993634090163098, -23.190147088069899 ], [ -67.993560099933006, -23.190085435792302 ], [ -67.993502796498703, -23.190004772516101 ], [ -67.993456047402702, -23.189895499291801 ], [ -67.993312017088897, -23.1897970738864 ], [ -67.993227730477997, -23.189729621014902 ], [ -67.993102799053901, -23.1895663160293 ], [ -67.993016888090494, -23.189439585668101 ], [ -67.992918540734195, -23.189316599039099 ], [ -67.992785137366297, -23.189180004902799 ], [ -67.992610231740699, -23.189062263600299 ], [ -67.992422660751203, -23.188978853940299 ], [ -67.992092652574399, -23.189412638629399 ], [ -67.991858658790804, -23.189728504580899 ], [ -67.992259497659802, -23.190054171041801 ] ] ] ] } },
{ "type": "Feature", "properties": { "id": "prc_sanpedroatacama_toconao_mono.6", "Name": null, "description": null, "timestamp": null, "begin": null, "end": null, "altitudeMode": null, "tessellate": -1, "extrude": 0, "visibility": -1, "drawOrder": null, "icon": null, "REG": "Antofagasta", "COM": "San Pedro de Atacama", "LOCALIDAD": "Toconao", "ZONA": "H2", "NOMBRE": "H2 Casco Antiguo", "UPERM": "Vivienda; Equipamiento Vecinal y Comunal; Vialidad", "UPROH": "Todos los no permitidos, especialmente Quintas de Recreo, Discotecas, Playas de Estacionamientos y Ferias Libres", "Capa": "PRC San Pedro de Atacama - Toconao", "CUT": "02203", "Shape_STAr": 20998.7954102, "Shape_STLe": 982.68998687600003 }, "geometry": { "type": "MultiPolygon", "coordinates": [ [ [ [ -68.0038154820015, -23.1874687929921 ], [ -68.003690751042896, -23.187845966621801 ], [ -68.003832707018802, -23.187852718089001 ], [ -68.003869327817, -23.1877211372319 ], [ -68.003937094480804, -23.187733514924702 ], [ -68.004008070930794, -23.187748900780502 ], [ -68.0040630235533, -23.187746261544198 ], [ -68.004102041775099, -23.187713648085399 ], [ -68.004131254682605, -23.187695910167001 ], [ -68.004167040979397, -23.187663276241299 ], [ -68.004193112390993, -23.1876335687212 ], [ -68.0042352508937, -23.1876159116586 ], [ -68.004235073981903, -23.187639809061999 ], [ -68.004176292410605, -23.187723079726801 ], [ -68.004185853453606, -23.187741063886001 ], [ -68.004240938754094, -23.187720501760801 ], [ -68.004263689816398, -23.187702722031901 ], [ -68.004302862755097, -23.187649199760401 ], [ -68.004335506526502, -23.187604597104201 ], [ -68.004387405050196, -23.1875780408119 ], [ -68.004432663884899, -23.187575339220398 ], [ -68.004506274332996, -23.187671397111401 ], [ -68.004574125046204, -23.187672423285999 ], [ -68.0046421558433, -23.1877015310431 ], [ -68.004691772979001, -23.187703756955599 ], [ -68.0047415315737, -23.1876868651077 ], [ -68.004778613582403, -23.1877062182309 ], [ -68.004906531390603, -23.187747175549202 ], [ -68.005018088697796, -23.187763175197102 ], [ -68.005065723392406, -23.187753917456199 ], [ -68.005113484372401, -23.187727453090101 ], [ -68.005140325899802, -23.1877333582589 ], [ -68.005191728572598, -23.1877738325827 ], [ -68.005190738837001, -23.1879076541031 ], [ -68.005132993464599, -23.187958286293501 ], [ -68.005220518706295, -23.188023031078401 ], [ -68.005321439847904, -23.188079111805099 ], [ -68.005401680969996, -23.188135062688399 ], [ -68.005465961730707, -23.188174289659202 ], [ -68.005477862324398, -23.188215621634299 ], [ -68.005551110759299, -23.1882734403931 ], [ -68.005624596788607, -23.188298997291799 ], [ -68.005694365101803, -23.1883030229884 ], [ -68.005736910958802, -23.188317630524899 ], [ -68.006053830384801, -23.1884594349327 ], [ -68.006332505889105, -23.188529304385298 ], [ -68.006452733693905, -23.188526478490299 ], [ -68.0065342402346, -23.188516239161402 ], [ -68.006647879924998, -23.188477942378899 ], [ -68.0066995621861, -23.188480658509199 ], [ -68.006911178265497, -23.188529790087099 ], [ -68.007039986570206, -23.1885903477807 ], [ -68.007162072511406, -23.188622766222402 ], [ -68.007157869894698, -23.188536643928199 ], [ -68.007164425032897, -23.1881452222317 ], [ -68.005666662190706, -23.187669385666201 ], [ -68.005750476487293, -23.187521747694401 ], [ -68.005819369549002, -23.187326220163001 ], [ -68.005296972296605, -23.1873229195348 ], [ -68.003855443176505, -23.187305286081401 ], [ -68.0038154820015, -23.1874687929921 ] ] ] ] } },
{ "type": "Feature", "properties": { "id": "prc_sanpedroatacama_toconao_mono.7", "Name": null, "description": null, "timestamp": null, "begin": null, "end": null, "altitudeMode": null, "tessellate": -1, "extrude": 0, "visibility": -1, "drawOrder": null, "icon": null, "REG": "Antofagasta", "COM": "San Pedro de Atacama", "LOCALIDAD": "Toconao", "ZONA": "H1", "NOMBRE": "H1 Área de extensión", "UPERM": "Vivienda; Equipamiento Vecinal y Comunal; Industria inofensivas y Vialidad", "UPROH": "Todos los no mencionados como permitidos.", "Capa": "PRC San Pedro de Atacama - Toconao", "CUT": "02203", "Shape_STAr": 71318.771972699993, "Shape_STLe": 1716.9766247 }, "geometry": { "type": "MultiPolygon", "coordinates": [ [ [ [ -68.005666662190706, -23.187669385666201 ], [ -68.007164425032897, -23.1881452222317 ], [ -68.0071856032813, -23.186880688812 ], [ -68.007214604728901, -23.1861386702606 ], [ -68.006291600041905, -23.1861222607982 ], [ -68.006319433688105, -23.184852349140399 ], [ -68.006083152494398, -23.184945163503802 ], [ -68.006023383383905, -23.1849976493776 ], [ -68.005872396797898, -23.185130236470801 ], [ -68.005255794810495, -23.1856640457721 ], [ -68.004811120498204, -23.186019704721399 ], [ -68.004381528978797, -23.186432812758401 ], [ -68.004178257588507, -23.186653777968399 ], [ -68.003903599820802, -23.187089372414199 ], [ -68.0038714655158, -23.187239726390501 ], [ -68.003855443176505, -23.187305286081401 ], [ -68.005296972296605, -23.1873229195348 ], [ -68.005819369549002, -23.187326220163001 ], [ -68.005750476487293, -23.187521747694401 ], [ -68.005666662190706, -23.187669385666201 ] ] ] ] } },
{ "type": "Feature", "properties": { "id": "prc_sanpedroatacama_toconao_mono.8", "Name": null, "description": null, "timestamp": null, "begin": null, "end": null, "altitudeMode": null, "tessellate": -1, "extrude": 0, "visibility": -1, "drawOrder": null, "icon": null, "REG": "Antofagasta", "COM": "San Pedro de Atacama", "LOCALIDAD": "Toconao", "ZONA": "H1", "NOMBRE": "H1 Área de extensión", "UPERM": "Vivienda; Equipamiento Vecinal y Comunal; Industria inofensivas y Vialidad", "UPROH": "Todos los no mencionados como permitidos.", "Capa": "PRC San Pedro de Atacama - Toconao", "CUT": "02203", "Shape_STAr": 71318.771972699993, "Shape_STLe": 1716.9766247 }, "geometry": { "type": "MultiPolygon", "coordinates": [ [ [ [ -68.003282942703606, -23.1892147523597 ], [ -68.003264266743997, -23.189311344523901 ], [ -68.003903292571906, -23.189022516754601 ], [ -68.003839768594602, -23.188873469512099 ], [ -68.004403749807906, -23.188641045403099 ], [ -68.004034171246104, -23.1883668678527 ], [ -68.004235144077199, -23.187967281310701 ], [ -68.003939214943301, -23.1878807202534 ], [ -68.003846353420599, -23.187853367172 ], [ -68.003690751042896, -23.187845966621801 ], [ -68.003680622852102, -23.187876594207601 ], [ -68.003557972858104, -23.1883299085579 ], [ -68.003545071419097, -23.188377593200698 ], [ -68.003282942703606, -23.1892147523597 ] ] ] ] } },
{ "type": "Feature", "properties": { "id": "prc_sanpedroatacama_toconao_mono.9", "Name": null, "description": null, "timestamp": null, "begin": null, "end": null, "altitudeMode": null, "tessellate": -1, "extrude": 0, "visibility": -1, "drawOrder": null, "icon": null, "REG": "Antofagasta", "COM": "San Pedro de Atacama", "LOCALIDAD": "Toconao", "ZONA": "H5", "NOMBRE": "H5 Extensión Urbana", "UPERM": "Vivienda; Equipamiento Vecinal y Comunal; Vialidad", "UPROH": "Todos los no permitidos, especialmente Quintas de Recreo, Discotecas, Playas de Estacionamientos y Ferias Libres", "Capa": "PRC San Pedro de Atacama - Toconao", "CUT": "02203", "Shape_STAr": 86998.4921875, "Shape_STLe": 1575.6895406399999 }, "geometry": { "type": "MultiPolygon", "coordinates": [ [ [ [ -68.002434990776607, -23.1895678485132 ], [ -68.002432278910703, -23.189933470628102 ], [ -68.001578054980399, -23.190085779826099 ], [ -68.001553618562397, -23.190243350933802 ], [ -68.001531561946194, -23.1911250456888 ], [ -68.002113194328203, -23.1911287348521 ], [ -68.002431312636702, -23.1911092431328 ], [ -68.002442143174704, -23.1917402181607 ], [ -68.002667361025402, -23.1916986294266 ], [ -68.003248743339, -23.1916821031542 ], [ -68.003289418867794, -23.191585709076399 ], [ -68.003560821617, -23.191591012696101 ], [ -68.004057043478497, -23.191608492647799 ], [ -68.004293574646894, -23.191609989398501 ], [ -68.004291793474096, -23.191326787223701 ], [ -68.005117395335503, -23.191375024987 ], [ -68.005114392616406, -23.191256711103598 ], [ -68.005405156379197, -23.1912657179315 ], [ -68.005409994863896, -23.190961049853801 ], [ -68.005400927527404, -23.190788927547398 ], [ -68.005378410002805, -23.190687616433401 ], [ -68.005338187529404, -23.1903587659279 ], [ -68.005301444346401, -23.190083706583099 ], [ -68.005199369989995, -23.189903826555099 ], [ -68.005098488130002, -23.189562642824502 ], [ -68.004971686249604, -23.189283310821299 ], [ -68.004831988964398, -23.188988243329099 ], [ -68.004583241961896, -23.1885421680607 ], [ -68.004403749807906, -23.188641045403099 ], [ -68.003839768594602, -23.188873469512099 ], [ -68.003903292571906, -23.189022516754601 ], [ -68.003264266743997, -23.189311344523901 ], [ -68.0032350660899, -23.1894623671975 ], [ -68.003102505519095, -23.189493215526799 ], [ -68.002427713855099, -23.189503278493898 ], [ -68.002434990776607, -23.1895678485132 ] ], [ [ -68.004241515965901, -23.190142105775699 ], [ -68.0034171222363, -23.190193645466 ], [ -68.003418029740402, -23.190071174391299 ], [ -68.004206123241204, -23.1898691809768 ], [ -68.0042264437987, -23.189995635955 ], [ -68.004241515965901, -23.190142105775699 ] ] ] ] } },
{ "type": "Feature", "properties": { "id": "prc_sanpedroatacama_toconao_mono.10", "Name": null, "description": null, "timestamp": null, "begin": null, "end": null, "altitudeMode": null, "tessellate": -1, "extrude": 0, "visibility": -1, "drawOrder": null, "icon": null, "REG": "Antofagasta", "COM": "San Pedro de Atacama", "LOCALIDAD": "Toconao", "ZONA": "H4", "NOMBRE": "H4 Equipamiento", "UPERM": "Equipamiento a nivel Comunal, Regional y Vecinal; Vialidad", "UPROH": "Todos los no permitidos, especialmente Servicentros y Estacionamientos de Camiones de cualquier tipo", "Capa": "PRC San Pedro de Atacama - Toconao", "CUT": "02203", "Shape_STAr": 9888.3916015600007, "Shape_STLe": 420.11968062 }, "geometry": { "type": "MultiPolygon", "coordinates": [ [ [ [ -68.005409894218204, -23.190967392590402 ], [ -68.005405156379197, -23.1912657179315 ], [ -68.005114392616406, -23.191256711103598 ], [ -68.005117395335503, -23.191375024987 ], [ -68.005144496198398, -23.191992361313002 ], [ -68.006087819978703, -23.192028194501201 ], [ -68.005992365763305, -23.190952182577998 ], [ -68.005409894218204, -23.190967392590402 ] ] ] ] } },
{ "type": "Feature", "properties": { "id": "prc_sanpedroatacama_toconao_mono.11", "Name": null, "description": null, "timestamp": null, "begin": null, "end": null, "altitudeMode": null, "tessellate": -1, "extrude": 0, "visibility": -1, "drawOrder": null, "icon": null, "REG": "Antofagasta", "COM": "San Pedro de Atacama", "LOCALIDAD": "Toconao", "ZONA": "H1", "NOMBRE": "H1 Área de extensión", "UPERM": "Vivienda; Equipamiento Vecinal y Comunal; Industria inofensivas y Vialidad", "UPROH": "Todos los no mencionados como permitidos.", "Capa": "PRC San Pedro de Atacama - Toconao", "CUT": "02203", "Shape_STAr": 50734.5263672, "Shape_STLe": 1384.00592803 }, "geometry": { "type": "MultiPolygon", "coordinates": [ [ [ [ -68.004291793474096, -23.191326787223701 ], [ -68.004293574646894, -23.191609989398501 ], [ -68.004057043478497, -23.191608492647799 ], [ -68.003560821617, -23.191591012696101 ], [ -68.003289418867794, -23.191585709076399 ], [ -68.003248743339, -23.1916821031542 ], [ -68.003270879457801, -23.191888856728699 ], [ -68.003430550008503, -23.192320031120101 ], [ -68.003584112584505, -23.1925289157357 ], [ -68.003830526297406, -23.1927670655013 ], [ -68.004332225764699, -23.1930928628123 ], [ -68.004548840626995, -23.1931659269543 ], [ -68.004850816559298, -23.1932323617274 ], [ -68.005432034461194, -23.193293391241902 ], [ -68.006082890475696, -23.1933763670575 ], [ -68.006733853314898, -23.193445001223399 ], [ -68.006838908707707, -23.193427464251599 ], [ -68.006873156938198, -23.1931903101814 ], [ -68.006820198220893, -23.193148375052299 ], [ -68.006687434229207, -23.1929228960438 ], [ -68.006601094854403, -23.192712049656301 ], [ -68.006576656855202, -23.1925207108386 ], [ -68.006605049082495, -23.192176760044902 ], [ -68.006666651366302, -23.191536683133901 ], [ -68.0060414410909, -23.191505389376498 ], [ -68.006087819978703, -23.192028194501201 ], [ -68.005981256310903, -23.192024146963501 ], [ -68.005731141613794, -23.192892003571998 ], [ -68.005411017314202, -23.1928326256178 ], [ -68.005147729952597, -23.1927783853322 ], [ -68.005376578128804, -23.1920011778953 ], [ -68.005144496198398, -23.191992361313002 ], [ -68.005117395335503, -23.191375024987 ], [ -68.004291793474096, -23.191326787223701 ] ] ] ] } },
{ "type": "Feature", "properties": { "id": "prc_sanpedroatacama_toconao_mono.12", "Name": null, "description": null, "timestamp": null, "begin": null, "end": null, "altitudeMode": null, "tessellate": -1, "extrude": 0, "visibility": -1, "drawOrder": null, "icon": null, "REG": "Antofagasta", "COM": "San Pedro de Atacama", "LOCALIDAD": "Toconao", "ZONA": "E1", "NOMBRE": "E1 Cementerio", "UPERM": "Uso exclusivo cementerios", "UPROH": "Todos los no mencionados como permitidos", "Capa": "PRC San Pedro de Atacama - Toconao", "CUT": "02203", "Shape_STAr": 5732.0439453099998, "Shape_STLe": 311.584040555 }, "geometry": { "type": "MultiPolygon", "coordinates": [ [ [ [ -68.005411017314202, -23.1928326256178 ], [ -68.005731141613794, -23.192892003571998 ], [ -68.005981256310903, -23.192024146963501 ], [ -68.005376578128804, -23.1920011778953 ], [ -68.005147729952597, -23.1927783853322 ], [ -68.005411017314202, -23.1928326256178 ] ] ] ] } },
{ "type": "Feature", "properties": { "id": "prc_sanpedroatacama_toconao_mono.13", "Name": null, "description": null, "timestamp": null, "begin": null, "end": null, "altitudeMode": null, "tessellate": -1, "extrude": 0, "visibility": -1, "drawOrder": null, "icon": null, "REG": "Antofagasta", "COM": "San Pedro de Atacama", "LOCALIDAD": "Toconao", "ZONA": "Represa", "NOMBRE": "Represa", "UPERM": "Sin información", "UPROH": "Sin información", "Capa": "PRC San Pedro de Atacama - Toconao", "CUT": "02203", "Shape_STAr": 2523.6245117200001, "Shape_STLe": 360.10327751900002 }, "geometry": { "type": "MultiPolygon", "coordinates": [ [ [ [ -68.004302862755097, -23.187649199760401 ], [ -68.004263689816398, -23.187702722031901 ], [ -68.004240938754094, -23.187720501760801 ], [ -68.004185853453606, -23.187741063886001 ], [ -68.004176292410605, -23.187723079726801 ], [ -68.004235073981903, -23.187639809061999 ], [ -68.0042352508937, -23.1876159116586 ], [ -68.004193112390993, -23.1876335687212 ], [ -68.004167040979397, -23.187663276241299 ], [ -68.004131254682605, -23.187695910167001 ], [ -68.004102041775099, -23.187713648085399 ], [ -68.0040630235533, -23.187746261544198 ], [ -68.004008070930794, -23.187748900780502 ], [ -68.003937094480804, -23.187733514924702 ], [ -68.003869327817, -23.1877211372319 ], [ -68.003832707018802, -23.187852718089001 ], [ -68.003846353420599, -23.187853367172 ], [ -68.003885821827893, -23.1878649931331 ], [ -68.003935773138494, -23.187859568346099 ], [ -68.003981339631096, -23.187850297847799 ], [ -68.004035150022304, -23.187844902869902 ], [ -68.004070319377703, -23.187843213283799 ], [ -68.004184171389397, -23.1878286393077 ], [ -68.004277385793799, -23.1878081991856 ], [ -68.004339439094906, -23.187806679617299 ], [ -68.004411946104099, -23.187789931782799 ], [ -68.004424283184505, -23.187799568689201 ], [ -68.004465543241395, -23.187813212812902 ], [ -68.004589706435596, -23.1878025271285 ], [ -68.004641264581906, -23.1878219718376 ], [ -68.004783487870597, -23.1878859617327 ], [ -68.004909125401497, -23.187955582141601 ], [ -68.005082496840103, -23.188002562199099 ], [ -68.005190738837001, -23.1879076541031 ], [ -68.005191728572598, -23.1877738325827 ], [ -68.005140325899802, -23.1877333582589 ], [ -68.005113484372401, -23.187727453090101 ], [ -68.005065723392406, -23.187753917456199 ], [ -68.005018088697796, -23.187763175197102 ], [ -68.004906531390603, -23.187747175549202 ], [ -68.004778613582403, -23.1877062182309 ], [ -68.0047415315737, -23.1876868651077 ], [ -68.004691772979001, -23.187703756955599 ], [ -68.0046421558433, -23.1877015310431 ], [ -68.004574125046204, -23.187672423285999 ], [ -68.004506274332996, -23.187671397111401 ], [ -68.004432663884899, -23.187575339220398 ], [ -68.004387405050196, -23.1875780408119 ], [ -68.004335506526502, -23.187604597104201 ], [ -68.004302862755097, -23.187649199760401 ] ] ] ] } },
{ "type": "Feature", "properties": { "id": "prc_sanpedroatacama_toconao_mono.14", "Name": null, "description": null, "timestamp": null, "begin": null, "end": null, "altitudeMode": null, "tessellate": -1, "extrude": 0, "visibility": -1, "drawOrder": null, "icon": null, "REG": "Antofagasta", "COM": "San Pedro de Atacama", "LOCALIDAD": "Toconao", "ZONA": "Río", "NOMBRE": "Río Toconao", "UPERM": "Sin información", "UPROH": "Sin información", "Capa": "PRC San Pedro de Atacama - Toconao", "CUT": "02203", "Shape_STAr": 2824.2934570299999, "Shape_STLe": 486.26935985599999 }, "geometry": { "type": "MultiPolygon", "coordinates": [ [ [ [ -68.005814505009994, -23.188521970377501 ], [ -68.006043457832305, -23.188603713507302 ], [ -68.006287056663993, -23.188662606774201 ], [ -68.006427609755903, -23.188673053017499 ], [ -68.006684181563898, -23.188655554802398 ], [ -68.006818728364294, -23.188639197407898 ], [ -68.006907807359298, -23.188618728734099 ], [ -68.007011206319504, -23.188619381140199 ], [ -68.007166373489596, -23.188710917788399 ], [ -68.007162072511406, -23.188622766222402 ], [ -68.007039986570206, -23.1885903477807 ], [ -68.006911178265497, -23.188529790087099 ], [ -68.0066995621861, -23.188480658509199 ], [ -68.006647879924998, -23.188477942378899 ], [ -68.0065342402346, -23.188516239161402 ], [ -68.006452733693905, -23.188526478490299 ], [ -68.006332505889105, -23.188529304385298 ], [ -68.006053830384801, -23.1884594349327 ], [ -68.005736910958802, -23.188317630524899 ], [ -68.005694365101803, -23.1883030229884 ], [ -68.005624596788607, -23.188298997291799 ], [ -68.005551110759299, -23.1882734403931 ], [ -68.005477862324398, -23.188215621634299 ], [ -68.005465961730707, -23.188174289659202 ], [ -68.005401680969996, -23.188135062688399 ], [ -68.005321439847904, -23.188079111805099 ], [ -68.005220518706295, -23.188023031078401 ], [ -68.005132993464599, -23.187958286293501 ], [ -68.005082496840103, -23.188002562199099 ], [ -68.005187077287701, -23.188070615856699 ], [ -68.005265307582505, -23.188118905557801 ], [ -68.005333225660095, -23.1881633075865 ], [ -68.005398948257593, -23.188224901315301 ], [ -68.005425199558204, -23.188252239937199 ], [ -68.005460520990297, -23.1882884017039 ], [ -68.005573708973799, -23.188363678431202 ], [ -68.005814505009994, -23.188521970377501 ] ] ] ] } },
{ "type": "Feature", "properties": { "id": "prc_sanpedroatacama_toconao_mono.15", "Name": null, "description": null, "timestamp": null, "begin": null, "end": null, "altitudeMode": null, "tessellate": -1, "extrude": 0, "visibility": -1, "drawOrder": null, "icon": null, "REG": "Antofagasta", "COM": "San Pedro de Atacama", "LOCALIDAD": "Toconao", "ZONA": "E2", "NOMBRE": "E2 Plazas", "UPERM": "Uso exclusivo plazas", "UPROH": "Todos los no mencionados como permitidos", "Capa": "PRC San Pedro de Atacama - Toconao", "CUT": "02203", "Shape_STAr": 1837.0581054700001, "Shape_STLe": 212.27873844499999 }, "geometry": { "type": "MultiPolygon", "coordinates": [ [ [ [ -68.003418029740402, -23.190071174391299 ], [ -68.0034171222363, -23.190193645466 ], [ -68.004241515965901, -23.190142105775699 ], [ -68.0042264437987, -23.189995635955 ], [ -68.004206123241204, -23.1898691809768 ], [ -68.003418029740402, -23.190071174391299 ] ] ] ] } },
{ "type": "Feature", "properties": { "id": "prc_sanpedroatacama_toconao_mono.16", "Name": null, "description": null, "timestamp": null, "begin": null, "end": null, "altitudeMode": null, "tessellate": -1, "extrude": 0, "visibility": -1, "drawOrder": null, "icon": null, "REG": "Antofagasta", "COM": "San Pedro de Atacama", "LOCALIDAD": "Toconao", "ZONA": "E2", "NOMBRE": "E2 Plazas", "UPERM": "Uso exclusivo plazas", "UPROH": "Todos los no mencionados como permitidos", "Capa": "PRC San Pedro de Atacama - Toconao", "CUT": "02203", "Shape_STAr": 2005.2963867200001, "Shape_STLe": 180.33906537 }, "geometry": { "type": "MultiPolygon", "coordinates": [ [ [ [ -68.006742755747894, -23.190773404246499 ], [ -68.007136972247494, -23.190775891822099 ], [ -68.007161698475599, -23.190333873098101 ], [ -68.006775255978596, -23.190310586359601 ], [ -68.006742755747894, -23.190773404246499 ] ] ] ] } },
{ "type": "Feature", "properties": { "id": "prc_sanpedroatacama_toconao_mono.17", "Name": null, "description": null, "timestamp": null, "begin": null, "end": null, "altitudeMode": null, "tessellate": -1, "extrude": 0, "visibility": -1, "drawOrder": null, "icon": null, "REG": "Antofagasta", "COM": "San Pedro de Atacama", "LOCALIDAD": "Toconao", "ZONA": "E2", "NOMBRE": "E2 Plazas", "UPERM": "Uso exclusivo plazas", "UPROH": "Todos los no mencionados como permitidos", "Capa": "PRC San Pedro de Atacama - Toconao", "CUT": "02203", "Shape_STAr": 1327.69824219, "Shape_STLe": 158.41107869000001 }, "geometry": { "type": "MultiPolygon", "coordinates": [ [ [ [ -68.004583241961896, -23.1885421680607 ], [ -68.004831988964398, -23.188988243329099 ], [ -68.004901996278505, -23.1889600084798 ], [ -68.005069504313795, -23.1886814613719 ], [ -68.004617988792305, -23.1884754739451 ], [ -68.004583087632795, -23.188541766051198 ], [ -68.004583241961896, -23.1885421680607 ] ] ] ] } }
]
}
