{
"type": "FeatureCollection",
"name": "PRC_02_SanPedroAtacama_Peine",
"crs": { "type": "name", "properties": { "name": "urn:ogc:def:crs:OGC:1.3:CRS84" } },
"features": [
{ "type": "Feature", "properties": { "id": "prc_sanpedroatacama_peine_mono.1", "Name": null, "description": null, "timestamp": null, "begin": null, "end": null, "altitudeMode": null, "tessellate": -1, "extrude": 0, "visibility": -1, "drawOrder": null, "icon": null, "REG": "Antofagasta", "COM": "San Pedro de Atacama", "LOCALIDAD": "Peine", "ZONA": "H-2", "NOMBRE": "H-2 Zona de Casco Antiguo", "UPERM": "Preservación y mantención e incentivar la forma de ocupación actual.", "UPROH": "Todos los no indicados como permitidos.", "Capa": "PRC San Pedro de Atacama - Peine", "CUT": "02203" }, "geometry": { "type": "MultiPolygon", "coordinates": [ [ [ [ -68.065967399646894, -23.682251302136201 ], [ -68.065830755232, -23.682310220004201 ], [ -68.065733456755396, -23.682309633087002 ], [ -68.065467802031094, -23.682266211081298 ], [ -68.065282082574598, -23.682275351384799 ], [ -68.064915333054103, -23.682418205998999 ], [ -68.064499295446893, -23.682541151174298 ], [ -68.064388682371401, -23.682588276762701 ], [ -68.064316988493303, -23.6826356374109 ], [ -68.064186320291597, -23.682766280118301 ], [ -68.064062136916405, -23.682896961896901 ], [ -68.063561557323993, -23.683049264537701 ], [ -68.063210425847402, -23.6831666249501 ], [ -68.062917630814596, -23.6832903121017 ], [ -68.062572772063504, -23.683437579975099 ], [ -68.062074918887205, -23.683207545970401 ], [ -68.061874813105604, -23.683068927244801 ], [ -68.061608768545796, -23.683082949551899 ], [ -68.061630148263703, -23.683187219746401 ], [ -68.061711956541501, -23.6837218083473 ], [ -68.061649505201999, -23.683746522199002 ], [ -68.061520838264897, -23.683778002439102 ], [ -68.061466248209797, -23.6837920096511 ], [ -68.061423384163206, -23.683798919345101 ], [ -68.061328363969906, -23.683125182903002 ], [ -68.061154153968999, -23.683154173106399 ], [ -68.060926693665394, -23.683212535989899 ], [ -68.060276531284003, -23.683417689077299 ], [ -68.060127253058695, -23.683428731408199 ], [ -68.059764127157905, -23.683408605359698 ], [ -68.059433350193899, -23.6834006222354 ], [ -68.059344840154694, -23.683374557999901 ], [ -68.059395041454906, -23.683496426813399 ], [ -68.059484666708897, -23.683735461097701 ], [ -68.059557997096803, -23.6839309036076 ], [ -68.059573250337195, -23.683974965886499 ], [ -68.059518201860399, -23.683980366803201 ], [ -68.059459903863001, -23.684004865636499 ], [ -68.059284195170804, -23.684046812488901 ], [ -68.059281225318998, -23.6840267212105 ], [ -68.059276234162496, -23.683998971308 ], [ -68.059268143099601, -23.683969289633598 ], [ -68.059254003792105, -23.6839147192395 ], [ -68.059245018953106, -23.683864959799202 ], [ -68.059212244983996, -23.683803584519602 ], [ -68.059192163304701, -23.6837634352683 ], [ -68.059156786335507, -23.683721401178701 ], [ -68.059133997444704, -23.683733210935799 ], [ -68.0587468833711, -23.683892161621898 ], [ -68.058645933151993, -23.683948303125401 ], [ -68.058623037136996, -23.683975048086001 ], [ -68.058587125094405, -23.684007687570499 ], [ -68.058554284813596, -23.684064243030399 ], [ -68.058550676817603, -23.684115001640102 ], [ -68.058553556899696, -23.684165799691598 ], [ -68.058559036784999, -23.684306226428301 ], [ -68.058564496249602, -23.684449639863502 ], [ -68.058560824992796, -23.6845093594644 ], [ -68.058554123778094, -23.684539189685498 ], [ -68.058537800397104, -23.684554026381999 ], [ -68.058511767256107, -23.684565816318099 ], [ -68.057913369531903, -23.684702173188299 ], [ -68.057925460669097, -23.684711752738998 ], [ -68.058126378481802, -23.684736871263102 ], [ -68.058554416866201, -23.684751422222998 ], [ -68.058664519947897, -23.684775988840801 ], [ -68.058910416986507, -23.684861121677098 ], [ -68.059066269630705, -23.6848381723084 ], [ -68.059397007382699, -23.684852129720401 ], [ -68.059559389861903, -23.684823244959901 ], [ -68.059812758300097, -23.684771016033199 ], [ -68.059994856566206, -23.684706404985398 ], [ -68.060112045538006, -23.684647374339001 ], [ -68.0602274819163, -23.684833275267302 ], [ -68.060285050143904, -23.6849471339263 ], [ -68.060343132316305, -23.684989305541102 ], [ -68.060407529744296, -23.6850554127683 ], [ -68.060504787378207, -23.685061976488001 ], [ -68.060615105749207, -23.685056672070399 ], [ -68.060751839694603, -23.684985811294698 ], [ -68.0609079485168, -23.684927016094498 ], [ -68.061187092506003, -23.684898837631401 ], [ -68.061310297671199, -23.684905558143001 ], [ -68.061523933784997, -23.6849665949041 ], [ -68.061659985289197, -23.684991316658799 ], [ -68.061854417274006, -23.685016391073201 ], [ -68.061990254607394, -23.6850709813171 ], [ -68.062074241397099, -23.685119283760301 ], [ -68.062217035282103, -23.685108200332198 ], [ -68.062353768470601, -23.6850373381167 ], [ -68.062522936273098, -23.684966672128599 ], [ -68.062679470670702, -23.684848135733102 ], [ -68.062770626788407, -23.684800893690198 ], [ -68.063044135406201, -23.684653193816299 ], [ -68.063242405197599, -23.684503843430701 ], [ -68.063375245931894, -23.684432956732 ], [ -68.063625052244603, -23.684334101109101 ], [ -68.063781142069402, -23.6842776926628 ], [ -68.063975948140197, -23.684250194147701 ], [ -68.064038271610499, -23.684243401357101 ], [ -68.064186169009801, -23.684244295143898 ], [ -68.064349634513306, -23.684245282848899 ], [ -68.064482167085202, -23.684217407438801 ], [ -68.064638155313702, -23.684175335542999 ], [ -68.064739603616701, -23.684140102687898 ], [ -68.064927288235793, -23.6840193631289 ], [ -68.065028787377898, -23.6839769609123 ], [ -68.065240181197098, -23.6838061804898 ], [ -68.065349514617495, -23.683756656771099 ], [ -68.065477945884396, -23.683575816888201 ], [ -68.065636058775397, -23.683523881363001 ], [ -68.065831637480997, -23.683463245504601 ], [ -68.066039890916301, -23.6833689148757 ], [ -68.066195842734402, -23.683331619895 ], [ -68.066351591625093, -23.6833230005311 ], [ -68.066600951263197, -23.683286269135699 ], [ -68.066746456596206, -23.683258469933602 ], [ -68.066934019357006, -23.6831544540875 ], [ -68.067132029004696, -23.683040942533399 ], [ -68.067225844061795, -23.6829841544968 ], [ -68.067496165009501, -23.682918871778 ], [ -68.067709680348202, -23.682913181048299 ], [ -68.067601240141599, -23.682737888482901 ], [ -68.067448332722506, -23.682428421972201 ], [ -68.066965345369297, -23.6814394297724 ], [ -68.066906896581003, -23.6813368055548 ], [ -68.066725025980702, -23.681527017744699 ], [ -68.066476456011102, -23.681818255286501 ], [ -68.066117144404103, -23.682174541254199 ], [ -68.065967399646894, -23.682251302136201 ] ] ] ] } },
{ "type": "Feature", "properties": { "id": "prc_sanpedroatacama_peine_mono.2", "Name": null, "description": null, "timestamp": null, "begin": null, "end": null, "altitudeMode": null, "tessellate": -1, "extrude": 0, "visibility": -1, "drawOrder": null, "icon": null, "REG": "Antofagasta", "COM": "San Pedro de Atacama", "LOCALIDAD": "Peine", "ZONA": "E-1", "NOMBRE": "E-2 Zona de Cementerio", "UPERM": "Cementerio.", "UPROH": "Todos los no indicados como permitidos.", "Capa": "PRC San Pedro de Atacama - Peine", "CUT": "02203" }, "geometry": { "type": "MultiPolygon", "coordinates": [ [ [ [ -68.051894940754806, -23.681314443813701 ], [ -68.052102619339095, -23.681609664565102 ], [ -68.052338884939601, -23.681496386442198 ], [ -68.052540525912093, -23.681384349355302 ], [ -68.052292785948794, -23.681077951018899 ], [ -68.051894940754806, -23.681314443813701 ] ] ] ] } },
{ "type": "Feature", "properties": { "id": "prc_sanpedroatacama_peine_mono.3", "Name": null, "description": null, "timestamp": null, "begin": null, "end": null, "altitudeMode": null, "tessellate": -1, "extrude": 0, "visibility": -1, "drawOrder": null, "icon": null, "REG": "Antofagasta", "COM": "San Pedro de Atacama", "LOCALIDAD": "Peine", "ZONA": "E-5", "NOMBRE": "E-5 Zona de Campamento", "UPERM": "Zonas de campamento que colaboran al desarrollo económico, social o turístico en períodos menores a 5 años.", "UPROH": "Todos los no indicados como permitidos.", "Capa": "PRC San Pedro de Atacama - Peine", "CUT": "02203" }, "geometry": { "type": "MultiPolygon", "coordinates": [ [ [ [ -68.067561954637497, -23.681448817621298 ], [ -68.067452912323105, -23.6814577204022 ], [ -68.067310215993004, -23.681455666223702 ], [ -68.067199944141805, -23.6814550021166 ], [ -68.0670638950522, -23.681430285300902 ], [ -68.066965345369297, -23.6814394297724 ], [ -68.067448332722506, -23.682428421972201 ], [ -68.067534615929404, -23.682375849601399 ], [ -68.067617780692601, -23.682357232593802 ], [ -68.067763047389207, -23.682362886724999 ], [ -68.068573056376394, -23.682300529977201 ], [ -68.068944949313803, -23.6822549732114 ], [ -68.069136159833405, -23.682221710350198 ], [ -68.069175767129295, -23.6821980519404 ], [ -68.0691596764796, -23.682125309371401 ], [ -68.069149840086595, -23.6820487803063 ], [ -68.069148360089898, -23.681964654199501 ], [ -68.069146676892004, -23.681909203890999 ], [ -68.069136745691097, -23.681846056743002 ], [ -68.069118375868598, -23.681801975683701 ], [ -68.069087687265906, -23.681738703769 ], [ -68.069046620476698, -23.681675369466301 ], [ -68.069013747519705, -23.681627378035898 ], [ -68.068980847484994, -23.6815832105205 ], [ -68.0689540797528, -23.681552461448899 ], [ -68.068912755642103, -23.681525448948499 ], [ -68.068883845138501, -23.681504245387998 ], [ -68.068819497937596, -23.681503858522898 ], [ -68.068763440333498, -23.681505433516399 ], [ -68.068703162903304, -23.681516541519699 ], [ -68.068626198821903, -23.681539019599398 ], [ -68.068557551424405, -23.681559635615201 ], [ -68.068505644882507, -23.6815612354794 ], [ -68.0685039222694, -23.6815115201541 ], [ -68.068514463139806, -23.681488641755401 ], [ -68.068537688660001, -23.681433341250798 ], [ -68.068575174307398, -23.6814163610217 ], [ -68.068646099975794, -23.681367082579701 ], [ -68.068731529721802, -23.6813217135937 ], [ -68.068769082087897, -23.6812951753124 ], [ -68.068782754507296, -23.681269767837801 ], [ -68.068788282868994, -23.681222007246902 ], [ -68.068762675720706, -23.681174059451202 ], [ -68.068716374506195, -23.681117066464001 ], [ -68.068706237041596, -23.681082912087501 ], [ -68.068712859407, -23.681027192889999 ], [ -68.068722821177801, -23.680939631216798 ], [ -68.068723227733301, -23.680882281424601 ], [ -68.068685516899706, -23.6808326956189 ], [ -68.068651053065693, -23.680814935886701 ], [ -68.068588748341696, -23.6808193408704 ], [ -68.068489915303104, -23.680852202256201 ], [ -68.068416960305498, -23.6808947776365 ], [ -68.0682812608066, -23.681003887078901 ], [ -68.068197791904197, -23.6810655159098 ], [ -68.068129822860797, -23.681136797259501 ], [ -68.068025596467393, -23.681198302001601 ], [ -68.067921167502206, -23.681288481564199 ], [ -68.067832508662505, -23.681350079856401 ], [ -68.067712647336606, -23.681421048678001 ], [ -68.067639827453206, -23.6814445076831 ], [ -68.067561954637497, -23.681448817621298 ] ] ] ] } },
{ "type": "Feature", "properties": { "id": "prc_sanpedroatacama_peine_mono.4", "Name": null, "description": null, "timestamp": null, "begin": null, "end": null, "altitudeMode": null, "tessellate": -1, "extrude": 0, "visibility": -1, "drawOrder": null, "icon": null, "REG": "Antofagasta", "COM": "San Pedro de Atacama", "LOCALIDAD": "Peine", "ZONA": "E-3", "NOMBRE": "E-3 Áreas Arqueológicas", "UPERM": "Uso exclusivo arqueológico, se rige por la Ley N°17.288.", "UPROH": "Uso exclusivo arqueológico.", "Capa": "PRC San Pedro de Atacama - Peine", "CUT": "02203" }, "geometry": { "type": "MultiPolygon", "coordinates": [ [ [ [ -68.059559389861903, -23.684823244959901 ], [ -68.059397007382699, -23.684852129720401 ], [ -68.059066269630705, -23.6848381723084 ], [ -68.059066845402398, -23.684850206200199 ], [ -68.059072844776495, -23.684975554733601 ], [ -68.059085355878807, -23.685040152314201 ], [ -68.059126529296293, -23.6850881952892 ], [ -68.059180534047599, -23.6851498449819 ], [ -68.059198393084003, -23.685198557352699 ], [ -68.059236766332106, -23.685275260241099 ], [ -68.059287770668206, -23.685399832664601 ], [ -68.059260145653596, -23.6856338537875 ], [ -68.059150989758095, -23.686020317277301 ], [ -68.059111075661207, -23.686158676258898 ], [ -68.059100320496498, -23.6862111842632 ], [ -68.059212304341301, -23.686154511645299 ], [ -68.059303957916995, -23.686037974431699 ], [ -68.059395509627606, -23.6859357745635 ], [ -68.059429395066999, -23.685914473797901 ], [ -68.059478763213605, -23.685905214360101 ], [ -68.059546207960196, -23.685908013794901 ], [ -68.059623913427302, -23.685927603356198 ], [ -68.059693935957696, -23.6859328082022 ], [ -68.059769251875096, -23.685923706228099 ], [ -68.059821196787098, -23.685916853050401 ], [ -68.059865439425394, -23.685898721114299 ], [ -68.059909959867895, -23.685841639290398 ], [ -68.060001458693094, -23.685746607286099 ], [ -68.060066702811596, -23.685694430850202 ], [ -68.060113732466704, -23.685649312397398 ], [ -68.060165780838901, -23.685628120798501 ], [ -68.0602126052556, -23.6856116771222 ], [ -68.060277575671293, -23.685597733369999 ], [ -68.060368373140193, -23.6856006741531 ], [ -68.060428035114896, -23.6856034259763 ], [ -68.0604591886908, -23.685601225170998 ], [ -68.060500874600805, -23.6855775816678 ], [ -68.060537252096395, -23.685570632895601 ], [ -68.060589078176505, -23.685580506584401 ], [ -68.060687506452595, -23.685605000061798 ], [ -68.060741943545594, -23.6856124988125 ], [ -68.060809423340999, -23.685610519165699 ], [ -68.060879446756999, -23.685615722574699 ], [ -68.060962527989304, -23.685609057830199 ], [ -68.061084787534696, -23.685566785062601 ], [ -68.061321674518993, -23.685460685471799 ], [ -68.061436268750697, -23.685401638102402 ], [ -68.061517046215599, -23.685354333919101 ], [ -68.061556172130494, -23.6853258949651 ], [ -68.061621313005404, -23.685288055255899 ], [ -68.0617098056657, -23.6852503561053 ], [ -68.061832115857001, -23.685200914473199 ], [ -68.061949115793794, -23.6851681675275 ], [ -68.062074241397099, -23.685119283760301 ], [ -68.061990254607394, -23.6850709813171 ], [ -68.061854417274006, -23.685016391073201 ], [ -68.061659985289197, -23.684991316658799 ], [ -68.061523933784997, -23.6849665949041 ], [ -68.061310297671199, -23.684905558143001 ], [ -68.061187092506003, -23.684898837631401 ], [ -68.0609079485168, -23.684927016094498 ], [ -68.060751839694603, -23.684985811294698 ], [ -68.060615105749207, -23.685056672070399 ], [ -68.060504787378207, -23.685061976488001 ], [ -68.060407529744296, -23.6850554127683 ], [ -68.060343132316305, -23.684989305541102 ], [ -68.060285050143904, -23.6849471339263 ], [ -68.0602274819163, -23.684833275267302 ], [ -68.060112045538006, -23.684647374339001 ], [ -68.059994856566206, -23.684706404985398 ], [ -68.059812758300097, -23.684771016033199 ], [ -68.059559389861903, -23.684823244959901 ] ] ] ] } },
{ "type": "Feature", "properties": { "id": "prc_sanpedroatacama_peine_mono.5", "Name": null, "description": null, "timestamp": null, "begin": null, "end": null, "altitudeMode": null, "tessellate": -1, "extrude": 0, "visibility": -1, "drawOrder": null, "icon": null, "REG": "Antofagasta", "COM": "San Pedro de Atacama", "LOCALIDAD": "Peine", "ZONA": "H-1", "NOMBRE": "H-1 Zona Residencial", "UPERM": "Vivienda, comercio, artesanías y áreas verdes.", "UPROH": "Todos los no indicados como permitidos.", "Capa": "PRC San Pedro de Atacama - Peine", "CUT": "02203" }, "geometry": { "type": "MultiPolygon", "coordinates": [ [ [ [ -68.057361032625593, -23.682007984701599 ], [ -68.057370731890799, -23.6842722610557 ], [ -68.057913369531903, -23.684702173188299 ], [ -68.058511767256107, -23.684565816318099 ], [ -68.058537800397104, -23.684554026381999 ], [ -68.058554123778094, -23.684539189685498 ], [ -68.058560824992796, -23.6845093594644 ], [ -68.058564496249602, -23.684449639863502 ], [ -68.058559036784999, -23.684306226428301 ], [ -68.058553556899696, -23.684165799691598 ], [ -68.058550676817603, -23.684115001640102 ], [ -68.058554284813596, -23.684064243030399 ], [ -68.058587125094405, -23.684007687570499 ], [ -68.058623037136996, -23.683975048086001 ], [ -68.058645933151993, -23.683948303125401 ], [ -68.0587468833711, -23.683892161621898 ], [ -68.059133997444704, -23.683733210935799 ], [ -68.059156786335507, -23.683721401178701 ], [ -68.059153842817494, -23.683679564124599 ], [ -68.059033441104404, -23.683281548674501 ], [ -68.059042215978096, -23.68326819424 ], [ -68.059038604291203, -23.683266792232502 ], [ -68.0586246355344, -23.682194896222398 ], [ -68.058559598158794, -23.682218398206299 ], [ -68.058384417003595, -23.682223306875201 ], [ -68.058287032166305, -23.682234662961601 ], [ -68.058202449017699, -23.682269994149198 ], [ -68.058144412549296, -23.682221847489 ], [ -68.058073530624398, -23.682155700827 ], [ -68.057530498970607, -23.681895506760199 ], [ -68.057394537296801, -23.6818588338114 ], [ -68.0572825567005, -23.681865591749499 ], [ -68.057361032625593, -23.682007984701599 ] ] ] ] } },
{ "type": "Feature", "properties": { "id": "prc_sanpedroatacama_peine_mono.6", "Name": null, "description": null, "timestamp": null, "begin": null, "end": null, "altitudeMode": null, "tessellate": -1, "extrude": 0, "visibility": -1, "drawOrder": null, "icon": null, "REG": "Antofagasta", "COM": "San Pedro de Atacama", "LOCALIDAD": "Peine", "ZONA": "E-2", "NOMBRE": "E-2 Zona de Plazas", "UPERM": "Plazas o áreas verdes.", "UPROH": "Todos los no indicados como permitidos.", "Capa": "PRC San Pedro de Atacama - Peine", "CUT": "02203" }, "geometry": { "type": "MultiPolygon", "coordinates": [ [ [ [ -68.059281225318998, -23.6840267212105 ], [ -68.059284195170804, -23.684046812488901 ], [ -68.059459903863001, -23.684004865636499 ], [ -68.059518201860399, -23.683980366803201 ], [ -68.059573250337195, -23.683974965886499 ], [ -68.059557997096803, -23.6839309036076 ], [ -68.059484666708897, -23.683735461097701 ], [ -68.059395041454906, -23.683496426813399 ], [ -68.059344840154694, -23.683374557999901 ], [ -68.059226204741194, -23.683339622096302 ], [ -68.059042215978096, -23.68326819424 ], [ -68.059033441104404, -23.683281548674501 ], [ -68.059153842817494, -23.683679564124599 ], [ -68.059156786335507, -23.683721401178701 ], [ -68.059192163304701, -23.6837634352683 ], [ -68.059212244983996, -23.683803584519602 ], [ -68.059245018953106, -23.683864959799202 ], [ -68.059254003792105, -23.6839147192395 ], [ -68.059268143099601, -23.683969289633598 ], [ -68.059276234162496, -23.683998971308 ], [ -68.059281225318998, -23.6840267212105 ] ] ] ] } },
{ "type": "Feature", "properties": { "id": "prc_sanpedroatacama_peine_mono.7", "Name": null, "description": null, "timestamp": null, "begin": null, "end": null, "altitudeMode": null, "tessellate": -1, "extrude": 0, "visibility": -1, "drawOrder": null, "icon": null, "REG": "Antofagasta", "COM": "San Pedro de Atacama", "LOCALIDAD": "Peine", "ZONA": "E-2", "NOMBRE": "E-2 Zona de Plazas", "UPERM": "Plazas o áreas verdes.", "UPROH": "Todos los no indicados como permitidos.", "Capa": "PRC San Pedro de Atacama - Peine", "CUT": "02203" }, "geometry": { "type": "MultiPolygon", "coordinates": [ [ [ [ -68.061328363969906, -23.683125182903002 ], [ -68.061423384163206, -23.683798919345101 ], [ -68.061466248209797, -23.6837920096511 ], [ -68.061520838264897, -23.683778002439102 ], [ -68.061649505201999, -23.683746522199002 ], [ -68.061711956541501, -23.6837218083473 ], [ -68.061630148263703, -23.683187219746401 ], [ -68.061608768545796, -23.683082949551899 ], [ -68.061569812225201, -23.683085002168099 ], [ -68.061328363969906, -23.683125182903002 ] ] ] ] } },
{ "type": "Feature", "properties": { "id": "prc_sanpedroatacama_peine_mono.8", "Name": null, "description": null, "timestamp": null, "begin": null, "end": null, "altitudeMode": null, "tessellate": -1, "extrude": 0, "visibility": -1, "drawOrder": null, "icon": null, "REG": "Antofagasta", "COM": "San Pedro de Atacama", "LOCALIDAD": "Peine", "ZONA": "E-3", "NOMBRE": "E-3 Áreas Arqueológicas", "UPERM": "Uso exclusivo arqueológico, se rige por la Ley N°17.288.", "UPROH": "Uso exclusivo arqueológico.", "Capa": "PRC San Pedro de Atacama - Peine", "CUT": "02203" }, "geometry": { "type": "MultiPolygon", "coordinates": [ [ [ [ -68.065933141418299, -23.678442093209799 ], [ -68.065848771549199, -23.678484598569099 ], [ -68.065792524940207, -23.678512935448602 ], [ -68.065709563396297, -23.678576239628999 ], [ -68.065618670697205, -23.678660285420001 ], [ -68.065579619039596, -23.678678689759199 ], [ -68.065506248591404, -23.6787069232258 ], [ -68.065479620271802, -23.678729703455801 ], [ -68.065303989829204, -23.6789078698291 ], [ -68.0652631777849, -23.678954939568001 ], [ -68.065230342784304, -23.678974814684999 ], [ -68.065186611029304, -23.6789946240295 ], [ -68.065124157475793, -23.679020055583599 ], [ -68.065052424626799, -23.679036828268799 ], [ -68.064980671352899, -23.679056468407399 ], [ -68.064793748298399, -23.679071111305799 ], [ -68.064476161393102, -23.6790706276831 ], [ -68.064373169966501, -23.6791044169081 ], [ -68.064102254836698, -23.679108515398699 ], [ -68.063879021225603, -23.679193911801899 ], [ -68.063727423405297, -23.679276156178499 ], [ -68.0636998547443, -23.6792897784409 ], [ -68.063645833220406, -23.679297098228599 ], [ -68.063604278337905, -23.679302582228701 ], [ -68.063564745921994, -23.6793157257049 ], [ -68.0635106552633, -23.679332604327499 ], [ -68.0634127448605, -23.679381717237799 ], [ -68.063364853902101, -23.679402457378 ], [ -68.063314860656106, -23.6794270079676 ], [ -68.063275245420897, -23.679451620401299 ], [ -68.063225306666098, -23.679468524031201 ], [ -68.063173361038693, -23.679475857109701 ], [ -68.0630776617528, -23.679505866382499 ], [ -68.062998690181303, -23.679518770233202 ], [ -68.062930070322906, -23.679535561655602 ], [ -68.062851150835698, -23.679541297174101 ], [ -68.062765273213202, -23.679576622207001 ], [ -68.062641951605698, -23.679623191927501 ], [ -68.062557692505095, -23.679649923810501 ], [ -68.062520289475003, -23.6796554326442 ], [ -68.062436061023604, -23.6796778636837 ], [ -68.062356563709898, -23.6796917213948 ], [ -68.062269293339696, -23.6797040968451 ], [ -68.062229654798799, -23.679731935938101 ], [ -68.062154713496298, -23.679780021989998 ], [ -68.062102481101803, -23.679827499487601 ], [ -68.061953111932297, -23.680003082449101 ], [ -68.061868169529006, -23.680089194137501 ], [ -68.061789839954201, -23.680157423055501 ], [ -68.061704961351793, -23.680234572742201 ], [ -68.061639805984797, -23.680274803214701 ], [ -68.061574695389993, -23.680308760416199 ], [ -68.061477354859605, -23.680314144264301 ], [ -68.061331300869497, -23.6803281951222 ], [ -68.061136534373702, -23.680350911050301 ], [ -68.0609677572089, -23.680367810647201 ], [ -68.060730828088893, -23.680390270430301 ], [ -68.060574980973399, -23.6804132225672 ], [ -68.060415975316801, -23.680424206267901 ], [ -68.060360754475894, -23.680435819478699 ], [ -68.060289702382093, -23.680393569206998 ], [ -68.060183101981394, -23.680333180432498 ], [ -68.060069544605497, -23.680338465893598 ], [ -68.059910497252005, -23.680355422478101 ], [ -68.0597611787598, -23.680372438862101 ], [ -68.059650715629502, -23.680398652395201 ], [ -68.059433096378001, -23.680442137016598 ], [ -68.0592121484557, -23.680497550223102 ], [ -68.059079002785595, -23.680520637832199 ], [ -68.059007416195399, -23.680553061628899 ], [ -68.058451319564, -23.680758778855999 ], [ -68.058100040240603, -23.680897036441699 ], [ -68.058038353508707, -23.680905621761699 ], [ -68.057911565661996, -23.6809466706823 ], [ -68.057778313212197, -23.680984691536899 ], [ -68.057745666216803, -23.6810143638913 ], [ -68.057670663676603, -23.681070662682998 ], [ -68.057608526854494, -23.6811419747524 ], [ -68.057569243811002, -23.6811925162744 ], [ -68.057520015515706, -23.681272868231598 ], [ -68.057460758145893, -23.681394979210602 ], [ -68.057437583751394, -23.681460553756398 ], [ -68.0574111234708, -23.6815320828536 ], [ -68.057397420806495, -23.681633561456799 ], [ -68.057379747365204, -23.6818365760791 ], [ -68.0572825567005, -23.681865591749499 ], [ -68.057394537296801, -23.6818588338114 ], [ -68.057530498970607, -23.681895506760199 ], [ -68.058073530624398, -23.682155700827 ], [ -68.058144412549296, -23.682221847489 ], [ -68.058202449017699, -23.682269994149198 ], [ -68.058287032166305, -23.682234662961601 ], [ -68.058384417003595, -23.682223306875201 ], [ -68.058559598158794, -23.682218398206299 ], [ -68.0586246355344, -23.682194896222398 ], [ -68.058745656934505, -23.682230218270501 ], [ -68.058875325005502, -23.6822399676625 ], [ -68.058953206973101, -23.6822344672578 ], [ -68.059031217322499, -23.682211043927499 ], [ -68.059131973473896, -23.6821817850884 ], [ -68.059174371872004, -23.682149184857099 ], [ -68.059223064726297, -23.682143506091698 ], [ -68.059275299071103, -23.682096030544699 ], [ -68.059317868529007, -23.6820395339908 ], [ -68.059371146921706, -23.681998676050199 ], [ -68.059406269096101, -23.681971740579801 ], [ -68.059445498382601, -23.681941656258001 ], [ -68.059555356789403, -23.6819394151374 ], [ -68.059675209134497, -23.681961052459599 ], [ -68.05979194679, -23.681964748015101 ], [ -68.059866585565999, -23.6819592274569 ], [ -68.059908962341098, -23.681929613712398 ], [ -68.059971984996395, -23.6818682889648 ], [ -68.060023310938803, -23.681813810680101 ], [ -68.060064343463907, -23.681774004438001 ], [ -68.060127502910802, -23.6817576878789 ], [ -68.060225206826004, -23.681701526539399 ], [ -68.060284014075194, -23.681642141404399 ], [ -68.060388076631398, -23.681603940404401 ], [ -68.060479081687902, -23.681577608335299 ], [ -68.060550540332699, -23.681563106764401 ], [ -68.060615470252202, -23.6815545392157 ], [ -68.060745052429198, -23.681576234720701 ], [ -68.060800145595806, -23.681582542479202 ], [ -68.060884494890999, -23.6815797681829 ], [ -68.060972213157399, -23.681559390449301 ], [ -68.061173810004107, -23.681488922423899 ], [ -68.061326607411999, -23.681439067977902 ], [ -68.061463081077306, -23.681404049501801 ], [ -68.061547470794594, -23.681395600383901 ], [ -68.061615707587293, -23.681378091062101 ], [ -68.061713368928096, -23.681327902155299 ], [ -68.061957532136901, -23.681200935802998 ], [ -68.062006309860493, -23.681183308447402 ], [ -68.062077747803201, -23.6811717928639 ], [ -68.062178502544199, -23.681142531991899 ], [ -68.062246717809998, -23.681128009083999 ], [ -68.062337571973501, -23.681122585498098 ], [ -68.0623701540366, -23.681101873145501 ], [ -68.062418974311498, -23.6810782713547 ], [ -68.062493719105504, -23.681057814206198 ], [ -68.062574928537899, -23.681040382977599 ], [ -68.062636657733606, -23.6810258215407 ], [ -68.062721555068606, -23.680976422688001 ], [ -68.062840319644906, -23.680914053974298 ], [ -68.062963826497807, -23.680841676775302 ], [ -68.063070054893203, -23.680790702468499 ], [ -68.063123230410298, -23.680756612831399 ], [ -68.063192168810701, -23.680695376686199 ], [ -68.0632219820465, -23.680662579056499 ], [ -68.063226877759305, -23.680631064969699 ], [ -68.063233656901502, -23.680553680531499 ], [ -68.063247881996105, -23.680523656222402 ], [ -68.063417229001303, -23.6803540571753 ], [ -68.063738197656406, -23.680099107821899 ], [ -68.063916832954803, -23.679936732907599 ], [ -68.064061076161295, -23.679794224124301 ], [ -68.064115910403601, -23.679745806099898 ], [ -68.064173744797202, -23.6797131775837 ], [ -68.064226879726505, -23.679684822518801 ], [ -68.064292983871695, -23.679652364042798 ], [ -68.064364747779393, -23.679631290043002 ], [ -68.064444336762804, -23.679604528958102 ], [ -68.064495841904602, -23.6795862001369 ], [ -68.064550369639704, -23.679580794250001 ], [ -68.064664054041302, -23.679575745591499 ], [ -68.064814854622995, -23.679605332277401 ], [ -68.064901998157893, -23.679610877407999 ], [ -68.064965814423104, -23.679612696025799 ], [ -68.065028135641199, -23.6796059036649 ], [ -68.065084311464105, -23.6795876028403 ], [ -68.065142075120605, -23.679565010614699 ], [ -68.065203064487903, -23.679526665526499 ], [ -68.065355707998805, -23.679516116263599 ], [ -68.065511332418197, -23.679524224754701 ], [ -68.065626594398594, -23.679516317294699 ], [ -68.065685618510102, -23.679535312369602 ], [ -68.065780335355896, -23.679570295021598 ], [ -68.065836133853395, -23.679605043798301 ], [ -68.065862507437899, -23.679618106658602 ], [ -68.065918601603798, -23.679611276382101 ], [ -68.066060766271804, -23.679541876756002 ], [ -68.066387310403201, -23.679377523964298 ], [ -68.066427898052595, -23.679361996294599 ], [ -68.066505715316396, -23.6793653329213 ], [ -68.066563264725005, -23.679372849233999 ], [ -68.066614699179695, -23.679364556362501 ], [ -68.066652173294997, -23.6793490098704 ], [ -68.066758378755395, -23.679300900429201 ], [ -68.066864624873602, -23.6792470559351 ], [ -68.066902058195694, -23.6792372443578 ], [ -68.066989256644007, -23.679234902031801 ], [ -68.067096683166895, -23.6792341157499 ], [ -68.067230533266795, -23.6792392228433 ], [ -68.067271141132807, -23.679220828361998 ], [ -68.067372523850807, -23.679194196084399 ], [ -68.067445895187404, -23.679165961737201 ], [ -68.067502162099601, -23.679134756767802 ], [ -68.067638220558806, -23.679048113221299 ], [ -68.067867907542094, -23.678930490206199 ], [ -68.067907029202104, -23.678902048611501 ], [ -68.0678885618359, -23.678871828002801 ], [ -68.067849958984993, -23.6788271472522 ], [ -68.067791188192899, -23.6787723089226 ], [ -68.067743204228506, -23.678733307813498 ], [ -68.067702881448497, -23.678711557572399 ], [ -68.067659435013795, -23.6786912227765 ], [ -68.067603483760195, -23.678677981272902 ], [ -68.067542821084203, -23.6786704475135 ], [ -68.067508654101701, -23.6786587713746 ], [ -68.067480698841607, -23.678649283108999 ], [ -68.067418693653906, -23.678611630841999 ], [ -68.067311776542098, -23.678540730130301 ], [ -68.067260688523106, -23.6785002759276 ], [ -68.067218829997202, -23.678475649606899 ], [ -68.067183106022199, -23.678478030222301 ], [ -68.067022689639799, -23.6784730340461 ], [ -68.066963614881402, -23.6784612077582 ], [ -68.066806739844395, -23.678410079949 ], [ -68.066710547772502, -23.678363618598802 ], [ -68.066609502696494, -23.678342936450498 ], [ -68.066427455235598, -23.678328934618399 ], [ -68.066304665842296, -23.678300951734101 ], [ -68.066271994188298, -23.678297887175098 ], [ -68.066202607302102, -23.6783322279448 ], [ -68.066142234945303, -23.6783745313164 ], [ -68.066093771659496, -23.6784029152345 ], [ -68.066078769371998, -23.6784096826606 ], [ -68.066000214303997, -23.6784238577476 ], [ -68.065933141418299, -23.678442093209799 ] ] ] ] } }
]
}
