{
"type": "FeatureCollection",
"name": "SECC_02_Calama_Topater",
"crs": { "type": "name", "properties": { "name": "urn:ogc:def:crs:OGC:1.3:CRS84" } },
"features": [
{ "type": "Feature", "properties": { "id": "secc_calama_topater_mono.1", "Name": null, "description": null, "timestamp": null, "begin": null, "end": null, "altitudeMode": null, "tessellate": -1, "extrude": 0, "visibility": -1, "drawOrder": null, "icon": null, "REG": "Antofagasta", "COM": "Calama", "LOCALIDAD": "Plan Seccional Topater Calama", "ZONA": "ZE3", "NOMBRE": "ZE3 Zona de Equipamiento Comercial", "UPERM": "Equipamiento, Espacio Público, Área verde, Infraestructura", "UPROH": "Todos los usos de suelo no mencionados precedentemente y los señalados en el Artículo 14 de la presente Ordenanza.", "Capa": "Seccional Clama - Topater", "CUT": "02201" }, "geometry": { "type": "MultiPolygon", "coordinates": [ [ [ [ -68.905179269170404, -22.479345566942001 ], [ -68.902707399779004, -22.481651560550301 ], [ -68.900990163423401, -22.483271223317299 ], [ -68.900698413677205, -22.483524557495599 ], [ -68.901053861384298, -22.483823130001301 ], [ -68.901995073031898, -22.4844160837145 ], [ -68.903264283249598, -22.485114449194501 ], [ -68.904576275183103, -22.485786456975301 ], [ -68.905203749777598, -22.486181754744401 ], [ -68.905788442278904, -22.4866165805159 ], [ -68.9065870458859, -22.4875521104203 ], [ -68.907271563009601, -22.488764336837299 ], [ -68.9078990381702, -22.489528560595801 ], [ -68.908369643874806, -22.490002905037901 ], [ -68.908925813838295, -22.4904772476728 ], [ -68.909096944152793, -22.490516775944901 ], [ -68.909211029801199, -22.4905167761044 ], [ -68.909539027787204, -22.490029257399399 ], [ -68.909781460987602, -22.4896603230148 ], [ -68.909909808340998, -22.489238683308301 ], [ -68.909995372844804, -22.488922452893998 ], [ -68.909995373393002, -22.487894696996499 ], [ -68.910066676863806, -22.4874994045406 ], [ -68.9102378059372, -22.4870909346185 ], [ -68.910651368775405, -22.4864452852858 ], [ -68.911692406133696, -22.4850090358646 ], [ -68.911968115288204, -22.484662049848701 ], [ -68.911312118792594, -22.484095450444698 ], [ -68.910832005370395, -22.483849483690701 ], [ -68.910546790293196, -22.483735284705901 ], [ -68.910271081994296, -22.483665008505898 ], [ -68.909130218740302, -22.482575721837399 ], [ -68.908331615065194, -22.481864167393098 ], [ -68.906834232867894, -22.480520109493799 ], [ -68.905750412901298, -22.479545000899702 ], [ -68.905329324260904, -22.479213502657601 ], [ -68.905179269170404, -22.479345566942001 ] ], [ [ -68.907395147232506, -22.483329118886601 ], [ -68.906789063607704, -22.483351080042301 ], [ -68.906777180131201, -22.4818137741896 ], [ -68.906337471933796, -22.481846716683499 ], [ -68.906349355677904, -22.481264734566199 ], [ -68.907407030625805, -22.481264732922501 ], [ -68.907395147232506, -22.483329118886601 ] ], [ [ -68.907215736700607, -22.485631196047699 ], [ -68.907053874217297, -22.4858294456176 ], [ -68.9067543982041, -22.485658150271099 ], [ -68.906925527001903, -22.485447323765101 ], [ -68.907215736700607, -22.485631196047699 ] ] ] ] } },
{ "type": "Feature", "properties": { "id": "secc_calama_topater_mono.2", "Name": null, "description": null, "timestamp": null, "begin": null, "end": null, "altitudeMode": null, "tessellate": -1, "extrude": 0, "visibility": -1, "drawOrder": null, "icon": null, "REG": "Antofagasta", "COM": "Calama", "LOCALIDAD": "Plan Seccional Topater Calama", "ZONA": "ZR1", "NOMBRE": "ZR1 Zona de Restricción Áreas de Protección Patrimonial", "UPERM": "Áreas verdes en todos los niveles", "UPROH": "Todos los usos de suelo no mencionados precedentemente y los señalados en el Artículo 26 de la presente Ordenanza. Se prohíbe la extracción de rocas y arenas, ni ningún tipo de faenas que deteriore el paisaje natural en estos sectores.", "Capa": "Seccional Clama - Topater", "CUT": "02201" }, "geometry": { "type": "MultiPolygon", "coordinates": [ [ [ [ -68.894221599594104, -22.4572891656764 ], [ -68.895098637571493, -22.459298995455701 ], [ -68.896603150539704, -22.458758650918298 ], [ -68.897751143438299, -22.458330327470001 ], [ -68.897615666296502, -22.4580140254625 ], [ -68.897858099675204, -22.457921770714599 ], [ -68.897651318205504, -22.457111244782901 ], [ -68.897551492299996, -22.456827888978999 ], [ -68.897159320846001, -22.4557998951794 ], [ -68.897150961129995, -22.455796117231898 ], [ -68.894906117582096, -22.456551121816499 ], [ -68.8950415946303, -22.456887196246999 ], [ -68.894193077842104, -22.457203499673501 ], [ -68.894221599594104, -22.4572891656764 ] ] ] ] } },
{ "type": "Feature", "properties": { "id": "secc_calama_topater_mono.3", "Name": null, "description": null, "timestamp": null, "begin": null, "end": null, "altitudeMode": null, "tessellate": -1, "extrude": 0, "visibility": -1, "drawOrder": null, "icon": null, "REG": "Antofagasta", "COM": "Calama", "LOCALIDAD": "Plan Seccional Topater Calama", "ZONA": "AV", "NOMBRE": "AV Áreas Verdes", "UPERM": "Corresponde a Plazas, Parques y Áreas verdes propuestas. En esta zona sólo se permiten las construcciones complementarias a su uso específico, tales como fuentes de agua, juegos infantiles, kioscos y otros de esa naturaleza", "UPROH": "No se permite la subdivisión predial y las condiciones de edificación para nuevas construcciones deberán ser y aprobadas por la dirección de Obras Municipales según el artículo 22 de la presente Ordenanza y áreas concesionables según nueva ley 19", "Capa": "Seccional Clama - Topater", "CUT": "02201" }, "geometry": { "type": "MultiPolygon", "coordinates": [ [ [ [ -68.897749955066402, -22.4526217806314 ], [ -68.897964461353794, -22.452651069281998 ], [ -68.898118952338905, -22.452563204088701 ], [ -68.898261560768802, -22.452376490558098 ], [ -68.8982615604275, -22.452167810195601 ], [ -68.898142720370998, -22.451959129856 ], [ -68.897774317038895, -22.451871264791698 ], [ -68.8974772178276, -22.452036012007198 ], [ -68.897417797563193, -22.4522776424675 ], [ -68.897607347146206, -22.452495474532501 ], [ -68.897749955066402, -22.4526217806314 ] ] ] ] } },
{ "type": "Feature", "properties": { "id": "secc_calama_topater_mono.4", "Name": null, "description": null, "timestamp": null, "begin": null, "end": null, "altitudeMode": null, "tessellate": -1, "extrude": 0, "visibility": -1, "drawOrder": null, "icon": null, "REG": "Antofagasta", "COM": "Calama", "LOCALIDAD": "Plan Seccional Topater Calama", "ZONA": "ZR1", "NOMBRE": "ZR1 Zona de Restricción Áreas de Protección Patrimonial", "UPERM": "Áreas verdes en todos los niveles", "UPROH": "Todos los usos de suelo no mencionados precedentemente y los señalados en el Artículo 26 de la presente Ordenanza. Se prohíbe la extracción de rocas y arenas, ni ningún tipo de faenas que deteriore el paisaje natural en estos sectores.", "Capa": "Seccional Clama - Topater", "CUT": "02201" }, "geometry": { "type": "MultiPolygon", "coordinates": [ [ [ [ -68.902041262805, -22.4745877067704 ], [ -68.902532409535198, -22.4750542452845 ], [ -68.902290232512001, -22.474637544074799 ], [ -68.901624729004297, -22.472792659303099 ], [ -68.901185021770104, -22.4712662178123 ], [ -68.900899805316698, -22.470508482042099 ], [ -68.9005789383137, -22.4693224516691 ], [ -68.900507634117304, -22.4688721973585 ], [ -68.900485901351701, -22.4685609107622 ], [ -68.900390576723396, -22.468573802219201 ], [ -68.900271736704994, -22.4686671479677 ], [ -68.900188548906101, -22.468930712441399 ], [ -68.900152896771502, -22.469188784690999 ], [ -68.900075651183698, -22.469584129549901 ], [ -68.899998405505201, -22.4698422012662 ], [ -68.8996478277639, -22.470286962208501 ], [ -68.899426785448895, -22.470568460593501 ], [ -68.899431538680702, -22.471121937333201 ], [ -68.899612175949002, -22.471561203319101 ], [ -68.899859362741196, -22.471996074704801 ], [ -68.900258664812497, -22.472470478811999 ], [ -68.900667473674304, -22.472997592314901 ], [ -68.901171354702498, -22.473608163423599 ], [ -68.901646713917998, -22.474152842986999 ], [ -68.902041262805, -22.4745877067704 ] ] ] ] } },
{ "type": "Feature", "properties": { "id": "secc_calama_topater_mono.5", "Name": null, "description": null, "timestamp": null, "begin": null, "end": null, "altitudeMode": null, "tessellate": -1, "extrude": 0, "visibility": -1, "drawOrder": null, "icon": null, "REG": "Antofagasta", "COM": "Calama", "LOCALIDAD": "Plan Seccional Topater Calama", "ZONA": "ZU2", "NOMBRE": "ZU2 Zona Residencial Media Densidad", "UPERM": "Usos de suelo permitidos: Equipamiento, Espacio Público, Área verde, Infraestructura.", "UPROH": "Todos los usos de suelo no mencionados precedentemente y los señalados en el Artículo 16 de la presente Ordenanza.", "Capa": "Seccional Clama - Topater", "CUT": "02201" }, "geometry": { "type": "MultiPolygon", "coordinates": [ [ [ [ -68.890753654259598, -22.4747639213141 ], [ -68.890753654334105, -22.475516143314099 ], [ -68.890878435963401, -22.475516142876 ], [ -68.891038870225699, -22.4753843671892 ], [ -68.892173790803596, -22.4746101819652 ], [ -68.892803641909794, -22.474105036762801 ], [ -68.892797699811396, -22.4739293344761 ], [ -68.892857120050195, -22.473638325505199 ], [ -68.892950702816506, -22.473505523254701 ], [ -68.892569378316196, -22.473263271499398 ], [ -68.8919751790947, -22.473065604790101 ], [ -68.8914225905867, -22.472963479818699 ], [ -68.891169593991194, -22.473346401894201 ], [ -68.890908145634896, -22.473900965307799 ], [ -68.890771480040996, -22.474400619968002 ], [ -68.890753654259598, -22.4747639213141 ] ] ] ] } },
{ "type": "Feature", "properties": { "id": "secc_calama_topater_mono.6", "Name": null, "description": null, "timestamp": null, "begin": null, "end": null, "altitudeMode": null, "tessellate": -1, "extrude": 0, "visibility": -1, "drawOrder": null, "icon": null, "REG": "Antofagasta", "COM": "Calama", "LOCALIDAD": "Plan Seccional Topater Calama", "ZONA": "ZE3", "NOMBRE": "ZE3 Zona de Equipamiento Comercial", "UPERM": "Equipamiento, Espacio Público, Área verde, Infraestructura", "UPROH": "Todos los usos de suelo no mencionados precedentemente y los señalados en el Artículo 14 de la presente Ordenanza.", "Capa": "Seccional Clama - Topater", "CUT": "02201" }, "geometry": { "type": "MultiPolygon", "coordinates": [ [ [ [ -68.893923905167796, -22.455792207048301 ], [ -68.893959557187102, -22.456593955476301 ], [ -68.893816949950505, -22.457132112188798 ], [ -68.893579269932602, -22.458054661741201 ], [ -68.893603038227496, -22.458559864991201 ], [ -68.893757530223994, -22.4589662224794 ], [ -68.893769413665296, -22.459229805855401 ], [ -68.893721877785197, -22.459416509205301 ], [ -68.893579270367397, -22.459800899716999 ], [ -68.893543618135197, -22.4601633239349 ], [ -68.893662458091299, -22.4605696768838 ], [ -68.894042745269402, -22.4609430810136 ], [ -68.894351728769095, -22.4610638881277 ], [ -68.894720133002593, -22.461085853099899 ], [ -68.895124188706902, -22.460987010956899 ], [ -68.895456939537198, -22.460976028296798 ], [ -68.895789691669293, -22.461151747952702 ], [ -68.896241282508996, -22.461437291677299 ], [ -68.896514614221999, -22.461810693425502 ], [ -68.896811713965704, -22.4623707948106 ], [ -68.896776062195897, -22.462985805185799 ], [ -68.896407659099495, -22.463469025875 ], [ -68.895433172183601, -22.464402516265601 ], [ -68.895088536656402, -22.464885732070201 ], [ -68.894945928726202, -22.465325017063201 ], [ -68.894945928251104, -22.4659509965391 ], [ -68.895041000467202, -22.466346350952101 ], [ -68.895219260066696, -22.466620901972998 ], [ -68.895528244245199, -22.467005271260899 ], [ -68.895730271871798, -22.467411604864001 ], [ -68.895694619240501, -22.467752044895999 ], [ -68.895504476202603, -22.4682242673918 ], [ -68.895005348626199, -22.4693773611884 ], [ -68.894636945121704, -22.469772705123599 ], [ -68.894141581602298, -22.4701882996272 ], [ -68.8946658624333, -22.470109021390201 ], [ -68.894138213332297, -22.470728390845 ], [ -68.893974214549701, -22.471051251646301 ], [ -68.893810215490006, -22.471393879633801 ], [ -68.893631956005606, -22.471914407952699 ], [ -68.893517869502901, -22.4722636227004 ], [ -68.893489347763804, -22.472586480176901 ], [ -68.893498820696394, -22.473216716740001 ], [ -68.893700882634306, -22.4732100483224 ], [ -68.893892175814301, -22.473248483099301 ], [ -68.894681272543096, -22.4725720215949 ], [ -68.896497145566201, -22.470973099063801 ], [ -68.897029547849399, -22.470305411798201 ], [ -68.897733079731196, -22.468926100082399 ], [ -68.899420605597996, -22.465209796687802 ], [ -68.899444374081199, -22.464616760088301 ], [ -68.899230461950197, -22.463364785633999 ], [ -68.898461568039707, -22.4601205835786 ], [ -68.898974955923507, -22.459922897586001 ], [ -68.899563725617099, -22.459520116251099 ], [ -68.899343003513906, -22.4580436787552 ], [ -68.899224163242494, -22.4573407844149 ], [ -68.899034019975602, -22.456571989812101 ], [ -68.898689384072298, -22.4552979770497 ], [ -68.898273444525103, -22.453716428155602 ], [ -68.897964461353794, -22.452651069281998 ], [ -68.897749955066402, -22.4526217806314 ], [ -68.897607347146206, -22.452495474532501 ], [ -68.897417797563193, -22.4522776424675 ], [ -68.896134327287896, -22.452684018089801 ], [ -68.895159840668398, -22.4531453082535 ], [ -68.894185353807103, -22.453771342902002 ], [ -68.893793181502105, -22.454342460228101 ], [ -68.893745645546602, -22.455155199107001 ], [ -68.893923905167796, -22.455792207048301 ] ], [ [ -68.896603150539704, -22.458758650918298 ], [ -68.895098637571493, -22.459298995455701 ], [ -68.894221599594104, -22.4572891656764 ], [ -68.894193077842104, -22.457203499673501 ], [ -68.8950415946303, -22.456887196246999 ], [ -68.894906117582096, -22.456551121816499 ], [ -68.897150961129995, -22.455796117231898 ], [ -68.897159320846001, -22.4557998951794 ], [ -68.897551492299996, -22.456827888978999 ], [ -68.897651318205504, -22.457111244782901 ], [ -68.897858099675204, -22.457921770714599 ], [ -68.897615666296502, -22.4580140254625 ], [ -68.897751143438299, -22.458330327470001 ], [ -68.896603150539704, -22.458758650918298 ] ], [ [ -68.897035974752797, -22.4609586485509 ], [ -68.896614094006594, -22.460958648896899 ], [ -68.896620035534895, -22.460673104584501 ], [ -68.897031561063002, -22.460673104839501 ], [ -68.897035974752797, -22.4609586485509 ] ], [ [ -68.897030032636906, -22.459865889225402 ], [ -68.896620035469596, -22.459865889049802 ], [ -68.896625977115406, -22.459574851094299 ], [ -68.897034962536495, -22.459578871661002 ], [ -68.897030032636906, -22.459865889225402 ] ], [ [ -68.897199874877998, -22.468203301060999 ], [ -68.896837413513396, -22.468219773596701 ], [ -68.896843355124901, -22.4679287530987 ], [ -68.897192124389903, -22.4679287535198 ], [ -68.897199874877998, -22.468203301060999 ] ] ] ] } },
{ "type": "Feature", "properties": { "id": "secc_calama_topater_mono.7", "Name": null, "description": null, "timestamp": null, "begin": null, "end": null, "altitudeMode": null, "tessellate": -1, "extrude": 0, "visibility": -1, "drawOrder": null, "icon": null, "REG": "Antofagasta", "COM": "Calama", "LOCALIDAD": "Plan Seccional Topater Calama", "ZONA": "ZE3", "NOMBRE": "ZE3 Zona de Equipamiento Comercial", "UPERM": "Equipamiento, Espacio Público, Área verde, Infraestructura", "UPROH": "Todos los usos de suelo no mencionados precedentemente y los señalados en el Artículo 14 de la presente Ordenanza.", "Capa": "Seccional Clama - Topater", "CUT": "02201" }, "geometry": { "type": "MultiPolygon", "coordinates": [ [ [ [ -68.899522847622606, -22.482118134457401 ], [ -68.900218060524395, -22.482985614617998 ], [ -68.903004855723097, -22.480580815810001 ], [ -68.904454701882997, -22.479356438088899 ], [ -68.904949256999899, -22.478849306247302 ], [ -68.903789159370007, -22.477737645135601 ], [ -68.903503943689103, -22.477403818232101 ], [ -68.902895483900906, -22.476296912702601 ], [ -68.902477167352401, -22.475910371478701 ], [ -68.901764128251699, -22.475269063690899 ], [ -68.900965523941395, -22.474443265028199 ], [ -68.899758111131703, -22.4729761420922 ], [ -68.899140143500006, -22.472220611930702 ], [ -68.898873942628896, -22.471798918132901 ], [ -68.898731334300294, -22.471333297647099 ], [ -68.898607740770402, -22.4711136640516 ], [ -68.8983510467462, -22.4708764602521 ], [ -68.898018295696104, -22.470867675099601 ], [ -68.897210184173005, -22.471245444252101 ], [ -68.895384804162802, -22.472800437914 ], [ -68.894339013688594, -22.4736965274356 ], [ -68.894330734558906, -22.473803047689501 ], [ -68.894312907999506, -22.473918352700501 ], [ -68.894247545820704, -22.474242304516 ], [ -68.894033927732906, -22.474455704379 ], [ -68.894810847506605, -22.475315368183299 ], [ -68.895826928028299, -22.4760950401805 ], [ -68.897330252025696, -22.4772151252476 ], [ -68.898049233399803, -22.478159503544902 ], [ -68.898500824982094, -22.479180741795801 ], [ -68.898685026399505, -22.480031768856701 ], [ -68.899059372304805, -22.481228688414902 ], [ -68.899522847622606, -22.482118134457401 ] ] ] ] } },
{ "type": "Feature", "properties": { "id": "secc_calama_topater_mono.8", "Name": null, "description": null, "timestamp": null, "begin": null, "end": null, "altitudeMode": null, "tessellate": -1, "extrude": 0, "visibility": -1, "drawOrder": null, "icon": null, "REG": "Antofagasta", "COM": "Calama", "LOCALIDAD": "Plan Seccional Topater Calama", "ZONA": "ZM1", "NOMBRE": "ZM1 Zona Mixta Comercial Residencial y Servicio", "UPERM": "Residencial, Equipamiento, Espacio Público, Área verde e Infraestructura.", "UPROH": "Todos los usos de suelo no mencionados precedentemente y los señalados en el Artículo 14 de la presente Ordenanza.", "Capa": "Seccional Clama - Topater", "CUT": "02201" }, "geometry": { "type": "MultiPolygon", "coordinates": [ [ [ [ -68.896049752475307, -22.4784395212688 ], [ -68.896192360994704, -22.478627297736001 ], [ -68.896803197736702, -22.4780672621939 ], [ -68.897140702699403, -22.4779091339304 ], [ -68.897753373068298, -22.4777708946208 ], [ -68.897330252025696, -22.4772151252476 ], [ -68.895826928028299, -22.4760950401805 ], [ -68.894810847506605, -22.475315368183299 ], [ -68.894033927732906, -22.474455704379 ], [ -68.894027692076804, -22.474461932859001 ], [ -68.893757570703499, -22.474576506287502 ], [ -68.893960547916393, -22.474934315177901 ], [ -68.894377675952299, -22.475678849268501 ], [ -68.894680717913701, -22.476182890588898 ], [ -68.895201236488504, -22.477098724518601 ], [ -68.895554190698604, -22.4776917076423 ], [ -68.896049752475307, -22.4784395212688 ] ] ] ] } },
{ "type": "Feature", "properties": { "id": "secc_calama_topater_mono.9", "Name": null, "description": null, "timestamp": null, "begin": null, "end": null, "altitudeMode": null, "tessellate": -1, "extrude": 0, "visibility": -1, "drawOrder": null, "icon": null, "REG": "Antofagasta", "COM": "Calama", "LOCALIDAD": "Plan Seccional Topater Calama", "ZONA": "ZM1", "NOMBRE": "ZM1 Zona Mixta Comercial Residencial y Servicio", "UPERM": "Residencial, Equipamiento, Espacio Público, Área verde e Infraestructura.", "UPROH": "Todos los usos de suelo no mencionados precedentemente y los señalados en el Artículo 14 de la presente Ordenanza.", "Capa": "Seccional Clama - Topater", "CUT": "02201" }, "geometry": { "type": "MultiPolygon", "coordinates": [ [ [ [ -68.898975590124607, -22.482305906122999 ], [ -68.899883526722107, -22.4832634265297 ], [ -68.900218060524395, -22.482985614617998 ], [ -68.899522847622606, -22.482118134457401 ], [ -68.899059372304805, -22.481228688414902 ], [ -68.898685026399505, -22.480031768856701 ], [ -68.898500824982094, -22.479180741795801 ], [ -68.898049233399803, -22.478159503544902 ], [ -68.898009615179404, -22.478107465082999 ], [ -68.897449686074495, -22.478581176818999 ], [ -68.897173977972301, -22.4787612661944 ], [ -68.896955312470794, -22.478840329717102 ], [ -68.896589285915297, -22.4788974316455 ], [ -68.8964086489039, -22.4790160264074 ], [ -68.897007601787195, -22.479824228990299 ], [ -68.897606554809897, -22.480632425675399 ], [ -68.898243536361804, -22.4814494034696 ], [ -68.898975590124607, -22.482305906122999 ] ] ] ] } },
{ "type": "Feature", "properties": { "id": "secc_calama_topater_mono.10", "Name": null, "description": null, "timestamp": null, "begin": null, "end": null, "altitudeMode": null, "tessellate": -1, "extrude": 0, "visibility": -1, "drawOrder": null, "icon": null, "REG": "Antofagasta", "COM": "Calama", "LOCALIDAD": "Plan Seccional Topater Calama", "ZONA": "ZE2", "NOMBRE": "ZE2 Zona de Equipamiento Deportivo", "UPERM": "Equipamiento, Infraestructura, Espacio Público, Área verde.", "UPROH": "Todos los usos de suelo no mencionados precedentemente y los señalados en el Artículo 14 de la presente Ordenanza.", "Capa": "Seccional Clama - Topater", "CUT": "02201" }, "geometry": { "type": "MultiPolygon", "coordinates": [ [ [ [ -68.898974600006795, -22.4912953009615 ], [ -68.899913434470193, -22.4917894030147 ], [ -68.899994285146406, -22.491719002362899 ], [ -68.900051328375298, -22.4916575143187 ], [ -68.900184428995303, -22.491490617543199 ], [ -68.900403094621595, -22.491420345334198 ], [ -68.900621760404604, -22.491420345699499 ], [ -68.900773875158393, -22.491508185875901 ], [ -68.902085866910696, -22.490076380733001 ], [ -68.901287262965994, -22.489479058768101 ], [ -68.899804141461701, -22.488293190773099 ], [ -68.898615742644495, -22.487247862503501 ], [ -68.897408330231798, -22.486079544955501 ], [ -68.895725557865802, -22.484217243376101 ], [ -68.894708288447305, -22.4829347008531 ], [ -68.893710033278794, -22.481520375991 ], [ -68.893158616428096, -22.480685829786601 ], [ -68.892939951537997, -22.480272947334399 ], [ -68.8929589657414, -22.4800884671331 ], [ -68.892321984156794, -22.479007937819802 ], [ -68.891219149794694, -22.476732647675899 ], [ -68.891000528952304, -22.476268765375998 ], [ -68.890854667687194, -22.476317776596499 ], [ -68.890477549447397, -22.476328666195101 ], [ -68.890418129275602, -22.477196182379501 ], [ -68.890418129472096, -22.4789861037229 ], [ -68.890608273600407, -22.480347745985998 ], [ -68.890929141168996, -22.481621527385101 ], [ -68.891368848508193, -22.482774510181301 ], [ -68.891808555856102, -22.483806695962599 ], [ -68.892687970796004, -22.485354959225301 ], [ -68.893531733984105, -22.486562812964198 ], [ -68.894577524958393, -22.487803596913199 ], [ -68.896455194729498, -22.4895933808072 ], [ -68.897809969558807, -22.490581595294699 ], [ -68.898974600006795, -22.4912953009615 ] ] ] ] } },
{ "type": "Feature", "properties": { "id": "secc_calama_topater_mono.11", "Name": null, "description": null, "timestamp": null, "begin": null, "end": null, "altitudeMode": null, "tessellate": -1, "extrude": 0, "visibility": -1, "drawOrder": null, "icon": null, "REG": "Antofagasta", "COM": "Calama", "LOCALIDAD": "Plan Seccional Topater Calama", "ZONA": "ZU2", "NOMBRE": "ZU2 Zona Residencial Media Densidad", "UPERM": "Usos de suelo permitidos: Equipamiento, Espacio Público, Área verde, Infraestructura.", "UPROH": "Todos los usos de suelo no mencionados precedentemente y los señalados en el Artículo 16 de la presente Ordenanza.", "Capa": "Seccional Clama - Topater", "CUT": "02201" }, "geometry": { "type": "MultiPolygon", "coordinates": [ [ [ [ -68.897162331800303, -22.4854182444499 ], [ -68.897275229481394, -22.485494247352499 ], [ -68.899737591725398, -22.4834035402368 ], [ -68.8993668109201, -22.483003842873799 ], [ -68.898734582791406, -22.482358174843899 ], [ -68.898225948626802, -22.482068281643301 ], [ -68.897859921651104, -22.4817652116798 ], [ -68.896818883847104, -22.480438722817901 ], [ -68.8962436996961, -22.4796480934173 ], [ -68.895730311138394, -22.478892599971399 ], [ -68.895292980854805, -22.478242520799299 ], [ -68.894822374281304, -22.4774870187114 ], [ -68.894456347917597, -22.4768149704602 ], [ -68.894380290443806, -22.476568990944301 ], [ -68.894299478732194, -22.4759145084865 ], [ -68.894009510259394, -22.475356657514698 ], [ -68.893583017473503, -22.474605638873001 ], [ -68.893350304960606, -22.474577237543802 ], [ -68.893255233364599, -22.4746266540254 ], [ -68.892518426176395, -22.475236119719199 ], [ -68.891294375949798, -22.476010301446198 ], [ -68.891050753695794, -22.4762518894232 ], [ -68.891000528952304, -22.476268765375998 ], [ -68.891219149794694, -22.476732647675899 ], [ -68.892321984156794, -22.479007937819802 ], [ -68.8929589657414, -22.4800884671331 ], [ -68.893145544463493, -22.480180432575601 ], [ -68.893745685755405, -22.481075376325499 ], [ -68.894108147493299, -22.481624418986598 ], [ -68.894862779845496, -22.482678575160701 ], [ -68.895664949170694, -22.483727232362099 ], [ -68.896580016179399, -22.484819803645099 ], [ -68.897162331800303, -22.4854182444499 ] ] ] ] } },
{ "type": "Feature", "properties": { "id": "secc_calama_topater_mono.12", "Name": null, "description": null, "timestamp": null, "begin": null, "end": null, "altitudeMode": null, "tessellate": -1, "extrude": 0, "visibility": -1, "drawOrder": null, "icon": null, "REG": "Antofagasta", "COM": "Calama", "LOCALIDAD": "Plan Seccional Topater Calama", "ZONA": "AV", "NOMBRE": "AV Áreas Verdes", "UPERM": "Corresponde a Plazas, Parques y Áreas verdes propuestas. En esta zona sólo se permiten las construcciones complementarias a su uso específico, tales como fuentes de agua, juegos infantiles, kioscos y otros de esa naturaleza", "UPROH": "No se permite la subdivisión predial y las condiciones de edificación para nuevas construcciones deberán ser y aprobadas por la dirección de Obras Municipales según el artículo 22 de la presente Ordenanza y áreas concesionables según nueva ley 19", "Capa": "Seccional Clama - Topater", "CUT": "02201" }, "geometry": { "type": "MultiPolygon", "coordinates": [ [ [ [ -68.897029547849399, -22.470305411798201 ], [ -68.896497145566201, -22.470973099063801 ], [ -68.894681272543096, -22.4725720215949 ], [ -68.893892175814301, -22.473248483099301 ], [ -68.893700882634306, -22.4732100483224 ], [ -68.893498820696394, -22.473216716740001 ], [ -68.893489347763804, -22.472586480176901 ], [ -68.893517869502901, -22.4722636227004 ], [ -68.893631956005606, -22.471914407952699 ], [ -68.893810215490006, -22.471393879633801 ], [ -68.893974214549701, -22.471051251646301 ], [ -68.894138213332297, -22.470728390845 ], [ -68.8946658624333, -22.470109021390201 ], [ -68.894141581602298, -22.4701882996272 ], [ -68.893733762090704, -22.4705304448592 ], [ -68.892022467887799, -22.471925115241099 ], [ -68.891095517162398, -22.472869529416599 ], [ -68.890691461256495, -22.4735503822392 ], [ -68.890441897706907, -22.4744179161025 ], [ -68.890441897179301, -22.475516051973699 ], [ -68.890358710055807, -22.475581939325899 ], [ -68.8902517538654, -22.4758784347339 ], [ -68.890287405904402, -22.476131003423902 ], [ -68.890477549447397, -22.476328666195101 ], [ -68.890854667687194, -22.476317776596499 ], [ -68.891050753695794, -22.4762518894232 ], [ -68.891294375949798, -22.476010301446198 ], [ -68.892518426176395, -22.475236119719199 ], [ -68.893255233364599, -22.4746266540254 ], [ -68.893350304960606, -22.474577237543802 ], [ -68.893583017473503, -22.474605638873001 ], [ -68.894009510259394, -22.475356657514698 ], [ -68.894299478732194, -22.4759145084865 ], [ -68.894380290443806, -22.476568990944301 ], [ -68.894456347917597, -22.4768149704602 ], [ -68.894822374281304, -22.4774870187114 ], [ -68.895292980854805, -22.478242520799299 ], [ -68.895730311138394, -22.478892599971399 ], [ -68.8962436996961, -22.4796480934173 ], [ -68.896818883847104, -22.480438722817901 ], [ -68.897859921651104, -22.4817652116798 ], [ -68.898225948626802, -22.482068281643301 ], [ -68.898734582791406, -22.482358174843899 ], [ -68.8993668109201, -22.483003842873799 ], [ -68.899737591725398, -22.4834035402368 ], [ -68.897275229481394, -22.485494247352499 ], [ -68.897162331800303, -22.4854182444499 ], [ -68.896580016179399, -22.484819803645099 ], [ -68.895664949170694, -22.483727232362099 ], [ -68.894862779845496, -22.482678575160701 ], [ -68.894108147493299, -22.481624418986598 ], [ -68.893745685755405, -22.481075376325499 ], [ -68.893145544463493, -22.480180432575601 ], [ -68.8929589657414, -22.4800884671331 ], [ -68.892939951537997, -22.480272947334399 ], [ -68.893158616428096, -22.480685829786601 ], [ -68.893710033278794, -22.481520375991 ], [ -68.894708288447305, -22.4829347008531 ], [ -68.895725557865802, -22.484217243376101 ], [ -68.897408330231798, -22.486079544955501 ], [ -68.898615742644495, -22.487247862503501 ], [ -68.899804141461701, -22.488293190773099 ], [ -68.901287262965994, -22.489479058768101 ], [ -68.902085866910696, -22.490076380733001 ], [ -68.902582617871204, -22.490356100166 ], [ -68.902873775813802, -22.490432961102002 ], [ -68.902790587217297, -22.490268258821299 ], [ -68.902012186479993, -22.4896808195837 ], [ -68.901215958940995, -22.489087888316401 ], [ -68.900639585599393, -22.488637697923402 ], [ -68.9000275605284, -22.488149074326699 ], [ -68.899154087168299, -22.487385940933201 ], [ -68.897888442729595, -22.486153626086601 ], [ -68.898500468821297, -22.485577150784799 ], [ -68.899219449825196, -22.484890866449799 ], [ -68.900212743305602, -22.483964542375599 ], [ -68.900728715939096, -22.484465130633399 ], [ -68.901135147946704, -22.4849263150561 ], [ -68.901391841816505, -22.4853743220418 ], [ -68.901548710963695, -22.4857564439986 ], [ -68.902629678354501, -22.4868281367132 ], [ -68.9037134980845, -22.487762201382399 ], [ -68.904027234792395, -22.488034512941699 ], [ -68.905277430534397, -22.489020542917 ], [ -68.906168729103797, -22.4896793557748 ], [ -68.9066607264201, -22.4898572348106 ], [ -68.907288200616904, -22.489949468362401 ], [ -68.907261253654198, -22.489849301767201 ], [ -68.905217208792493, -22.488329636542598 ], [ -68.9045569521018, -22.487799694574399 ], [ -68.905564220783802, -22.486755052846799 ], [ -68.905733821502594, -22.486575960545899 ], [ -68.905363563363096, -22.486300606242398 ], [ -68.904839297760105, -22.486875837776701 ], [ -68.904208113138594, -22.4875149531515 ], [ -68.902906961237406, -22.486379521942201 ], [ -68.901385810743406, -22.484921310154999 ], [ -68.900539671633098, -22.484060430936299 ], [ -68.900334823047501, -22.4838506925662 ], [ -68.900496978013507, -22.483699469264302 ], [ -68.900990163423401, -22.483271223317299 ], [ -68.902707399779004, -22.481651560550301 ], [ -68.905179269170404, -22.479345566942001 ], [ -68.905329324260904, -22.479213502657601 ], [ -68.905750412901298, -22.479545000899702 ], [ -68.906834232867894, -22.480520109493799 ], [ -68.908331615065194, -22.481864167393098 ], [ -68.909130218740302, -22.482575721837399 ], [ -68.910271081994296, -22.483665008505898 ], [ -68.910546790293196, -22.483735284705901 ], [ -68.910832005370395, -22.483849483690701 ], [ -68.911312118792594, -22.484095450444698 ], [ -68.911968115288204, -22.484662049848701 ], [ -68.911692406133696, -22.4850090358646 ], [ -68.910651368775405, -22.4864452852858 ], [ -68.9102378059372, -22.4870909346185 ], [ -68.910066676863806, -22.4874994045406 ], [ -68.909995373393002, -22.487894696996499 ], [ -68.909995372844804, -22.488922452893998 ], [ -68.909909808340998, -22.489238683308301 ], [ -68.909781460987602, -22.4896603230148 ], [ -68.909539027787204, -22.490029257399399 ], [ -68.909211029801199, -22.4905167761044 ], [ -68.909096944152793, -22.490516775944901 ], [ -68.908925813838295, -22.4904772476728 ], [ -68.908700008533003, -22.490624499941099 ], [ -68.908528889153999, -22.4907532144192 ], [ -68.908464715233194, -22.490891563731299 ], [ -68.908443324152501, -22.4910826173702 ], [ -68.908533642982604, -22.491302218679898 ], [ -68.908747554374202, -22.491499859608499 ], [ -68.909104074270104, -22.491552563136299 ], [ -68.909332246601195, -22.491499858932901 ], [ -68.910309110096506, -22.492000548366999 ], [ -68.911606842033905, -22.4925802913605 ], [ -68.913353787717099, -22.493245675383601 ], [ -68.913303874982702, -22.493344495093702 ], [ -68.913318135810698, -22.493502605208601 ], [ -68.912719182983807, -22.4935487203905 ], [ -68.910836759609694, -22.4935618968425 ], [ -68.908833119626706, -22.493680479258401 ], [ -68.907777820772395, -22.493759534435501 ], [ -68.906658350127003, -22.493799061497299 ], [ -68.906102179217797, -22.493720007016801 ], [ -68.904369493970194, -22.4931797959851 ], [ -68.902743764358107, -22.492573703399401 ], [ -68.900904123578101, -22.491776556294099 ], [ -68.900854210921594, -22.491631620045101 ], [ -68.900773875158393, -22.491508185875901 ], [ -68.900621760404604, -22.491420345699499 ], [ -68.900403094621595, -22.491420345334198 ], [ -68.900184428995303, -22.491490617543199 ], [ -68.900051328375298, -22.4916575143187 ], [ -68.899994285146406, -22.491719002362899 ], [ -68.899913434470193, -22.4917894030147 ], [ -68.899996622766494, -22.492118803095501 ], [ -68.9002580701748, -22.4922944832966 ], [ -68.900602706418397, -22.492305462940902 ], [ -68.9008166180828, -22.492206643386702 ], [ -68.902979503192896, -22.493106999394399 ], [ -68.904928476683594, -22.4938316722005 ], [ -68.906390206951997, -22.494215966490099 ], [ -68.907198318755405, -22.494226946726901 ], [ -68.908362949183896, -22.4941391078458 ], [ -68.909575115463099, -22.494062249090799 ], [ -68.910395111012804, -22.4939853904032 ], [ -68.911072498058303, -22.493996369720598 ], [ -68.912629300311494, -22.494018330091599 ], [ -68.913354223676606, -22.4939304907839 ], [ -68.913580019478104, -22.494095188225501 ], [ -68.913924654574004, -22.4941500880551 ], [ -68.914174218135798, -22.494095188661699 ], [ -68.914376246595296, -22.4939963700796 ], [ -68.914542621813098, -22.493809712709201 ], [ -68.914613925577996, -22.493634034446199 ], [ -68.916883767259094, -22.492700741794302 ], [ -68.918642596999106, -22.491932142651901 ], [ -68.919141724725307, -22.491591762669401 ], [ -68.919308100777897, -22.4913172607598 ], [ -68.919403172511693, -22.490965898658501 ], [ -68.919367520564194, -22.490647476018399 ], [ -68.919213028793706, -22.490241211199798 ], [ -68.919224912633496, -22.490241210831801 ], [ -68.919070421105701, -22.4900216076263 ], [ -68.918488105843196, -22.489615340821501 ], [ -68.918131585741307, -22.489285935239 ], [ -68.917715646625197, -22.488714962315001 ], [ -68.916848115010794, -22.487957321821199 ], [ -68.915457689338197, -22.486749480123301 ], [ -68.914102914747701, -22.4855306481988 ], [ -68.912926399976399, -22.484531417046799 ], [ -68.912997703388996, -22.484267882516701 ], [ -68.913021471362299, -22.4840043476025 ], [ -68.912843211554701, -22.4837737536559 ], [ -68.912641184617399, -22.483696889445302 ], [ -68.912308432153907, -22.4837188502852 ], [ -68.912130172808702, -22.483839637489499 ], [ -68.910133663083897, -22.482104683808998 ], [ -68.908624396507307, -22.480786981824799 ], [ -68.907352810251993, -22.479677906753299 ], [ -68.906399699901002, -22.4788181850952 ], [ -68.906354555105295, -22.4787774632997 ], [ -68.906390207104394, -22.478656671949 ], [ -68.906449627288296, -22.478393126022301 ], [ -68.906390206938994, -22.478085655428799 ], [ -68.906045571772097, -22.477855052037199 ], [ -68.905700935883203, -22.4778770140497 ], [ -68.905463255940006, -22.478008787957901 ], [ -68.904369929256504, -22.477064407995702 ], [ -68.902979503476004, -22.475823527704598 ], [ -68.902532409535198, -22.4750542452845 ], [ -68.902041262805, -22.4745877067704 ], [ -68.901646713917998, -22.474152842986999 ], [ -68.901171354702498, -22.473608163423599 ], [ -68.900667473674304, -22.472997592314901 ], [ -68.900258664812497, -22.472470478811999 ], [ -68.899859362741196, -22.471996074704801 ], [ -68.899612175949002, -22.471561203319101 ], [ -68.899431538680702, -22.471121937333201 ], [ -68.899426785448895, -22.470568460593501 ], [ -68.8996478277639, -22.470286962208501 ], [ -68.899998405505201, -22.4698422012662 ], [ -68.900075651183698, -22.469584129549901 ], [ -68.900152896771502, -22.469188784690999 ], [ -68.900188548906101, -22.468930712441399 ], [ -68.900271736704994, -22.4686671479677 ], [ -68.900390576723396, -22.468573802219201 ], [ -68.900485901351701, -22.4685609107622 ], [ -68.900460097718394, -22.4681913213767 ], [ -68.900329374115003, -22.465588588013901 ], [ -68.900234301975004, -22.463699653755 ], [ -68.900127346853196, -22.463084646555998 ], [ -68.899865898995401, -22.4614043445848 ], [ -68.899592567527407, -22.459713039125599 ], [ -68.899563725617099, -22.459520116251099 ], [ -68.898974955923507, -22.459922897586001 ], [ -68.898461568039707, -22.4601205835786 ], [ -68.899230461950197, -22.463364785633999 ], [ -68.899444374081199, -22.464616760088301 ], [ -68.899420605597996, -22.465209796687802 ], [ -68.897733079731196, -22.468926100082399 ], [ -68.897029547849399, -22.470305411798201 ] ], [ [ -68.903789159370007, -22.477737645135601 ], [ -68.904949256999899, -22.478849306247302 ], [ -68.904454701882997, -22.479356438088899 ], [ -68.903004855723097, -22.480580815810001 ], [ -68.900218060524395, -22.482985614617998 ], [ -68.899883526722107, -22.4832634265297 ], [ -68.898975590124607, -22.482305906122999 ], [ -68.898243536361804, -22.4814494034696 ], [ -68.897606554809897, -22.480632425675399 ], [ -68.897007601787195, -22.479824228990299 ], [ -68.8964086489039, -22.4790160264074 ], [ -68.896589285915297, -22.4788974316455 ], [ -68.896955312470794, -22.478840329717102 ], [ -68.897173977972301, -22.4787612661944 ], [ -68.897449686074495, -22.478581176818999 ], [ -68.898009615179404, -22.478107465082999 ], [ -68.897753373068298, -22.4777708946208 ], [ -68.897140702699403, -22.4779091339304 ], [ -68.896803197736702, -22.4780672621939 ], [ -68.896192360994704, -22.478627297736001 ], [ -68.896049752475307, -22.4784395212688 ], [ -68.895554190698604, -22.4776917076423 ], [ -68.895201236488504, -22.477098724518601 ], [ -68.894680717913701, -22.476182890588898 ], [ -68.894377675952299, -22.475678849268501 ], [ -68.893960547916393, -22.474934315177901 ], [ -68.893757570703499, -22.474576506287502 ], [ -68.894027692076804, -22.474461932859001 ], [ -68.894247545820704, -22.474242304516 ], [ -68.894312907999506, -22.473918352700501 ], [ -68.894330734558906, -22.473803047689501 ], [ -68.894339013688594, -22.4736965274356 ], [ -68.895384804162802, -22.472800437914 ], [ -68.897210184173005, -22.471245444252101 ], [ -68.898018295696104, -22.470867675099601 ], [ -68.8983510467462, -22.4708764602521 ], [ -68.898607740770402, -22.4711136640516 ], [ -68.898731334300294, -22.471333297647099 ], [ -68.898873942628896, -22.471798918132901 ], [ -68.899140143500006, -22.472220611930702 ], [ -68.899758111131703, -22.4729761420922 ], [ -68.900965523941395, -22.474443265028199 ], [ -68.901764128251699, -22.475269063690899 ], [ -68.902477167352401, -22.475910371478701 ], [ -68.902895483900906, -22.476296912702601 ], [ -68.903503943689103, -22.477403818232101 ], [ -68.903789159370007, -22.477737645135601 ] ], [ [ -68.916484029402895, -22.492246500063899 ], [ -68.9144304772108, -22.493089760750198 ], [ -68.914192797089299, -22.4928965142865 ], [ -68.913860045782201, -22.492887730081101 ], [ -68.913565322471698, -22.4929404339155 ], [ -68.913479757786504, -22.4930282735926 ], [ -68.912291358927902, -22.492597859761499 ], [ -68.911045917377194, -22.492079605018201 ], [ -68.909496245950194, -22.491297826785399 ], [ -68.909543781640906, -22.491227553482201 ], [ -68.909522380294106, -22.4911614260368 ], [ -68.909528322408505, -22.490947315100399 ], [ -68.909498612484796, -22.490793593696999 ], [ -68.909424941974805, -22.4906814772317 ], [ -68.909781460846901, -22.490233487946501 ], [ -68.910166502027806, -22.4894824441818 ], [ -68.910252067617506, -22.488942217001298 ], [ -68.910252067153195, -22.487809050370601 ], [ -68.910580065164993, -22.4869789340623 ], [ -68.911564059302094, -22.485648102632101 ], [ -68.912177273367107, -22.484870680893302 ], [ -68.913360918492103, -22.4859116349839 ], [ -68.915243341268194, -22.487624580686902 ], [ -68.917054460760895, -22.489232095608301 ], [ -68.917169354875597, -22.489351878912299 ], [ -68.917444256093006, -22.489611278175801 ], [ -68.918214338028804, -22.490287657339699 ], [ -68.918556596917597, -22.490639020807301 ], [ -68.918594625819296, -22.490937680202698 ], [ -68.918499553726605, -22.491297826499999 ], [ -68.918185816896994, -22.491543779428898 ], [ -68.916484029402895, -22.492246500063899 ] ], [ [ -68.892803641909794, -22.474105036762801 ], [ -68.892173790803596, -22.4746101819652 ], [ -68.891038870225699, -22.4753843671892 ], [ -68.890878435963401, -22.475516142876 ], [ -68.890753654334105, -22.475516143314099 ], [ -68.890753654259598, -22.4747639213141 ], [ -68.890771480040996, -22.474400619968002 ], [ -68.890908145634896, -22.473900965307799 ], [ -68.891169593991194, -22.473346401894201 ], [ -68.891514228920599, -22.472824779669001 ], [ -68.892072776734693, -22.472259230135801 ], [ -68.892542194457505, -22.471830948297399 ], [ -68.893356247469498, -22.471111651418202 ], [ -68.893522622961498, -22.471243430569501 ], [ -68.893460826342704, -22.47138729017 ], [ -68.893268305739198, -22.4719737092204 ], [ -68.8931898716543, -22.472434934989 ], [ -68.893179978985003, -22.473319951858699 ], [ -68.893023495775793, -22.473402224048002 ], [ -68.892857120050195, -22.473638325505199 ], [ -68.892797699811396, -22.4739293344761 ], [ -68.892803641909794, -22.474105036762801 ] ] ] ] } },
{ "type": "Feature", "properties": { "id": "secc_calama_topater_mono.13", "Name": null, "description": null, "timestamp": null, "begin": null, "end": null, "altitudeMode": null, "tessellate": -1, "extrude": 0, "visibility": -1, "drawOrder": null, "icon": null, "REG": "Antofagasta", "COM": "Calama", "LOCALIDAD": "Plan Seccional Topater Calama", "ZONA": "ZU2", "NOMBRE": "ZU2 Zona Residencial Media Densidad", "UPERM": "Usos de suelo permitidos: Equipamiento, Espacio Público, Área verde, Infraestructura.", "UPROH": "Todos los usos de suelo no mencionados precedentemente y los señalados en el Artículo 16 de la presente Ordenanza.", "Capa": "Seccional Clama - Topater", "CUT": "02201" }, "geometry": { "type": "MultiPolygon", "coordinates": [ [ [ [ -68.902012186479993, -22.4896808195837 ], [ -68.902280379420603, -22.489883217846199 ], [ -68.902430027392995, -22.4897474324063 ], [ -68.9030955304885, -22.489053483090199 ], [ -68.904027234792395, -22.488034512941699 ], [ -68.9037134980845, -22.487762201382399 ], [ -68.902629678354501, -22.4868281367132 ], [ -68.901548710963695, -22.4857564439986 ], [ -68.901391841816505, -22.4853743220418 ], [ -68.901135147946704, -22.4849263150561 ], [ -68.900728715939096, -22.484465130633399 ], [ -68.900212743305602, -22.483964542375599 ], [ -68.899219449825196, -22.484890866449799 ], [ -68.898500468821297, -22.485577150784799 ], [ -68.897888442729595, -22.486153626086601 ], [ -68.899154087168299, -22.487385940933201 ], [ -68.9000275605284, -22.488149074326699 ], [ -68.900639585599393, -22.488637697923402 ], [ -68.901215958940995, -22.489087888316401 ], [ -68.902012186479993, -22.4896808195837 ] ] ] ] } },
{ "type": "Feature", "properties": { "id": "secc_calama_topater_mono.14", "Name": null, "description": null, "timestamp": null, "begin": null, "end": null, "altitudeMode": null, "tessellate": -1, "extrude": 0, "visibility": -1, "drawOrder": null, "icon": null, "REG": "Antofagasta", "COM": "Calama", "LOCALIDAD": "Plan Seccional Topater Calama", "ZONA": "ZU2", "NOMBRE": "ZU2 Zona Residencial Media Densidad", "UPERM": "Usos de suelo permitidos: Equipamiento, Espacio Público, Área verde, Infraestructura.", "UPROH": "Todos los usos de suelo no mencionados precedentemente y los señalados en el Artículo 16 de la presente Ordenanza.", "Capa": "Seccional Clama - Topater", "CUT": "02201" }, "geometry": { "type": "MultiPolygon", "coordinates": [ [ [ [ -68.902873775813802, -22.490432961102002 ], [ -68.903437789396406, -22.490746625776499 ], [ -68.904357610345102, -22.491102380780202 ], [ -68.905120562034995, -22.491234141991001 ], [ -68.906810464232194, -22.4912143776811 ], [ -68.908443324152501, -22.4910826173702 ], [ -68.908464715233194, -22.490891563731299 ], [ -68.908528889153999, -22.4907532144192 ], [ -68.907288200616904, -22.489949468362401 ], [ -68.9066607264201, -22.4898572348106 ], [ -68.906168729103797, -22.4896793557748 ], [ -68.905277430534397, -22.489020542917 ], [ -68.904027234792395, -22.488034512941699 ], [ -68.9030955304885, -22.489053483090199 ], [ -68.902430027392995, -22.4897474324063 ], [ -68.902280379420603, -22.489883217846199 ], [ -68.902790587217297, -22.490268258821299 ], [ -68.902873775813802, -22.490432961102002 ] ], [ [ -68.905000271500597, -22.490695542740099 ], [ -68.904919510931904, -22.4910769256349 ], [ -68.904604585020806, -22.491016535078799 ], [ -68.904705599215504, -22.490648701786899 ], [ -68.905000271500597, -22.490695542740099 ] ] ] ] } },
{ "type": "Feature", "properties": { "id": "secc_calama_topater_mono.15", "Name": null, "description": null, "timestamp": null, "begin": null, "end": null, "altitudeMode": null, "tessellate": -1, "extrude": 0, "visibility": -1, "drawOrder": null, "icon": null, "REG": "Antofagasta", "COM": "Calama", "LOCALIDAD": "Plan Seccional Topater Calama", "ZONA": "ZE1", "NOMBRE": "ZE1 Zona de Equipamiento y Actividades Productivas", "UPERM": "Equipamiento, Actividades Productivas no molestas, inofensivas ni contaminantes, Infraestructura, Espacio Público, Área verde.", "UPROH": "Todos los usos de suelo no mencionados precedentemente y los señalados en el Artículo 16 de la presente Ordenanza.", "Capa": "Seccional Clama - Topater", "CUT": "02201" }, "geometry": { "type": "MultiPolygon", "coordinates": [ [ [ [ -68.902085866910696, -22.490076380733001 ], [ -68.900773875158393, -22.491508185875901 ], [ -68.900854210921594, -22.491631620045101 ], [ -68.900904123578101, -22.491776556294099 ], [ -68.902743764358107, -22.492573703399401 ], [ -68.904369493970194, -22.4931797959851 ], [ -68.906102179217797, -22.493720007016801 ], [ -68.906658350127003, -22.493799061497299 ], [ -68.907777820772395, -22.493759534435501 ], [ -68.908833119626706, -22.493680479258401 ], [ -68.910836759609694, -22.4935618968425 ], [ -68.912719182983807, -22.4935487203905 ], [ -68.913318135810698, -22.493502605208601 ], [ -68.913303874982702, -22.493344495093702 ], [ -68.913353787717099, -22.493245675383601 ], [ -68.911606842033905, -22.4925802913605 ], [ -68.910309110096506, -22.492000548366999 ], [ -68.909332246601195, -22.491499858932901 ], [ -68.909104074270104, -22.491552563136299 ], [ -68.908747554374202, -22.491499859608499 ], [ -68.908533642982604, -22.491302218679898 ], [ -68.908443324152501, -22.4910826173702 ], [ -68.906810464232194, -22.4912143776811 ], [ -68.905120562034995, -22.491234141991001 ], [ -68.904357610345102, -22.491102380780202 ], [ -68.903437789396406, -22.490746625776499 ], [ -68.902873775813802, -22.490432961102002 ], [ -68.902582617871204, -22.490356100166 ], [ -68.902085866910696, -22.490076380733001 ] ] ] ] } },
{ "type": "Feature", "properties": { "id": "secc_calama_topater_mono.16", "Name": null, "description": null, "timestamp": null, "begin": null, "end": null, "altitudeMode": null, "tessellate": -1, "extrude": 0, "visibility": -1, "drawOrder": null, "icon": null, "REG": "Antofagasta", "COM": "Calama", "LOCALIDAD": "Plan Seccional Topater Calama", "ZONA": "ZE1", "NOMBRE": "ZE1 Zona de Equipamiento y Actividades Productivas", "UPERM": "Equipamiento, Actividades Productivas no molestas, inofensivas ni contaminantes, Infraestructura, Espacio Público, Área verde.", "UPROH": "Todos los usos de suelo no mencionados precedentemente y los señalados en el Artículo 16 de la presente Ordenanza.", "Capa": "Seccional Clama - Topater", "CUT": "02201" }, "geometry": { "type": "MultiPolygon", "coordinates": [ [ [ [ -68.912291358927902, -22.492597859761499 ], [ -68.913479757786504, -22.4930282735926 ], [ -68.913565322471698, -22.4929404339155 ], [ -68.913860045782201, -22.492887730081101 ], [ -68.914192797089299, -22.4928965142865 ], [ -68.9144304772108, -22.493089760750198 ], [ -68.916484029402895, -22.492246500063899 ], [ -68.918185816896994, -22.491543779428898 ], [ -68.918499553726605, -22.491297826499999 ], [ -68.918594625819296, -22.490937680202698 ], [ -68.918556596917597, -22.490639020807301 ], [ -68.918214338028804, -22.490287657339699 ], [ -68.917444256093006, -22.489611278175801 ], [ -68.917169354875597, -22.489351878912299 ], [ -68.916750230515007, -22.489751824788499 ], [ -68.915989656053299, -22.490270088429 ], [ -68.915095980360505, -22.490595100402899 ], [ -68.914154768008601, -22.4907180778876 ], [ -68.913166020755995, -22.490753214542799 ], [ -68.912890312321096, -22.490823486826301 ], [ -68.9125195317974, -22.490902543234899 ], [ -68.911844521472304, -22.4910782249232 ], [ -68.909543781640906, -22.491227553482201 ], [ -68.909496245950194, -22.491297826785399 ], [ -68.911045917377194, -22.492079605018201 ], [ -68.912291358927902, -22.492597859761499 ] ] ] ] } },
{ "type": "Feature", "properties": { "id": "secc_calama_topater_mono.17", "Name": null, "description": null, "timestamp": null, "begin": null, "end": null, "altitudeMode": null, "tessellate": -1, "extrude": 0, "visibility": -1, "drawOrder": null, "icon": null, "REG": "Antofagasta", "COM": "Calama", "LOCALIDAD": "Plan Seccional Topater Calama", "ZONA": "ZE3", "NOMBRE": "ZE3 Zona de Equipamiento Comercial", "UPERM": "Equipamiento, Espacio Público, Área verde, Infraestructura", "UPROH": "Todos los usos de suelo no mencionados precedentemente y los señalados en el Artículo 14 de la presente Ordenanza.", "Capa": "Seccional Clama - Topater", "CUT": "02201" }, "geometry": { "type": "MultiPolygon", "coordinates": [ [ [ [ -68.909781460846901, -22.490233487946501 ], [ -68.909424941974805, -22.4906814772317 ], [ -68.911692405993193, -22.4905628920264 ], [ -68.912163011871002, -22.490602420939499 ], [ -68.913166020755995, -22.490753214542799 ], [ -68.914154768008601, -22.4907180778876 ], [ -68.915095980360505, -22.490595100402899 ], [ -68.915989656053299, -22.490270088429 ], [ -68.916750230515007, -22.489751824788499 ], [ -68.917169354875597, -22.489351878912299 ], [ -68.917054460760895, -22.489232095608301 ], [ -68.915243341268194, -22.487624580686902 ], [ -68.913360918492103, -22.4859116349839 ], [ -68.912177273367107, -22.484870680893302 ], [ -68.911564059302094, -22.485648102632101 ], [ -68.910580065164993, -22.4869789340623 ], [ -68.910252067153195, -22.487809050370601 ], [ -68.910252067617506, -22.488942217001298 ], [ -68.910166502027806, -22.4894824441818 ], [ -68.909781460846901, -22.490233487946501 ] ] ] ] } },
{ "type": "Feature", "properties": { "id": "secc_calama_topater_mono.18", "Name": null, "description": null, "timestamp": null, "begin": null, "end": null, "altitudeMode": null, "tessellate": -1, "extrude": 0, "visibility": -1, "drawOrder": null, "icon": null, "REG": "Antofagasta", "COM": "Calama", "LOCALIDAD": "Plan Seccional Topater Calama", "ZONA": "ZM1", "NOMBRE": "ZM1 Zona Mixta Comercial Residencial y Servicio", "UPERM": "Residencial, Equipamiento, Espacio Público, Área verde e Infraestructura.", "UPROH": "Todos los usos de suelo no mencionados precedentemente y los señalados en el Artículo 14 de la presente Ordenanza.", "Capa": "Seccional Clama - Topater", "CUT": "02201" }, "geometry": { "type": "MultiPolygon", "coordinates": [ [ [ [ -68.902906961237406, -22.486379521942201 ], [ -68.904208113138594, -22.4875149531515 ], [ -68.904839297760105, -22.486875837776701 ], [ -68.905363563363096, -22.486300606242398 ], [ -68.905203749777598, -22.486181754744401 ], [ -68.904576275183103, -22.485786456975301 ], [ -68.903264283249598, -22.485114449194501 ], [ -68.901995073031898, -22.4844160837145 ], [ -68.901053861384298, -22.483823130001301 ], [ -68.900698413677205, -22.483524557495599 ], [ -68.900496978013507, -22.483699469264302 ], [ -68.900334824019595, -22.483850692566801 ], [ -68.900539671633098, -22.484060430936299 ], [ -68.901385810743406, -22.484921310154999 ], [ -68.902906961237406, -22.486379521942201 ] ] ] ] } },
{ "type": "Feature", "properties": { "id": "secc_calama_topater_mono.19", "Name": null, "description": null, "timestamp": null, "begin": null, "end": null, "altitudeMode": null, "tessellate": -1, "extrude": 0, "visibility": -1, "drawOrder": null, "icon": null, "REG": "Antofagasta", "COM": "Calama", "LOCALIDAD": "Plan Seccional Topater Calama", "ZONA": "ZR1", "NOMBRE": "ZR1 Zona de Restricción Áreas de Protección Patrimonial", "UPERM": "Áreas verdes en todos los niveles", "UPROH": "Todos los usos de suelo no mencionados precedentemente y los señalados en el Artículo 26 de la presente Ordenanza. Se prohíbe la extracción de rocas y arenas, ni ningún tipo de faenas que deteriore el paisaje natural en estos sectores.", "Capa": "Seccional Clama - Topater", "CUT": "02201" }, "geometry": { "type": "MultiPolygon", "coordinates": [ [ [ [ -68.909522380294106, -22.4911614260368 ], [ -68.909543781640906, -22.491227553482201 ], [ -68.910013292082098, -22.491197083481499 ], [ -68.909985855901596, -22.4907661429569 ], [ -68.909952901767696, -22.490653868784602 ], [ -68.909424941974805, -22.4906814772317 ], [ -68.909498612484796, -22.490793593696999 ], [ -68.909528322408505, -22.490947315100399 ], [ -68.909522380294106, -22.4911614260368 ] ] ] ] } },
{ "type": "Feature", "properties": { "id": "secc_calama_topater_mono.20", "Name": null, "description": null, "timestamp": null, "begin": null, "end": null, "altitudeMode": null, "tessellate": -1, "extrude": 0, "visibility": -1, "drawOrder": null, "icon": null, "REG": "Antofagasta", "COM": "Calama", "LOCALIDAD": "Plan Seccional Topater Calama", "ZONA": "AV", "NOMBRE": "AV Áreas Verdes", "UPERM": "Corresponde a Plazas, Parques y Áreas verdes propuestas. En esta zona sólo se permiten las construcciones complementarias a su uso específico, tales como fuentes de agua, juegos infantiles, kioscos y otros de esa naturaleza", "UPROH": "No se permite la subdivisión predial y las condiciones de edificación para nuevas construcciones deberán ser y aprobadas por la dirección de Obras Municipales según el artículo 22 de la presente Ordenanza y áreas concesionables según nueva ley 19", "Capa": "Seccional Clama - Topater", "CUT": "02201" }, "geometry": { "type": "MultiPolygon", "coordinates": [ [ [ [ -68.909985855901596, -22.4907661429569 ], [ -68.910013292082098, -22.491197083481499 ], [ -68.911844521472304, -22.4910782249232 ], [ -68.9125195317974, -22.490902543234899 ], [ -68.912890312321096, -22.490823486826301 ], [ -68.913166020755995, -22.490753214542799 ], [ -68.912163011871002, -22.490602420939499 ], [ -68.911692405993193, -22.4905628920264 ], [ -68.909952901767696, -22.490653868784602 ], [ -68.909985855901596, -22.4907661429569 ] ] ] ] } },
{ "type": "Feature", "properties": { "id": "secc_calama_topater_mono.21", "Name": null, "description": null, "timestamp": null, "begin": null, "end": null, "altitudeMode": null, "tessellate": -1, "extrude": 0, "visibility": -1, "drawOrder": null, "icon": null, "REG": "Antofagasta", "COM": "Calama", "LOCALIDAD": "Plan Seccional Topater Calama", "ZONA": "ZM1", "NOMBRE": "ZM1 Zona Mixta Comercial Residencial y Servicio", "UPERM": "Residencial, Equipamiento, Espacio Público, Área verde e Infraestructura.", "UPROH": "Todos los usos de suelo no mencionados precedentemente y los señalados en el Artículo 14 de la presente Ordenanza.", "Capa": "Seccional Clama - Topater", "CUT": "02201" }, "geometry": { "type": "MultiPolygon", "coordinates": [ [ [ [ -68.907288200616904, -22.489949468362401 ], [ -68.908528889153999, -22.4907532144192 ], [ -68.908700008533003, -22.490624499941099 ], [ -68.908925813838295, -22.4904772476728 ], [ -68.908369643874806, -22.490002905037901 ], [ -68.9078990381702, -22.489528560595801 ], [ -68.907271563009601, -22.488764336837299 ], [ -68.9065870458859, -22.4875521104203 ], [ -68.905788442278904, -22.4866165805159 ], [ -68.905733821502594, -22.486575960545899 ], [ -68.905564220783802, -22.486755052846799 ], [ -68.904556952101203, -22.487799695477801 ], [ -68.905217208792493, -22.488329636542598 ], [ -68.907261253654198, -22.489849301767201 ], [ -68.907288200616904, -22.489949468362401 ] ] ] ] } },
{ "type": "Feature", "properties": { "id": "secc_calama_topater_mono.22", "Name": null, "description": null, "timestamp": null, "begin": null, "end": null, "altitudeMode": null, "tessellate": -1, "extrude": 0, "visibility": -1, "drawOrder": null, "icon": null, "REG": "Antofagasta", "COM": "Calama", "LOCALIDAD": "Plan Seccional Topater Calama", "ZONA": "ZR1", "NOMBRE": "ZR1 Zona de Restricción Áreas de Protección Patrimonial", "UPERM": "Áreas verdes en todos los niveles", "UPROH": "Todos los usos de suelo no mencionados precedentemente y los señalados en el Artículo 26 de la presente Ordenanza. Se prohíbe la extracción de rocas y arenas, ni ningún tipo de faenas que deteriore el paisaje natural en estos sectores.", "Capa": "Seccional Clama - Topater", "CUT": "02201" }, "geometry": { "type": "MultiPolygon", "coordinates": [ [ [ [ -68.906349355677904, -22.481264734566199 ], [ -68.906337471933796, -22.481846716683499 ], [ -68.906777180131201, -22.4818137741896 ], [ -68.906789063607704, -22.483351080042301 ], [ -68.907395147232506, -22.483329118886601 ], [ -68.907407030625805, -22.481264732922501 ], [ -68.906349355677904, -22.481264734566199 ] ] ] ] } },
{ "type": "Feature", "properties": { "id": "secc_calama_topater_mono.23", "Name": null, "description": null, "timestamp": null, "begin": null, "end": null, "altitudeMode": null, "tessellate": -1, "extrude": 0, "visibility": -1, "drawOrder": null, "icon": null, "REG": "Antofagasta", "COM": "Calama", "LOCALIDAD": "Plan Seccional Topater Calama", "ZONA": "ZR1", "NOMBRE": "ZR1 Zona de Restricción Áreas de Protección Patrimonial", "UPERM": "Áreas verdes en todos los niveles", "UPROH": "Todos los usos de suelo no mencionados precedentemente y los señalados en el Artículo 26 de la presente Ordenanza. Se prohíbe la extracción de rocas y arenas, ni ningún tipo de faenas que deteriore el paisaje natural en estos sectores.", "Capa": "Seccional Clama - Topater", "CUT": "02201" }, "geometry": { "type": "MultiPolygon", "coordinates": [ [ [ [ -68.896843355124901, -22.4679287530987 ], [ -68.896837413513396, -22.468219773596701 ], [ -68.897199874877998, -22.468203301060999 ], [ -68.897192124389903, -22.4679287535198 ], [ -68.896843355124901, -22.4679287530987 ] ] ] ] } },
{ "type": "Feature", "properties": { "id": "secc_calama_topater_mono.24", "Name": null, "description": null, "timestamp": null, "begin": null, "end": null, "altitudeMode": null, "tessellate": -1, "extrude": 0, "visibility": -1, "drawOrder": null, "icon": null, "REG": "Antofagasta", "COM": "Calama", "LOCALIDAD": "Plan Seccional Topater Calama", "ZONA": "ZR1", "NOMBRE": "ZR1 Zona de Restricción Áreas de Protección Patrimonial", "UPERM": "Áreas verdes en todos los niveles", "UPROH": "Todos los usos de suelo no mencionados precedentemente y los señalados en el Artículo 26 de la presente Ordenanza. Se prohíbe la extracción de rocas y arenas, ni ningún tipo de faenas que deteriore el paisaje natural en estos sectores.", "Capa": "Seccional Clama - Topater", "CUT": "02201" }, "geometry": { "type": "MultiPolygon", "coordinates": [ [ [ [ -68.896625977115406, -22.459574851094299 ], [ -68.896620035469596, -22.459865889049802 ], [ -68.897030032636906, -22.459865889225402 ], [ -68.897034962536495, -22.459578871661002 ], [ -68.896625977115406, -22.459574851094299 ] ] ] ] } },
{ "type": "Feature", "properties": { "id": "secc_calama_topater_mono.25", "Name": null, "description": null, "timestamp": null, "begin": null, "end": null, "altitudeMode": null, "tessellate": -1, "extrude": 0, "visibility": -1, "drawOrder": null, "icon": null, "REG": "Antofagasta", "COM": "Calama", "LOCALIDAD": "Plan Seccional Topater Calama", "ZONA": "ZR1", "NOMBRE": "ZR1 Zona de Restricción Áreas de Protección Patrimonial", "UPERM": "Áreas verdes en todos los niveles", "UPROH": "Todos los usos de suelo no mencionados precedentemente y los señalados en el Artículo 26 de la presente Ordenanza. Se prohíbe la extracción de rocas y arenas, ni ningún tipo de faenas que deteriore el paisaje natural en estos sectores.", "Capa": "Seccional Clama - Topater", "CUT": "02201" }, "geometry": { "type": "MultiPolygon", "coordinates": [ [ [ [ -68.896620035534895, -22.460673104584501 ], [ -68.896614094006594, -22.460958648896899 ], [ -68.897035974752797, -22.4609586485509 ], [ -68.897031561063002, -22.460673104839501 ], [ -68.896620035534895, -22.460673104584501 ] ] ] ] } },
{ "type": "Feature", "properties": { "id": "secc_calama_topater_mono.26", "Name": null, "description": null, "timestamp": null, "begin": null, "end": null, "altitudeMode": null, "tessellate": -1, "extrude": 0, "visibility": -1, "drawOrder": null, "icon": null, "REG": "Antofagasta", "COM": "Calama", "LOCALIDAD": "Plan Seccional Topater Calama", "ZONA": "ZM1", "NOMBRE": "ZM1 Zona Mixta Comercial Residencial y Servicio", "UPERM": "Residencial, Equipamiento, Espacio Público, Área verde e Infraestructura.", "UPROH": "Todos los usos de suelo no mencionados precedentemente y los señalados en el Artículo 14 de la presente Ordenanza.", "Capa": "Seccional Clama - Topater", "CUT": "02201" }, "geometry": { "type": "MultiPolygon", "coordinates": [ [ [ [ -68.892569378316196, -22.473263271499398 ], [ -68.892950702816506, -22.473505523254701 ], [ -68.893023495775793, -22.473402224048002 ], [ -68.893179978985003, -22.473319951858699 ], [ -68.8931898716543, -22.472434934989 ], [ -68.893268305739198, -22.4719737092204 ], [ -68.893460826342704, -22.47138729017 ], [ -68.893522622961498, -22.471243430569501 ], [ -68.893356247469498, -22.471111651418202 ], [ -68.892542194457505, -22.471830948297399 ], [ -68.892072776734693, -22.472259230135801 ], [ -68.891514228920599, -22.472824779669001 ], [ -68.8914225905867, -22.472963479818699 ], [ -68.8919751790947, -22.473065604790101 ], [ -68.892569378316196, -22.473263271499398 ] ] ] ] } },
{ "type": "Feature", "properties": { "id": "secc_calama_topater_mono.27", "Name": null, "description": null, "timestamp": null, "begin": null, "end": null, "altitudeMode": null, "tessellate": -1, "extrude": 0, "visibility": -1, "drawOrder": null, "icon": null, "REG": "Antofagasta", "COM": "Calama", "LOCALIDAD": "Plan Seccional Topater Calama", "ZONA": "ZR1", "NOMBRE": "ZR1 Zona de Restricción Áreas de Protección Patrimonial", "UPERM": "Áreas verdes en todos los niveles", "UPROH": "Todos los usos de suelo no mencionados precedentemente y los señalados en el Artículo 26 de la presente Ordenanza. Se prohíbe la extracción de rocas y arenas, ni ningún tipo de faenas que deteriore el paisaje natural en estos sectores.", "Capa": "Seccional Clama - Topater", "CUT": "02201" }, "geometry": { "type": "MultiPolygon", "coordinates": [ [ [ [ -68.9067543982041, -22.485658150271099 ], [ -68.907053874217297, -22.4858294456176 ], [ -68.907215736700607, -22.485631196047699 ], [ -68.906925527001903, -22.485447323765101 ], [ -68.9067543982041, -22.485658150271099 ] ] ] ] } },
{ "type": "Feature", "properties": { "id": "secc_calama_topater_mono.28", "Name": null, "description": null, "timestamp": null, "begin": null, "end": null, "altitudeMode": null, "tessellate": -1, "extrude": 0, "visibility": -1, "drawOrder": null, "icon": null, "REG": "Antofagasta", "COM": "Calama", "LOCALIDAD": "Plan Seccional Topater Calama", "ZONA": "ZR1", "NOMBRE": "ZR1 Zona de Restricción Áreas de Protección Patrimonial", "UPERM": "Áreas verdes en todos los niveles", "UPROH": "Todos los usos de suelo no mencionados precedentemente y los señalados en el Artículo 26 de la presente Ordenanza. Se prohíbe la extracción de rocas y arenas, ni ningún tipo de faenas que deteriore el paisaje natural en estos sectores.", "Capa": "Seccional Clama - Topater", "CUT": "02201" }, "geometry": { "type": "MultiPolygon", "coordinates": [ [ [ [ -68.904604585020806, -22.491016535078799 ], [ -68.904919510931904, -22.4910769256349 ], [ -68.905000271500597, -22.490695542740099 ], [ -68.904705599215504, -22.490648701786899 ], [ -68.904604585020806, -22.491016535078799 ] ] ] ] } }
]
}
