{
"type": "FeatureCollection",
"name": "SECC_02_Mejillones_Meseta",
"crs": { "type": "name", "properties": { "name": "urn:ogc:def:crs:OGC:1.3:CRS84" } },
"features": [
{ "type": "Feature", "properties": { "id": "secc_mejillones_meseta_mono.1", "Name": null, "description": null, "timestamp": null, "begin": null, "end": null, "altitudeMode": null, "tessellate": -1, "extrude": 0, "visibility": -1, "drawOrder": null, "icon": null, "REG": "Antofagasta", "COM": "Mejillones", "LOCALIDAD": "Meseta", "ZONA": "ZIM", "NOMBRE": "ZIM Zona Insustrial Mixta", "UPERM": "Industria todo impacto; fabricas productortas y ensambladoras de partes, bienes y servicios; comercio, oficinas; bodegas, almacenamiento y distribución de material; equip. público, seguridad, servicios; espacios públicos y fajas verdes", "UPROH": "Todos los no indicados expresamente", "URL": "http://www.observatoriourbano.cl/Ipt/cehu_resultado_decreto.asp?r=2&c=73&i=18", "Capa": "Seccional Mejillones - Meseta", "CUT": "02102", "Shape_STAr": 2799147.8271499998, "Shape_STLe": 8616.40798516 }, "geometry": { "type": "MultiPolygon", "coordinates": [ [ [ [ -70.394436336921402, -23.104667007856001 ], [ -70.395833699525994, -23.105042329772701 ], [ -70.407878517141, -23.108185146237499 ], [ -70.423835409512094, -23.112343168405001 ], [ -70.425151984755999, -23.112885048653599 ], [ -70.423714555233502, -23.1039449638109 ], [ -70.424608065536503, -23.104041244527401 ], [ -70.426565169221504, -23.104439348100101 ], [ -70.4276104798072, -23.104424638122399 ], [ -70.425195089327303, -23.103191952592798 ], [ -70.422670305883997, -23.1026053950456 ], [ -70.409032257324299, -23.0990000168187 ], [ -70.404928539824795, -23.0963885719137 ], [ -70.403979500009399, -23.097327913080299 ], [ -70.401549700976801, -23.0991560258358 ], [ -70.400180100276202, -23.100100116342499 ], [ -70.398688428094005, -23.101231665043201 ], [ -70.397750940579499, -23.1019998555592 ], [ -70.396385018297906, -23.103305186893401 ], [ -70.395926603877399, -23.1039400907618 ], [ -70.394436336921402, -23.104667007856001 ] ] ] ] } },
{ "type": "Feature", "properties": { "id": "secc_mejillones_meseta_mono.2", "Name": null, "description": null, "timestamp": null, "begin": null, "end": null, "altitudeMode": null, "tessellate": -1, "extrude": 0, "visibility": -1, "drawOrder": null, "icon": null, "REG": "Antofagasta", "COM": "Mejillones", "LOCALIDAD": "Meseta", "ZONA": "ZEA", "NOMBRE": "ZEA Zona Especial Aluvional", "UPERM": "Torres, ductos o líneas de red para la producción o distribución de energía; espacio público, vialidad; áreas libres y fajas verdes.", "UPROH": "Todos los no indicados expresamente", "URL": "http://www.observatoriourbano.cl/Ipt/cehu_resultado_decreto.asp?r=2&c=73&i=18", "Capa": "Seccional Mejillones - Meseta", "CUT": "02102", "Shape_STAr": 149165.04809600001, "Shape_STLe": 3150.0196888800001 }, "geometry": { "type": "MultiPolygon", "coordinates": [ [ [ [ -70.393051358589503, -23.104294998577402 ], [ -70.394436336921402, -23.104667007856001 ], [ -70.395926603877399, -23.1039400907618 ], [ -70.396385018297906, -23.103305186893401 ], [ -70.397750940579499, -23.1019998555592 ], [ -70.398688428094005, -23.101231665043201 ], [ -70.400180100276202, -23.100100116342499 ], [ -70.401549700976801, -23.0991560258358 ], [ -70.403979500009399, -23.097327913080299 ], [ -70.404928539824795, -23.0963885719137 ], [ -70.404125604544305, -23.095877590182599 ], [ -70.403660501822998, -23.096459032982299 ], [ -70.402078446191197, -23.097835151434801 ], [ -70.400416345907004, -23.098968228946099 ], [ -70.398738868315505, -23.100115762718101 ], [ -70.397017092476204, -23.101478734296698 ], [ -70.395431799631695, -23.102553731678501 ], [ -70.394168235797594, -23.103267435829899 ], [ -70.393674228403597, -23.103458186037901 ], [ -70.393051358589503, -23.104294998577402 ] ] ] ] } },
{ "type": "Feature", "properties": { "id": "secc_mejillones_meseta_mono.3", "Name": null, "description": null, "timestamp": null, "begin": null, "end": null, "altitudeMode": null, "tessellate": -1, "extrude": 0, "visibility": -1, "drawOrder": null, "icon": null, "REG": "Antofagasta", "COM": "Mejillones", "LOCALIDAD": "Meseta", "ZONA": "ZIM", "NOMBRE": "ZIM Zona Insustrial Mixta", "UPERM": "Industria todo impacto; fabricas productortas y ensambladoras de partes, bienes y servicios; comercio, oficinas; bodegas, almacenamiento y distribución de material; equip. público, seguridad, servicios; espacios públicos y fajas verdes", "UPROH": "Todos los no indicados expresamente", "URL": "http://www.observatoriourbano.cl/Ipt/cehu_resultado_decreto.asp?r=2&c=73&i=18", "Capa": "Seccional Mejillones - Meseta", "CUT": "02102", "Shape_STAr": 1474585.26538, "Shape_STLe": 5055.2466661500002 }, "geometry": { "type": "MultiPolygon", "coordinates": [ [ [ [ -70.393051358589503, -23.104294998577402 ], [ -70.393674228403597, -23.103458186037901 ], [ -70.394168235797594, -23.103267435829899 ], [ -70.395431799631695, -23.102553731678501 ], [ -70.397017092476204, -23.101478734296698 ], [ -70.398738868315505, -23.100115762718101 ], [ -70.400416345907004, -23.098968228946099 ], [ -70.402078446191197, -23.097835151434801 ], [ -70.403660501822998, -23.096459032982299 ], [ -70.404125604544305, -23.095877590182599 ], [ -70.394757132928504, -23.089914965720801 ], [ -70.394130995347496, -23.089311151608001 ], [ -70.3938551482386, -23.088812705535599 ], [ -70.393546633943998, -23.0893056368472 ], [ -70.389862310238698, -23.0957326441963 ], [ -70.388367423797803, -23.101079354105199 ], [ -70.387845190107498, -23.1030481856248 ], [ -70.387934646119604, -23.103080853351301 ], [ -70.392388446113202, -23.104116932941999 ], [ -70.393051358589503, -23.104294998577402 ] ] ] ] } },
{ "type": "Feature", "properties": { "id": "secc_mejillones_meseta_mono.4", "Name": null, "description": null, "timestamp": null, "begin": null, "end": null, "altitudeMode": null, "tessellate": -1, "extrude": 0, "visibility": -1, "drawOrder": null, "icon": null, "REG": "Antofagasta", "COM": "Mejillones", "LOCALIDAD": "Meseta", "ZONA": "ZIP", "NOMBRE": "ZIP Zona Industrial Periferia", "UPERM": "Industria inofensiva; fabrica productora y ensambladora de partes y bienes; comercio, oficina; bodega de almacenamiento y distribución de material sólido no granular; equip. público de salud, seguridad, culto; espacio público, faja ve", "UPROH": "Todos los no indicados expresamente", "URL": "http://www.observatoriourbano.cl/Ipt/cehu_resultado_decreto.asp?r=2&c=73&i=18", "Capa": "Seccional Mejillones - Meseta", "CUT": "02102", "Shape_STAr": 1699391.78418, "Shape_STLe": 8936.8927364499996 }, "geometry": { "type": "MultiPolygon", "coordinates": [ [ [ [ -70.386813501196897, -23.107073963757799 ], [ -70.388661657544702, -23.107532146442701 ], [ -70.413911274770399, -23.113508838438499 ], [ -70.425710800450304, -23.116360211314898 ], [ -70.425151984755999, -23.112885048653599 ], [ -70.423835409512094, -23.112343168405001 ], [ -70.407878517141, -23.108185146237499 ], [ -70.395833699525994, -23.105042329772701 ], [ -70.392388446113202, -23.104116932941999 ], [ -70.387934646119604, -23.103080853351301 ], [ -70.387845190107498, -23.1030481856248 ], [ -70.387757410643601, -23.1033860684643 ], [ -70.386813501196897, -23.107073963757799 ] ] ] ] } },
{ "type": "Feature", "properties": { "id": "secc_mejillones_meseta_mono.5", "Name": null, "description": null, "timestamp": null, "begin": null, "end": null, "altitudeMode": null, "tessellate": -1, "extrude": 0, "visibility": -1, "drawOrder": null, "icon": null, "REG": "Antofagasta", "COM": "Mejillones", "LOCALIDAD": "Meseta", "ZONA": "ZEA", "NOMBRE": "ZEA Zona Especial Aluvional", "UPERM": "Torres, ductos o líneas de red para la producción o distribución de energía; espacio público, vialidad; áreas libres y fajas verdes.", "UPROH": "Todos los no indicados expresamente", "URL": "http://www.observatoriourbano.cl/Ipt/cehu_resultado_decreto.asp?r=2&c=73&i=18", "Capa": "Seccional Mejillones - Meseta", "CUT": "02102", "Shape_STAr": 181394.83667, "Shape_STLe": 4360.2241947700004 }, "geometry": { "type": "MultiPolygon", "coordinates": [ [ [ [ -70.385904748238204, -23.106848663613601 ], [ -70.386813501196897, -23.107073963757799 ], [ -70.387757410643601, -23.1033860684643 ], [ -70.387845190107498, -23.1030481856248 ], [ -70.388367423797803, -23.101079354105199 ], [ -70.389862310238698, -23.0957326441963 ], [ -70.393439786589994, -23.089492033212899 ], [ -70.392740136462294, -23.0890763628347 ], [ -70.391111705691998, -23.091972559662199 ], [ -70.389086625429002, -23.095488744183498 ], [ -70.389012088714694, -23.095776150696199 ], [ -70.387097221760101, -23.102488609205199 ], [ -70.386019343602698, -23.106197157249898 ], [ -70.385904748238204, -23.106848663613601 ] ] ] ] } },
{ "type": "Feature", "properties": { "id": "secc_mejillones_meseta_mono.6", "Name": null, "description": null, "timestamp": null, "begin": null, "end": null, "altitudeMode": null, "tessellate": -1, "extrude": 0, "visibility": -1, "drawOrder": null, "icon": null, "REG": "Antofagasta", "COM": "Mejillones", "LOCALIDAD": "Meseta", "ZONA": "ZEE", "NOMBRE": "ZEE Zona Especial Energía", "UPERM": "Ductos y tendidos de redes para la pruducción o distribución de energía; torres y equipamiento para la producción de energía; espacio público; Áreas libres y fajas verdes.", "UPROH": "Todos los no indicados expresamente", "URL": "http://www.observatoriourbano.cl/Ipt/cehu_resultado_decreto.asp?r=2&c=73&i=18", "Capa": "Seccional Mejillones - Meseta", "CUT": "02102", "Shape_STAr": 801782.43701200001, "Shape_STLe": 5305.8083653800004 }, "geometry": { "type": "MultiPolygon", "coordinates": [ [ [ [ -70.380972403283806, -23.101243239021599 ], [ -70.387007811021704, -23.102796245152199 ], [ -70.387097221760101, -23.102488609205199 ], [ -70.389012088714694, -23.095776150696199 ], [ -70.389086625429002, -23.095488744183498 ], [ -70.391111705691998, -23.091972559662199 ], [ -70.392740136462294, -23.0890763628347 ], [ -70.393439786589994, -23.089492033212899 ], [ -70.393546633943998, -23.0893056368472 ], [ -70.3938551482386, -23.088812705535599 ], [ -70.3938151557645, -23.0887404400384 ], [ -70.393732869913407, -23.088275196971399 ], [ -70.393767543736004, -23.087880609763999 ], [ -70.393839848990098, -23.087378158803901 ], [ -70.394025046679999, -23.086552116519499 ], [ -70.393458672022803, -23.084227270101799 ], [ -70.393265631275597, -23.083916731307301 ], [ -70.390421524444406, -23.087855168210201 ], [ -70.387535007748397, -23.0919954321405 ], [ -70.385380711214793, -23.095010895014099 ], [ -70.385152078193698, -23.095385677318301 ], [ -70.382631022980306, -23.098920475849699 ], [ -70.380972403283806, -23.101243239021599 ] ] ] ] } },
{ "type": "Feature", "properties": { "id": "secc_mejillones_meseta_mono.7", "Name": null, "description": null, "timestamp": null, "begin": null, "end": null, "altitudeMode": null, "tessellate": -1, "extrude": 0, "visibility": -1, "drawOrder": null, "icon": null, "REG": "Antofagasta", "COM": "Mejillones", "LOCALIDAD": "Meseta", "ZONA": "ZEA", "NOMBRE": "ZEA Zona Especial Aluvional", "UPERM": "Torres, ductos o líneas de red para la producción o distribución de energía; espacio público, vialidad; áreas libres y fajas verdes.", "UPROH": "Todos los no indicados expresamente", "URL": "http://www.observatoriourbano.cl/Ipt/cehu_resultado_decreto.asp?r=2&c=73&i=18", "Capa": "Seccional Mejillones - Meseta", "CUT": "02102", "Shape_STAr": 241968.48291, "Shape_STLe": 5832.1403628199996 }, "geometry": { "type": "MultiPolygon", "coordinates": [ [ [ [ -70.377519463687705, -23.104769470790401 ], [ -70.378433504246999, -23.104996138900798 ], [ -70.378551157469104, -23.104633830179399 ], [ -70.382631022980306, -23.098920475849699 ], [ -70.385152078193698, -23.095385677318301 ], [ -70.385380711214793, -23.095010895014099 ], [ -70.387535007748397, -23.0919954321405 ], [ -70.390421524444406, -23.087855168210201 ], [ -70.393265631275597, -23.083916731307301 ], [ -70.393104109886707, -23.083656896945001 ], [ -70.392778389991193, -23.083199436665499 ], [ -70.392362932048698, -23.083751868074501 ], [ -70.389277024305997, -23.088080305633799 ], [ -70.385030518929099, -23.094110703226001 ], [ -70.380034516712996, -23.1011511810994 ], [ -70.377519463687705, -23.104769470790401 ] ] ] ] } },
{ "type": "Feature", "properties": { "id": "secc_mejillones_meseta_mono.8", "Name": null, "description": null, "timestamp": null, "begin": null, "end": null, "altitudeMode": null, "tessellate": -1, "extrude": 0, "visibility": -1, "drawOrder": null, "icon": null, "REG": "Antofagasta", "COM": "Mejillones", "LOCALIDAD": "Meseta", "ZONA": "ZIB", "NOMBRE": "ZIB Zona industrial Borde", "UPERM": "Industria inofensiva, fabricas productoras y ensambladoras de partes y bienes; comercio minorista y mayorista, oficinas; equipamientos públicos de salud, seguridad, culto, alimentación, servicios; espaciós públicos y fajas verdes.", "UPROH": "Todos los no indicados expresamente", "URL": "http://www.observatoriourbano.cl/Ipt/cehu_resultado_decreto.asp?r=2&c=73&i=18", "Capa": "Seccional Mejillones - Meseta", "CUT": "02102", "Shape_STAr": 2367695.4138199999, "Shape_STLe": 7627.8242536999996 }, "geometry": { "type": "MultiPolygon", "coordinates": [ [ [ [ -70.377519463687705, -23.104769470790401 ], [ -70.380034516712996, -23.1011511810994 ], [ -70.385030518929099, -23.094110703226001 ], [ -70.389277024305997, -23.088080305633799 ], [ -70.392362932048698, -23.083751868074501 ], [ -70.392778389991193, -23.083199436665499 ], [ -70.392317885871606, -23.082552672604201 ], [ -70.386782794695307, -23.0792678935921 ], [ -70.379444601935006, -23.089081705440002 ], [ -70.369393442061707, -23.1027540720556 ], [ -70.377519463687705, -23.104769470790401 ] ] ] ] } },
{ "type": "Feature", "properties": { "id": "secc_mejillones_meseta_mono.9", "Name": null, "description": null, "timestamp": null, "begin": null, "end": null, "altitudeMode": null, "tessellate": -1, "extrude": 0, "visibility": -1, "drawOrder": null, "icon": null, "REG": "Antofagasta", "COM": "Mejillones", "LOCALIDAD": "Meseta", "ZONA": "ZAC", "NOMBRE": "ZAC Zona Autónoma Cementerio", "UPERM": "Actividades relacionadas con el cementerio; oficnas; equipamientos sanitarios", "UPROH": "Todos los no indicados expresamente", "URL": "http://www.observatoriourbano.cl/Ipt/cehu_resultado_decreto.asp?r=2&c=73&i=18", "Capa": "Seccional Mejillones - Meseta", "CUT": "02102", "Shape_STAr": 529910.42480499996, "Shape_STLe": 3104.9527873000002 }, "geometry": { "type": "MultiPolygon", "coordinates": [ [ [ [ -70.423714555233502, -23.1039449638109 ], [ -70.425268916293902, -23.113612235128901 ], [ -70.426455030843002, -23.113085755214701 ], [ -70.432256017038299, -23.1104985504175 ], [ -70.4276104798072, -23.104424638122399 ], [ -70.426565169221504, -23.104439348100101 ], [ -70.424608065536503, -23.104041244527401 ], [ -70.423714555233502, -23.1039449638109 ] ] ] ] } },
{ "type": "Feature", "properties": { "id": "secc_mejillones_meseta_mono.10", "Name": null, "description": null, "timestamp": null, "begin": null, "end": null, "altitudeMode": null, "tessellate": -1, "extrude": 0, "visibility": -1, "drawOrder": null, "icon": null, "REG": "Antofagasta", "COM": "Mejillones", "LOCALIDAD": "Meseta", "ZONA": "ZIB", "NOMBRE": "ZIB Zona industrial Borde", "UPERM": "Industria inofensiva, fabricas productoras y ensambladoras de partes y bienes; comercio minorista y mayorista, oficinas; equipamientos públicos de salud, seguridad, culto, alimentación, servicios; espaciós públicos y fajas verdes.", "UPROH": "Todos los no indicados expresamente", "URL": "http://www.observatoriourbano.cl/Ipt/cehu_resultado_decreto.asp?r=2&c=73&i=18", "Capa": "Seccional Mejillones - Meseta", "CUT": "02102", "Shape_STAr": 849076.02856400004, "Shape_STLe": 4208.6267869200001 }, "geometry": { "type": "MultiPolygon", "coordinates": [ [ [ [ -70.427139056969594, -23.1167052824092 ], [ -70.440796084237604, -23.1200041100821 ], [ -70.440583593853503, -23.118249736871899 ], [ -70.440379907266006, -23.117319675348998 ], [ -70.440208079493303, -23.116287253134701 ], [ -70.439980753360501, -23.1162889491093 ], [ -70.439586217069305, -23.115570606444798 ], [ -70.438651695900006, -23.115149013734001 ], [ -70.434879873875104, -23.1139288539928 ], [ -70.432256017038299, -23.1104985504175 ], [ -70.426455030843002, -23.113085755214701 ], [ -70.425268916293902, -23.113612235128901 ], [ -70.425710800450304, -23.116360211314898 ], [ -70.427139056969594, -23.1167052824092 ] ] ] ] } },
{ "type": "Feature", "properties": { "id": "secc_mejillones_meseta_mono.11", "Name": null, "description": null, "timestamp": null, "begin": null, "end": null, "altitudeMode": null, "tessellate": -1, "extrude": 0, "visibility": -1, "drawOrder": null, "icon": null, "REG": "Antofagasta", "COM": "Mejillones", "LOCALIDAD": "Meseta", "ZONA": "ZIP", "NOMBRE": "ZIP Zona Industrial Periferia", "UPERM": "Industria inofensiva; fabrica productora y ensambladora de partes y bienes; comercio, oficina; bodega de almacenamiento y distribución de material sólido no granular; equip. público de salud, seguridad, culto; espacio público, faja ve", "UPROH": "Todos los no indicados expresamente", "URL": "http://www.observatoriourbano.cl/Ipt/cehu_resultado_decreto.asp?r=2&c=73&i=18", "Capa": "Seccional Mejillones - Meseta", "CUT": "02102", "Shape_STAr": 335360.94628899998, "Shape_STLe": 2388.8306788999998 }, "geometry": { "type": "MultiPolygon", "coordinates": [ [ [ [ -70.387007811021704, -23.102796245152199 ], [ -70.380972403283806, -23.101243239021599 ], [ -70.378551157469104, -23.104633830179399 ], [ -70.378433504246999, -23.104996138900798 ], [ -70.385904748238204, -23.106848663613601 ], [ -70.386019343602698, -23.106197157249898 ], [ -70.387007811021704, -23.102796245152199 ] ] ] ] } }
]
}
