{
"type": "FeatureCollection",
"name": "SECC_02_SanPedroAtacama_Pozo",
"crs": { "type": "name", "properties": { "name": "urn:ogc:def:crs:OGC:1.3:CRS84" } },
"features": [
{ "type": "Feature", "properties": { "id": "secc_sanpedroatacama_pozo_mono.1", "Name": null, "description": null, "timestamp": null, "begin": null, "end": null, "altitudeMode": null, "tessellate": -1, "extrude": 0, "visibility": -1, "drawOrder": null, "icon": null, "REG": "Antofagasta", "COM": "San Pedro de Atacama", "LOCALIDAD": "Pozo Tres", "ZONA": "ZATI", "NOMBRE": "ZA.T.I Zona de apoyo al transporte internacional.", "UPERM": "Equipamiento tipo seguridad, Áreas Verdes, Transporte,  Salud, Seguridad, deportes, Esparcimiento y turismo, comercio minorista servicios públicos y profesionales.", "UPROH": "Todos los no indicados como permitidos.\n", "Capa": "Seccional Área Entorno Pozo Tres", "CUT": "02203", "Shape_STAr": 2602511.9707, "Shape_STLe": 8101.2155679400003 }, "geometry": { "type": "MultiPolygon", "coordinates": [ [ [ [ -68.164200780771395, -22.914657973782599 ], [ -68.164092602138993, -22.915469988810798 ], [ -68.169021738950207, -22.915297433847499 ], [ -68.1749682250978, -22.919618401766201 ], [ -68.1800227396607, -22.924304993356198 ], [ -68.184932086778602, -22.9274372128544 ], [ -68.1845139722559, -22.9283193503767 ], [ -68.185387935362598, -22.928873527008701 ], [ -68.190558625283103, -22.927155302485801 ], [ -68.191754133868898, -22.925703517796901 ], [ -68.190686249166205, -22.9230452227971 ], [ -68.189799999670399, -22.920220549947398 ], [ -68.189680389003598, -22.918585259354899 ], [ -68.189693858152694, -22.917840082572202 ], [ -68.189757652379001, -22.917524933743799 ], [ -68.189883820312602, -22.917133623198701 ], [ -68.190810517492096, -22.914012276085 ], [ -68.191285550431104, -22.912462033914 ], [ -68.191430256609195, -22.912179940005299 ], [ -68.186623363486603, -22.9122613310833 ], [ -68.182488490465502, -22.912567530336201 ], [ -68.181001981136802, -22.9126459116791 ], [ -68.179035014049902, -22.912822175697599 ], [ -68.175131764973202, -22.913217807844202 ], [ -68.171475901180003, -22.913657653110501 ], [ -68.164271708735797, -22.9141852910398 ], [ -68.164200780771395, -22.914657973782599 ] ] ] ] } },
{ "type": "Feature", "properties": { "id": "secc_sanpedroatacama_pozo_mono.2", "Name": null, "description": null, "timestamp": null, "begin": null, "end": null, "altitudeMode": null, "tessellate": -1, "extrude": 0, "visibility": -1, "drawOrder": null, "icon": null, "REG": "Antofagasta", "COM": "San Pedro de Atacama", "LOCALIDAD": "Pozo Tres", "ZONA": "ZET", "NOMBRE": "Z.E.T  Zona de Esparcimiento y Turismo.\nZ.E.T  Zona de Esparcimiento y Turismo.\n", "UPERM": "Equipamiento tipo áreas verdes deportes esparcimiento y turismo.", "UPROH": "Todos los no indicados como permitidos.\n", "Capa": "Seccional Área Entorno Pozo Tres", "CUT": "02203", "Shape_STAr": 781881.38354499999, "Shape_STLe": 8298.0680089800007 }, "geometry": { "type": "MultiPolygon", "coordinates": [ [ [ [ -68.185643264401804, -22.939967413970201 ], [ -68.184992628568594, -22.940890180373898 ], [ -68.184767202424197, -22.9408292736974 ], [ -68.184737094420399, -22.940470625951601 ], [ -68.1843503954358, -22.940408890157801 ], [ -68.183574669589404, -22.940673771225502 ], [ -68.182377834636895, -22.941235223536001 ], [ -68.181408570718801, -22.941499096545002 ], [ -68.180607232421295, -22.9406584778732 ], [ -68.1797349140259, -22.9408929668075 ], [ -68.178988189946907, -22.9416957140836 ], [ -68.177501754111802, -22.9421361319217 ], [ -68.176884933473403, -22.942790170068299 ], [ -68.190236486699504, -22.943217354946299 ], [ -68.190688062929993, -22.943219658620901 ], [ -68.190851470170898, -22.942861998555401 ], [ -68.190530871660698, -22.9425317446285 ], [ -68.189788466802398, -22.942617579318298 ], [ -68.189887188362704, -22.942289464437 ], [ -68.190180151163105, -22.9418428430075 ], [ -68.189762612750599, -22.941541968227501 ], [ -68.189312999139602, -22.9412110531858 ], [ -68.1888952866247, -22.940940048841899 ], [ -68.1886716398392, -22.940580412328501 ], [ -68.188835227883402, -22.940192880751201 ], [ -68.188417519413093, -22.9399218761355 ], [ -68.188029750967999, -22.940039390492402 ], [ -68.187995358101801, -22.940397706928501 ], [ -68.187094900733001, -22.939944981553399 ], [ -68.185998601274605, -22.9398796135848 ], [ -68.185643264401804, -22.939967413970201 ] ] ] ] } },
{ "type": "Feature", "properties": { "id": "secc_sanpedroatacama_pozo_mono.3", "Name": null, "description": null, "timestamp": null, "begin": null, "end": null, "altitudeMode": null, "tessellate": -1, "extrude": 0, "visibility": -1, "drawOrder": null, "icon": null, "REG": "Antofagasta", "COM": "San Pedro de Atacama", "LOCALIDAD": "Pozo Tres", "ZONA": "ZET", "NOMBRE": "Z.E.T  Zona de Esparcimiento y Turismo.\nZ.E.T  Zona de Esparcimiento y Turismo.\n", "UPERM": "Equipamiento tipo áreas verdes deportes esparcimiento y turismo.", "UPROH": "Todos los no indicados como permitidos.\n", "Capa": "Seccional Área Entorno Pozo Tres", "CUT": "02203", "Shape_STAr": 781881.38354499999, "Shape_STLe": 8298.0680089800007 }, "geometry": { "type": "MultiPolygon", "coordinates": [ [ [ [ -68.163343949733402, -22.926524289455401 ], [ -68.167616988690597, -22.9281719143172 ], [ -68.169245586103798, -22.9240415347533 ], [ -68.169328123210605, -22.923832201671999 ], [ -68.169826784219794, -22.922567459035001 ], [ -68.165440968966607, -22.921157940067399 ], [ -68.163343949733402, -22.926524289455401 ] ] ] ] } },
{ "type": "Feature", "properties": { "id": "secc_sanpedroatacama_pozo_mono.4", "Name": null, "description": null, "timestamp": null, "begin": null, "end": null, "altitudeMode": null, "tessellate": -1, "extrude": 0, "visibility": -1, "drawOrder": null, "icon": null, "REG": "Antofagasta", "COM": "San Pedro de Atacama", "LOCALIDAD": "Pozo Tres", "ZONA": "ZET", "NOMBRE": "Z.E.T  Zona de Esparcimiento y Turismo.\nZ.E.T  Zona de Esparcimiento y Turismo.\n", "UPERM": "Equipamiento tipo áreas verdes deportes esparcimiento y turismo.", "UPROH": "Todos los no indicados como permitidos.\n", "Capa": "Seccional Área Entorno Pozo Tres", "CUT": "02203", "Shape_STAr": 781881.38354499999, "Shape_STLe": 8298.0680089800007 }, "geometry": { "type": "MultiPolygon", "coordinates": [ [ [ [ -68.164772754656894, -22.937423835798 ], [ -68.165946575707096, -22.937465857102499 ], [ -68.169636565549595, -22.937461305605598 ], [ -68.1693935505822, -22.937113491349301 ], [ -68.169254111784298, -22.936706471070501 ], [ -68.169295222408195, -22.9363123443528 ], [ -68.168793597337896, -22.9360587738474 ], [ -68.167958875367006, -22.935421064706599 ], [ -68.1675872922157, -22.935000875539298 ], [ -68.1671369162041, -22.934807317400601 ], [ -68.166570136232195, -22.934660946018798 ], [ -68.166248994085507, -22.934432214315599 ], [ -68.165900513905697, -22.9344542826734 ], [ -68.164776932770195, -22.936742723387098 ], [ -68.164772754656894, -22.937423835798 ] ] ] ] } },
{ "type": "Feature", "properties": { "id": "secc_sanpedroatacama_pozo_mono.5", "Name": null, "description": null, "timestamp": null, "begin": null, "end": null, "altitudeMode": null, "tessellate": -1, "extrude": 0, "visibility": -1, "drawOrder": null, "icon": null, "REG": "Antofagasta", "COM": "San Pedro de Atacama", "LOCALIDAD": "Pozo Tres", "ZONA": "ZET", "NOMBRE": "Z.E.T  Zona de Esparcimiento y Turismo.\nZ.E.T  Zona de Esparcimiento y Turismo.\n", "UPERM": "Equipamiento tipo áreas verdes deportes esparcimiento y turismo.", "UPROH": "Todos los no indicados como permitidos.\n", "Capa": "Seccional Área Entorno Pozo Tres", "CUT": "02203", "Shape_STAr": 781881.38354499999, "Shape_STLe": 8298.0680089800007 }, "geometry": { "type": "MultiPolygon", "coordinates": [ [ [ [ -68.191431712261902, -22.916845476992201 ], [ -68.191237366118202, -22.916987884956701 ], [ -68.191005454922106, -22.916938904443899 ], [ -68.190746965425902, -22.9170212368869 ], [ -68.190473587808697, -22.917438086414801 ], [ -68.190640219355998, -22.917618182866601 ], [ -68.191101773391395, -22.9180985268654 ], [ -68.191101064144306, -22.9182180214105 ], [ -68.190352591740805, -22.9182620070555 ], [ -68.190373989605106, -22.9190030042137 ], [ -68.190606116947095, -22.919016137013799 ], [ -68.191161095199305, -22.918971164958499 ], [ -68.191804884717598, -22.9191775888719 ], [ -68.192100094299207, -22.919430037724201 ], [ -68.192471714156497, -22.9198501703878 ], [ -68.192675989713393, -22.9202097034287 ], [ -68.192466531576002, -22.9185476147033 ], [ -68.192193571944998, -22.9167179057699 ], [ -68.1920136847192, -22.916597492573999 ], [ -68.191703455836304, -22.916703461770702 ], [ -68.191431712261902, -22.916845476992201 ] ] ] ] } }
]
}
