{
"type": "FeatureCollection",
"name": "SECC_02_Mejillones_Portuaria",
"crs": { "type": "name", "properties": { "name": "urn:ogc:def:crs:OGC:1.3:CRS84" } },
"features": [
{ "type": "Feature", "properties": { "id": "secc_mejillones_portuaria_mono.1", "Name": null, "description": null, "timestamp": null, "begin": null, "end": null, "altitudeMode": null, "tessellate": -1, "extrude": 0, "visibility": -1, "drawOrder": null, "icon": null, "REG": "Región de Antofagasta", "COM": "Mejillones", "ZONA": "S. I.", "NOMBRE": "S. I. Sin Información", "UPERM": "Libres de edificación de cualquier tipo, salvo obras de artes o protección, como puentes", "UPROH": "Sin Información", "Capa": "Seccional Mejillones - Portuaria", "CUT": "02102", "Shape_STAr": 1602677.0498, "Shape_STLe": 14986.1811043 }, "geometry": { "type": "MultiPolygon", "coordinates": [ [ [ [ -70.346408686803798, -23.028836979684002 ], [ -70.355966024657505, -23.041827360967702 ], [ -70.365853696727797, -23.054466976354199 ], [ -70.369895228776798, -23.059593561970399 ], [ -70.375792287579699, -23.064309600698799 ], [ -70.384924598887395, -23.071565891286099 ], [ -70.387715924107496, -23.0738184422251 ], [ -70.388265760481701, -23.074262136045 ], [ -70.389968369921405, -23.0755805560763 ], [ -70.390640538308006, -23.076148141510199 ], [ -70.391098765388904, -23.075567977209499 ], [ -70.3902508731029, -23.0747390845886 ], [ -70.388389119499706, -23.0726346949134 ], [ -70.388063561343401, -23.0723687272441 ], [ -70.387053084287601, -23.0714217642048 ], [ -70.387017741792604, -23.071123375054 ], [ -70.386661747632104, -23.0710368901801 ], [ -70.385256901917998, -23.069406367187799 ], [ -70.3844087787907, -23.068547572560501 ], [ -70.381960697500702, -23.065910574341199 ], [ -70.380656760080001, -23.064667432859299 ], [ -70.380460043873398, -23.0643704512119 ], [ -70.378769410322107, -23.0631904103479 ], [ -70.378185063268305, -23.0628669369782 ], [ -70.377530387497202, -23.0619765441498 ], [ -70.376261538761099, -23.061001886603499 ], [ -70.3743121598839, -23.059764307144501 ], [ -70.372418586376497, -23.057659984029701 ], [ -70.370915410549102, -23.0558509514062 ], [ -70.368439473569396, -23.053602273854001 ], [ -70.366968370612298, -23.051763051103698 ], [ -70.364225349492102, -23.0486205041204 ], [ -70.362984185468505, -23.0471675678581 ], [ -70.360760727860097, -23.044319175292198 ], [ -70.360073685946602, -23.043399107418399 ], [ -70.356189196083307, -23.039041534692799 ], [ -70.356023947641404, -23.038654637304901 ], [ -70.354066117689996, -23.036520746669801 ], [ -70.351909060180105, -23.033820995294899 ], [ -70.349558764040495, -23.031152728340199 ], [ -70.349233976764495, -23.030946406648301 ], [ -70.347597876108097, -23.028363499811 ], [ -70.346408686803798, -23.028836979684002 ] ] ] ] } },
{ "type": "Feature", "properties": { "id": "secc_mejillones_portuaria_mono.2", "Name": null, "description": null, "timestamp": null, "begin": null, "end": null, "altitudeMode": null, "tessellate": -1, "extrude": 0, "visibility": -1, "drawOrder": null, "icon": null, "REG": "Región de Antofagasta", "COM": "Mejillones", "ZONA": "S. I.", "NOMBRE": "S. I. Sin Información", "UPERM": "Libres de edificación de cualquier tipo, salvo obras de artes o protección, como puentes", "UPROH": "Sin Información", "Capa": "Seccional Mejillones - Portuaria", "CUT": "02102", "Shape_STAr": 1602677.0498, "Shape_STLe": 14986.1811043 }, "geometry": { "type": "MultiPolygon", "coordinates": [ [ [ [ -70.3439631807354, -23.0265883659319 ], [ -70.344778861986597, -23.0268323472201 ], [ -70.345483355885605, -23.027579093106301 ], [ -70.345925047138294, -23.028179528299798 ], [ -70.347148385063093, -23.027653868161899 ], [ -70.346008405056693, -23.025854089595502 ], [ -70.3448097630299, -23.026043504359201 ], [ -70.3439631807354, -23.0265883659319 ] ] ] ] } },
{ "type": "Feature", "properties": { "id": "secc_mejillones_portuaria_mono.3", "Name": null, "description": null, "timestamp": null, "begin": null, "end": null, "altitudeMode": null, "tessellate": -1, "extrude": 0, "visibility": -1, "drawOrder": null, "icon": null, "REG": "Región de Antofagasta", "COM": "Mejillones", "ZONA": "P-1", "NOMBRE": "P-1 Zona Portuaria Industrial", "UPERM": "Libres de edificación de cualquier tipo, salvo obras de artes o protección, como puentes", "UPROH": "Todos lo no indicados como permitidos", "Capa": "Seccional Mejillones - Portuaria", "CUT": "02102", "Shape_STAr": 20563137.445300002, "Shape_STLe": 42615.529654999998 }, "geometry": { "type": "MultiPolygon", "coordinates": [ [ [ [ -70.350615249289007, -23.0711368644379 ], [ -70.349766631670605, -23.071502560009499 ], [ -70.348180589962396, -23.0717311678813 ], [ -70.346911215141205, -23.072638103690899 ], [ -70.345872817983704, -23.073399684275898 ], [ -70.344836546507594, -23.074376306831301 ], [ -70.343608353492797, -23.075533776502901 ], [ -70.342140242587305, -23.075940544572799 ], [ -70.3413295971868, -23.076234185399901 ], [ -70.340676031037106, -23.0767415548824 ], [ -70.339524547338698, -23.077826655831299 ], [ -70.3388706117249, -23.078298176668099 ], [ -70.337562018477001, -23.079169529034299 ], [ -70.336090659730701, -23.079253670908798 ], [ -70.332029454228206, -23.079933173437801 ], [ -70.332067839431602, -23.079897004882699 ], [ -70.332025923076401, -23.079574758559499 ], [ -70.334612222656503, -23.078620970991299 ], [ -70.336083222038596, -23.078501001370501 ], [ -70.337281985097306, -23.078275790702701 ], [ -70.338169420320099, -23.0779098307464 ], [ -70.3392811138269, -23.0767175441276 ], [ -70.339899853872296, -23.076604763493201 ], [ -70.341628120180104, -23.075084630973901 ], [ -70.343906143305404, -23.074312535256901 ], [ -70.346250552537995, -23.072428668483099 ], [ -70.347014574741493, -23.071346826517299 ], [ -70.347476909748806, -23.0710919737224 ], [ -70.349329449688099, -23.070395120880502 ], [ -70.350218585893202, -23.0702083031764 ], [ -70.350632870774405, -23.069021900343198 ], [ -70.350664448413895, -23.0683047439462 ], [ -70.350789733062001, -23.0677141042557 ], [ -70.347847124275702, -23.0639398771998 ], [ -70.347358354579399, -23.063311860843399 ], [ -70.346858240235804, -23.063426558283101 ], [ -70.346083560903907, -23.063433158812199 ], [ -70.345820622655395, -23.0642598185959 ], [ -70.344864024590095, -23.065450826965499 ], [ -70.343983810452499, -23.066533647877399 ], [ -70.343372238336698, -23.067363269001898 ], [ -70.341795117977298, -23.068487845944901 ], [ -70.340367232611996, -23.0690376317676 ], [ -70.339598198155102, -23.0696176642337 ], [ -70.3387882931479, -23.069982973405398 ], [ -70.338211864236598, -23.070453833807601 ], [ -70.337599174769494, -23.0711759110782 ], [ -70.337068558855705, -23.072363268667502 ], [ -70.336188947143398, -23.0735177320833 ], [ -70.3353931658595, -23.075316682703701 ], [ -70.335014636300997, -23.076215993492902 ], [ -70.334712516589093, -23.077007124312399 ], [ -70.333982505115998, -23.077622646612799 ], [ -70.333478555395402, -23.077591056989899 ], [ -70.332709089641398, -23.078135218021501 ], [ -70.331556468600297, -23.079112738661902 ], [ -70.331265202936905, -23.078867911626499 ], [ -70.331708571326303, -23.0806388273765 ], [ -70.336522937661201, -23.0990391259032 ], [ -70.340058397891198, -23.112271680080099 ], [ -70.367581901350306, -23.108722782698099 ], [ -70.368166235201699, -23.108849904405002 ], [ -70.371160227816901, -23.1044661957256 ], [ -70.374244147595604, -23.099882017114702 ], [ -70.375348503071294, -23.098200781789402 ], [ -70.377555721920203, -23.095043938246601 ], [ -70.379432878391796, -23.0923281276018 ], [ -70.3783439398361, -23.091587332204298 ], [ -70.376163408932896, -23.0898689860967 ], [ -70.364908715874705, -23.080998622135599 ], [ -70.3640374712203, -23.0802880074753 ], [ -70.357931008951297, -23.075307023891099 ], [ -70.356872377548896, -23.075456244938 ], [ -70.356071458993398, -23.075943434526 ], [ -70.355642199418696, -23.0764059250222 ], [ -70.354595432548294, -23.0771031146623 ], [ -70.3525701571333, -23.079127747086801 ], [ -70.351581894912499, -23.0794803119311 ], [ -70.349790154421299, -23.080069142210299 ], [ -70.348684206209796, -23.0810535539893 ], [ -70.348133227586203, -23.081746468569701 ], [ -70.346407992538502, -23.082793501193098 ], [ -70.344487083119802, -23.0828672169234 ], [ -70.3433122503437, -23.083163969148401 ], [ -70.340622437525298, -23.0835266298261 ], [ -70.340604098386606, -23.083552593382201 ], [ -70.340588389231996, -23.0835312206233 ], [ -70.340622437525298, -23.0835266298261 ], [ -70.340833338095806, -23.083228048335901 ], [ -70.342880131993297, -23.082565459805899 ], [ -70.343575305799305, -23.0823444807986 ], [ -70.344620555966003, -23.082263896517599 ], [ -70.3458964578017, -23.082002118333399 ], [ -70.346822628562805, -23.081635779735102 ], [ -70.348166704492996, -23.0804414510302 ], [ -70.348669593118402, -23.080365469202299 ], [ -70.348898807829997, -23.0800409134864 ], [ -70.350627367332194, -23.078556526500101 ], [ -70.352058171424204, -23.078293375561799 ], [ -70.352674754817002, -23.077965498433599 ], [ -70.353788108359694, -23.076952320733898 ], [ -70.355134948564697, -23.076044666670999 ], [ -70.355745404343295, -23.075107478787199 ], [ -70.356811217763806, -23.0743935528462 ], [ -70.355690184823303, -23.073479047899699 ], [ -70.353288512738004, -23.0709188526628 ], [ -70.352743856169397, -23.070220333948299 ], [ -70.351589023071099, -23.0716662013884 ], [ -70.3506267022168, -23.072283784278 ], [ -70.349043870867604, -23.072834972195299 ], [ -70.348622057374996, -23.0732687053505 ], [ -70.347812157969798, -23.073634060512799 ], [ -70.346926921055299, -23.074215119523402 ], [ -70.3463515753743, -23.0747935338829 ], [ -70.345821738901705, -23.0760525998238 ], [ -70.345134444861799, -23.077062094917 ], [ -70.344792576884899, -23.077746048021702 ], [ -70.344565850449698, -23.0783214871451 ], [ -70.344220057058394, -23.078611185296499 ], [ -70.344112036807203, -23.079436523787599 ], [ -70.343731063769596, -23.080084963812599 ], [ -70.343464878671796, -23.080589048714099 ], [ -70.343082830301896, -23.081129962352101 ], [ -70.342116843563403, -23.081389085294798 ], [ -70.341269916576096, -23.081933944657401 ], [ -70.340577228486097, -23.082405802879801 ], [ -70.340116263073497, -23.0828040026156 ], [ -70.339729932509897, -23.0829148136961 ], [ -70.339808123059598, -23.082985838936601 ], [ -70.339339696066602, -23.082631368456401 ], [ -70.340262338535595, -23.081906654639599 ], [ -70.340876835158895, -23.0813637731383 ], [ -70.341839621919505, -23.0807820869043 ], [ -70.342912208824501, -23.079554262968699 ], [ -70.343858588292207, -23.077323864966498 ], [ -70.345112697097306, -23.074875776290501 ], [ -70.346108805770896, -23.073756117114002 ], [ -70.346725026909198, -23.073392421674502 ], [ -70.347800728157793, -23.072487139535198 ], [ -70.349192382202304, -23.072188506874198 ], [ -70.349733261059995, -23.0720405089933 ], [ -70.350615249289007, -23.0711368644379 ] ] ] ] } },
{ "type": "Feature", "properties": { "id": "secc_mejillones_portuaria_mono.4", "Name": null, "description": null, "timestamp": null, "begin": null, "end": null, "altitudeMode": null, "tessellate": -1, "extrude": 0, "visibility": -1, "drawOrder": null, "icon": null, "REG": "Región de Antofagasta", "COM": "Mejillones", "ZONA": "P-1", "NOMBRE": "P-1 Zona Portuaria Industrial", "UPERM": "Libres de edificación de cualquier tipo, salvo obras de artes o protección, como puentes", "UPROH": "Todos lo no indicados como permitidos", "Capa": "Seccional Mejillones - Portuaria", "CUT": "02102", "Shape_STAr": 20563137.445300002, "Shape_STLe": 42615.529654999998 }, "geometry": { "type": "MultiPolygon", "coordinates": [ [ [ [ -70.330089474480104, -23.046992478041599 ], [ -70.329008331393197, -23.047336118324001 ], [ -70.327204227122294, -23.0476858224586 ], [ -70.326636658438403, -23.047738377736302 ], [ -70.325755508440906, -23.047411218770002 ], [ -70.324772018095402, -23.047180497464002 ], [ -70.324092273800602, -23.047279517640401 ], [ -70.326428417926294, -23.058019168724101 ], [ -70.328518093695905, -23.0678941187027 ], [ -70.331180815372605, -23.0785308397911 ], [ -70.331700832694906, -23.078036188233099 ], [ -70.332469242653602, -23.0773845072884 ], [ -70.332854150446494, -23.077130348778901 ], [ -70.333736995995096, -23.0762984749617 ], [ -70.334459928135402, -23.074966125435601 ], [ -70.335482478656601, -23.072591750484001 ], [ -70.336206083490595, -23.0713310768427 ], [ -70.337164217655399, -23.070283481680001 ], [ -70.338241734864098, -23.0695574705911 ], [ -70.339047736312807, -23.068797909024301 ], [ -70.340786574644, -23.068353030113698 ], [ -70.341937616662094, -23.067232082102901 ], [ -70.342511529051706, -23.066510318696999 ], [ -70.343085080589105, -23.065752712575001 ], [ -70.344466706419993, -23.064450565390999 ], [ -70.344774087324296, -23.0641970392799 ], [ -70.345421163249597, -23.063044510890201 ], [ -70.3459623684371, -23.062932369904399 ], [ -70.346746843309901, -23.062526124396001 ], [ -70.341935360531394, -23.056343377957798 ], [ -70.337384374007698, -23.0505034496578 ], [ -70.3331017833289, -23.044713374082399 ], [ -70.332655920958601, -23.045393706060398 ], [ -70.332503355303402, -23.045633955830599 ], [ -70.332145644989893, -23.0460193119597 ], [ -70.331170611713702, -23.046648829703599 ], [ -70.330089474480104, -23.046992478041599 ] ] ] ] } },
{ "type": "Feature", "properties": { "id": "secc_mejillones_portuaria_mono.5", "Name": null, "description": null, "timestamp": null, "begin": null, "end": null, "altitudeMode": null, "tessellate": -1, "extrude": 0, "visibility": -1, "drawOrder": null, "icon": null, "REG": "Región de Antofagasta", "COM": "Mejillones", "ZONA": "P-1", "NOMBRE": "P-1 Zona Portuaria Industrial", "UPERM": "Libres de edificación de cualquier tipo, salvo obras de artes o protección, como puentes", "UPROH": "Todos lo no indicados como permitidos", "Capa": "Seccional Mejillones - Portuaria", "CUT": "02102", "Shape_STAr": 20563137.445300002, "Shape_STLe": 42615.529654999998 }, "geometry": { "type": "MultiPolygon", "coordinates": [ [ [ [ -70.324663129887995, -23.046607895377999 ], [ -70.326783149033105, -23.046876878027302 ], [ -70.328171787073501, -23.046291705073799 ], [ -70.330644358589694, -23.045649610472601 ], [ -70.331468700716499, -23.045451500254501 ], [ -70.332029205584604, -23.044682095255101 ], [ -70.332336215650201, -23.044392751728701 ], [ -70.332551082745397, -23.043968777417099 ], [ -70.329585761558405, -23.039959219044899 ], [ -70.324850741085598, -23.033053564841499 ], [ -70.321289277375499, -23.034213284575699 ], [ -70.321761891252805, -23.036564386357998 ], [ -70.323797515993505, -23.045924326345201 ], [ -70.324663129887995, -23.046607895377999 ] ] ] ] } },
{ "type": "Feature", "properties": { "id": "secc_mejillones_portuaria_mono.6", "Name": null, "description": null, "timestamp": null, "begin": null, "end": null, "altitudeMode": null, "tessellate": -1, "extrude": 0, "visibility": -1, "drawOrder": null, "icon": null, "REG": "Región de Antofagasta", "COM": "Mejillones", "ZONA": "P-1", "NOMBRE": "P-1 Zona Portuaria Industrial", "UPERM": "Libres de edificación de cualquier tipo, salvo obras de artes o protección, como puentes", "UPROH": "Todos lo no indicados como permitidos", "Capa": "Seccional Mejillones - Portuaria", "CUT": "02102", "Shape_STAr": 20563137.445300002, "Shape_STLe": 42615.529654999998 }, "geometry": { "type": "MultiPolygon", "coordinates": [ [ [ [ -70.350954924438994, -23.0702378533862 ], [ -70.350615249289007, -23.0711368644379 ], [ -70.350961367954199, -23.0708829951792 ], [ -70.351954891019005, -23.069512413747098 ], [ -70.352063678293206, -23.069347996189499 ], [ -70.351560950135095, -23.068703230510099 ], [ -70.351450612509794, -23.069445039507599 ], [ -70.350954924438994, -23.0702378533862 ] ] ] ] } },
{ "type": "Feature", "properties": { "id": "secc_mejillones_portuaria_mono.7", "Name": null, "description": null, "timestamp": null, "begin": null, "end": null, "altitudeMode": null, "tessellate": -1, "extrude": 0, "visibility": -1, "drawOrder": null, "icon": null, "REG": "Región de Antofagasta", "COM": "Mejillones", "ZONA": "ZI-2", "NOMBRE": "ZI-2 Zona Industrial 2", "UPERM": "Libres de edificación de cualquier tipo, salvo obras de artes o protección, como puentes", "UPROH": "Todos lo no indicados como permitidos", "Capa": "Seccional Mejillones - Portuaria", "CUT": "02102", "Shape_STAr": 2211397.5524900001, "Shape_STLe": 10966.9680694 }, "geometry": { "type": "MultiPolygon", "coordinates": [ [ [ [ -70.363098974395697, -23.062670404573801 ], [ -70.360210722458405, -23.058967489795801 ], [ -70.357347417380197, -23.055369703621501 ], [ -70.356456739364603, -23.055887511858199 ], [ -70.351532369610695, -23.0592632170417 ], [ -70.349561952425901, -23.060657195283301 ], [ -70.349891403402196, -23.060712352130501 ], [ -70.349931923613099, -23.060891227854398 ], [ -70.349685912986303, -23.061140965382101 ], [ -70.350720937122702, -23.062481239887202 ], [ -70.3507585569714, -23.0622104058471 ], [ -70.351418816766596, -23.0623839828536 ], [ -70.351568209210001, -23.063578363706799 ], [ -70.3515800980839, -23.0635937584799 ], [ -70.354123498734594, -23.066821482386299 ], [ -70.354756385852198, -23.066871786072699 ], [ -70.354837444682602, -23.067229533037199 ], [ -70.354662359582605, -23.067505302468199 ], [ -70.356798559227002, -23.070216070715301 ], [ -70.359400184159298, -23.0723572009239 ], [ -70.359619657662407, -23.071274695942598 ], [ -70.359780910725505, -23.0680473297388 ], [ -70.359617325596702, -23.067188476176501 ], [ -70.359652580834194, -23.066066763733001 ], [ -70.359329977389393, -23.065739114628698 ], [ -70.363098974395697, -23.062670404573801 ] ] ] ] } },
{ "type": "Feature", "properties": { "id": "secc_mejillones_portuaria_mono.8", "Name": null, "description": null, "timestamp": null, "begin": null, "end": null, "altitudeMode": null, "tessellate": -1, "extrude": 0, "visibility": -1, "drawOrder": null, "icon": null, "REG": "Región de Antofagasta", "COM": "Mejillones", "ZONA": "ZI-2", "NOMBRE": "ZI-2 Zona Industrial 2", "UPERM": "Libres de edificación de cualquier tipo, salvo obras de artes o protección, como puentes", "UPROH": "Todos lo no indicados como permitidos", "Capa": "Seccional Mejillones - Portuaria", "CUT": "02102", "Shape_STAr": 2211397.5524900001, "Shape_STLe": 10966.9680694 }, "geometry": { "type": "MultiPolygon", "coordinates": [ [ [ [ -70.365006848348997, -23.0613348708616 ], [ -70.363098974395697, -23.062670404573801 ], [ -70.365084776636195, -23.064810127417399 ], [ -70.366263893948101, -23.065968944274498 ], [ -70.365804135040307, -23.066486197135902 ], [ -70.362857630960306, -23.069321822617901 ], [ -70.360459991762298, -23.066886794934 ], [ -70.360588778554899, -23.071338042019701 ], [ -70.360407716009703, -23.0725941476082 ], [ -70.360215948940507, -23.073028549198799 ], [ -70.360548551909403, -23.0733022675198 ], [ -70.366053844339405, -23.077556051851499 ], [ -70.368715796294396, -23.073949519374001 ], [ -70.366821158469506, -23.072401243663101 ], [ -70.369806523471894, -23.068814873593301 ], [ -70.371556466029901, -23.070105448736001 ], [ -70.3725826961807, -23.0687214825777 ], [ -70.372699894878195, -23.0682076551251 ], [ -70.367452185859904, -23.064123913015798 ], [ -70.365006848348997, -23.0613348708616 ] ] ] ] } },
{ "type": "Feature", "properties": { "id": "secc_mejillones_portuaria_mono.9", "Name": null, "description": null, "timestamp": null, "begin": null, "end": null, "altitudeMode": null, "tessellate": -1, "extrude": 0, "visibility": -1, "drawOrder": null, "icon": null, "REG": "Región de Antofagasta", "COM": "Mejillones", "ZONA": "ZEI", "NOMBRE": "ZEI Zona de Expansión Industrial", "UPERM": "Libres de edificación de cualquier tipo, salvo obras de artes o protección, como puentes", "UPROH": "Todos lo no indicados como permitidos", "Capa": "Seccional Mejillones - Portuaria", "CUT": "02102", "Shape_STAr": 1365968.40625, "Shape_STLe": 6181.7257611799996 }, "geometry": { "type": "MultiPolygon", "coordinates": [ [ [ [ -70.329585761558405, -23.039959219044899 ], [ -70.332551082745397, -23.043968777417099 ], [ -70.332555383738594, -23.0404241024663 ], [ -70.333318645915995, -23.039270642687899 ], [ -70.3337749037386, -23.038406525057599 ], [ -70.3355685002103, -23.037005398265499 ], [ -70.336948509087506, -23.035559956484501 ], [ -70.338178777737298, -23.034641490387202 ], [ -70.339456411369795, -23.033292480224301 ], [ -70.340374477141197, -23.032137677493299 ], [ -70.340979419088598, -23.030650975422201 ], [ -70.343547323188204, -23.029243199724 ], [ -70.343870100923894, -23.029098808209799 ], [ -70.345925047138294, -23.028179528299798 ], [ -70.345483355885605, -23.027579093106301 ], [ -70.344778861986597, -23.0268323472201 ], [ -70.3439631807354, -23.0265883659319 ], [ -70.342670297345293, -23.027030144629698 ], [ -70.328884420485096, -23.031739957716201 ], [ -70.324850741085598, -23.033053564841499 ], [ -70.329585761558405, -23.039959219044899 ] ] ] ] } },
{ "type": "Feature", "properties": { "id": "secc_mejillones_portuaria_mono.10", "Name": null, "description": null, "timestamp": null, "begin": null, "end": null, "altitudeMode": null, "tessellate": -1, "extrude": 0, "visibility": -1, "drawOrder": null, "icon": null, "REG": "Región de Antofagasta", "COM": "Mejillones", "ZONA": "E1", "NOMBRE": "E1 Zona de Protección de Quebradas Aluvionales", "UPERM": "Libres de edificación de cualquier tipo, salvo obras de artes o protección, como puentes", "UPROH": "Todos lo no indicados como permitidos", "Capa": "Seccional Mejillones - Portuaria", "CUT": "02102", "Shape_STAr": 1486365.4614299999, "Shape_STLe": 31028.795057899999 }, "geometry": { "type": "MultiPolygon", "coordinates": [ [ [ [ -70.331468700716499, -23.045451500254501 ], [ -70.330644358589694, -23.045649610472601 ], [ -70.328171787073501, -23.046291705073799 ], [ -70.326783149033105, -23.046876878027302 ], [ -70.324663129887995, -23.046607895377999 ], [ -70.323797515993505, -23.045924326345201 ], [ -70.324092273800602, -23.047279517640401 ], [ -70.324772018095402, -23.047180497464002 ], [ -70.325755508440906, -23.047411218770002 ], [ -70.326636658438403, -23.047738377736302 ], [ -70.327204227122294, -23.0476858224586 ], [ -70.329008331393197, -23.047336118324001 ], [ -70.330089474480104, -23.046992478041599 ], [ -70.331170611713702, -23.046648829703599 ], [ -70.332145644989893, -23.0460193119597 ], [ -70.332503355303402, -23.045633955830599 ], [ -70.332655920958601, -23.045393706060398 ], [ -70.3331017833289, -23.044713374082399 ], [ -70.333568475699096, -23.0436654733723 ], [ -70.333799371184199, -23.0408915442504 ], [ -70.333980636607095, -23.0406270288196 ], [ -70.335479362253196, -23.0384399344412 ], [ -70.338150269830393, -23.036983577137701 ], [ -70.339074510497397, -23.036450035445 ], [ -70.339422255546395, -23.0350611008895 ], [ -70.340860457495495, -23.034284232722001 ], [ -70.340953278446804, -23.034096236328899 ], [ -70.341974167375, -23.0320285304864 ], [ -70.342249661176197, -23.031541902868302 ], [ -70.342735409537795, -23.030683874385399 ], [ -70.344435136972294, -23.029829280996701 ], [ -70.346408686803798, -23.028836979684002 ], [ -70.347597876108097, -23.028363499811 ], [ -70.347148385063093, -23.027653868161899 ], [ -70.345925047138294, -23.028179528299798 ], [ -70.343870100923894, -23.029098808209799 ], [ -70.343547323188204, -23.029243199724 ], [ -70.340979419088598, -23.030650975422201 ], [ -70.340374477141197, -23.032137677493299 ], [ -70.339456411369795, -23.033292480224301 ], [ -70.338178777737298, -23.034641490387202 ], [ -70.336948509087506, -23.035559956484501 ], [ -70.3355685002103, -23.037005398265499 ], [ -70.3337749037386, -23.038406525057599 ], [ -70.333318645915995, -23.039270642687899 ], [ -70.332555383738594, -23.0404241024663 ], [ -70.332551082745397, -23.043968777417099 ], [ -70.332336215650201, -23.044392751728701 ], [ -70.332029205584604, -23.044682095255101 ], [ -70.331468700716499, -23.045451500254501 ] ] ] ] } },
{ "type": "Feature", "properties": { "id": "secc_mejillones_portuaria_mono.11", "Name": null, "description": null, "timestamp": null, "begin": null, "end": null, "altitudeMode": null, "tessellate": -1, "extrude": 0, "visibility": -1, "drawOrder": null, "icon": null, "REG": "Región de Antofagasta", "COM": "Mejillones", "ZONA": "E1", "NOMBRE": "E1 Zona de Protección de Quebradas Aluvionales", "UPERM": "Libres de edificación de cualquier tipo, salvo obras de artes o protección, como puentes", "UPROH": "Todos lo no indicados como permitidos", "Capa": "Seccional Mejillones - Portuaria", "CUT": "02102", "Shape_STAr": 1486365.4614299999, "Shape_STLe": 31028.795057899999 }, "geometry": { "type": "MultiPolygon", "coordinates": [ [ [ [ -70.346746843309901, -23.062526124396001 ], [ -70.3459623684371, -23.062932369904399 ], [ -70.345421163249597, -23.063044510890201 ], [ -70.344774087324296, -23.0641970392799 ], [ -70.344466706419993, -23.064450565390999 ], [ -70.343085080589105, -23.065752712575001 ], [ -70.342511529051706, -23.066510318696999 ], [ -70.341937616662094, -23.067232082102901 ], [ -70.340786574644, -23.068353030113698 ], [ -70.339047736312807, -23.068797909024301 ], [ -70.338241734864098, -23.0695574705911 ], [ -70.337164217655399, -23.070283481680001 ], [ -70.336206083490595, -23.0713310768427 ], [ -70.335482478656601, -23.072591750484001 ], [ -70.334459928135402, -23.074966125435601 ], [ -70.333736995995096, -23.0762984749617 ], [ -70.332854150446494, -23.077130348778901 ], [ -70.332469242653602, -23.0773845072884 ], [ -70.331700832694906, -23.078036188233099 ], [ -70.331180815372605, -23.0785308397911 ], [ -70.331265202936905, -23.078867911626499 ], [ -70.331556468600297, -23.079112738661902 ], [ -70.332709089641398, -23.078135218021501 ], [ -70.333478555395402, -23.077591056989899 ], [ -70.333982505115998, -23.077622646612799 ], [ -70.334712516589093, -23.077007124312399 ], [ -70.335014636300997, -23.076215993492902 ], [ -70.3353931658595, -23.075316682703701 ], [ -70.336188947143398, -23.0735177320833 ], [ -70.337068558855705, -23.072363268667502 ], [ -70.337599174769494, -23.0711759110782 ], [ -70.338211864236598, -23.070453833807601 ], [ -70.3387882931479, -23.069982973405398 ], [ -70.339598198155102, -23.0696176642337 ], [ -70.340367232611996, -23.0690376317676 ], [ -70.341795117977298, -23.068487845944901 ], [ -70.343372238336698, -23.067363269001898 ], [ -70.343983810452499, -23.066533647877399 ], [ -70.344864024590095, -23.065450826965499 ], [ -70.345820622655395, -23.0642598185959 ], [ -70.346083560903907, -23.063433158812199 ], [ -70.346858240235804, -23.063426558283101 ], [ -70.347358354579399, -23.063311860843399 ], [ -70.347669867753297, -23.063240416986499 ], [ -70.347938505478893, -23.062987215407201 ], [ -70.348283180972203, -23.0625899875645 ], [ -70.348666945648901, -23.062228269280599 ], [ -70.349010902485304, -23.061759356643101 ], [ -70.349433396613094, -23.061397306034699 ], [ -70.349685912986303, -23.061140965382101 ], [ -70.349931923613099, -23.060891227854398 ], [ -70.349891403402196, -23.060712352130501 ], [ -70.349561952425901, -23.060657195283301 ], [ -70.349275262796098, -23.0606091969291 ], [ -70.349076578800705, -23.0605759324873 ], [ -70.348537886254803, -23.060938973644198 ], [ -70.3481950008957, -23.061515408554701 ], [ -70.347580977955701, -23.062094155012499 ], [ -70.346746843309901, -23.062526124396001 ] ] ] ] } },
{ "type": "Feature", "properties": { "id": "secc_mejillones_portuaria_mono.12", "Name": null, "description": null, "timestamp": null, "begin": null, "end": null, "altitudeMode": null, "tessellate": -1, "extrude": 0, "visibility": -1, "drawOrder": null, "icon": null, "REG": "Región de Antofagasta", "COM": "Mejillones", "ZONA": "E1", "NOMBRE": "E1 Zona de Protección de Quebradas Aluvionales", "UPERM": "Libres de edificación de cualquier tipo, salvo obras de artes o protección, como puentes", "UPROH": "Todos lo no indicados como permitidos", "Capa": "Seccional Mejillones - Portuaria", "CUT": "02102", "Shape_STAr": 1486365.4614299999, "Shape_STLe": 31028.795057899999 }, "geometry": { "type": "MultiPolygon", "coordinates": [ [ [ [ -70.340833338095806, -23.083228048335901 ], [ -70.340622437525298, -23.0835266298261 ], [ -70.3433122503437, -23.083163969148401 ], [ -70.344487083119802, -23.0828672169234 ], [ -70.346407992538502, -23.082793501193098 ], [ -70.348133227586203, -23.081746468569701 ], [ -70.348684206209796, -23.0810535539893 ], [ -70.349790154421299, -23.080069142210299 ], [ -70.351581894912499, -23.0794803119311 ], [ -70.3525701571333, -23.079127747086801 ], [ -70.354595432548294, -23.0771031146623 ], [ -70.355642199418696, -23.0764059250222 ], [ -70.356071458993398, -23.075943434526 ], [ -70.356872377548896, -23.075456244938 ], [ -70.357931008951297, -23.075307023891099 ], [ -70.358226379727796, -23.075265387665699 ], [ -70.359189043992103, -23.074683600807901 ], [ -70.359915315080002, -23.073709556917802 ], [ -70.360215948940507, -23.073028549198799 ], [ -70.360407716009703, -23.0725941476082 ], [ -70.360588778554899, -23.071338042019701 ], [ -70.360459991762298, -23.066886794934 ], [ -70.359652580834194, -23.066066763733001 ], [ -70.359617325596702, -23.067188476176501 ], [ -70.359780910725505, -23.0680473297388 ], [ -70.359619657662407, -23.071274695942598 ], [ -70.359400184159298, -23.0723572009239 ], [ -70.357941183833503, -23.073869915247101 ], [ -70.356811217763806, -23.0743935528462 ], [ -70.355745404343295, -23.075107478787199 ], [ -70.355134948564697, -23.076044666670999 ], [ -70.353788108359694, -23.076952320733898 ], [ -70.352674754817002, -23.077965498433599 ], [ -70.352058171424204, -23.078293375561799 ], [ -70.350627367332194, -23.078556526500101 ], [ -70.348898807829997, -23.0800409134864 ], [ -70.348669593118402, -23.080365469202299 ], [ -70.348166704492996, -23.0804414510302 ], [ -70.346822628562805, -23.081635779735102 ], [ -70.3458964578017, -23.082002118333399 ], [ -70.344620555966003, -23.082263896517599 ], [ -70.343575305799305, -23.0823444807986 ], [ -70.342880131993297, -23.082565459805899 ], [ -70.340833338095806, -23.083228048335901 ] ] ] ] } },
{ "type": "Feature", "properties": { "id": "secc_mejillones_portuaria_mono.13", "Name": null, "description": null, "timestamp": null, "begin": null, "end": null, "altitudeMode": null, "tessellate": -1, "extrude": 0, "visibility": -1, "drawOrder": null, "icon": null, "REG": "Región de Antofagasta", "COM": "Mejillones", "ZONA": "E1", "NOMBRE": "E1 Zona de Protección de Quebradas Aluvionales", "UPERM": "Libres de edificación de cualquier tipo, salvo obras de artes o protección, como puentes", "UPROH": "Todos lo no indicados como permitidos", "Capa": "Seccional Mejillones - Portuaria", "CUT": "02102", "Shape_STAr": 1486365.4614299999, "Shape_STLe": 31028.795057899999 }, "geometry": { "type": "MultiPolygon", "coordinates": [ [ [ [ -70.350615249289007, -23.0711368644379 ], [ -70.350954924438994, -23.0702378533862 ], [ -70.351450612509794, -23.069445039507599 ], [ -70.351560950135095, -23.068703230510099 ], [ -70.351632114341896, -23.068224780656799 ], [ -70.351622803688599, -23.067292908604099 ], [ -70.351578339081698, -23.066719780362199 ], [ -70.351629311720401, -23.064066865418202 ], [ -70.351568209210001, -23.063578363706799 ], [ -70.351418816766596, -23.0623839828536 ], [ -70.3507585569714, -23.0622104058471 ], [ -70.350720937122702, -23.062481239887202 ], [ -70.350613997773195, -23.063251127103399 ], [ -70.350813749822294, -23.063858772545899 ], [ -70.351049732186198, -23.064215198591999 ], [ -70.351094908978197, -23.064860010576599 ], [ -70.3510999197986, -23.0653617880442 ], [ -70.351030325074703, -23.066150957289501 ], [ -70.350997674514701, -23.0667605898598 ], [ -70.350923426126499, -23.067083824153698 ], [ -70.350789733062001, -23.0677141042557 ], [ -70.350664448413895, -23.0683047439462 ], [ -70.350632870774405, -23.069021900343198 ], [ -70.350218585893202, -23.0702083031764 ], [ -70.349329449688099, -23.070395120880502 ], [ -70.347476909748806, -23.0710919737224 ], [ -70.347014574741493, -23.071346826517299 ], [ -70.346250552537995, -23.072428668483099 ], [ -70.343906143305404, -23.074312535256901 ], [ -70.341628120180104, -23.075084630973901 ], [ -70.339899853872296, -23.076604763493201 ], [ -70.3392811138269, -23.0767175441276 ], [ -70.338169420320099, -23.0779098307464 ], [ -70.337281985097306, -23.078275790702701 ], [ -70.336083222038596, -23.078501001370501 ], [ -70.334612222656503, -23.078620970991299 ], [ -70.332025923076401, -23.079574758559499 ], [ -70.332067839431602, -23.079897004882699 ], [ -70.332029454228206, -23.079933173437801 ], [ -70.336090659730701, -23.079253670908798 ], [ -70.337562018477001, -23.079169529034299 ], [ -70.3388706117249, -23.078298176668099 ], [ -70.339524547338698, -23.077826655831299 ], [ -70.340676031037106, -23.0767415548824 ], [ -70.3413295971868, -23.076234185399901 ], [ -70.342140242587305, -23.075940544572799 ], [ -70.343608353492797, -23.075533776502901 ], [ -70.344836546507594, -23.074376306831301 ], [ -70.345872817983704, -23.073399684275898 ], [ -70.346911215141205, -23.072638103690899 ], [ -70.348180589962396, -23.0717311678813 ], [ -70.349766631670605, -23.071502560009499 ], [ -70.350615249289007, -23.0711368644379 ] ] ] ] } },
{ "type": "Feature", "properties": { "id": "secc_mejillones_portuaria_mono.14", "Name": null, "description": null, "timestamp": null, "begin": null, "end": null, "altitudeMode": null, "tessellate": -1, "extrude": 0, "visibility": -1, "drawOrder": null, "icon": null, "REG": "Región de Antofagasta", "COM": "Mejillones", "ZONA": "E1", "NOMBRE": "E1 Zona de Protección de Quebradas Aluvionales", "UPERM": "Libres de edificación de cualquier tipo, salvo obras de artes o protección, como puentes", "UPROH": "Todos lo no indicados como permitidos", "Capa": "Seccional Mejillones - Portuaria", "CUT": "02102", "Shape_STAr": 1486365.4614299999, "Shape_STLe": 31028.795057899999 }, "geometry": { "type": "MultiPolygon", "coordinates": [ [ [ [ -70.350961367954199, -23.0708829951792 ], [ -70.350615249289007, -23.0711368644379 ], [ -70.349733261059995, -23.0720405089933 ], [ -70.349192382202304, -23.072188506874198 ], [ -70.347800728157793, -23.072487139535198 ], [ -70.346725026909198, -23.073392421674502 ], [ -70.346108805770896, -23.073756117114002 ], [ -70.345112697097306, -23.074875776290501 ], [ -70.343858588292207, -23.077323864966498 ], [ -70.342912208824501, -23.079554262968699 ], [ -70.341839621919505, -23.0807820869043 ], [ -70.340876835158895, -23.0813637731383 ], [ -70.340262338535595, -23.081906654639599 ], [ -70.339339696066602, -23.082631368456401 ], [ -70.339808123059598, -23.082985838936601 ], [ -70.339729932509897, -23.0829148136961 ], [ -70.340116263073497, -23.0828040026156 ], [ -70.340577228486097, -23.082405802879801 ], [ -70.341269916576096, -23.081933944657401 ], [ -70.342116843563403, -23.081389085294798 ], [ -70.343082830301896, -23.081129962352101 ], [ -70.343464878671796, -23.080589048714099 ], [ -70.343731063769596, -23.080084963812599 ], [ -70.344112036807203, -23.079436523787599 ], [ -70.344220057058394, -23.078611185296499 ], [ -70.344565850449698, -23.0783214871451 ], [ -70.344792576884899, -23.077746048021702 ], [ -70.345134444861799, -23.077062094917 ], [ -70.345821738901705, -23.0760525998238 ], [ -70.3463515753743, -23.0747935338829 ], [ -70.346926921055299, -23.074215119523402 ], [ -70.347812157969798, -23.073634060512799 ], [ -70.348622057374996, -23.0732687053505 ], [ -70.349043870867604, -23.072834972195299 ], [ -70.3506267022168, -23.072283784278 ], [ -70.351589023071099, -23.0716662013884 ], [ -70.352743856169397, -23.070220333948299 ], [ -70.353693329427003, -23.0690315527835 ], [ -70.354662359582605, -23.067505302468199 ], [ -70.354837444682602, -23.067229533037199 ], [ -70.354756385852198, -23.066871786072699 ], [ -70.354123498734594, -23.066821482386299 ], [ -70.353942236696, -23.066807074990098 ], [ -70.353251105560204, -23.067422348475102 ], [ -70.352527324491803, -23.068647251627901 ], [ -70.352063678293206, -23.069347996189499 ], [ -70.351954891019005, -23.069512413747098 ], [ -70.350961367954199, -23.0708829951792 ] ] ] ] } },
{ "type": "Feature", "properties": { "id": "secc_mejillones_portuaria_mono.15", "Name": null, "description": null, "timestamp": null, "begin": null, "end": null, "altitudeMode": null, "tessellate": -1, "extrude": 0, "visibility": -1, "drawOrder": null, "icon": null, "REG": "Región de Antofagasta", "COM": "Mejillones", "ZONA": "E1", "NOMBRE": "E1 Zona de Protección de Quebradas Aluvionales", "UPERM": "Libres de edificación de cualquier tipo, salvo obras de artes o protección, como puentes", "UPROH": "Todos lo no indicados como permitidos", "Capa": "Seccional Mejillones - Portuaria", "CUT": "02102", "Shape_STAr": 1486365.4614299999, "Shape_STLe": 31028.795057899999 }, "geometry": { "type": "MultiPolygon", "coordinates": [ [ [ [ -70.340622437525298, -23.0835266298261 ], [ -70.340588389231996, -23.0835312206233 ], [ -70.340604098386606, -23.083552593382201 ], [ -70.340622437525298, -23.0835266298261 ] ] ] ] } },
{ "type": "Feature", "properties": { "id": "secc_mejillones_portuaria_mono.16", "Name": null, "description": null, "timestamp": null, "begin": null, "end": null, "altitudeMode": null, "tessellate": -1, "extrude": 0, "visibility": -1, "drawOrder": null, "icon": null, "REG": "Región de Antofagasta", "COM": "Mejillones", "ZONA": "ZEP", "NOMBRE": "ZEP Zona de Expansión Portuaria", "UPERM": "Libres de edificación de cualquier tipo, salvo obras de artes o protección, como puentes", "UPROH": "Todos lo no indicados como permitidos", "Capa": "Seccional Mejillones - Portuaria", "CUT": "02102", "Shape_STAr": 2645835.3239699998, "Shape_STLe": 11181.142831700001 }, "geometry": { "type": "MultiPolygon", "coordinates": [ [ [ [ -70.367452185859904, -23.064123913015798 ], [ -70.372699894878195, -23.0682076551251 ], [ -70.375070661598201, -23.0652192560425 ], [ -70.375792287579699, -23.064309600698799 ], [ -70.369895228776798, -23.059593561970399 ], [ -70.365853696727797, -23.054466976354199 ], [ -70.355966024657505, -23.041827360967702 ], [ -70.346408686803798, -23.028836979684002 ], [ -70.344435136972294, -23.029829280996701 ], [ -70.342735409537795, -23.030683874385399 ], [ -70.342249661176197, -23.031541902868302 ], [ -70.344418320139695, -23.034671025684201 ], [ -70.350345209420297, -23.0425780054257 ], [ -70.354894656012704, -23.048238346820199 ], [ -70.359211743457394, -23.0538646910328 ], [ -70.362862080570693, -23.0586363897627 ], [ -70.365006848348997, -23.0613348708616 ], [ -70.367452185859904, -23.064123913015798 ] ] ] ] } },
{ "type": "Feature", "properties": { "id": "secc_mejillones_portuaria_mono.17", "Name": null, "description": null, "timestamp": null, "begin": null, "end": null, "altitudeMode": null, "tessellate": -1, "extrude": 0, "visibility": -1, "drawOrder": null, "icon": null, "REG": "Región de Antofagasta", "COM": "Mejillones", "ZONA": "ZP", "NOMBRE": "ZP Zona Portuaria", "UPERM": "Libres de edificación de cualquier tipo, salvo obras de artes o protección, como puentes", "UPROH": "Todos lo no indicados como permitidos", "Capa": "Seccional Mejillones - Portuaria", "CUT": "02102", "Shape_STAr": 1668966.4284699999, "Shape_STLe": 5299.8492365299999 }, "geometry": { "type": "MultiPolygon", "coordinates": [ [ [ [ -70.378013485903793, -23.078404661235599 ], [ -70.382048376814197, -23.081499777971899 ], [ -70.387000424609496, -23.074788229717001 ], [ -70.387715924107496, -23.0738184422251 ], [ -70.384924598887395, -23.071565891286099 ], [ -70.375792287579699, -23.064309600698799 ], [ -70.375070661598201, -23.0652192560425 ], [ -70.372699894878195, -23.0682076551251 ], [ -70.3725826961807, -23.0687214825777 ], [ -70.371556466029901, -23.070105448736001 ], [ -70.370799274576299, -23.071126570850399 ], [ -70.370069604244193, -23.072115231792601 ], [ -70.373196033578495, -23.074527669323601 ], [ -70.378013485903793, -23.078404661235599 ] ] ] ] } },
{ "type": "Feature", "properties": { "id": "secc_mejillones_portuaria_mono.18", "Name": null, "description": null, "timestamp": null, "begin": null, "end": null, "altitudeMode": null, "tessellate": -1, "extrude": 0, "visibility": -1, "drawOrder": null, "icon": null, "REG": "Región de Antofagasta", "COM": "Mejillones", "ZONA": "ZI-1", "NOMBRE": "ZI-1 Zona Industrial 1", "UPERM": "Libres de edificación de cualquier tipo, salvo obras de artes o protección, como puentes", "UPROH": "Todos lo no indicados como permitidos", "Capa": "Seccional Mejillones - Portuaria", "CUT": "02102", "Shape_STAr": 1771637.02856, "Shape_STLe": 5443.1132875200001 }, "geometry": { "type": "MultiPolygon", "coordinates": [ [ [ [ -70.368715796294396, -23.073949519374001 ], [ -70.366053844339405, -23.077556051851499 ], [ -70.3640374712203, -23.0802880074753 ], [ -70.364908715874705, -23.080998622135599 ], [ -70.376163408932896, -23.0898689860967 ], [ -70.382048376814197, -23.081499777971899 ], [ -70.378013485903793, -23.078404661235599 ], [ -70.373196033578495, -23.074527669323601 ], [ -70.370069604244193, -23.072115231792601 ], [ -70.368715796294396, -23.073949519374001 ] ] ] ] } },
{ "type": "Feature", "properties": { "id": "secc_mejillones_portuaria_mono.19", "Name": null, "description": null, "timestamp": null, "begin": null, "end": null, "altitudeMode": null, "tessellate": -1, "extrude": 0, "visibility": -1, "drawOrder": null, "icon": null, "REG": "Región de Antofagasta", "COM": "Mejillones", "ZONA": "ZIS", "NOMBRE": "ZIS Zona Industrial y de Servicios", "UPERM": "Libres de edificación de cualquier tipo, salvo obras de artes o protección, como puentes", "UPROH": "Todos lo no indicados como permitidos", "Capa": "Seccional Mejillones - Portuaria", "CUT": "02102", "Shape_STAr": 1887442.9299300001, "Shape_STLe": 13600.8088936 }, "geometry": { "type": "MultiPolygon", "coordinates": [ [ [ [ -70.360210722458405, -23.058967489795801 ], [ -70.363098974395697, -23.062670404573801 ], [ -70.365006848348997, -23.0613348708616 ], [ -70.362862080570693, -23.0586363897627 ], [ -70.359211743457394, -23.0538646910328 ], [ -70.354894656012704, -23.048238346820199 ], [ -70.350345209420297, -23.0425780054257 ], [ -70.344418320139695, -23.034671025684201 ], [ -70.342249661176197, -23.031541902868302 ], [ -70.341974167375, -23.0320285304864 ], [ -70.340953278446804, -23.034096236328899 ], [ -70.343134709495999, -23.036975979423602 ], [ -70.344118224485101, -23.0382478861975 ], [ -70.346728677615602, -23.041623638752899 ], [ -70.350228469337296, -23.0461491058165 ], [ -70.354498964421495, -23.0517903269184 ], [ -70.354509243726696, -23.0518032443881 ], [ -70.357347417380197, -23.055369703621501 ], [ -70.360210722458405, -23.058967489795801 ] ] ] ] } },
{ "type": "Feature", "properties": { "id": "secc_mejillones_portuaria_mono.20", "Name": null, "description": null, "timestamp": null, "begin": null, "end": null, "altitudeMode": null, "tessellate": -1, "extrude": 0, "visibility": -1, "drawOrder": null, "icon": null, "REG": "Región de Antofagasta", "COM": "Mejillones", "ZONA": "ZIS", "NOMBRE": "ZIS Zona Industrial y de Servicios", "UPERM": "Libres de edificación de cualquier tipo, salvo obras de artes o protección, como puentes", "UPROH": "Todos lo no indicados como permitidos", "Capa": "Seccional Mejillones - Portuaria", "CUT": "02102", "Shape_STAr": 1887442.9299300001, "Shape_STLe": 13600.8088936 }, "geometry": { "type": "MultiPolygon", "coordinates": [ [ [ [ -70.387000424609496, -23.074788229717001 ], [ -70.382048376814197, -23.081499777971899 ], [ -70.376163408932896, -23.0898689860967 ], [ -70.3783439398361, -23.091587332204298 ], [ -70.379432878391796, -23.0923281276018 ], [ -70.382082843136203, -23.088494029160302 ], [ -70.384049448720802, -23.085687832905201 ], [ -70.3851153531444, -23.0841842841557 ], [ -70.385824060210695, -23.0830939051217 ], [ -70.385884554834703, -23.083128891570698 ], [ -70.385969583899097, -23.0830062985616 ], [ -70.385942815390905, -23.0829909152935 ], [ -70.387610419501002, -23.080658760036101 ], [ -70.388568863202707, -23.079291273598301 ], [ -70.3888137487222, -23.0789127640899 ], [ -70.389679781582402, -23.077357905454001 ], [ -70.389726651683205, -23.0773883573526 ], [ -70.390519086746494, -23.076392949320301 ], [ -70.390640538308006, -23.076148141510199 ], [ -70.389968369921405, -23.0755805560763 ], [ -70.388265760481701, -23.074262136045 ], [ -70.387715924107496, -23.0738184422251 ], [ -70.387000424609496, -23.074788229717001 ] ] ] ] } },
{ "type": "Feature", "properties": { "id": "secc_mejillones_portuaria_mono.21", "Name": null, "description": null, "timestamp": null, "begin": null, "end": null, "altitudeMode": null, "tessellate": -1, "extrude": 0, "visibility": -1, "drawOrder": null, "icon": null, "REG": "Región de Antofagasta", "COM": "Mejillones", "ZONA": "Z5", "NOMBRE": "Z5 Zona Industrial 5", "UPERM": "Libres de edificación de cualquier tipo, salvo obras de artes o protección, como puentes", "UPROH": "Todos lo no indicados como permitidos", "Capa": "Seccional Mejillones - Portuaria", "CUT": "02102", "Shape_STAr": 2703166.5195300002, "Shape_STLe": 21058.700361200001 }, "geometry": { "type": "MultiPolygon", "coordinates": [ [ [ [ -70.341935360531394, -23.056343377957798 ], [ -70.346746843309901, -23.062526124396001 ], [ -70.347580977955701, -23.062094155012499 ], [ -70.3481950008957, -23.061515408554701 ], [ -70.348537886254803, -23.060938973644198 ], [ -70.349076578800705, -23.0605759324873 ], [ -70.349275262796098, -23.0606091969291 ], [ -70.349561952425901, -23.060657195283301 ], [ -70.351532369610695, -23.0592632170417 ], [ -70.356456739364603, -23.055887511858199 ], [ -70.357347417380197, -23.055369703621501 ], [ -70.354509243726696, -23.0518032443881 ], [ -70.353324883227401, -23.052580832890801 ], [ -70.348053030734405, -23.056066936402701 ], [ -70.3465566416168, -23.0570885956847 ], [ -70.344045643443295, -23.0538366500367 ], [ -70.333980636607095, -23.0406270288196 ], [ -70.333799371184199, -23.0408915442504 ], [ -70.333568475699096, -23.0436654733723 ], [ -70.3331017833289, -23.044713374082399 ], [ -70.337384374007698, -23.0505034496578 ], [ -70.341935360531394, -23.056343377957798 ] ] ] ] } },
{ "type": "Feature", "properties": { "id": "secc_mejillones_portuaria_mono.22", "Name": null, "description": null, "timestamp": null, "begin": null, "end": null, "altitudeMode": null, "tessellate": -1, "extrude": 0, "visibility": -1, "drawOrder": null, "icon": null, "REG": "Región de Antofagasta", "COM": "Mejillones", "ZONA": "Z5", "NOMBRE": "Z5 Zona Industrial 5", "UPERM": "Libres de edificación de cualquier tipo, salvo obras de artes o protección, como puentes", "UPROH": "Todos lo no indicados como permitidos", "Capa": "Seccional Mejillones - Portuaria", "CUT": "02102", "Shape_STAr": 2703166.5195300002, "Shape_STLe": 21058.700361200001 }, "geometry": { "type": "MultiPolygon", "coordinates": [ [ [ [ -70.357931008951297, -23.075307023891099 ], [ -70.3640374712203, -23.0802880074753 ], [ -70.366053844339405, -23.077556051851499 ], [ -70.360548551909403, -23.0733022675198 ], [ -70.360215948940507, -23.073028549198799 ], [ -70.359915315080002, -23.073709556917802 ], [ -70.359189043992103, -23.074683600807901 ], [ -70.358226379727796, -23.075265387665699 ], [ -70.357931008951297, -23.075307023891099 ] ] ] ] } },
{ "type": "Feature", "properties": { "id": "secc_mejillones_portuaria_mono.23", "Name": null, "description": null, "timestamp": null, "begin": null, "end": null, "altitudeMode": null, "tessellate": -1, "extrude": 0, "visibility": -1, "drawOrder": null, "icon": null, "REG": "Región de Antofagasta", "COM": "Mejillones", "ZONA": "Z5", "NOMBRE": "Z5 Zona Industrial 5", "UPERM": "Libres de edificación de cualquier tipo, salvo obras de artes o protección, como puentes", "UPROH": "Todos lo no indicados como permitidos", "Capa": "Seccional Mejillones - Portuaria", "CUT": "02102", "Shape_STAr": 2703166.5195300002, "Shape_STLe": 21058.700361200001 }, "geometry": { "type": "MultiPolygon", "coordinates": [ [ [ [ -70.360459991762298, -23.066886794934 ], [ -70.362857630960306, -23.069321822617901 ], [ -70.365804135040307, -23.066486197135902 ], [ -70.366263893948101, -23.065968944274498 ], [ -70.365084776636195, -23.064810127417399 ], [ -70.363098974395697, -23.062670404573801 ], [ -70.359329977389393, -23.065739114628698 ], [ -70.359652580834194, -23.066066763733001 ], [ -70.360459991762298, -23.066886794934 ] ] ] ] } },
{ "type": "Feature", "properties": { "id": "secc_mejillones_portuaria_mono.24", "Name": null, "description": null, "timestamp": null, "begin": null, "end": null, "altitudeMode": null, "tessellate": -1, "extrude": 0, "visibility": -1, "drawOrder": null, "icon": null, "REG": "Región de Antofagasta", "COM": "Mejillones", "ZONA": "Z5", "NOMBRE": "Z5 Zona Industrial 5", "UPERM": "Libres de edificación de cualquier tipo, salvo obras de artes o protección, como puentes", "UPROH": "Todos lo no indicados como permitidos", "Capa": "Seccional Mejillones - Portuaria", "CUT": "02102", "Shape_STAr": 2703166.5195300002, "Shape_STLe": 21058.700361200001 }, "geometry": { "type": "MultiPolygon", "coordinates": [ [ [ [ -70.340129456993395, -23.040908525217301 ], [ -70.3428357723662, -23.0443266412749 ], [ -70.346728677615602, -23.041623638752899 ], [ -70.344118224485101, -23.0382478861975 ], [ -70.340129456993395, -23.040908525217301 ] ] ] ] } },
{ "type": "Feature", "properties": { "id": "secc_mejillones_portuaria_mono.25", "Name": null, "description": null, "timestamp": null, "begin": null, "end": null, "altitudeMode": null, "tessellate": -1, "extrude": 0, "visibility": -1, "drawOrder": null, "icon": null, "REG": "Región de Antofagasta", "COM": "Mejillones", "ZONA": "Z5", "NOMBRE": "Z5 Zona Industrial 5", "UPERM": "Libres de edificación de cualquier tipo, salvo obras de artes o protección, como puentes", "UPROH": "Todos lo no indicados como permitidos", "Capa": "Seccional Mejillones - Portuaria", "CUT": "02102", "Shape_STAr": 2703166.5195300002, "Shape_STLe": 21058.700361200001 }, "geometry": { "type": "MultiPolygon", "coordinates": [ [ [ [ -70.355690184823303, -23.073479047899699 ], [ -70.356811217763806, -23.0743935528462 ], [ -70.357941183833503, -23.073869915247101 ], [ -70.359400184159298, -23.0723572009239 ], [ -70.356798559227002, -23.070216070715301 ], [ -70.354662359582605, -23.067505302468199 ], [ -70.353693329427003, -23.0690315527835 ], [ -70.352743856169397, -23.070220333948299 ], [ -70.353288512738004, -23.0709188526628 ], [ -70.355690184823303, -23.073479047899699 ] ] ] ] } },
{ "type": "Feature", "properties": { "id": "secc_mejillones_portuaria_mono.26", "Name": null, "description": null, "timestamp": null, "begin": null, "end": null, "altitudeMode": null, "tessellate": -1, "extrude": 0, "visibility": -1, "drawOrder": null, "icon": null, "REG": "Región de Antofagasta", "COM": "Mejillones", "ZONA": "Z5", "NOMBRE": "Z5 Zona Industrial 5", "UPERM": "Libres de edificación de cualquier tipo, salvo obras de artes o protección, como puentes", "UPROH": "Todos lo no indicados como permitidos", "Capa": "Seccional Mejillones - Portuaria", "CUT": "02102", "Shape_STAr": 2703166.5195300002, "Shape_STLe": 21058.700361200001 }, "geometry": { "type": "MultiPolygon", "coordinates": [ [ [ [ -70.347847124275702, -23.0639398771998 ], [ -70.350789733062001, -23.0677141042557 ], [ -70.350923426126499, -23.067083824153698 ], [ -70.350997674514701, -23.0667605898598 ], [ -70.351030325074703, -23.066150957289501 ], [ -70.3510999197986, -23.0653617880442 ], [ -70.351094908978197, -23.064860010576599 ], [ -70.351049732186198, -23.064215198591999 ], [ -70.350813749822294, -23.063858772545899 ], [ -70.350613997773195, -23.063251127103399 ], [ -70.350720937122702, -23.062481239887202 ], [ -70.349685912986303, -23.061140965382101 ], [ -70.349433396613094, -23.061397306034699 ], [ -70.349010902485304, -23.061759356643101 ], [ -70.348666945648901, -23.062228269280599 ], [ -70.348283180972203, -23.0625899875645 ], [ -70.347938505478893, -23.062987215407201 ], [ -70.347669867753297, -23.063240416986499 ], [ -70.347358354579399, -23.063311860843399 ], [ -70.347847124275702, -23.0639398771998 ] ] ] ] } },
{ "type": "Feature", "properties": { "id": "secc_mejillones_portuaria_mono.27", "Name": null, "description": null, "timestamp": null, "begin": null, "end": null, "altitudeMode": null, "tessellate": -1, "extrude": 0, "visibility": -1, "drawOrder": null, "icon": null, "REG": "Región de Antofagasta", "COM": "Mejillones", "ZONA": "Z5", "NOMBRE": "Z5 Zona Industrial 5", "UPERM": "Libres de edificación de cualquier tipo, salvo obras de artes o protección, como puentes", "UPROH": "Todos lo no indicados como permitidos", "Capa": "Seccional Mejillones - Portuaria", "CUT": "02102", "Shape_STAr": 2703166.5195300002, "Shape_STLe": 21058.700361200001 }, "geometry": { "type": "MultiPolygon", "coordinates": [ [ [ [ -70.366821158469506, -23.072401243663101 ], [ -70.368715796294396, -23.073949519374001 ], [ -70.370069604244193, -23.072115231792601 ], [ -70.370799274576299, -23.071126570850399 ], [ -70.371556466029901, -23.070105448736001 ], [ -70.369806523471894, -23.068814873593301 ], [ -70.366821158469506, -23.072401243663101 ] ] ] ] } },
{ "type": "Feature", "properties": { "id": "secc_mejillones_portuaria_mono.28", "Name": null, "description": null, "timestamp": null, "begin": null, "end": null, "altitudeMode": null, "tessellate": -1, "extrude": 0, "visibility": -1, "drawOrder": null, "icon": null, "REG": "Región de Antofagasta", "COM": "Mejillones", "ZONA": "Z5", "NOMBRE": "Z5 Zona Industrial 5", "UPERM": "Libres de edificación de cualquier tipo, salvo obras de artes o protección, como puentes", "UPROH": "Todos lo no indicados como permitidos", "Capa": "Seccional Mejillones - Portuaria", "CUT": "02102", "Shape_STAr": 2703166.5195300002, "Shape_STLe": 21058.700361200001 }, "geometry": { "type": "MultiPolygon", "coordinates": [ [ [ [ -70.351578339081698, -23.066719780362199 ], [ -70.351622803688599, -23.067292908604099 ], [ -70.351632114341896, -23.068224780656799 ], [ -70.351560950135095, -23.068703230510099 ], [ -70.352063678293206, -23.069347996189499 ], [ -70.352527324491803, -23.068647251627901 ], [ -70.353251105560204, -23.067422348475102 ], [ -70.353942236696, -23.066807074990098 ], [ -70.354123498734594, -23.066821482386299 ], [ -70.3515800980839, -23.0635937584799 ], [ -70.351568209210001, -23.063578363706799 ], [ -70.351629311720401, -23.064066865418202 ], [ -70.351578339081698, -23.066719780362199 ] ] ] ] } },
{ "type": "Feature", "properties": { "id": "secc_mejillones_portuaria_mono.29", "Name": null, "description": null, "timestamp": null, "begin": null, "end": null, "altitudeMode": null, "tessellate": -1, "extrude": 0, "visibility": -1, "drawOrder": null, "icon": null, "REG": "Región de Antofagasta", "COM": "Mejillones", "ZONA": "ZI-3", "NOMBRE": "ZI-3 Zona Industrial 3", "UPERM": "Libres de edificación de cualquier tipo, salvo obras de artes o protección, como puentes", "UPROH": "Todos lo no indicados como permitidos", "Capa": "Seccional Mejillones - Portuaria", "CUT": "02102", "Shape_STAr": 2105966.4636200001, "Shape_STLe": 7718.0009345300004 }, "geometry": { "type": "MultiPolygon", "coordinates": [ [ [ [ -70.333980636607095, -23.0406270288196 ], [ -70.344045643443295, -23.0538366500367 ], [ -70.3465566416168, -23.0570885956847 ], [ -70.348053030734405, -23.056066936402701 ], [ -70.353324883227401, -23.052580832890801 ], [ -70.354509243726696, -23.0518032443881 ], [ -70.354498964421495, -23.0517903269184 ], [ -70.350228469337296, -23.0461491058165 ], [ -70.346728677615602, -23.041623638752899 ], [ -70.3428357723662, -23.0443266412749 ], [ -70.340129456993395, -23.040908525217301 ], [ -70.344118224485101, -23.0382478861975 ], [ -70.343134709495999, -23.036975979423602 ], [ -70.340953278446804, -23.034096236328899 ], [ -70.340860457495495, -23.034284232722001 ], [ -70.339422255546395, -23.0350611008895 ], [ -70.339074510497397, -23.036450035445 ], [ -70.338150269830393, -23.036983577137701 ], [ -70.335479362253196, -23.0384399344412 ], [ -70.333980636607095, -23.0406270288196 ] ] ] ] } }
]
}
