{
"type": "FeatureCollection",
"name": "SECC_02_Mejillones_IndPequena",
"crs": { "type": "name", "properties": { "name": "urn:ogc:def:crs:OGC:1.3:CRS84" } },
"features": [
{ "type": "Feature", "properties": { "id": "ipt_02_prc_mejillones_secc_indpequena.1", "Name": null, "description": null, "timestamp": null, "begin": null, "end": null, "altitudeMode": null, "tessellate": -1, "extrude": 0, "visibility": -1, "drawOrder": null, "icon": null, "REG": "Antofagasta", "COM": "Mejillones", "LOCALIDAD": "Industria Pequeña", "ZONA": "U-8", "NOMBRE": "U-8 Talleres Artesanales", "UPERM": "Talleres y servicios artesanales de carácter inofensivo, talleres manufacturadores, y toda aquella actividad de desarrollo para la pequeña industria manufacturera que no sea molesta y que no acopie material peligroso", "UPROH": "Todos los no indicados como permitidos", "Capa": "Seccional Mejillones - Industrial Pequeña", "CUT": "02102", "Shape_STAr": 71520.662597699993, "Shape_STLe": 1492.45954815 }, "geometry": { "type": "MultiPolygon", "coordinates": [ [ [ [ -70.438669511480697, -23.107647446816699 ], [ -70.438795240631293, -23.107445978087298 ], [ -70.439143592948895, -23.1072424447052 ], [ -70.439503282330506, -23.107050712279602 ], [ -70.439981249004703, -23.1067469696576 ], [ -70.440180275058495, -23.106515757352199 ], [ -70.440408156045706, -23.106083559060199 ], [ -70.441051566940104, -23.102228125851699 ], [ -70.440687193464001, -23.102166355495498 ], [ -70.440321490253893, -23.1021127959736 ], [ -70.439898433669498, -23.102239581935301 ], [ -70.439706540928, -23.103478154168201 ], [ -70.439332512072696, -23.105892275742899 ], [ -70.4390867913487, -23.106072576012501 ], [ -70.4386956351794, -23.1063675434863 ], [ -70.438073413431994, -23.1068367506961 ], [ -70.438563618194294, -23.107503431244599 ], [ -70.438669511480697, -23.107647446816699 ] ] ] ] } },
{ "type": "Feature", "properties": { "id": "ipt_02_prc_mejillones_secc_indpequena.2", "Name": null, "description": null, "timestamp": null, "begin": null, "end": null, "altitudeMode": null, "tessellate": -1, "extrude": 0, "visibility": -1, "drawOrder": null, "icon": null, "REG": "Antofagasta", "COM": "Mejillones", "LOCALIDAD": "Industria Pequeña", "ZONA": "U-7", "NOMBRE": "U-7 Semi Industrial", "UPERM": "Equipamiento y servicios portuario e Industrial a escala regional. Industria y bodegaje inofensivo. Equipamiento de transporte terrestre: carretero, ferroviario y ductos, oficinas, áreas verdes y vialidad", "UPROH": "Todos los no indicados como permitidos", "Capa": "Seccional Mejillones - Industrial Pequeña", "CUT": "02102", "Shape_STAr": 1267754.2761200001, "Shape_STLe": 6769.6360802400004 }, "geometry": { "type": "MultiPolygon", "coordinates": [ [ [ [ -70.439858515541005, -23.108439888448402 ], [ -70.438799987084295, -23.108497335368 ], [ -70.438565796067607, -23.108338175464599 ], [ -70.438480720775502, -23.108141535009398 ], [ -70.438531460518206, -23.107929103267502 ], [ -70.4385958877549, -23.107777352027501 ], [ -70.438669511480697, -23.107647446816699 ], [ -70.438563618194294, -23.107503431244599 ], [ -70.438073413431994, -23.1068367506961 ], [ -70.4386956351794, -23.1063675434863 ], [ -70.4390867913487, -23.106072576012501 ], [ -70.439332512072696, -23.105892275742899 ], [ -70.439706540928, -23.103478154168201 ], [ -70.439898433669498, -23.102239581935301 ], [ -70.440321490253893, -23.1021127959736 ], [ -70.440687193464001, -23.102166355495498 ], [ -70.441051566940104, -23.102228125851699 ], [ -70.441333682865306, -23.1008276644415 ], [ -70.441613754623802, -23.099236057518901 ], [ -70.440648500287793, -23.0990369051237 ], [ -70.439617475662999, -23.0989654718304 ], [ -70.4392365632919, -23.098920900643499 ], [ -70.439275821254995, -23.098740370886802 ], [ -70.439677610233801, -23.096892692295999 ], [ -70.439348756400804, -23.096853797569 ], [ -70.437635650136599, -23.096651171939701 ], [ -70.436779349483004, -23.0965496275962 ], [ -70.436491385743807, -23.096515479042399 ], [ -70.436015767455004, -23.0985439941187 ], [ -70.436012594496503, -23.098543622896699 ], [ -70.435957813833397, -23.098791162314999 ], [ -70.435194898857105, -23.102238483009302 ], [ -70.4276104798072, -23.104424638122399 ], [ -70.429552328713996, -23.1069636400163 ], [ -70.434346606406507, -23.112326119179698 ], [ -70.435835133588697, -23.1137178443769 ], [ -70.436789742091804, -23.114041622142199 ], [ -70.437864390227404, -23.1139193241711 ], [ -70.438746866050394, -23.1133816631115 ], [ -70.439198489872396, -23.112548261492101 ], [ -70.439531461505297, -23.111388407411201 ], [ -70.439858515541005, -23.108439888448402 ] ], [ [ -70.436256405038307, -23.098387139949502 ], [ -70.436735965851199, -23.0967020707944 ], [ -70.439307219829104, -23.0970359304272 ], [ -70.438927792858095, -23.098699659805799 ], [ -70.436256405038307, -23.098387139949502 ] ] ] ] } },
{ "type": "Feature", "properties": { "id": "ipt_02_prc_mejillones_secc_indpequena.3", "Name": null, "description": null, "timestamp": null, "begin": null, "end": null, "altitudeMode": null, "tessellate": -1, "extrude": 0, "visibility": -1, "drawOrder": null, "icon": null, "REG": "Antofagasta", "COM": "Mejillones", "LOCALIDAD": "Industria Pequeña", "ZONA": "C-2", "NOMBRE": "C-2 Borde Marítimo Industrial", "UPERM": "Industria Pesquera, Astilleros y Reparaciones Navales; Bodegas y Talleres no molestos, vialidad y equipamiento regional", "UPROH": "Todos los no indicados como permitidos", "Capa": "Seccional Mejillones - Industrial Pequeña", "CUT": "02102", "Shape_STAr": 51359.184082, "Shape_STLe": 923.01987936700004 }, "geometry": { "type": "MultiPolygon", "coordinates": [ [ [ [ -70.436256405038307, -23.098387139949502 ], [ -70.438927792858095, -23.098699659805799 ], [ -70.439307219829104, -23.0970359304272 ], [ -70.436735965851199, -23.0967020707944 ], [ -70.436256405038307, -23.098387139949502 ] ] ] ] } },
{ "type": "Feature", "properties": { "id": "ipt_02_prc_mejillones_secc_indpequena.4", "Name": null, "description": null, "timestamp": null, "begin": null, "end": null, "altitudeMode": null, "tessellate": -1, "extrude": 0, "visibility": -1, "drawOrder": null, "icon": null, "REG": "Antofagasta", "COM": "Mejillones", "LOCALIDAD": "Industria Pequeña", "ZONA": "AV", "NOMBRE": "AV Área Verde", "UPERM": "Área verde.", "UPROH": "Todos los no indicados como permitidos", "Capa": "Seccional Mejillones - Industrial Pequeña", "CUT": "02102", "Shape_STAr": 22864.425293, "Shape_STLe": 742.98926131999997 }, "geometry": { "type": "MultiPolygon", "coordinates": [ [ [ [ -70.438669511480697, -23.107647446816699 ], [ -70.4385958877549, -23.107777352027501 ], [ -70.438531460518206, -23.107929103267502 ], [ -70.438480720775502, -23.108141535009398 ], [ -70.438565796067607, -23.108338175464599 ], [ -70.438799987084295, -23.108497335368 ], [ -70.439858515541005, -23.108439888448402 ], [ -70.440408156045706, -23.106083559060199 ], [ -70.440180275058495, -23.106515757352199 ], [ -70.439981249004703, -23.1067469696576 ], [ -70.439503282330506, -23.107050712279602 ], [ -70.439143592948895, -23.1072424447052 ], [ -70.438795240631293, -23.107445978087298 ], [ -70.438669511480697, -23.107647446816699 ] ] ] ] } }
]
}
