{
"type": "FeatureCollection",
"name": "SECC_02_SanPedroAtacama_Quitar",
"crs": { "type": "name", "properties": { "name": "urn:ogc:def:crs:OGC:1.3:CRS84" } },
"features": [
{ "type": "Feature", "properties": { "id": "ipt_02_prc_sanpedroatacama_secc_quitor.1", "Name": null, "description": null, "timestamp": null, "begin": null, "end": null, "altitudeMode": null, "tessellate": -1, "extrude": 0, "visibility": -1, "drawOrder": null, "icon": null, "REG": "Antofagasta", "COM": "San Pedro de Atacama", "LOCALIDAD": "Entorno del Pukara de Quitor", "ZONA": "ZRP1", "NOMBRE": "Zona ZRP1", "UPERM": "Ninguno.La zona queda bajo la protección de la Ley de Monumentos.Mayor detalle en ordenanza.", "UPROH": "Todos los no indicados como permitidos.", "Capa": "Seccional Área Entorno Pukará Quitor", "CUT": "02203", "Shape_STAr": 22870.40625, "Shape_STLe": 716.61690060800004 }, "geometry": { "type": "MultiPolygon", "coordinates": [ [ [ [ -68.213821603503803, -22.890610235187001 ], [ -68.213977565132794, -22.891299320853101 ], [ -68.213992298559702, -22.891428452317101 ], [ -68.213980523201599, -22.891460611098498 ], [ -68.214068306932901, -22.891563224316801 ], [ -68.214145154158501, -22.8916568136809 ], [ -68.214227367181294, -22.891714579465798 ], [ -68.214345775741506, -22.8917581842556 ], [ -68.214485012100397, -22.891768431935599 ], [ -68.214799749073293, -22.891762817393399 ], [ -68.214897851775703, -22.891748962085899 ], [ -68.215032177348206, -22.8917161654899 ], [ -68.215179441275296, -22.891676263183498 ], [ -68.215314150531299, -22.891576549246398 ], [ -68.2155211539731, -22.891465241338 ], [ -68.2156504984479, -22.891401350705198 ], [ -68.215797926682399, -22.891332768018799 ], [ -68.215942582901803, -22.891297632376201 ], [ -68.2161079574458, -22.8912482580111 ], [ -68.216262985929404, -22.891203612715501 ], [ -68.216350866661202, -22.891172976123698 ], [ -68.216428415142502, -22.891144678680099 ], [ -68.216583739380198, -22.891092802721602 ], [ -68.216636529380693, -22.890944388172802 ], [ -68.216658183170907, -22.890902542110101 ], [ -68.216604696309602, -22.890872771412798 ], [ -68.216314266753699, -22.89091316443 ], [ -68.216157934805096, -22.890915261646299 ], [ -68.216007372161002, -22.890901135028098 ], [ -68.215785801436795, -22.890854154634201 ], [ -68.2156362209099, -22.890848637325501 ], [ -68.2154916063147, -22.890876603431899 ], [ -68.215290545353298, -22.890851710732999 ], [ -68.215156936402096, -22.890760231808599 ], [ -68.215007849957502, -22.890668676349001 ], [ -68.214729544421303, -22.890619502958 ], [ -68.214466439680706, -22.890618203089801 ], [ -68.213935292270705, -22.890577337435602 ], [ -68.213821603503803, -22.890610235187001 ] ] ] ] } },
{ "type": "Feature", "properties": { "id": "ipt_02_prc_sanpedroatacama_secc_quitor.2", "Name": null, "description": null, "timestamp": null, "begin": null, "end": null, "altitudeMode": null, "tessellate": -1, "extrude": 0, "visibility": -1, "drawOrder": null, "icon": null, "REG": "Antofagasta", "COM": "San Pedro de Atacama", "LOCALIDAD": "Entorno del Pukara de Quitor", "ZONA": "ZRP3", "NOMBRE": "Zona ZRP3", "UPERM": "Equipamiento vecinal: plazas, baños públicos, playas de estacionamientos, locales para venta de artesanías, quioscos para venta de refrescos y similares. Mayor detalle en ordenanza.", "UPROH": "Todos los no indicados como permitidos.", "Capa": "Seccional Área Entorno Pukará Quitor", "CUT": "02203", "Shape_STAr": 15694.6560059, "Shape_STLe": 1017.31609621 }, "geometry": { "type": "MultiPolygon", "coordinates": [ [ [ [ -68.212955256055096, -22.895017848237099 ], [ -68.212808954297401, -22.895337381299601 ], [ -68.214095411455901, -22.895023489706901 ], [ -68.214090775187401, -22.8949326474958 ], [ -68.213927502134695, -22.894616363644602 ], [ -68.213823389890905, -22.8944491073329 ], [ -68.213763073602294, -22.894284498364598 ], [ -68.213693014315695, -22.894131790893599 ], [ -68.213606954208799, -22.8939580910994 ], [ -68.213588502961699, -22.8938026516911 ], [ -68.213621194542597, -22.893725138910501 ], [ -68.213702820522599, -22.893549281441 ], [ -68.213787360536699, -22.893427213418899 ], [ -68.213929749573396, -22.8933382933802 ], [ -68.214075001168695, -22.893312124965 ], [ -68.214233099414002, -22.893294981531898 ], [ -68.214339590124197, -22.893280570079099 ], [ -68.214381919008801, -22.893209080068299 ], [ -68.214372728349304, -22.8931253857066 ], [ -68.214376692035799, -22.892996943779501 ], [ -68.214319478354597, -22.892853262561399 ], [ -68.2142618357109, -22.892784265628201 ], [ -68.214110565717505, -22.8927357180516 ], [ -68.213952863918607, -22.892684151324801 ], [ -68.213875806303406, -22.892627007969001 ], [ -68.213757176175505, -22.892509910365 ], [ -68.213645081440902, -22.892377907178599 ], [ -68.213533158129707, -22.892216029111601 ], [ -68.213530416162399, -22.892132366608799 ], [ -68.213547037724297, -22.892045811797299 ], [ -68.213562312628298, -22.891912945495999 ], [ -68.213509431954606, -22.891961419471201 ], [ -68.2134673892931, -22.8920950502987 ], [ -68.213512745448, -22.8922816926734 ], [ -68.213542707466104, -22.892453919029801 ], [ -68.213552281268903, -22.892583025885799 ], [ -68.213669891561906, -22.892765245418499 ], [ -68.213787915264405, -22.892875768600899 ], [ -68.213838981197, -22.892966840469999 ], [ -68.213838292726805, -22.8930863360562 ], [ -68.2137964152449, -22.893191288083699 ], [ -68.213728549261404, -22.8933295705788 ], [ -68.2135988577283, -22.8934532082462 ], [ -68.213458820720106, -22.8935815739544 ], [ -68.213390347965699, -22.893825013317699 ], [ -68.213466190250898, -22.894093066235399 ], [ -68.213501394548999, -22.894250978669 ], [ -68.2134231548429, -22.894398770161899 ], [ -68.2131845708128, -22.8946174671709 ], [ -68.213091129062605, -22.894717383467899 ], [ -68.212945958443797, -22.894840943904899 ], [ -68.212955256055096, -22.895017848237099 ] ] ] ] } },
{ "type": "Feature", "properties": { "id": "ipt_02_prc_sanpedroatacama_secc_quitor.3", "Name": null, "description": null, "timestamp": null, "begin": null, "end": null, "altitudeMode": null, "tessellate": -1, "extrude": 0, "visibility": -1, "drawOrder": null, "icon": null, "REG": "Antofagasta", "COM": "San Pedro de Atacama", "LOCALIDAD": "Entorno del Pukara de Quitor", "ZONA": "ZRP2", "NOMBRE": "Zona ZRP2", "UPERM": "Exclusivamente para senderos peatonales y miradores, sin modificar la topografía, ni interferir el paisaje existente. Mayor detalle en ordenanza.", "UPROH": "Todos los no indicados como permitidos.", "Capa": "Seccional Área Entorno Pukará Quitor", "CUT": "02203", "Shape_STAr": 54694.622802700003, "Shape_STLe": 1246.2185021 }, "geometry": { "type": "MultiPolygon", "coordinates": [ [ [ [ -68.214799749073293, -22.891762817393399 ], [ -68.214485012100397, -22.891768431935599 ], [ -68.214345775741506, -22.8917581842556 ], [ -68.214227367181294, -22.891714579465798 ], [ -68.214145154158501, -22.8916568136809 ], [ -68.214068306932901, -22.891563224316801 ], [ -68.213980523201599, -22.891460611098498 ], [ -68.213945124825699, -22.891557277674099 ], [ -68.213830939568496, -22.891676212025999 ], [ -68.213618349262802, -22.891861578497 ], [ -68.213562312628298, -22.891912945495999 ], [ -68.213547037724297, -22.892045811797299 ], [ -68.213530416162399, -22.892132366608799 ], [ -68.213533158129707, -22.892216029111601 ], [ -68.213645081440902, -22.892377907178599 ], [ -68.213757176175505, -22.892509910365 ], [ -68.213875806303406, -22.892627007969001 ], [ -68.213952863918607, -22.892684151324801 ], [ -68.214110565717505, -22.8927357180516 ], [ -68.2142618357109, -22.892784265628201 ], [ -68.214319478354597, -22.892853262561399 ], [ -68.214376692035799, -22.892996943779501 ], [ -68.214372728349304, -22.8931253857066 ], [ -68.214381919008801, -22.893209080068299 ], [ -68.214339590124197, -22.893280570079099 ], [ -68.214233099414002, -22.893294981531898 ], [ -68.214075001168695, -22.893312124965 ], [ -68.213929749573396, -22.8933382933802 ], [ -68.213787360536699, -22.893427213418899 ], [ -68.213702820522599, -22.893549281441 ], [ -68.213621194542597, -22.893725138910501 ], [ -68.213588502961699, -22.8938026516911 ], [ -68.213606954208799, -22.8939580910994 ], [ -68.213693014315695, -22.894131790893599 ], [ -68.213763073602294, -22.894284498364598 ], [ -68.213823389890905, -22.8944491073329 ], [ -68.213927502134695, -22.894616363644602 ], [ -68.213995010647196, -22.8945402180358 ], [ -68.214576126781495, -22.893969495059601 ], [ -68.214752304150494, -22.893836526648801 ], [ -68.214933668015405, -22.893698804302399 ], [ -68.215052957454802, -22.893589454005301 ], [ -68.215343621833398, -22.8932849720692 ], [ -68.215743832421694, -22.8927707116965 ], [ -68.216133914568303, -22.892222940319801 ], [ -68.216217281880603, -22.892079952889901 ], [ -68.216285199620302, -22.891932108991199 ], [ -68.216583739380198, -22.891092802721602 ], [ -68.216428415142502, -22.891144678680099 ], [ -68.216350866661202, -22.891172976123698 ], [ -68.216262985929404, -22.891203612715501 ], [ -68.2161079574458, -22.8912482580111 ], [ -68.215942582901803, -22.891297632376201 ], [ -68.215797926682399, -22.891332768018799 ], [ -68.2156504984479, -22.891401350705198 ], [ -68.2155211539731, -22.891465241338 ], [ -68.215314150531299, -22.891576549246398 ], [ -68.215179441275296, -22.891676263183498 ], [ -68.215032177348206, -22.8917161654899 ], [ -68.214897851775703, -22.891748962085899 ], [ -68.214799749073293, -22.891762817393399 ] ] ] ] } }
]
}
