{
"type": "FeatureCollection",
"name": "SECC_02_Calama_SanJuan",
"crs": { "type": "name", "properties": { "name": "urn:ogc:def:crs:OGC:1.3:CRS84" } },
"features": [
{ "type": "Feature", "properties": { "id": "secc_calama_sanjuan_mono.1", "Name": null, "description": null, "timestamp": null, "begin": null, "end": null, "altitudeMode": null, "tessellate": -1, "extrude": 0, "visibility": -1, "drawOrder": null, "icon": null, "REG": "Antofagasta", "COM": "Calama", "LOCALIDAD": "Calama", "ZONA": "ZE-1", "NOMBRE": "Zona ZE-1", "UPERM": "Equipamiento regional y comunal, en deporte y recreación, turismo y esparcimiento.", "UPROH": "Todos los no indicados precedentemente.", "Capa": "Seccional Calama - San Juan", "CUT": "02201", "Shape_STAr": 43542.6743164, "Shape_STLe": 835.07477597900004 }, "geometry": { "type": "MultiPolygon", "coordinates": [ [ [ [ -68.922899773823801, -22.451355385024598 ], [ -68.922912631105305, -22.451355391165801 ], [ -68.923279108427707, -22.451283857921499 ], [ -68.924860747268198, -22.450967891269201 ], [ -68.924546716722006, -22.449163093177201 ], [ -68.922682253949205, -22.4494490423826 ], [ -68.922494557194796, -22.449473295552799 ], [ -68.922527867154898, -22.4496282384967 ], [ -68.922745885046794, -22.450632255881299 ], [ -68.922854885244604, -22.451152191154399 ], [ -68.922899773823801, -22.451355385024598 ] ] ] ] } },
{ "type": "Feature", "properties": { "id": "secc_calama_sanjuan_mono.2", "Name": null, "description": null, "timestamp": null, "begin": null, "end": null, "altitudeMode": null, "tessellate": -1, "extrude": 0, "visibility": -1, "drawOrder": null, "icon": null, "REG": "Antofagasta", "COM": "Calama", "LOCALIDAD": "Calama", "ZONA": "ZU-1", "NOMBRE": "Zona ZU-1", "UPERM": "Equipamiento escala regional y comunal, en servicios públicos, culto, cultura, seguridad (exepto cárceles), salud, educación, esparcimiento y turismo, comercio y estacionamientos subterráneos.", "UPROH": "Todos los no indicados precedentemente.", "Capa": "Seccional Calama - San Juan", "CUT": "02201", "Shape_STAr": 16759.2612305, "Shape_STLe": 515.27838737900004 }, "geometry": { "type": "MultiPolygon", "coordinates": [ [ [ [ -68.923609640125207, -22.4543978146909 ], [ -68.923641087827704, -22.454479141512898 ], [ -68.924881301461795, -22.454160454517499 ], [ -68.924777466135694, -22.453762552545601 ], [ -68.924556691580506, -22.453064491648199 ], [ -68.923509417358105, -22.4533366086632 ], [ -68.923323002682395, -22.453388494049801 ], [ -68.923450503211797, -22.453852757930399 ], [ -68.923609640125207, -22.4543978146909 ] ] ] ] } },
{ "type": "Feature", "properties": { "id": "secc_calama_sanjuan_mono.3", "Name": null, "description": null, "timestamp": null, "begin": null, "end": null, "altitudeMode": null, "tessellate": -1, "extrude": 0, "visibility": -1, "drawOrder": null, "icon": null, "REG": "Antofagasta", "COM": "Calama", "LOCALIDAD": "Calama", "ZONA": "ZU-5", "NOMBRE": "Zona ZU-5", "UPERM": "Vivienda; Equipamiento vecinal en comercio.", "UPROH": "Todos los no indicados precedentemente.", "Capa": "Seccional Calama - San Juan", "CUT": "02201", "Shape_STAr": 77459.725097699993, "Shape_STLe": 2166.43117575 }, "geometry": { "type": "MultiPolygon", "coordinates": [ [ [ [ -68.922181617571098, -22.448017629921999 ], [ -68.922494557194796, -22.449473295552799 ], [ -68.922682253949205, -22.4494490423826 ], [ -68.924546716722006, -22.449163093177201 ], [ -68.924962560909904, -22.449088471426801 ], [ -68.925224099770503, -22.450486899541701 ], [ -68.925416349978903, -22.451627145803801 ], [ -68.925508671921307, -22.452100461205301 ], [ -68.926033305070902, -22.452014653060498 ], [ -68.926010233364295, -22.451878397103901 ], [ -68.925817935028803, -22.4508170297539 ], [ -68.925456344870796, -22.448966796363301 ], [ -68.925374795249894, -22.448383216843901 ], [ -68.925708323421802, -22.448394067926699 ], [ -68.9256108853737, -22.447887828127801 ], [ -68.923533709151698, -22.4482658293228 ], [ -68.923140230210194, -22.4483552775337 ], [ -68.923024503348202, -22.448376735206899 ], [ -68.922461991139002, -22.445892863107701 ], [ -68.921761043309203, -22.4460056350473 ], [ -68.922014859193197, -22.447330347091299 ], [ -68.922181617571098, -22.448017629921999 ] ] ] ] } },
{ "type": "Feature", "properties": { "id": "secc_calama_sanjuan_mono.4", "Name": null, "description": null, "timestamp": null, "begin": null, "end": null, "altitudeMode": null, "tessellate": -1, "extrude": 0, "visibility": -1, "drawOrder": null, "icon": null, "REG": "Antofagasta", "COM": "Calama", "LOCALIDAD": "Calama", "ZONA": "ZU-4", "NOMBRE": "Zona ZU-4", "UPERM": "Vivienda; Equipamiento vecinal en comercio y educación.", "UPROH": "Todos los no indicados precedentemente.", "Capa": "Seccional Calama - San Juan", "CUT": "02201", "Shape_STAr": 130296.758057, "Shape_STLe": 2727.3643680499999 }, "geometry": { "type": "MultiPolygon", "coordinates": [ [ [ [ -68.925374795249894, -22.448383216843901 ], [ -68.925456344870796, -22.448966796363301 ], [ -68.925817935028803, -22.4508170297539 ], [ -68.926010233364295, -22.451878397103901 ], [ -68.926033305070902, -22.452014653060498 ], [ -68.925508671921307, -22.452100461205301 ], [ -68.925416349978903, -22.451627145803801 ], [ -68.925224099770503, -22.450486899541701 ], [ -68.924962560909904, -22.449088471426801 ], [ -68.924546716722006, -22.449163093177201 ], [ -68.924860747268198, -22.450967891269201 ], [ -68.923279108427707, -22.451283857921499 ], [ -68.923291932162002, -22.451346608281298 ], [ -68.923336808299496, -22.451573705242399 ], [ -68.923407372971397, -22.451848619012502 ], [ -68.923465045462706, -22.452189259355599 ], [ -68.923509928705002, -22.4524044041883 ], [ -68.923509866426699, -22.452517942416598 ], [ -68.923529038301496, -22.452727099921098 ], [ -68.923528910497396, -22.452960150589 ], [ -68.923509502584693, -22.453181240957001 ], [ -68.923509417358105, -22.4533366086632 ], [ -68.924556691580506, -22.453064491648199 ], [ -68.925009352442103, -22.452930847659399 ], [ -68.925127650613703, -22.4529165610126 ], [ -68.925175642678198, -22.453572232829998 ], [ -68.926615900717707, -22.453196427721899 ], [ -68.927001670791597, -22.453118918788601 ], [ -68.927264573800002, -22.4530717441828 ], [ -68.927225700167099, -22.4528985645101 ], [ -68.927164103605094, -22.452669070694999 ], [ -68.927138483715098, -22.4524873995367 ], [ -68.927107678074094, -22.452386993726702 ], [ -68.927082029839497, -22.452257908000799 ], [ -68.927076914975103, -22.452205320229599 ], [ -68.927030712942297, -22.452042761236701 ], [ -68.926994779168794, -22.451913669938001 ], [ -68.926887103279199, -22.451289761444102 ], [ -68.926643425724393, -22.4499087555904 ], [ -68.927515255554198, -22.4497153724082 ], [ -68.927505126104606, -22.449626414855398 ], [ -68.927356420424402, -22.448782583578101 ], [ -68.927330773584401, -22.448653496932302 ], [ -68.926343263277701, -22.448796466021001 ], [ -68.926266104861995, -22.448825113948701 ], [ -68.925803211225102, -22.448887048975099 ], [ -68.925708323421802, -22.448394067926699 ], [ -68.925374795249894, -22.448383216843901 ] ] ] ] } },
{ "type": "Feature", "properties": { "id": "secc_calama_sanjuan_mono.5", "Name": null, "description": null, "timestamp": null, "begin": null, "end": null, "altitudeMode": null, "tessellate": -1, "extrude": 0, "visibility": -1, "drawOrder": null, "icon": null, "REG": "Antofagasta", "COM": "Calama", "LOCALIDAD": "Calama", "ZONA": "ZU-2", "NOMBRE": "Zona ZU-2", "UPERM": "Equipamiento regional y comunal, en esparcimiento y turismo, comercio, cultura, culto y educación.", "UPROH": "Todos los no indicados precedentemente.", "Capa": "Seccional Calama - San Juan", "CUT": "02201", "Shape_STAr": 340769.48144499998, "Shape_STLe": 3979.54713537 }, "geometry": { "type": "MultiPolygon", "coordinates": [ [ [ [ -68.918383132583998, -22.4469664727464 ], [ -68.9185060262446, -22.447882007204701 ], [ -68.918603626313697, -22.448078058600402 ], [ -68.918747603356195, -22.448116375039199 ], [ -68.918927545662299, -22.448216857453101 ], [ -68.919045779399198, -22.448307746173398 ], [ -68.919138284444301, -22.448422526052699 ], [ -68.919230792410502, -22.4485325241493 ], [ -68.919354130141798, -22.448690344054601 ], [ -68.919467199269306, -22.448819474686101 ], [ -68.919652253165694, -22.448977324234999 ], [ -68.919955574540793, -22.4491686962368 ], [ -68.920171494103698, -22.449312219817699 ], [ -68.920297454379707, -22.449383989936798 ], [ -68.920405230290299, -22.4497784368662 ], [ -68.920641348856705, -22.450581683045201 ], [ -68.920995501398195, -22.4518367465616 ], [ -68.921570398268699, -22.453828119132801 ], [ -68.921667918161006, -22.454181925746401 ], [ -68.921883480316694, -22.454980378903699 ], [ -68.922135037526999, -22.455797971457699 ], [ -68.9222120259478, -22.4560824503499 ], [ -68.9222890240071, -22.456350197226801 ], [ -68.922432745608702, -22.4568665635238 ], [ -68.922478885377203, -22.457134295450398 ], [ -68.922550701163004, -22.457473747485601 ], [ -68.922622518267801, -22.4578131994759 ], [ -68.922658425624505, -22.457985315412401 ], [ -68.922663517810903, -22.4580761480339 ], [ -68.923285736255394, -22.4582820076992 ], [ -68.923799979847701, -22.4584304477738 ], [ -68.924032548761602, -22.458502625687501 ], [ -68.924929065603095, -22.4554221840522 ], [ -68.924949677994405, -22.455346900196101 ], [ -68.924988296925306, -22.455263259170501 ], [ -68.925084778863507, -22.455173668976901 ], [ -68.925155521999798, -22.455125896281 ], [ -68.925181251057793, -22.455102005902901 ], [ -68.925177520680506, -22.454084335636399 ], [ -68.923065116351793, -22.454627140338999 ], [ -68.923084517612693, -22.454418002121201 ], [ -68.923078234366699, -22.454155069198801 ], [ -68.923091194081906, -22.4539698302085 ], [ -68.923123628295002, -22.453443986671299 ], [ -68.923509417358105, -22.4533366086632 ], [ -68.923509502584693, -22.453181240957001 ], [ -68.923528910497396, -22.452960150589 ], [ -68.923529038301496, -22.452727099921098 ], [ -68.923509866426699, -22.452517942416598 ], [ -68.923509928705002, -22.4524044041883 ], [ -68.923465045462706, -22.452189259355599 ], [ -68.923407372971397, -22.451848619012502 ], [ -68.923336808299496, -22.451573705242399 ], [ -68.923291932162002, -22.451346608281298 ], [ -68.923279108427707, -22.451283857921499 ], [ -68.922912631105305, -22.451355391165801 ], [ -68.922899773823801, -22.451355385024598 ], [ -68.922854885244604, -22.451152191154399 ], [ -68.922745885046794, -22.450632255881299 ], [ -68.922527867154898, -22.4496282384967 ], [ -68.922181617571098, -22.448017629921999 ], [ -68.922014859193197, -22.447330347091299 ], [ -68.921761043309203, -22.4460056350473 ], [ -68.921721363370494, -22.446012019158101 ], [ -68.920353247507293, -22.446245596082999 ], [ -68.919818346404298, -22.446331380770602 ], [ -68.919345184037297, -22.4463741698018 ], [ -68.918990313670903, -22.4464026752702 ], [ -68.9187074485165, -22.446421655481998 ], [ -68.918316590177696, -22.446431018934899 ], [ -68.918347326618701, -22.446636597422501 ], [ -68.918352432396503, -22.446698747148702 ], [ -68.918383132583998, -22.4469664727464 ] ], [ [ -68.922796543085894, -22.457443342834999 ], [ -68.922786189736598, -22.457470031704599 ], [ -68.922729835785901, -22.4571660395174 ], [ -68.922647658447104, -22.456960437461699 ], [ -68.922570669984793, -22.456673569297401 ], [ -68.922555306851706, -22.4565540486036 ], [ -68.922545051735497, -22.4564966774313 ], [ -68.922596454535096, -22.456549287523401 ], [ -68.922627308242994, -22.456558863060099 ], [ -68.922683875799805, -22.4565732326381 ], [ -68.922735306850498, -22.456573257271099 ], [ -68.9227918876621, -22.4565637227076 ], [ -68.9228381920625, -22.4565350617296 ], [ -68.922889645223194, -22.456496842457899 ], [ -68.922956540089601, -22.456434727335299 ], [ -68.922956479330196, -22.4565446789865 ], [ -68.922946145758402, -22.456630724331699 ], [ -68.922946111411505, -22.4566928704837 ], [ -68.922992341888602, -22.456798064309901 ], [ -68.923007750302801, -22.456836316430199 ], [ -68.922904723133897, -22.457132660123499 ], [ -68.9228583391928, -22.4573047366944 ], [ -68.922796543085894, -22.457443342834999 ] ] ] ] } },
{ "type": "Feature", "properties": { "id": "secc_calama_sanjuan_mono.6", "Name": null, "description": null, "timestamp": null, "begin": null, "end": null, "altitudeMode": null, "tessellate": -1, "extrude": 0, "visibility": -1, "drawOrder": null, "icon": null, "REG": "Antofagasta", "COM": "Calama", "LOCALIDAD": "Calama", "ZONA": "ZU-3", "NOMBRE": "Zona ZU-3", "UPERM": "Vivienda; Equipamiento vecinal en cultura, salud, educación, esparcimiento y turismo y comercio.", "UPROH": "Todos los no indicados precedentemente.", "Capa": "Seccional Calama - San Juan", "CUT": "02201", "Shape_STAr": 67601.636230499993, "Shape_STLe": 1660.84335629 }, "geometry": { "type": "MultiPolygon", "coordinates": [ [ [ [ -68.926493637480206, -22.453228330068999 ], [ -68.925175642678198, -22.453572232829998 ], [ -68.925181251057793, -22.455102005902901 ], [ -68.925184761523894, -22.455354034233199 ], [ -68.925331723524195, -22.455393136649999 ], [ -68.925928251648003, -22.4555368281077 ], [ -68.926216217093199, -22.4556325701571 ], [ -68.9272139071673, -22.455786000521101 ], [ -68.927224314147793, -22.455554148855999 ], [ -68.9272296222791, -22.455238636803902 ], [ -68.927250309826903, -22.455018741814801 ], [ -68.927307798403106, -22.4532643119908 ], [ -68.927209274161896, -22.453290872890101 ], [ -68.927089700383206, -22.4532872332979 ], [ -68.926923836318906, -22.4532871582824 ], [ -68.926757976993898, -22.4532799118622 ], [ -68.926493637480206, -22.453228330068999 ] ] ] ] } },
{ "type": "Feature", "properties": { "id": "secc_calama_sanjuan_mono.7", "Name": null, "description": null, "timestamp": null, "begin": null, "end": null, "altitudeMode": null, "tessellate": -1, "extrude": 0, "visibility": -1, "drawOrder": null, "icon": null, "REG": "Antofagasta", "COM": "Calama", "LOCALIDAD": "Calama", "ZONA": "ZU-3", "NOMBRE": "Zona ZU-3", "UPERM": "Vivienda; Equipamiento vecinal en cultura, salud, educación, esparcimiento y turismo y comercio.", "UPROH": "Todos los no indicados precedentemente.", "Capa": "Seccional Calama - San Juan", "CUT": "02201", "Shape_STAr": 67601.636230499993, "Shape_STLe": 1660.84335629 }, "geometry": { "type": "MultiPolygon", "coordinates": [ [ [ [ -68.924763382924795, -22.456352876675101 ], [ -68.924758203319996, -22.456419801254899 ], [ -68.924646311511594, -22.4563937454203 ], [ -68.924032548761602, -22.458502625687501 ], [ -68.9241085230816, -22.458526204179901 ], [ -68.924406771825602, -22.458636295829301 ], [ -68.924633033953597, -22.458712890284701 ], [ -68.924694750359507, -22.4587176999195 ], [ -68.924878136692996, -22.457231040304499 ], [ -68.9249970004646, -22.4561722085454 ], [ -68.92505562545, -22.455744044103099 ], [ -68.924979724983203, -22.455741069155099 ], [ -68.924840674671501, -22.456085202900201 ], [ -68.924763382924795, -22.456352876675101 ] ] ] ] } },
{ "type": "Feature", "properties": { "id": "secc_calama_sanjuan_mono.8", "Name": null, "description": null, "timestamp": null, "begin": null, "end": null, "altitudeMode": null, "tessellate": -1, "extrude": 0, "visibility": -1, "drawOrder": null, "icon": null, "REG": "Antofagasta", "COM": "Calama", "LOCALIDAD": "Calama", "ZONA": "AV-2", "NOMBRE": "Zona AV-2", "UPERM": "Área verde.", "UPROH": "Todos los no indicados precedentemente.", "Capa": "Seccional Calama - San Juan", "CUT": "02201", "Shape_STAr": 17045.2185059, "Shape_STLe": 1492.5101901600001 }, "geometry": { "type": "MultiPolygon", "coordinates": [ [ [ [ -68.924777466135694, -22.453762552545601 ], [ -68.924881301461795, -22.454160454517499 ], [ -68.925177520680506, -22.454084335636399 ], [ -68.925175642678198, -22.453572232829998 ], [ -68.925127650613703, -22.4529165610126 ], [ -68.925009352442103, -22.452930847659399 ], [ -68.924556691580506, -22.453064491648199 ], [ -68.924777466135694, -22.453762552545601 ] ] ] ] } },
{ "type": "Feature", "properties": { "id": "secc_calama_sanjuan_mono.9", "Name": null, "description": null, "timestamp": null, "begin": null, "end": null, "altitudeMode": null, "tessellate": -1, "extrude": 0, "visibility": -1, "drawOrder": null, "icon": null, "REG": "Antofagasta", "COM": "Calama", "LOCALIDAD": "Calama", "ZONA": "AV-2", "NOMBRE": "Zona AV-2", "UPERM": "Área verde.", "UPROH": "Todos los no indicados precedentemente.", "Capa": "Seccional Calama - San Juan", "CUT": "02201", "Shape_STAr": 17045.2185059, "Shape_STLe": 1492.5101901600001 }, "geometry": { "type": "MultiPolygon", "coordinates": [ [ [ [ -68.923084517612693, -22.454418002121201 ], [ -68.923065116351793, -22.454627140338999 ], [ -68.923641087827704, -22.454479141512898 ], [ -68.923609640125207, -22.4543978146909 ], [ -68.923450503211797, -22.453852757930399 ], [ -68.923323002682395, -22.453388494049801 ], [ -68.923123628295002, -22.453443986671299 ], [ -68.923091194081906, -22.4539698302085 ], [ -68.923078234366699, -22.454155069198801 ], [ -68.923084517612693, -22.454418002121201 ] ] ] ] } },
{ "type": "Feature", "properties": { "id": "secc_calama_sanjuan_mono.10", "Name": null, "description": null, "timestamp": null, "begin": null, "end": null, "altitudeMode": null, "tessellate": -1, "extrude": 0, "visibility": -1, "drawOrder": null, "icon": null, "REG": "Antofagasta", "COM": "Calama", "LOCALIDAD": "Calama", "ZONA": "AV-2", "NOMBRE": "Zona AV-2", "UPERM": "Área verde.", "UPROH": "Todos los no indicados precedentemente.", "Capa": "Seccional Calama - San Juan", "CUT": "02201", "Shape_STAr": 17045.2185059, "Shape_STLe": 1492.5101901600001 }, "geometry": { "type": "MultiPolygon", "coordinates": [ [ [ [ -68.9227918876621, -22.4565637227076 ], [ -68.922735306850498, -22.456573257271099 ], [ -68.922683875799805, -22.4565732326381 ], [ -68.922627308242994, -22.456558863060099 ], [ -68.922596454535096, -22.456549287523401 ], [ -68.922545051735497, -22.4564966774313 ], [ -68.922555306851706, -22.4565540486036 ], [ -68.922570669984793, -22.456673569297401 ], [ -68.922647658447104, -22.456960437461699 ], [ -68.922729835785901, -22.4571660395174 ], [ -68.922786189736598, -22.457470031704599 ], [ -68.922796543085894, -22.457443342834999 ], [ -68.9228583391928, -22.4573047366944 ], [ -68.922904723133897, -22.457132660123499 ], [ -68.923007750302801, -22.456836316430199 ], [ -68.922992341888602, -22.456798064309901 ], [ -68.922946111411505, -22.4566928704837 ], [ -68.922946145758402, -22.456630724331699 ], [ -68.922956479330196, -22.4565446789865 ], [ -68.922956540089601, -22.456434727335299 ], [ -68.922889645223194, -22.456496842457899 ], [ -68.9228381920625, -22.4565350617296 ], [ -68.9227918876621, -22.4565637227076 ] ] ] ] } },
{ "type": "Feature", "properties": { "id": "secc_calama_sanjuan_mono.11", "Name": null, "description": null, "timestamp": null, "begin": null, "end": null, "altitudeMode": null, "tessellate": -1, "extrude": 0, "visibility": -1, "drawOrder": null, "icon": null, "REG": "Antofagasta", "COM": "Calama", "LOCALIDAD": "Calama", "ZONA": "AV-2", "NOMBRE": "Zona AV-2", "UPERM": "Área verde.", "UPROH": "Todos los no indicados precedentemente.", "Capa": "Seccional Calama - San Juan", "CUT": "02201", "Shape_STAr": 17045.2185059, "Shape_STLe": 1492.5101901600001 }, "geometry": { "type": "MultiPolygon", "coordinates": [ [ [ [ -68.924988296925306, -22.455263259170501 ], [ -68.924949677994405, -22.455346900196101 ], [ -68.924929065603095, -22.4554221840522 ], [ -68.924646311511594, -22.4563937454203 ], [ -68.924758203319996, -22.456419801254899 ], [ -68.924763382924795, -22.456352876675101 ], [ -68.924840674671501, -22.456085202900201 ], [ -68.924979724983203, -22.455741069155099 ], [ -68.92505562545, -22.455744044103099 ], [ -68.925089941987196, -22.455493416459898 ], [ -68.925115743016306, -22.455335670313598 ], [ -68.925184761523894, -22.455354034233199 ], [ -68.925181251057793, -22.455102005902901 ], [ -68.925155521999798, -22.455125896281 ], [ -68.925084778863507, -22.455173668976901 ], [ -68.924988296925306, -22.455263259170501 ] ] ] ] } },
{ "type": "Feature", "properties": { "id": "secc_calama_sanjuan_mono.12", "Name": null, "description": null, "timestamp": null, "begin": null, "end": null, "altitudeMode": null, "tessellate": -1, "extrude": 0, "visibility": -1, "drawOrder": null, "icon": null, "REG": "Antofagasta", "COM": "Calama", "LOCALIDAD": "Calama", "ZONA": "AV-2", "NOMBRE": "Zona AV-2", "UPERM": "Área verde.", "UPROH": "Todos los no indicados precedentemente.", "Capa": "Seccional Calama - San Juan", "CUT": "02201", "Shape_STAr": 17045.2185059, "Shape_STLe": 1492.5101901600001 }, "geometry": { "type": "MultiPolygon", "coordinates": [ [ [ [ -68.927089700383206, -22.4532872332979 ], [ -68.927209274161896, -22.453290872890101 ], [ -68.927307798403106, -22.4532643119908 ], [ -68.927264573800002, -22.4530717441828 ], [ -68.927001670791597, -22.453118918788601 ], [ -68.926615900717707, -22.453196427721899 ], [ -68.926493637480206, -22.453228330068999 ], [ -68.926757976993898, -22.4532799118622 ], [ -68.926923836318906, -22.4532871582824 ], [ -68.927089700383206, -22.4532872332979 ] ] ] ] } }
]
}
