{
"type": "FeatureCollection",
"name": "IPT_14_PRC_Rio_Bueno",
"crs": { "type": "name", "properties": { "name": "urn:ogc:def:crs:OGC:1.3:CRS84" } },
"features": [
{ "type": "Feature", "properties": { "id": "monoparte.1", "Name": null, "description": null, "timestamp": null, "begin": null, "end": null, "altitudeMode": null, "tessellate": -1, "extrude": 0, "visibility": -1, "drawOrder": null, "icon": null, "REG": "Los Ríos", "COM": "Río Bueno", "LOC": "Río Bueno", "ZONA": "Z-6", "NOM": "Área consolidada y de extensión urbana", "UPERM": "Vivienda, equipamiento: servicio, comercio, deportivo y áreas verdes. Actividad productiva: industria, almacenamiento y talleres infofensivos, establecimientos de impacto similar y talleres artesanales. Mayor detalle revisar Ordenanza.", "UPROH": "Todos los no mencionados como permitidos.", "P_DO": "11/03/1991", "N_DOC": "3", "T_DO": "Resolución", "OBS": null }, "geometry": { "type": "Polygon", "coordinates": [ [ [ -72.947887696726397, -40.348314924024898 ], [ -72.947625727062601, -40.348324574726703 ], [ -72.947027064088203, -40.3483425477392 ], [ -72.947315206446504, -40.349935043721601 ], [ -72.947495538125295, -40.3508677505395 ], [ -72.949704169456197, -40.349303695872401 ], [ -72.951016624630896, -40.348394392392997 ], [ -72.951881616674996, -40.347780617563402 ], [ -72.9527764062004, -40.3472350402239 ], [ -72.953999253456402, -40.346916772536801 ], [ -72.954208016870297, -40.346439408202599 ], [ -72.954003030085403, -40.3461695689302 ], [ -72.9532101511832, -40.345992446487799 ], [ -72.952932537278897, -40.345901727832299 ], [ -72.951569373014195, -40.346478215069801 ], [ -72.950982484413203, -40.346725228495501 ], [ -72.950079750062301, -40.346909436930098 ], [ -72.949155732453207, -40.347179064580502 ], [ -72.948714377097701, -40.347557354298502 ], [ -72.948380337486299, -40.348094855313597 ], [ -72.948226556457499, -40.348235133949601 ], [ -72.947887696726397, -40.348314924024898 ] ] ] } },
{ "type": "Feature", "properties": { "id": "monoparte.2", "Name": null, "description": null, "timestamp": null, "begin": null, "end": null, "altitudeMode": null, "tessellate": -1, "extrude": 0, "visibility": -1, "drawOrder": null, "icon": null, "REG": "Los Ríos", "COM": "Río Bueno", "LOC": "Río Bueno", "ZONA": "ZE-1", "NOM": "Área especial. Protección de cauces naturales de agua", "UPERM": "Se permitirá exclusivamente el quipamiento para zonas de picnic y área verde comunal.", "UPROH": "Todos los no mencionados como permitidos.", "P_DO": "11/03/1991", "N_DOC": "3", "T_DO": "Resolución", "OBS": null }, "geometry": { "type": "Polygon", "coordinates": [ [ [ -72.971806666102495, -40.334726128706997 ], [ -72.969003905088798, -40.335290353989798 ], [ -72.967294788999396, -40.335574937641297 ], [ -72.966600276103094, -40.335677132056603 ], [ -72.966293703157405, -40.335929154208401 ], [ -72.965413474165103, -40.3366144067001 ], [ -72.964611377664198, -40.337186622008403 ], [ -72.963608104867205, -40.337612280269902 ], [ -72.962887146756501, -40.337971400231403 ], [ -72.962712589360095, -40.338182836523998 ], [ -72.962283470179798, -40.339090523434301 ], [ -72.962143253579598, -40.339402669132497 ], [ -72.961990381312603, -40.3395143808063 ], [ -72.959657562488303, -40.340645901206699 ], [ -72.958195559812594, -40.341406633834801 ], [ -72.958178747582096, -40.341964066145401 ], [ -72.955126019548203, -40.343411694434103 ], [ -72.954401231184093, -40.343584783099097 ], [ -72.952139669554498, -40.343587651282697 ], [ -72.951835602356596, -40.343753873732403 ], [ -72.949764059163499, -40.345504750269498 ], [ -72.949033417948897, -40.346178227069899 ], [ -72.948517346762401, -40.346555191247603 ], [ -72.947591160126194, -40.3468962720222 ], [ -72.946894771064095, -40.347055516360697 ], [ -72.946652788294003, -40.347022617418098 ], [ -72.945733934961694, -40.3465057699486 ], [ -72.945011107188407, -40.345935195912602 ], [ -72.944372919009794, -40.345409024680897 ], [ -72.944132246899599, -40.345333242255698 ], [ -72.943776453906196, -40.345355516519099 ], [ -72.943009260619107, -40.345384771937503 ], [ -72.942653032544598, -40.345421335365401 ], [ -72.941871938531193, -40.345293027800899 ], [ -72.941290244078303, -40.345368476078903 ], [ -72.940588638839003, -40.345699198149802 ], [ -72.940156584293007, -40.3457367553154 ], [ -72.940287290602697, -40.346049957914197 ], [ -72.940943533404806, -40.345799976262697 ], [ -72.941659400144005, -40.345595459619098 ], [ -72.942315567078595, -40.3456864391935 ], [ -72.943180531148499, -40.345641045601397 ], [ -72.943777043565603, -40.345686550867001 ], [ -72.944313879929595, -40.345913898053098 ], [ -72.944761193691093, -40.346573124568998 ], [ -72.945178704430006, -40.347073230127997 ], [ -72.945805001094698, -40.347550611455603 ], [ -72.9464611376075, -40.347937068409998 ], [ -72.946371547990594, -40.349187274536902 ], [ -72.9463118466808, -40.349687359450797 ], [ -72.9464907644997, -40.350164723048501 ], [ -72.946759175708294, -40.350505704430901 ], [ -72.947236365675707, -40.351051277529699 ], [ -72.947495538125295, -40.3508677505395 ], [ -72.947315206446504, -40.349935043721601 ], [ -72.947027064088203, -40.3483425477392 ], [ -72.947625727062601, -40.348324574726703 ], [ -72.947887696726397, -40.348314924024898 ], [ -72.948226556457499, -40.348235133949601 ], [ -72.948380337486299, -40.348094855313597 ], [ -72.948714377097701, -40.347557354298502 ], [ -72.949155732453207, -40.347179064580502 ], [ -72.950079750062301, -40.346909436930098 ], [ -72.950982484413203, -40.346725228495501 ], [ -72.951569373014195, -40.346478215069801 ], [ -72.952932537278897, -40.345901727832299 ], [ -72.9532101511832, -40.345992446487799 ], [ -72.954003030085403, -40.3461695689302 ], [ -72.953879931448199, -40.346007523653398 ], [ -72.953682257332503, -40.345776882261198 ], [ -72.954600166995704, -40.345848600526701 ], [ -72.955047344214705, -40.345615389288803 ], [ -72.955470978961998, -40.345346301333699 ], [ -72.955565111757195, -40.345113105880401 ], [ -72.955800453285093, -40.344808152493002 ], [ -72.955988716914106, -40.344431453086202 ], [ -72.956082838344201, -40.344090636022898 ], [ -72.956200494596004, -40.343767753639 ], [ -72.956318143333306, -40.343337248898003 ], [ -72.956553474155598, -40.3431040505507 ], [ -72.956882946743704, -40.3429784736242 ], [ -72.957094763406701, -40.343068150328399 ], [ -72.957377185690504, -40.343193697872401 ], [ -72.957777278722702, -40.343301300850797 ], [ -72.958083236509907, -40.343408908374997 ], [ -72.958436256735496, -40.343462700027303 ], [ -72.958789245703898, -40.343193617111098 ], [ -72.959095136873401, -40.342691350482703 ], [ -72.959698786789403, -40.342189081144099 ], [ -72.960192976196893, -40.341758540566801 ], [ -72.960640081307105, -40.341310065728301 ], [ -72.961440154898, -40.340610437689897 ], [ -72.9614872189251, -40.340574558157101 ], [ -72.962075544780305, -40.340395133776198 ], [ -72.9625226874779, -40.340377156372597 ], [ -72.962969839229999, -40.340430929385199 ], [ -72.963346408185203, -40.340592330939998 ], [ -72.963911231548593, -40.340664023260302 ], [ -72.964452492268506, -40.340592217077699 ], [ -72.964664237471098, -40.340305195042603 ], [ -72.964828893238902, -40.339910554924899 ], [ -72.965134727151195, -40.339426209798802 ], [ -72.965393486292697, -40.338923929699099 ], [ -72.965722807958301, -40.338278140074401 ], [ -72.966122756578898, -40.337793775630097 ], [ -72.966381497865001, -40.337273549163903 ], [ -72.966734352241701, -40.336699491692102 ], [ -72.966922549598607, -40.336469677526999 ], [ -72.967369578873303, -40.336092911690301 ], [ -72.967793139277305, -40.336021099925802 ], [ -72.968287335098793, -40.336110721857203 ], [ -72.968687446838402, -40.336361800460601 ], [ -72.969134607905303, -40.336541120248597 ], [ -72.969652344826997, -40.336630736778197 ], [ -72.970170027421105, -40.336523027912797 ], [ -72.970405305038597, -40.336361546335098 ], [ -72.9708288141384, -40.336110344231599 ], [ -72.971134651313406, -40.335841221891997 ], [ -72.971558146210995, -40.335572082717803 ], [ -72.971958228778902, -40.335679647910297 ], [ -72.9723112126985, -40.335679590237099 ], [ -72.972687777829805, -40.335823034634799 ], [ -72.973158490897106, -40.336002339938197 ], [ -72.973676255222102, -40.3361278216763 ], [ -72.974499875009101, -40.336037988512302 ], [ -72.974876334730197, -40.335858537523102 ], [ -72.974970371870498, -40.3356073837056 ], [ -72.975040833859595, -40.335248604061597 ], [ -72.975064248559804, -40.334943650007901 ], [ -72.974781732228394, -40.334602879406297 ], [ -72.974414935668904, -40.334166263261302 ], [ -72.972989700054896, -40.3344879486027 ], [ -72.971806666102495, -40.334726128706997 ] ] ] } },
{ "type": "Feature", "properties": { "id": "monoparte.3", "Name": null, "description": null, "timestamp": null, "begin": null, "end": null, "altitudeMode": null, "tessellate": -1, "extrude": 0, "visibility": -1, "drawOrder": null, "icon": null, "REG": "Los Ríos", "COM": "Río Bueno", "LOC": "Río Bueno", "ZONA": "Z-8", "NOM": "Área consolidada y de extensión urbana", "UPERM": "Vivienda y equipamiento de esparcimiento, turismo y áreas verdes. Para mayor detalle revisar Ordenanza.", "UPROH": "Todos los no mencionados como permitidos.", "P_DO": "11/03/1991", "N_DOC": "3", "T_DO": "Resolución", "OBS": null }, "geometry": { "type": "Polygon", "coordinates": [ [ [ -72.970975120981194, -40.332252238053002 ], [ -72.971806666102495, -40.334726128706997 ], [ -72.972989700054896, -40.3344879486027 ], [ -72.974414935668904, -40.334166263261302 ], [ -72.974405050958296, -40.334154496114401 ], [ -72.973863561447104, -40.333437078554503 ], [ -72.973204344379297, -40.332432687871602 ], [ -72.972978200938698, -40.332111087957799 ], [ -72.972210492540299, -40.332114654110903 ], [ -72.970975120981194, -40.332252238053002 ] ] ] } },
{ "type": "Feature", "properties": { "id": "monoparte.4", "Name": null, "description": null, "timestamp": null, "begin": null, "end": null, "altitudeMode": null, "tessellate": -1, "extrude": 0, "visibility": -1, "drawOrder": null, "icon": null, "REG": "Los Ríos", "COM": "Río Bueno", "LOC": "Río Bueno", "ZONA": "ZE-5", "NOM": "Área especial. Área de equipamiento especial", "UPERM": "Todas quellas instalaciones necesarias para el desarrollo de las actividades propias del Paperchasse y Club de Rodeo.", "UPROH": "Todos los no mencionados como permitidos.", "P_DO": "11/03/1991", "N_DOC": "3", "T_DO": "Resolución", "OBS": null }, "geometry": { "type": "Polygon", "coordinates": [ [ [ -72.959351869314602, -40.3301797125904 ], [ -72.959318042122007, -40.330358653382802 ], [ -72.959259849783194, -40.330666477994797 ], [ -72.960600616718594, -40.331131074147301 ], [ -72.961868602570306, -40.331427529717402 ], [ -72.963039415517002, -40.331667439840402 ], [ -72.963468061703594, -40.331759762787499 ], [ -72.963413406754597, -40.3296597401132 ], [ -72.962953140798703, -40.329539869727398 ], [ -72.961186800056197, -40.329246557709403 ], [ -72.960235283136399, -40.3293012801416 ], [ -72.959703259451203, -40.329387232704399 ], [ -72.959482142568902, -40.329490586309802 ], [ -72.959383693797804, -40.330011370893601 ], [ -72.959368043924897, -40.3300941535147 ], [ -72.959351869314602, -40.3301797125904 ] ] ] } },
{ "type": "Feature", "properties": { "id": "monoparte.5", "Name": null, "description": null, "timestamp": null, "begin": null, "end": null, "altitudeMode": null, "tessellate": -1, "extrude": 0, "visibility": -1, "drawOrder": null, "icon": null, "REG": "Los Ríos", "COM": "Río Bueno", "LOC": "Río Bueno", "ZONA": "Z-1", "NOM": "Área consolidada y de extensión urbana", "UPERM": "Vivienda, actividades productivas del tipo servicios artesanales y equipamiento de servicios, comercial, áreas verdes, esparcimiento y turismo. Para mayor detalle revisar la Ordenanza de dicho instrumento.", "UPROH": "Todos los no mencionados como permitidos.", "P_DO": "11/03/1991", "N_DOC": "3", "T_DO": "Resolución", "OBS": null }, "geometry": { "type": "Polygon", "coordinates": [ [ [ -72.953883276173897, -40.3336008405428 ], [ -72.953971610802597, -40.337892633013396 ], [ -72.959611992730203, -40.337801628105098 ], [ -72.959497548098298, -40.333739533161399 ], [ -72.958896828356501, -40.333890933827199 ], [ -72.958611190025096, -40.333680317697102 ], [ -72.959490191197204, -40.333478413687601 ], [ -72.959461499774605, -40.332460017302601 ], [ -72.957998956296393, -40.331385474432899 ], [ -72.959318042122007, -40.330358653382802 ], [ -72.959351869314602, -40.3301797125904 ], [ -72.953997786878304, -40.3296046096021 ], [ -72.953883276173897, -40.3336008405428 ] ] ] } },
{ "type": "Feature", "properties": { "id": "monoparte.6", "Name": null, "description": null, "timestamp": null, "begin": null, "end": null, "altitudeMode": null, "tessellate": -1, "extrude": 0, "visibility": -1, "drawOrder": null, "icon": null, "REG": "Los Ríos", "COM": "Río Bueno", "LOC": "Río Bueno", "ZONA": "Z-4", "NOM": "Área consolidada y de extensión urbana", "UPERM": "Vivienda, equipamiento de salud, educación, cultura, áreas verdes, deportivo, esparcimiento, turismo, comercial y servicios. Actividades productivas referidas a servicios artesanales, almcenamiento inofensivo.Detalles en ordenanza.", "UPROH": "Todos los no mencionados como permitidos.", "P_DO": "11/03/1991", "N_DOC": "3", "T_DO": "Resolución", "OBS": null }, "geometry": { "type": "Polygon", "coordinates": [ [ [ -72.941855403632005, -40.335688935311801 ], [ -72.938565318361995, -40.335876675608297 ], [ -72.938847089220204, -40.338802072866599 ], [ -72.939174870248095, -40.340165966043898 ], [ -72.939591975129204, -40.342393628656602 ], [ -72.939711103768701, -40.343325604579398 ], [ -72.940078583755394, -40.345549844631996 ], [ -72.940156584293007, -40.3457367553154 ], [ -72.940588638839003, -40.345699198149802 ], [ -72.941290244078303, -40.345368476078903 ], [ -72.941871938531193, -40.345293027800899 ], [ -72.942653032544598, -40.345421335365401 ], [ -72.943009260619107, -40.345384771937503 ], [ -72.943776453906196, -40.345355516519099 ], [ -72.944132246899599, -40.345333242255698 ], [ -72.944372919009794, -40.345409024680897 ], [ -72.945011107188407, -40.345935195912602 ], [ -72.945733934961694, -40.3465057699486 ], [ -72.946652788294003, -40.347022617418098 ], [ -72.946894771064095, -40.347055516360697 ], [ -72.947591160126194, -40.3468962720222 ], [ -72.948517346762401, -40.346555191247603 ], [ -72.949033417948897, -40.346178227069899 ], [ -72.949764059163499, -40.345504750269498 ], [ -72.951835602356596, -40.343753873732403 ], [ -72.952139669554498, -40.343587651282697 ], [ -72.9519538507367, -40.338388420998697 ], [ -72.946944143454104, -40.338428281408099 ], [ -72.946586893370494, -40.335418780076999 ], [ -72.941855403632005, -40.335688935311801 ] ], [ [ -72.941023120266493, -40.342393864435998 ], [ -72.940867101936107, -40.342418089886799 ], [ -72.9395106282211, -40.338475523486998 ], [ -72.9390096466513, -40.336975742172498 ], [ -72.938760138371194, -40.336270558277697 ], [ -72.938984488062601, -40.336267407795802 ], [ -72.939390891555803, -40.337497364177402 ], [ -72.939919033696299, -40.339026228833497 ], [ -72.940518322217699, -40.340828071924001 ], [ -72.941023120266493, -40.342393864435998 ] ] ] } },
{ "type": "Feature", "properties": { "id": "monoparte.7", "Name": null, "description": null, "timestamp": null, "begin": null, "end": null, "altitudeMode": null, "tessellate": -1, "extrude": 0, "visibility": -1, "drawOrder": null, "icon": null, "REG": "Los Ríos", "COM": "Río Bueno", "LOC": "Río Bueno", "ZONA": "ZE-6", "NOM": "Área especial. Restricción Aeródromo Choncomilla", "UPERM": "Destinada a evitar los obstáculos físicos como cualquier otro que perjudique la aeronavegación y en la cual se ha de controlar los usos urbanos en beneficio y seguridad de la población. Para mayor detalle revisar Ordenanza.", "UPROH": "Todos los no mencionados como permitidos.", "P_DO": "11/03/1991", "N_DOC": "3", "T_DO": "Resolución", "OBS": null }, "geometry": { "type": "Polygon", "coordinates": [ [ [ -72.9395106282211, -40.338475523486998 ], [ -72.940867101936107, -40.342418089886799 ], [ -72.941023120266493, -40.342393864435998 ], [ -72.940518322217699, -40.340828071924001 ], [ -72.939919033696299, -40.339026228833497 ], [ -72.939390891555803, -40.337497364177402 ], [ -72.938984488062601, -40.336267407795802 ], [ -72.938760138371194, -40.336270558277697 ], [ -72.9390096466513, -40.336975742172498 ], [ -72.9395106282211, -40.338475523486998 ] ] ] } },
{ "type": "Feature", "properties": { "id": "monoparte.8", "Name": null, "description": null, "timestamp": null, "begin": null, "end": null, "altitudeMode": null, "tessellate": -1, "extrude": 0, "visibility": -1, "drawOrder": null, "icon": null, "REG": "Los Ríos", "COM": "Río Bueno", "LOC": "Río Bueno", "ZONA": "Z-7", "NOM": "Área consolidada y de extensión urbana", "UPERM": "Vivienda y equipamiento de servicios, comercial y áreas verdes. Para mayor detalle revisar Ordenanza.", "UPROH": "Todos los no mencionados como permitidos.", "P_DO": "11/03/1991", "N_DOC": "3", "T_DO": "Resolución", "OBS": null }, "geometry": { "type": "Polygon", "coordinates": [ [ [ -72.969974946009202, -40.331467644045397 ], [ -72.965823200671394, -40.332351680294799 ], [ -72.966396297391995, -40.33251307087 ], [ -72.966934497033094, -40.3326369423825 ], [ -72.968186714615896, -40.332630350945202 ], [ -72.970879291858097, -40.332262910481703 ], [ -72.970975120981194, -40.332252238053002 ], [ -72.972210492540299, -40.332114654110903 ], [ -72.972978200938698, -40.332111087957799 ], [ -72.972851216901603, -40.3319304998736 ], [ -72.972709918382606, -40.331571775963504 ], [ -72.972498064216396, -40.331320690190999 ], [ -72.972262720351495, -40.331195168542003 ], [ -72.971505510405805, -40.330962131761801 ], [ -72.970400084720396, -40.330705428495698 ], [ -72.970055621898197, -40.331373721788303 ], [ -72.969974946009202, -40.331467644045397 ] ] ] } },
{ "type": "Feature", "properties": { "id": "monoparte.9", "Name": null, "description": null, "timestamp": null, "begin": null, "end": null, "altitudeMode": null, "tessellate": -1, "extrude": 0, "visibility": -1, "drawOrder": null, "icon": null, "REG": "Los Ríos", "COM": "Río Bueno", "LOC": "Río Bueno", "ZONA": "Z-7", "NOM": "Área consolidada y de extensión urbana", "UPERM": "Vivienda y equipamiento de servicios, comercial y áreas verdes. Para mayor detalle revisar Ordenanza.", "UPROH": "Todos los no mencionados como permitidos.", "P_DO": "11/03/1991", "N_DOC": "3", "T_DO": "Resolución", "OBS": null }, "geometry": { "type": "Polygon", "coordinates": [ [ [ -72.964413330034304, -40.3319633508073 ], [ -72.965293642700004, -40.3322052643937 ], [ -72.968650582605093, -40.331492054444503 ], [ -72.969731993067398, -40.3312607839134 ], [ -72.969861146342197, -40.331108126033897 ], [ -72.970056977353394, -40.330625749345302 ], [ -72.969575758788906, -40.330513994470898 ], [ -72.967081350238203, -40.330012098338997 ], [ -72.965128259291802, -40.3296177186633 ], [ -72.963408960026001, -40.329304497335102 ], [ -72.963413406754597, -40.3296597401132 ], [ -72.963468061703594, -40.331759762787499 ], [ -72.964413330034304, -40.3319633508073 ] ] ] } },
{ "type": "Feature", "properties": { "id": "monoparte.10", "Name": null, "description": null, "timestamp": null, "begin": null, "end": null, "altitudeMode": null, "tessellate": -1, "extrude": 0, "visibility": -1, "drawOrder": null, "icon": null, "REG": "Los Ríos", "COM": "Río Bueno", "LOC": "Río Bueno", "ZONA": "Z-5", "NOM": "Área consolidada y de extensión urbana", "UPERM": "Vivienda, equipamiento de servicios, seguridad, áreas verdes, deportivo, esparcimiento, turismo, comercial y servicios. Actividades productivas del tipo servicios artesanales. Para mayor detalle revisar Ordenanza.", "UPROH": "Todos los no mencionados como permitidos.", "P_DO": "11/03/1991", "N_DOC": "3", "T_DO": "Resolución", "OBS": null }, "geometry": { "type": "Polygon", "coordinates": [ [ [ -72.965823200671394, -40.332351680294799 ], [ -72.963055572147795, -40.332951842955801 ], [ -72.963083496794397, -40.335171908053098 ], [ -72.963093711335702, -40.3373172040207 ], [ -72.962887146756501, -40.337971400231403 ], [ -72.963608104867205, -40.337612280269902 ], [ -72.964611377664198, -40.337186622008403 ], [ -72.965413474165103, -40.3366144067001 ], [ -72.966293703157405, -40.335929154208401 ], [ -72.966600276103094, -40.335677132056603 ], [ -72.967294788999396, -40.335574937641297 ], [ -72.969003905088798, -40.335290353989798 ], [ -72.971806666102495, -40.334726128706997 ], [ -72.970975120981194, -40.332252238053002 ], [ -72.970879291858097, -40.332262910481703 ], [ -72.968186714615896, -40.332630350945202 ], [ -72.966934497033094, -40.3326369423825 ], [ -72.966396297391995, -40.33251307087 ], [ -72.965823200671394, -40.332351680294799 ] ] ] } },
{ "type": "Feature", "properties": { "id": "monoparte.11", "Name": null, "description": null, "timestamp": null, "begin": null, "end": null, "altitudeMode": null, "tessellate": -1, "extrude": 0, "visibility": -1, "drawOrder": null, "icon": null, "REG": "Los Ríos", "COM": "Río Bueno", "LOC": "Río Bueno", "ZONA": "Z-5", "NOM": "Área consolidada y de extensión urbana", "UPERM": "Vivienda, equipamiento de servicios, seguridad, áreas verdes, deportivo, esparcimiento, turismo, comercial y servicios. Actividades productivas del tipo servicios artesanales. Para mayor detalle revisar Ordenanza.", "UPROH": "Todos los no mencionados como permitidos.", "P_DO": "11/03/1991", "N_DOC": "3", "T_DO": "Resolución", "OBS": null }, "geometry": { "type": "Polygon", "coordinates": [ [ [ -72.963039415517002, -40.331667439840402 ], [ -72.9630518253025, -40.332653951943499 ], [ -72.965293642700004, -40.3322052643937 ], [ -72.964413330034304, -40.3319633508073 ], [ -72.963468061703594, -40.331759762787499 ], [ -72.963039415517002, -40.331667439840402 ] ] ] } },
{ "type": "Feature", "properties": { "id": "monoparte.12", "Name": null, "description": null, "timestamp": null, "begin": null, "end": null, "altitudeMode": null, "tessellate": -1, "extrude": 0, "visibility": -1, "drawOrder": null, "icon": null, "REG": "Los Ríos", "COM": "Río Bueno", "LOC": "Río Bueno", "ZONA": "Z-3", "NOM": "Área consolidada y de extensión urbana", "UPERM": "Vivienda, equipamiento: servicio, seguridad, esparcimiento, turismo, comercio, educacional, deportivo y áreas verdes. Actividad productiva:industria, almacenamiento y talleres inofensivo, servicios artesanales. Detalles en ordenanza.", "UPROH": "Todos los no mencionados como permitidos.", "P_DO": "11/03/1991", "N_DOC": "3", "T_DO": "Resolución", "OBS": null }, "geometry": { "type": "Polygon", "coordinates": [ [ [ -72.942294837590893, -40.331710527471003 ], [ -72.941855403632005, -40.335688935311801 ], [ -72.946586893370494, -40.335418780076999 ], [ -72.946944143454104, -40.338428281408099 ], [ -72.9519538507367, -40.338388420998697 ], [ -72.952139669554498, -40.343587651282697 ], [ -72.954401231184093, -40.343584783099097 ], [ -72.955126019548203, -40.343411694434103 ], [ -72.958178747582096, -40.341964066145401 ], [ -72.958195559812594, -40.341406633834801 ], [ -72.959657562488303, -40.340645901206699 ], [ -72.961990381312603, -40.3395143808063 ], [ -72.962143253579598, -40.339402669132497 ], [ -72.962283470179798, -40.339090523434301 ], [ -72.962712589360095, -40.338182836523998 ], [ -72.962887146756501, -40.337971400231403 ], [ -72.963093711335702, -40.3373172040207 ], [ -72.963083496794397, -40.335171908053098 ], [ -72.963055572147795, -40.332951842955801 ], [ -72.959497548098298, -40.333739533161399 ], [ -72.959611992730203, -40.337801628105098 ], [ -72.953971610802597, -40.337892633013396 ], [ -72.953883276173897, -40.3336008405428 ], [ -72.950443577267805, -40.333539921023899 ], [ -72.950531365156294, -40.332182904791303 ], [ -72.942294837590893, -40.331710527471003 ] ] ] } },
{ "type": "Feature", "properties": { "id": "monoparte.13", "Name": null, "description": null, "timestamp": null, "begin": null, "end": null, "altitudeMode": null, "tessellate": -1, "extrude": 0, "visibility": -1, "drawOrder": null, "icon": null, "REG": "Los Ríos", "COM": "Río Bueno", "LOC": "Río Bueno", "ZONA": "Z-3", "NOM": "Área consolidada y de extensión urbana", "UPERM": "Vivienda, equipamiento: servicio, seguridad, esparcimiento, turismo, comercio, educacional, deportivo y áreas verdes. Actividad productiva:industria, almacenamiento y talleres inofensivo, servicios artesanales. Detalles en ordenanza.", "UPROH": "Todos los no mencionados como permitidos.", "P_DO": "11/03/1991", "N_DOC": "3", "T_DO": "Resolución", "OBS": null }, "geometry": { "type": "Polygon", "coordinates": [ [ [ -72.959461499774605, -40.332460017302601 ], [ -72.959490191197204, -40.333478413687601 ], [ -72.9630518253025, -40.332653951943499 ], [ -72.963039415517002, -40.331667439840402 ], [ -72.961868602570306, -40.331427529717402 ], [ -72.960600616718594, -40.331131074147301 ], [ -72.959259849783194, -40.330666477994797 ], [ -72.959318042122007, -40.330358653382802 ], [ -72.957998956296393, -40.331385474432899 ], [ -72.959461499774605, -40.332460017302601 ] ] ] } },
{ "type": "Feature", "properties": { "id": "monoparte.14", "Name": null, "description": null, "timestamp": null, "begin": null, "end": null, "altitudeMode": null, "tessellate": -1, "extrude": 0, "visibility": -1, "drawOrder": null, "icon": null, "REG": "Los Ríos", "COM": "Río Bueno", "LOC": "Río Bueno", "ZONA": "ZE-3", "NOM": "Área especial. Protección de líneas de alta tensión", "UPERM": "Protección de líneas de alta tensión, franja no edificable.", "UPROH": "Todos los no mencionados como permitidos.", "P_DO": "11/03/1991", "N_DOC": "3", "T_DO": "Resolución", "OBS": null }, "geometry": { "type": "Polygon", "coordinates": [ [ [ -72.958611190025096, -40.333680317697102 ], [ -72.958896828356501, -40.333890933827199 ], [ -72.959497548098298, -40.333739533161399 ], [ -72.963055572147795, -40.332951842955801 ], [ -72.965823200671394, -40.332351680294799 ], [ -72.969974946009202, -40.331467644045397 ], [ -72.970055621898197, -40.331373721788303 ], [ -72.970400084720396, -40.330705428495698 ], [ -72.970056977353394, -40.330625749345302 ], [ -72.969861146342197, -40.331108126033897 ], [ -72.969731993067398, -40.3312607839134 ], [ -72.968650582605093, -40.331492054444503 ], [ -72.965293642700004, -40.3322052643937 ], [ -72.9630518253025, -40.332653951943499 ], [ -72.959490191197204, -40.333478413687601 ], [ -72.958611190025096, -40.333680317697102 ] ] ] } },
{ "type": "Feature", "properties": { "id": "monoparte.15", "Name": null, "description": null, "timestamp": null, "begin": null, "end": null, "altitudeMode": null, "tessellate": -1, "extrude": 0, "visibility": -1, "drawOrder": null, "icon": null, "REG": "Los Ríos", "COM": "Río Bueno", "LOC": "Río Bueno", "ZONA": "Z-2", "NOM": "Área consolidada y de extensión urbana", "UPERM": "Vivienda, equipamiento: servicios, esparcimiento, turismo, comercio, educacional, deportivo y áreas verdes. Act. prod.: establecimientos de impacto similar, serv. artesanales, talleres y almacenamiento inofensivo. Detalles en ordenanza.", "UPROH": "Todos los no mencionados como permitidos.", "P_DO": "11/03/1991", "N_DOC": "3", "T_DO": "Resolución", "OBS": null }, "geometry": { "type": "Polygon", "coordinates": [ [ [ -72.940369406145507, -40.326219765628899 ], [ -72.942258730127406, -40.3268948547083 ], [ -72.9428051212345, -40.3270900353032 ], [ -72.942475968537806, -40.330070531186003 ], [ -72.942457685233194, -40.330236072222498 ], [ -72.942436839524802, -40.330424823116402 ], [ -72.942294837590893, -40.331710527471003 ], [ -72.950531365156294, -40.332182904791303 ], [ -72.950443577267805, -40.333539921023899 ], [ -72.953883276173897, -40.3336008405428 ], [ -72.953997786878304, -40.3296046096021 ], [ -72.959351869314602, -40.3301797125904 ], [ -72.959368043924897, -40.3300941535147 ], [ -72.959383693797804, -40.330011370893601 ], [ -72.959482142568902, -40.329490586309802 ], [ -72.959703259451203, -40.329387232704399 ], [ -72.960235283136399, -40.3293012801416 ], [ -72.961186800056197, -40.329246557709403 ], [ -72.962953140798703, -40.329539869727398 ], [ -72.963413406754597, -40.3296597401132 ], [ -72.963408960026001, -40.329304497335102 ], [ -72.9629634584538, -40.329223331381002 ], [ -72.961575200211996, -40.3290440839288 ], [ -72.959434004945606, -40.328811060764799 ], [ -72.959036985712501, -40.328728542484001 ], [ -72.9586575221511, -40.328649671807803 ], [ -72.958139865788198, -40.328524139168302 ], [ -72.956963386458, -40.328362756773799 ], [ -72.955881020518504, -40.328219295131902 ], [ -72.954657474062401, -40.328147573166099 ], [ -72.953857458517405, -40.328183459000599 ], [ -72.9525162386755, -40.328309026568398 ], [ -72.951222046649306, -40.328416641295 ], [ -72.950444126121695, -40.328398736783697 ], [ -72.949102962912605, -40.328004097299498 ], [ -72.947832407421998, -40.327717066669301 ], [ -72.946091296620907, -40.327340310807998 ], [ -72.944679615872403, -40.326891793507897 ], [ -72.9430091528872, -40.326245916595802 ], [ -72.942350390204197, -40.325922978889103 ], [ -72.941668074955302, -40.325797348700398 ], [ -72.941221041834297, -40.3257076135326 ], [ -72.940908438798999, -40.325510257929899 ], [ -72.940669849498903, -40.325760291931601 ], [ -72.940371589396605, -40.326214905457398 ], [ -72.940369406145507, -40.326219765628899 ] ] ] } },
{ "type": "Feature", "properties": { "id": "monoparte.16", "Name": null, "description": null, "timestamp": null, "begin": null, "end": null, "altitudeMode": null, "tessellate": -1, "extrude": 0, "visibility": -1, "drawOrder": null, "icon": null, "REG": "Los Ríos", "COM": "Río Bueno", "LOC": "Río Bueno", "ZONA": "Z-9", "NOM": "Área consolidada y de extensión urbana", "UPERM": "Vivienda, equipamiento: servicio, esparcimiento, turismo, comercio, deportivo y áreas verdes. Actividad productiva: establecimientos de impacto similar, industria, talleres y almacenamiento inofensivo. Mayor detalle revisar Ordenanza.", "UPROH": "Todos los no mencionados como permitidos.", "P_DO": "11/03/1991", "N_DOC": "3", "T_DO": "Resolución", "OBS": null }, "geometry": { "type": "Polygon", "coordinates": [ [ [ -72.928825057228394, -40.340172573279901 ], [ -72.930257616853396, -40.341301192418598 ], [ -72.932494862289701, -40.339551302712003 ], [ -72.932852822589197, -40.339210396743198 ], [ -72.933598391442899, -40.339142326290698 ], [ -72.934761478749706, -40.3390288531482 ], [ -72.936073644437698, -40.338983578572702 ], [ -72.938847089220204, -40.338802072866599 ], [ -72.938565318361995, -40.335876675608297 ], [ -72.941855403632005, -40.335688935311801 ], [ -72.942294837590893, -40.331710527471003 ], [ -72.942436839524802, -40.330424823116402 ], [ -72.942457685233194, -40.330236072222498 ], [ -72.942475968537806, -40.330070531186003 ], [ -72.9428051212345, -40.3270900353032 ], [ -72.942258730127406, -40.3268948547083 ], [ -72.940369406145507, -40.326219765628899 ], [ -72.939625823732001, -40.327874241975202 ], [ -72.938760680022398, -40.330010880513299 ], [ -72.938522037440904, -40.330488206961 ], [ -72.938044878019397, -40.330806384008298 ], [ -72.937627377326507, -40.331010910761499 ], [ -72.937060777475097, -40.331260881888497 ], [ -72.936643260846196, -40.3315335985735 ], [ -72.936195926886597, -40.331783578980399 ], [ -72.9352416073136, -40.332306255383898 ], [ -72.934764452436696, -40.3325334936075 ], [ -72.933839978655101, -40.333004757879401 ], [ -72.932766304272903, -40.3335729206417 ], [ -72.931871554442495, -40.334095618832301 ], [ -72.931334719556901, -40.334345581938699 ], [ -72.930708480025302, -40.334390931107997 ], [ -72.930141851670498, -40.334527215427599 ], [ -72.929664697702293, -40.334618049624801 ], [ -72.928978783540401, -40.334754303704798 ], [ -72.928501638989204, -40.334799667808902 ], [ -72.927935015063198, -40.3348904726112 ], [ -72.927338553107404, -40.335026733030602 ], [ -72.926175471349197, -40.335185587139001 ], [ -72.925638653262794, -40.335276384211497 ], [ -72.9250421795969, -40.335389893510502 ], [ -72.924475531534597, -40.335480676811201 ], [ -72.923252710110603, -40.335775872381902 ], [ -72.9248608663667, -40.3370491648692 ], [ -72.928527191685205, -40.339937897281899 ], [ -72.928680026636798, -40.340058310509697 ], [ -72.928825057228394, -40.340172573279901 ] ] ] } }
]
}
