{
"type": "FeatureCollection",
"name": "IPT_14_PRC_Futrono",
"crs": { "type": "name", "properties": { "name": "urn:ogc:def:crs:OGC:1.3:CRS84" } },
"features": [
{ "type": "Feature", "properties": { "id": "monoparte.1", "Name": null, "description": null, "timestamp": null, "begin": null, "end": null, "altitudeMode": null, "tessellate": -1, "extrude": 0, "visibility": -1, "drawOrder": null, "icon": null, "REG": "Los Ríos", "COM": "Futrono", "LOC": "Futrono", "ZONA": "Z-3", "NOM": "Áreas consolidadas y de extensión urbana", "UPERM": "Vivienda, equipamiento de escala comunal y vecinal. (Ver detalle en ordenanza)", "UPROH": "Todos aquellos no señalados como permitidos", "P_DO": "03/12/1997", "N_DOC": "37", "T_DO": "Resolución", "OBS": null }, "geometry": { "type": "Polygon", "coordinates": [ [ [ -72.378457095637202, -40.130468501667302 ], [ -72.378261382299499, -40.130507457621803 ], [ -72.378103841938, -40.130538815292901 ], [ -72.377810170132705, -40.130752336501899 ], [ -72.377576932853103, -40.130995072609899 ], [ -72.377360171208196, -40.131194431732801 ], [ -72.377220359146506, -40.131317668168798 ], [ -72.377039335299898, -40.131361082172397 ], [ -72.376735010479507, -40.131422394701701 ], [ -72.376253113038601, -40.131534167275703 ], [ -72.375863984141603, -40.1316384649665 ], [ -72.375496520703607, -40.131804088711398 ], [ -72.375204485009405, -40.132050919143097 ], [ -72.375094535703496, -40.132275754445402 ], [ -72.374988701813606, -40.132395613600401 ], [ -72.3749304939994, -40.132445383674302 ], [ -72.375362764576394, -40.132814489057701 ], [ -72.3757649957534, -40.133162597883903 ], [ -72.376157341318404, -40.133499077611198 ], [ -72.376550043351301, -40.133842695237199 ], [ -72.376926304641401, -40.134167726474402 ], [ -72.377327608411406, -40.134496791726498 ], [ -72.377722834138595, -40.134828416238697 ], [ -72.378124735504599, -40.135169376407099 ], [ -72.378495282557694, -40.1355041021055 ], [ -72.379049518730497, -40.135974062333801 ], [ -72.3795437913234, -40.136424323562998 ], [ -72.379948103786802, -40.1367509090704 ], [ -72.380353364479106, -40.137096528529902 ], [ -72.380641700404496, -40.137338325714197 ], [ -72.380783432145094, -40.137441422357 ], [ -72.380921829849598, -40.137539849810103 ], [ -72.382066959927997, -40.137527821458498 ], [ -72.382734265350607, -40.137522606812603 ], [ -72.383870447337202, -40.137517971028799 ], [ -72.385006273718503, -40.1375061847762 ], [ -72.385687898281404, -40.137476703530297 ], [ -72.386171565556893, -40.137462545508498 ], [ -72.3868427981282, -40.137473873827602 ], [ -72.387721876560803, -40.1374814943104 ], [ -72.388373558548494, -40.137474321393903 ], [ -72.389028222394899, -40.137464674204701 ], [ -72.389484576578994, -40.1374632177736 ], [ -72.389677631611804, -40.137474242195097 ], [ -72.389814287225306, -40.137475003912698 ], [ -72.389079127565395, -40.136892829622802 ], [ -72.388717918033905, -40.136622208655801 ], [ -72.389997305136006, -40.136251088466501 ], [ -72.389294674861205, -40.135733102611802 ], [ -72.389061035443206, -40.135530236914697 ], [ -72.388687479122893, -40.135136056867502 ], [ -72.388177519080301, -40.134121504175198 ], [ -72.387826038055906, -40.133421640253999 ], [ -72.387456866222806, -40.132688026403002 ], [ -72.387016848521796, -40.132751761640698 ], [ -72.386161398115902, -40.132843532684902 ], [ -72.385559126082001, -40.132844480890803 ], [ -72.385337473752401, -40.132819987871599 ], [ -72.385089745269298, -40.132708083445301 ], [ -72.384887812213094, -40.1325805399266 ], [ -72.384807944095499, -40.132535215142397 ], [ -72.384774934579397, -40.132532482812202 ], [ -72.384764466535103, -40.1329500118878 ], [ -72.384785682592394, -40.133077124420801 ], [ -72.384769128542302, -40.133193903381297 ], [ -72.384748391937407, -40.133276488385803 ], [ -72.384804258173901, -40.133351112486899 ], [ -72.384891327393106, -40.133403851788302 ], [ -72.384974970601306, -40.133437627246799 ], [ -72.385111433833202, -40.133534676953602 ], [ -72.385169307262103, -40.133599709213001 ], [ -72.3852001838126, -40.133671251805197 ], [ -72.385222083656004, -40.133762121125699 ], [ -72.385247431689194, -40.1338223858181 ], [ -72.3852389082803, -40.133900800846099 ], [ -72.385218172095705, -40.133983385911897 ], [ -72.385094191336705, -40.134137625080598 ], [ -72.385000088208301, -40.134243327919997 ], [ -72.384879648208198, -40.134368866303902 ], [ -72.384801466028506, -40.1344950747905 ], [ -72.384800760999894, -40.134580886257403 ], [ -72.384813213263499, -40.134681564118303 ], [ -72.384903141986499, -40.134741845859502 ], [ -72.385025976476697, -40.134814510120897 ], [ -72.385086049162098, -40.134873759553699 ], [ -72.385175768554902, -40.1349798023086 ], [ -72.3852372589119, -40.135067607111402 ], [ -72.385348544551306, -40.135157766265202 ], [ -72.385432284770403, -40.135193445280699 ], [ -72.385487302246403, -40.135250935684297 ], [ -72.385576382258094, -40.135294083557199 ], [ -72.385667920373805, -40.135386727138503 ], [ -72.385722633003496, -40.135488074685 ], [ -72.385808739715301, -40.1355713460133 ], [ -72.385876253385703, -40.135630376308299 ], [ -72.385999395529794, -40.1356591821541 ], [ -72.386078933234899, -40.135710234202598 ], [ -72.386146142400406, -40.135813122481899 ], [ -72.386183589494905, -40.135916881981998 ], [ -72.386216454941703, -40.136028401742003 ], [ -72.386217947524898, -40.136108429460997 ], [ -72.386298810420499, -40.136186133623802 ], [ -72.386447587701795, -40.136280914371902 ], [ -72.386643416480396, -40.136322842872303 ], [ -72.386680709760199, -40.136367267390703 ], [ -72.386682838611904, -40.136410100456096 ], [ -72.386650390393896, -40.136444413874599 ], [ -72.386583009069597, -40.136463068358601 ], [ -72.386457574968404, -40.136438143784297 ], [ -72.386292333531998, -40.136361956137499 ], [ -72.386227842241595, -40.136313799932502 ], [ -72.386146903295995, -40.136247059355298 ], [ -72.3860801666752, -40.1361536901655 ], [ -72.386070772846693, -40.136089621601698 ], [ -72.386028956879898, -40.135997906095497 ], [ -72.386011090350706, -40.135950767239997 ], [ -72.3859233597572, -40.135872310065302 ], [ -72.385849095734798, -40.135814906790699 ], [ -72.385699121616099, -40.135733505812503 ], [ -72.385608646999103, -40.135662278391003 ], [ -72.385533319456101, -40.135583458780602 ], [ -72.385488995089204, -40.1355037308184 ], [ -72.385438706220299, -40.135428943861001 ], [ -72.385399755632704, -40.135332377784998 ], [ -72.385312026557799, -40.135253920077503 ], [ -72.385175993176603, -40.135203090564303 ], [ -72.385043060514107, -40.135152170148103 ], [ -72.384982762788695, -40.135063377408699 ], [ -72.384914963979398, -40.134948590424699 ], [ -72.384823782049907, -40.1348630845849 ], [ -72.384727698298093, -40.134803935819797 ], [ -72.384665628452296, -40.134679449025398 ], [ -72.384649209071199, -40.134598904187897 ], [ -72.384641026361194, -40.134496671078203 ], [ -72.384666355795503, -40.134381542136197 ], [ -72.384708369485693, -40.134289755478399 ], [ -72.384786168174699, -40.1341683247324 ], [ -72.384880886161596, -40.134074995781504 ], [ -72.384996595641894, -40.133966753998102 ], [ -72.385048145306996, -40.133879454621898 ], [ -72.385046044876006, -40.133774660317897 ], [ -72.384999594800306, -40.133652098916102 ], [ -72.384953473388606, -40.133598637915497 ], [ -72.384738282351805, -40.133516760797903 ], [ -72.384586013920398, -40.133514067472099 ], [ -72.384315318896995, -40.133564883093797 ], [ -72.384165651233104, -40.133614540566597 ], [ -72.383968769804497, -40.133651280600098 ], [ -72.383770115769295, -40.133652325511697 ], [ -72.383554070203601, -40.133615749829303 ], [ -72.383358781727694, -40.133559501673702 ], [ -72.3831892411241, -40.133521565055503 ], [ -72.383092305908804, -40.133507718448897 ], [ -72.382879332342597, -40.133533012022397 ], [ -72.382723964446498, -40.133530405981297 ], [ -72.382555605325706, -40.133516264375203 ], [ -72.382426486903299, -40.133479527814004 ], [ -72.382249446894093, -40.133415595365101 ], [ -72.381991830152799, -40.133292058134799 ], [ -72.381571614036602, -40.133082716457501 ], [ -72.381153674433904, -40.132856624955302 ], [ -72.380760067593599, -40.132620288714598 ], [ -72.380415208745902, -40.132427804303497 ], [ -72.380225804417904, -40.1323022696007 ], [ -72.380137141017798, -40.132204771064799 ], [ -72.380099648066306, -40.132074797018497 ], [ -72.380093865000504, -40.131958194863799 ], [ -72.380110137564699, -40.131848097019201 ], [ -72.380121421378703, -40.1317000159438 ], [ -72.380130312914801, -40.131566303259298 ], [ -72.380118801267201, -40.1314594014205 ], [ -72.380101208086302, -40.131355059616503 ], [ -72.380082048848195, -40.131281743780399 ], [ -72.380053502463397, -40.131144358579398 ], [ -72.380047129595496, -40.131015858383897 ], [ -72.380080940902204, -40.130883800762497 ], [ -72.380110203620902, -40.130785238587798 ], [ -72.380106781143297, -40.130716229373597 ], [ -72.380080831387801, -40.130631196693798 ], [ -72.380025532891906, -40.130580384122602 ], [ -72.379927776333204, -40.130549877970999 ], [ -72.379780180846595, -40.130516060562897 ], [ -72.379654287843195, -40.130481609792803 ], [ -72.379563943413402, -40.130412756857297 ], [ -72.37952449993, -40.130368630515697 ], [ -72.379454421814003, -40.1302896542702 ], [ -72.378651067012996, -40.1304298925902 ], [ -72.378457095637202, -40.130468501667302 ] ], [ [ -72.378523776865407, -40.1325023722734 ], [ -72.378456430078998, -40.132515941084101 ], [ -72.378357222318201, -40.132518838565403 ], [ -72.378302779206706, -40.132472766664101 ], [ -72.378232255357304, -40.132352812207998 ], [ -72.378158563567993, -40.132269173370098 ], [ -72.3780696134653, -40.132178353911598 ], [ -72.377994789765907, -40.132071870428099 ], [ -72.3778726813742, -40.131913386338901 ], [ -72.377761721128095, -40.131779360037498 ], [ -72.377617171763703, -40.1316691928957 ], [ -72.377597762208097, -40.131578249266703 ], [ -72.377618910934999, -40.131453710846998 ], [ -72.377699179386696, -40.131369389604998 ], [ -72.377815732432694, -40.131215375093603 ], [ -72.377927136356206, -40.131057697299198 ], [ -72.378088021570704, -40.130946237253397 ], [ -72.3781771445923, -40.130890253196 ], [ -72.378277010557696, -40.1309006822367 ], [ -72.378368276754003, -40.130938052575303 ], [ -72.378525348319599, -40.1310001911067 ], [ -72.378708568747697, -40.1310386889635 ], [ -72.378782662780594, -40.1310803731729 ], [ -72.378917130681501, -40.131137451997198 ], [ -72.379075172375494, -40.131169058578998 ], [ -72.379243229535405, -40.131202279124601 ], [ -72.379453354291698, -40.1312323627578 ], [ -72.379659652203301, -40.131285436300402 ], [ -72.379800686015798, -40.131374732756299 ], [ -72.379940373766701, -40.131486945949199 ], [ -72.380006341902998, -40.131565089928898 ], [ -72.380048075981094, -40.131655380787997 ], [ -72.380037513613701, -40.131792955819797 ], [ -72.380029738401603, -40.131886600107997 ], [ -72.379950699768798, -40.131995671353202 ], [ -72.379799479181898, -40.132051564403298 ], [ -72.379633402219, -40.132058323516503 ], [ -72.379445098089803, -40.132067637627301 ], [ -72.379253721855903, -40.132115171086703 ], [ -72.3790648247235, -40.132162631812299 ], [ -72.379002228430195, -40.132202589357298 ], [ -72.378931503149104, -40.132279007466998 ], [ -72.378810043138699, -40.132334029904001 ], [ -72.378694109214393, -40.1324003304995 ], [ -72.378554222187304, -40.132484487881896 ], [ -72.378523776865407, -40.1325023722734 ] ] ] } },
{ "type": "Feature", "properties": { "id": "monoparte.2", "Name": null, "description": null, "timestamp": null, "begin": null, "end": null, "altitudeMode": null, "tessellate": -1, "extrude": 0, "visibility": -1, "drawOrder": null, "icon": null, "REG": "Los Ríos", "COM": "Futrono", "LOC": "Futrono", "ZONA": "ZR-1", "NOM": "Zona de restricción de Vertientes y Cauces Naturales de Agua", "UPERM": "Áreas verdes", "UPROH": "Todos aquellos no señalados como permitidos", "P_DO": "03/12/1997", "N_DOC": "37", "T_DO": "Resolución", "OBS": null }, "geometry": { "type": "Polygon", "coordinates": [ [ [ -72.381991830152799, -40.133292058134799 ], [ -72.382249446894093, -40.133415595365101 ], [ -72.382426486903299, -40.133479527814004 ], [ -72.382555605325706, -40.133516264375203 ], [ -72.382723964446498, -40.133530405981297 ], [ -72.382879332342597, -40.133533012022397 ], [ -72.383092305908804, -40.133507718448897 ], [ -72.3831892411241, -40.133521565055503 ], [ -72.383358781727694, -40.133559501673702 ], [ -72.383554070203601, -40.133615749829303 ], [ -72.383770115769295, -40.133652325511697 ], [ -72.383968769804497, -40.133651280600098 ], [ -72.384165651233104, -40.133614540566597 ], [ -72.384315318896995, -40.133564883093797 ], [ -72.384586013920398, -40.133514067472099 ], [ -72.384738282351805, -40.133516760797903 ], [ -72.384953473388606, -40.133598637915497 ], [ -72.384999594800306, -40.133652098916102 ], [ -72.385046044876006, -40.133774660317897 ], [ -72.385048145306996, -40.133879454621898 ], [ -72.384996595641894, -40.133966753998102 ], [ -72.384880886161596, -40.134074995781504 ], [ -72.384786168174699, -40.1341683247324 ], [ -72.384708369485693, -40.134289755478399 ], [ -72.384666355795503, -40.134381542136197 ], [ -72.384641026361194, -40.134496671078203 ], [ -72.384649209071199, -40.134598904187897 ], [ -72.384665628452296, -40.134679449025398 ], [ -72.384727698298093, -40.134803935819797 ], [ -72.384823782049907, -40.1348630845849 ], [ -72.384914963979398, -40.134948590424699 ], [ -72.384982762788695, -40.135063377408699 ], [ -72.385043060514107, -40.135152170148103 ], [ -72.385175993176603, -40.135203090564303 ], [ -72.385312026557799, -40.135253920077503 ], [ -72.385399755632704, -40.135332377784998 ], [ -72.385438706220299, -40.135428943861001 ], [ -72.385488995089204, -40.1355037308184 ], [ -72.385533319456101, -40.135583458780602 ], [ -72.385608646999103, -40.135662278391003 ], [ -72.385699121616099, -40.135733505812503 ], [ -72.385849095734798, -40.135814906790699 ], [ -72.3859233597572, -40.135872310065302 ], [ -72.386011090350706, -40.135950767239997 ], [ -72.386028956879898, -40.135997906095497 ], [ -72.386070772846693, -40.136089621601698 ], [ -72.3860801666752, -40.1361536901655 ], [ -72.386146903295995, -40.136247059355298 ], [ -72.386227842241595, -40.136313799932502 ], [ -72.386292333531998, -40.136361956137499 ], [ -72.386457574968404, -40.136438143784297 ], [ -72.386583009069597, -40.136463068358601 ], [ -72.386650390393896, -40.136444413874599 ], [ -72.386682838611904, -40.136410100456096 ], [ -72.386680709760199, -40.136367267390703 ], [ -72.386643416480396, -40.136322842872303 ], [ -72.386447587701795, -40.136280914371902 ], [ -72.386298810420499, -40.136186133623802 ], [ -72.386217947524898, -40.136108429460997 ], [ -72.386216454941703, -40.136028401742003 ], [ -72.386183589494905, -40.135916881981998 ], [ -72.386146142400406, -40.135813122481899 ], [ -72.386078933234899, -40.135710234202598 ], [ -72.385999395529794, -40.1356591821541 ], [ -72.385876253385703, -40.135630376308299 ], [ -72.385808739715301, -40.1355713460133 ], [ -72.385722633003496, -40.135488074685 ], [ -72.385667920373805, -40.135386727138503 ], [ -72.385576382258094, -40.135294083557199 ], [ -72.385487302246403, -40.135250935684297 ], [ -72.385432284770403, -40.135193445280699 ], [ -72.385348544551306, -40.135157766265202 ], [ -72.3852372589119, -40.135067607111402 ], [ -72.385175768554902, -40.1349798023086 ], [ -72.385086049162098, -40.134873759553699 ], [ -72.385025976476697, -40.134814510120897 ], [ -72.384903141986499, -40.134741845859502 ], [ -72.384813213263499, -40.134681564118303 ], [ -72.384800760999894, -40.134580886257403 ], [ -72.384801466028506, -40.1344950747905 ], [ -72.384879648208198, -40.134368866303902 ], [ -72.385000088208301, -40.134243327919997 ], [ -72.385094191336705, -40.134137625080598 ], [ -72.385218172095705, -40.133983385911897 ], [ -72.3852389082803, -40.133900800846099 ], [ -72.385247431689194, -40.1338223858181 ], [ -72.385222083656004, -40.133762121125699 ], [ -72.3852001838126, -40.133671251805197 ], [ -72.385169307262103, -40.133599709213001 ], [ -72.385111433833202, -40.133534676953602 ], [ -72.384974970601306, -40.133437627246799 ], [ -72.384891327393106, -40.133403851788302 ], [ -72.384804258173901, -40.133351112486899 ], [ -72.384748391937407, -40.133276488385803 ], [ -72.384769128542302, -40.133193903381297 ], [ -72.384785682592394, -40.133077124420801 ], [ -72.384764466535103, -40.1329500118878 ], [ -72.384774934579397, -40.132532482812202 ], [ -72.384710155050698, -40.132527119660303 ], [ -72.384730427973594, -40.132670995556097 ], [ -72.384726326932196, -40.132775971346497 ], [ -72.384704807590794, -40.132905288204199 ], [ -72.384683523354497, -40.133039363735499 ], [ -72.384672867981905, -40.133137381616898 ], [ -72.384666022142994, -40.1332495865027 ], [ -72.384684686670198, -40.133375344313201 ], [ -72.384552321223495, -40.1333982822824 ], [ -72.384385853054098, -40.133422216987903 ], [ -72.384278879500897, -40.133456326968897 ], [ -72.384113356469399, -40.133499299467502 ], [ -72.383974553298501, -40.133517658660097 ], [ -72.383809648979806, -40.133510566606503 ], [ -72.383581675841697, -40.133483872807702 ], [ -72.383364095046701, -40.133416361482503 ], [ -72.383131958624304, -40.133368339492598 ], [ -72.382960616377204, -40.133356668951997 ], [ -72.3827942657622, -40.133382982058698 ], [ -72.382658444687806, -40.133398869229403 ], [ -72.382508215010105, -40.1333746653657 ], [ -72.382381252464498, -40.133318800766702 ], [ -72.382203149997295, -40.133233451134799 ], [ -72.381935642277298, -40.133098287719299 ], [ -72.381632616198999, -40.132935565059398 ], [ -72.381431516171801, -40.132824672785198 ], [ -72.381173430820098, -40.1326916144493 ], [ -72.380942657626605, -40.132545841986101 ], [ -72.380760632193002, -40.132443923917897 ], [ -72.380591717134294, -40.132355919989699 ], [ -72.3804386574962, -40.132274602148101 ], [ -72.380339631502594, -40.132155958422203 ], [ -72.380277572267005, -40.132031468794601 ], [ -72.380277902148507, -40.131850344369703 ], [ -72.380286203248303, -40.131704733675797 ], [ -72.380279711782293, -40.131573853741202 ], [ -72.380279775154904, -40.131449931051399 ], [ -72.380246089787704, -40.131334144263 ], [ -72.380228646241704, -40.131170220916303 ], [ -72.380231336865293, -40.131036689420597 ], [ -72.380260718615901, -40.130940506964599 ], [ -72.380286408712806, -40.130832518021897 ], [ -72.380314018810495, -40.1307006415486 ], [ -72.380306433572798, -40.130610305802101 ], [ -72.380274756205793, -40.1305349725681 ], [ -72.380207174371506, -40.130486902259499 ], [ -72.3801028643298, -40.130449438061603 ], [ -72.379980542495204, -40.130424415323702 ], [ -72.379858456770194, -40.130404152020297 ], [ -72.379744137998401, -40.130352680539701 ], [ -72.379703323467993, -40.130249529610701 ], [ -72.379454421814003, -40.1302896542702 ], [ -72.37952449993, -40.130368630515697 ], [ -72.379563943413402, -40.130412756857297 ], [ -72.379654287843195, -40.130481609792803 ], [ -72.379780180846595, -40.130516060562897 ], [ -72.379927776333204, -40.130549877970999 ], [ -72.380025532891906, -40.130580384122602 ], [ -72.380080831387801, -40.130631196693798 ], [ -72.380106781143297, -40.130716229373597 ], [ -72.380110203620902, -40.130785238587798 ], [ -72.380080940902204, -40.130883800762497 ], [ -72.380047129595496, -40.131015858383897 ], [ -72.380053502463397, -40.131144358579398 ], [ -72.380082048848195, -40.131281743780399 ], [ -72.380101208086302, -40.131355059616503 ], [ -72.380118801267201, -40.1314594014205 ], [ -72.380130312914801, -40.131566303259298 ], [ -72.380121421378703, -40.1317000159438 ], [ -72.380110137564699, -40.131848097019201 ], [ -72.380093865000504, -40.131958194863799 ], [ -72.380099648066306, -40.132074797018497 ], [ -72.380137141017798, -40.132204771064799 ], [ -72.380225804417904, -40.1323022696007 ], [ -72.380415208745902, -40.132427804303497 ], [ -72.380760067593599, -40.132620288714598 ], [ -72.381153674433904, -40.132856624955302 ], [ -72.381571614036602, -40.133082716457501 ], [ -72.381991830152799, -40.133292058134799 ] ] ] } },
{ "type": "Feature", "properties": { "id": "monoparte.3", "Name": null, "description": null, "timestamp": null, "begin": null, "end": null, "altitudeMode": null, "tessellate": -1, "extrude": 0, "visibility": -1, "drawOrder": null, "icon": null, "REG": "Los Ríos", "COM": "Futrono", "LOC": "Futrono", "ZONA": "ZR-1", "NOM": "Zona de restricción de Vertientes y Cauces Naturales de Agua", "UPERM": "Áreas verdes", "UPROH": "Todos aquellos no señalados como permitidos", "P_DO": "03/12/1997", "N_DOC": "37", "T_DO": "Resolución", "OBS": null }, "geometry": { "type": "Polygon", "coordinates": [ [ [ -72.377976465988496, -40.129883730533301 ], [ -72.378261382299499, -40.130507457621803 ], [ -72.378457095637202, -40.130468501667302 ], [ -72.378420695783802, -40.130390270489698 ], [ -72.378216707698598, -40.129907694967798 ], [ -72.378079056048406, -40.129573315607601 ], [ -72.377974933074597, -40.129414306304497 ], [ -72.377686371659294, -40.129229703206001 ], [ -72.377394407877205, -40.129164352267999 ], [ -72.376941510337403, -40.129046503915497 ], [ -72.376501168554597, -40.128868710930597 ], [ -72.376154973973399, -40.128773959511904 ], [ -72.375668216144405, -40.128661861709503 ], [ -72.375435982705497, -40.128611444443898 ], [ -72.375293179754607, -40.128548884352298 ], [ -72.375208807058698, -40.128475088092401 ], [ -72.375086291186605, -40.128383338790101 ], [ -72.374920375733097, -40.128292855555102 ], [ -72.3746945789851, -40.128247015450398 ], [ -72.374439867333606, -40.128202620946503 ], [ -72.374490863651602, -40.128247715382003 ], [ -72.374610445571193, -40.128346466445798 ], [ -72.374662773417, -40.128389679139097 ], [ -72.374802499712501, -40.128420215559501 ], [ -72.374970809800303, -40.128496330588703 ], [ -72.375084142761494, -40.128590730273402 ], [ -72.375351618484302, -40.128725910955303 ], [ -72.375497168566397, -40.128781241102999 ], [ -72.375785793240297, -40.1288419287647 ], [ -72.376183746991998, -40.128916105673397 ], [ -72.3766679614059, -40.129102151252297 ], [ -72.377231837770907, -40.1292668049566 ], [ -72.377670062414097, -40.129401761413 ], [ -72.377800350093196, -40.129462300727099 ], [ -72.377841914720193, -40.129549261238097 ], [ -72.377976465988496, -40.129883730533301 ] ] ] } },
{ "type": "Feature", "properties": { "id": "monoparte.4", "Name": null, "description": null, "timestamp": null, "begin": null, "end": null, "altitudeMode": null, "tessellate": -1, "extrude": 0, "visibility": -1, "drawOrder": null, "icon": null, "REG": "Los Ríos", "COM": "Futrono", "LOC": "Futrono", "ZONA": "Z-6", "NOM": "Áreas consolidadas y de extensión urbana", "UPERM": "Equipamiento de escala comunal (áreas verdes, comercio minorista). Actividades productivas -Insdustrias, establecimiento de impacto similar, talleres, servicios y almacenamiento-. (Ver detalle en ordenanza)", "UPROH": "Todos aquellos no señalados como permitidos", "P_DO": "03/12/1997", "N_DOC": "37", "T_DO": "Resolución", "OBS": null }, "geometry": { "type": "Polygon", "coordinates": [ [ [ -72.374847315762807, -40.1323743589451 ], [ -72.3749304939994, -40.132445383674302 ], [ -72.374988701813606, -40.132395613600401 ], [ -72.375094535703496, -40.132275754445402 ], [ -72.375204485009405, -40.132050919143097 ], [ -72.375496520703607, -40.131804088711398 ], [ -72.375863984141603, -40.1316384649665 ], [ -72.376253113038601, -40.131534167275703 ], [ -72.376735010479507, -40.131422394701701 ], [ -72.377039335299898, -40.131361082172397 ], [ -72.377220359146506, -40.131317668168798 ], [ -72.377360171208196, -40.131194431732801 ], [ -72.377576932853103, -40.130995072609899 ], [ -72.377810170132705, -40.130752336501899 ], [ -72.378103841938, -40.130538815292901 ], [ -72.378261382299499, -40.130507457621803 ], [ -72.377976465988496, -40.129883730533301 ], [ -72.377841914720193, -40.129549261238097 ], [ -72.377800350093196, -40.129462300727099 ], [ -72.377670062414097, -40.129401761413 ], [ -72.377231837770907, -40.1292668049566 ], [ -72.3766679614059, -40.129102151252297 ], [ -72.376183746991998, -40.128916105673397 ], [ -72.375785793240297, -40.1288419287647 ], [ -72.375497168566397, -40.128781241102999 ], [ -72.375351618484302, -40.128725910955303 ], [ -72.375084142761494, -40.128590730273402 ], [ -72.374970809800303, -40.128496330588703 ], [ -72.374802499712501, -40.128420215559501 ], [ -72.374662773417, -40.128389679139097 ], [ -72.374892237192597, -40.128579171082599 ], [ -72.375286589219002, -40.1288941484652 ], [ -72.375358091261901, -40.128958788176497 ], [ -72.374605064305896, -40.129488356764199 ], [ -72.374209985954096, -40.129785852647402 ], [ -72.373876473612398, -40.130010058121101 ], [ -72.373597348165802, -40.130204079501802 ], [ -72.373300326929595, -40.130412921501403 ], [ -72.372991610170999, -40.130636401390497 ], [ -72.372895113210305, -40.130694026801102 ], [ -72.373132378373001, -40.130908735673998 ], [ -72.373268122447698, -40.131016782091798 ], [ -72.373401589902102, -40.1311415764768 ], [ -72.373799640436403, -40.131468366170097 ], [ -72.374040954078893, -40.131702019983202 ], [ -72.3743229258517, -40.131941636047401 ], [ -72.374597520484997, -40.132157636070097 ], [ -72.374847315762807, -40.1323743589451 ] ] ] } },
{ "type": "Feature", "properties": { "id": "monoparte.5", "Name": null, "description": null, "timestamp": null, "begin": null, "end": null, "altitudeMode": null, "tessellate": -1, "extrude": 0, "visibility": -1, "drawOrder": null, "icon": null, "REG": "Los Ríos", "COM": "Futrono", "LOC": "Futrono", "ZONA": "Z-6", "NOM": "Áreas consolidadas y de extensión urbana", "UPERM": "Equipamiento de escala comunal (áreas verdes, comercio minorista). Actividades productivas -Insdustrias, establecimiento de impacto similar, talleres, servicios y almacenamiento-. (Ver detalle en ordenanza)", "UPROH": "Todos aquellos no señalados como permitidos", "P_DO": "03/12/1997", "N_DOC": "37", "T_DO": "Resolución", "OBS": null }, "geometry": { "type": "Polygon", "coordinates": [ [ [ -72.378420695783802, -40.130390270489698 ], [ -72.378457095637202, -40.130468501667302 ], [ -72.378651067012996, -40.1304298925902 ], [ -72.379454421814003, -40.1302896542702 ], [ -72.379703323467993, -40.130249529610701 ], [ -72.380501620041798, -40.130120836397502 ], [ -72.380190791066198, -40.129863013848002 ], [ -72.379266319000905, -40.129063093063799 ], [ -72.378620385798698, -40.128495721638501 ], [ -72.378053463415, -40.128018979858801 ], [ -72.378287482464998, -40.1278548613152 ], [ -72.378693212917796, -40.127647598083399 ], [ -72.378594163682806, -40.1275909138241 ], [ -72.378354737725999, -40.127395344246501 ], [ -72.377732263009605, -40.126924988645101 ], [ -72.377241494249404, -40.126543725199603 ], [ -72.376893022150995, -40.126277460266003 ], [ -72.376137224211703, -40.125684683396699 ], [ -72.375575034027094, -40.125239962561402 ], [ -72.3751241550966, -40.124833098926104 ], [ -72.374652969596497, -40.124401373129402 ], [ -72.374111642842806, -40.124569277284202 ], [ -72.373118252724495, -40.124895657002 ], [ -72.3721041112493, -40.125216914669103 ], [ -72.371690191883602, -40.1253529009253 ], [ -72.371855938116994, -40.1256912343121 ], [ -72.3720591605734, -40.125971281826303 ], [ -72.372393840279898, -40.126335670991899 ], [ -72.372627006737005, -40.126593396247898 ], [ -72.3727645071517, -40.126737138955797 ], [ -72.373024634948493, -40.126975012279502 ], [ -72.373151893190993, -40.127099989062799 ], [ -72.373414417346396, -40.127323493074897 ], [ -72.373799691266697, -40.127643506060302 ], [ -72.374198664406705, -40.1279893327983 ], [ -72.374439867333606, -40.128202620946503 ], [ -72.3746945789851, -40.128247015450398 ], [ -72.374920375733097, -40.128292855555102 ], [ -72.375086291186605, -40.128383338790101 ], [ -72.375208807058698, -40.128475088092401 ], [ -72.375293179754607, -40.128548884352298 ], [ -72.375435982705497, -40.128611444443898 ], [ -72.375668216144405, -40.128661861709503 ], [ -72.376154973973399, -40.128773959511904 ], [ -72.376501168554597, -40.128868710930597 ], [ -72.376941510337403, -40.129046503915497 ], [ -72.377394407877205, -40.129164352267999 ], [ -72.377686371659294, -40.129229703206001 ], [ -72.377974933074597, -40.129414306304497 ], [ -72.378079056048406, -40.129573315607601 ], [ -72.378216707698598, -40.129907694967798 ], [ -72.378420695783802, -40.130390270489698 ] ] ] } },
{ "type": "Feature", "properties": { "id": "monoparte.6", "Name": null, "description": null, "timestamp": null, "begin": null, "end": null, "altitudeMode": null, "tessellate": -1, "extrude": 0, "visibility": -1, "drawOrder": null, "icon": null, "REG": "Los Ríos", "COM": "Futrono", "LOC": "Futrono", "ZONA": "ZR-2", "NOM": "Zonas de Restricción por Altas Pendientes", "UPERM": "Esta zona se asimilará a Z-4 (ver detalle en ordenanza).", "UPROH": "Todos aquellos no señalados como permitidos", "P_DO": "03/12/1997", "N_DOC": "37", "T_DO": "Resolución", "OBS": null }, "geometry": { "type": "Polygon", "coordinates": [ [ [ -72.378357222318201, -40.132518838565403 ], [ -72.378456430078998, -40.132515941084101 ], [ -72.378523776865407, -40.1325023722734 ], [ -72.378554222187304, -40.132484487881896 ], [ -72.378694109214393, -40.1324003304995 ], [ -72.378810043138699, -40.132334029904001 ], [ -72.378931503149104, -40.132279007466998 ], [ -72.379002228430195, -40.132202589357298 ], [ -72.3790648247235, -40.132162631812299 ], [ -72.379253721855903, -40.132115171086703 ], [ -72.379445098089803, -40.132067637627301 ], [ -72.379633402219, -40.132058323516503 ], [ -72.379799479181898, -40.132051564403298 ], [ -72.379950699768798, -40.131995671353202 ], [ -72.380029738401603, -40.131886600107997 ], [ -72.380037513613701, -40.131792955819797 ], [ -72.380048075981094, -40.131655380787997 ], [ -72.380006341902998, -40.131565089928898 ], [ -72.379940373766701, -40.131486945949199 ], [ -72.379800686015798, -40.131374732756299 ], [ -72.379659652203301, -40.131285436300402 ], [ -72.379453354291698, -40.1312323627578 ], [ -72.379243229535405, -40.131202279124601 ], [ -72.379075172375494, -40.131169058578998 ], [ -72.378917130681501, -40.131137451997198 ], [ -72.378782662780594, -40.1310803731729 ], [ -72.378708568747697, -40.1310386889635 ], [ -72.378525348319599, -40.1310001911067 ], [ -72.378368276754003, -40.130938052575303 ], [ -72.378277010557696, -40.1309006822367 ], [ -72.3781771445923, -40.130890253196 ], [ -72.378088021570704, -40.130946237253397 ], [ -72.377927136356206, -40.131057697299198 ], [ -72.377815732432694, -40.131215375093603 ], [ -72.377699179386696, -40.131369389604998 ], [ -72.377618910934999, -40.131453710846998 ], [ -72.377597762208097, -40.131578249266703 ], [ -72.377617171763703, -40.1316691928957 ], [ -72.377761721128095, -40.131779360037498 ], [ -72.3778726813742, -40.131913386338901 ], [ -72.377994789765907, -40.132071870428099 ], [ -72.3780696134653, -40.132178353911598 ], [ -72.378158563567993, -40.132269173370098 ], [ -72.378232255357304, -40.132352812207998 ], [ -72.378302779206706, -40.132472766664101 ], [ -72.378357222318201, -40.132518838565403 ] ] ] } },
{ "type": "Feature", "properties": { "id": "monoparte.7", "Name": null, "description": null, "timestamp": null, "begin": null, "end": null, "altitudeMode": null, "tessellate": -1, "extrude": 0, "visibility": -1, "drawOrder": null, "icon": null, "REG": "Los Ríos", "COM": "Futrono", "LOC": "Futrono", "ZONA": "Z-1", "NOM": "Áreas consolidadas y de extensión urbana", "UPERM": "Vivienda, equipamiento de escala regional, comunal y vecinal. Actividades productivas. (ver detalle en ordenanza)", "UPROH": "Todos aquellos no señalados como permitidos", "P_DO": "03/12/1997", "N_DOC": "37", "T_DO": "Resolución", "OBS": null }, "geometry": { "type": "Polygon", "coordinates": [ [ [ -72.389378557098894, -40.128501667697698 ], [ -72.388576337467597, -40.128601429231999 ], [ -72.388436835976705, -40.128605515654598 ], [ -72.388638900029704, -40.128688962208798 ], [ -72.388853771754995, -40.128795863674597 ], [ -72.389030337391901, -40.128912824572403 ], [ -72.388844087657901, -40.128960726167499 ], [ -72.388729492398298, -40.128919400008598 ], [ -72.388291999777195, -40.1287058231947 ], [ -72.388070308148599, -40.128649738366697 ], [ -72.387040058079293, -40.1287832480701 ], [ -72.386447210162203, -40.128864301353403 ], [ -72.385775778384797, -40.128956094820801 ], [ -72.384688195181297, -40.129123758675298 ], [ -72.383188059268505, -40.1292987125697 ], [ -72.383259986105401, -40.129747012516901 ], [ -72.382664265544406, -40.129816861961103 ], [ -72.382769286932202, -40.1303690502981 ], [ -72.383349039224498, -40.130290134388098 ], [ -72.383420344133398, -40.130538272694899 ], [ -72.383406586749999, -40.130636381235597 ], [ -72.383271247061003, -40.130912011804398 ], [ -72.382935785504102, -40.131534275349097 ], [ -72.382564280981796, -40.131424408963802 ], [ -72.382532467341903, -40.131415000212897 ], [ -72.382182528894404, -40.1321210935414 ], [ -72.382516819933301, -40.1322257066319 ], [ -72.382866849039502, -40.132334624944903 ], [ -72.383091481487796, -40.132356652353899 ], [ -72.383850859252206, -40.132455978034699 ], [ -72.384710155050698, -40.132527119660303 ], [ -72.384774934579397, -40.132532482812202 ], [ -72.384807944095499, -40.132535215142397 ], [ -72.384887812213094, -40.1325805399266 ], [ -72.385089745269298, -40.132708083445301 ], [ -72.385337473752401, -40.132819987871599 ], [ -72.385559126082001, -40.132844480890803 ], [ -72.386161398115902, -40.132843532684902 ], [ -72.387016848521796, -40.132751761640698 ], [ -72.387456866222806, -40.132688026403002 ], [ -72.387614860904904, -40.132665140669801 ], [ -72.388054617773705, -40.132642728195599 ], [ -72.388602881169902, -40.132617136348301 ], [ -72.389023162575597, -40.1325923796796 ], [ -72.389085803681596, -40.132588689868598 ], [ -72.3893929606418, -40.132584456601897 ], [ -72.389767990498399, -40.132509123555003 ], [ -72.390130736289706, -40.132436532544297 ], [ -72.390481220457303, -40.132304722724598 ], [ -72.390800487164796, -40.132107101098597 ], [ -72.391064185858198, -40.131915873192298 ], [ -72.391262402382793, -40.131781376003801 ], [ -72.391548725670603, -40.131670508926 ], [ -72.391799148962093, -40.131586907508499 ], [ -72.392071132214795, -40.131562250386501 ], [ -72.392429210470894, -40.1315207701454 ], [ -72.392813904847301, -40.131390333254103 ], [ -72.392995338141105, -40.131313919139799 ], [ -72.3922003631141, -40.130620467320298 ], [ -72.391399496209502, -40.130021355121698 ], [ -72.391347635173005, -40.129890486677503 ], [ -72.3913007034744, -40.129758409974599 ], [ -72.3912572274524, -40.1296333816207 ], [ -72.391182751424793, -40.129509261158397 ], [ -72.391095164390805, -40.129371227436202 ], [ -72.391022131763805, -40.129213702059197 ], [ -72.390920672014303, -40.128859213744001 ], [ -72.390702308613598, -40.1283389536719 ], [ -72.389378557098894, -40.128501667697698 ] ], [ [ -72.390754117455899, -40.132066028818898 ], [ -72.390643909779698, -40.132159816522403 ], [ -72.3902673611327, -40.131830072578602 ], [ -72.390883499056997, -40.1313592274008 ], [ -72.391296470821601, -40.131690362194398 ], [ -72.391104997289901, -40.131817434620302 ], [ -72.390754117455899, -40.132066028818898 ] ] ] } },
{ "type": "Feature", "properties": { "id": "monoparte.8", "Name": null, "description": null, "timestamp": null, "begin": null, "end": null, "altitudeMode": null, "tessellate": -1, "extrude": 0, "visibility": -1, "drawOrder": null, "icon": null, "REG": "Los Ríos", "COM": "Futrono", "LOC": "Futrono", "ZONA": "Zona Difusa", "NOM": "Zona difusa", "UPERM": "Zona difusa", "UPROH": "Zona difusa", "P_DO": "03/12/1997", "N_DOC": "37", "T_DO": "Resolución", "OBS": null }, "geometry": { "type": "Polygon", "coordinates": [ [ [ -72.392666385233994, -40.135710430817802 ], [ -72.392375070121304, -40.135945843278897 ], [ -72.392176960940503, -40.136157551827097 ], [ -72.392073988687699, -40.1362844911758 ], [ -72.391984364821994, -40.136430104804198 ], [ -72.391884171356395, -40.136513114216697 ], [ -72.391690580676794, -40.136616020318399 ], [ -72.391408265791895, -40.136732966253597 ], [ -72.391080072748295, -40.136826473130498 ], [ -72.390861313894604, -40.136872921893698 ], [ -72.391080572560099, -40.137036169724297 ], [ -72.391333877029297, -40.137234641082799 ], [ -72.391442108921595, -40.137363014434499 ], [ -72.391585427399306, -40.137547551803898 ], [ -72.391889145312504, -40.137910406609798 ], [ -72.392126592330001, -40.138189412455297 ], [ -72.392479513588, -40.138642332718597 ], [ -72.392865631906403, -40.139113342964698 ], [ -72.393030222975497, -40.139325852218199 ], [ -72.393185194464095, -40.139494794253601 ], [ -72.393306513397903, -40.1395865578992 ], [ -72.393466572586703, -40.139658120870202 ], [ -72.393715830752498, -40.139725159783303 ], [ -72.393947456875694, -40.139737428507701 ], [ -72.394198373080897, -40.1396881234324 ], [ -72.394557017115503, -40.139557491831397 ], [ -72.3950989537759, -40.1393166237442 ], [ -72.395261574208106, -40.139439583412702 ], [ -72.395366170573894, -40.139644317371001 ], [ -72.395370398291107, -40.1398786876494 ], [ -72.395311652435296, -40.140145410998002 ], [ -72.395076675206695, -40.140494147671298 ], [ -72.395333714018705, -40.140380141344899 ], [ -72.395555902267404, -40.140290211570999 ], [ -72.395635448988699, -40.140266428254201 ], [ -72.395673179952297, -40.140088972904302 ], [ -72.395705422104797, -40.1399259771147 ], [ -72.395561698180899, -40.139596565876602 ], [ -72.395521426137094, -40.139473827703497 ], [ -72.395476630552096, -40.139322626327001 ], [ -72.395347392656802, -40.139221564552599 ], [ -72.395219104962905, -40.1391395396221 ], [ -72.395072806418895, -40.139069958412001 ], [ -72.394987551589693, -40.139041480654903 ], [ -72.394879290228104, -40.138987463521197 ], [ -72.394734278489196, -40.139006018873197 ], [ -72.394691328781406, -40.139078771590903 ], [ -72.394557889531697, -40.139080304523503 ], [ -72.394588994244799, -40.139143734214002 ], [ -72.394621185430907, -40.1391666208117 ], [ -72.394523018393301, -40.139252909182296 ], [ -72.394461345700094, -40.1393238289563 ], [ -72.394477186487705, -40.139392473063801 ], [ -72.394320109342402, -40.139480490064898 ], [ -72.3940774222214, -40.139532890081597 ], [ -72.393864809899497, -40.139503382955802 ], [ -72.393602370988702, -40.139408610645503 ], [ -72.393421987370402, -40.139278067127201 ], [ -72.393346547632305, -40.1391349126515 ], [ -72.393231294109697, -40.1389404978651 ], [ -72.393156210681894, -40.1388044815697 ], [ -72.393042735849093, -40.1386457609605 ], [ -72.392976461445301, -40.138561914365702 ], [ -72.392953000314506, -40.138464896663102 ], [ -72.392922488703803, -40.138413363428199 ], [ -72.392857872436807, -40.138362831462203 ], [ -72.392838953937996, -40.138232317142702 ], [ -72.392851059346697, -40.138038932581601 ], [ -72.392850486731703, -40.137965073918203 ], [ -72.392930642971706, -40.137891230489601 ], [ -72.392910499986499, -40.137860841222803 ], [ -72.392790195088807, -40.137814325022703 ], [ -72.392667383360106, -40.137779798345697 ], [ -72.392591214860303, -40.137684325581603 ], [ -72.392538548251196, -40.1375619506954 ], [ -72.392556341507401, -40.137482786909302 ], [ -72.392584047915904, -40.137353288249003 ], [ -72.392600774741496, -40.137252707610202 ], [ -72.392651487236904, -40.1371487478349 ], [ -72.392742623344702, -40.137045985596899 ], [ -72.392890533903099, -40.136898662622599 ], [ -72.392979635151406, -40.136817407112702 ], [ -72.393019979837206, -40.136692304078998 ], [ -72.393133053367194, -40.136593663586197 ], [ -72.393253632390099, -40.136521017380602 ], [ -72.393289177742105, -40.136486611286898 ], [ -72.393314948571003, -40.1364429599302 ], [ -72.393428240048195, -40.136411039453399 ], [ -72.393472760623794, -40.136390309070599 ], [ -72.393455296454405, -40.136245930180998 ], [ -72.393368603568803, -40.136063785258102 ], [ -72.3931013206725, -40.135871446885901 ], [ -72.392781068877198, -40.135651219781899 ], [ -72.392666385233994, -40.135710430817802 ] ] ] } },
{ "type": "Feature", "properties": { "id": "monoparte.9", "Name": null, "description": null, "timestamp": null, "begin": null, "end": null, "altitudeMode": null, "tessellate": -1, "extrude": 0, "visibility": -1, "drawOrder": null, "icon": null, "REG": "Los Ríos", "COM": "Futrono", "LOC": "Futrono", "ZONA": "ZE-3", "NOM": "Área de Playa y Borde Lacustre", "UPERM": "Equipamiento: Áreas verdes de todo tipo y escala", "UPROH": "Todos aquellos no señalados como permitidos", "P_DO": "03/12/1997", "N_DOC": "37", "T_DO": "Resolución", "OBS": null }, "geometry": { "type": "Polygon", "coordinates": [ [ [ -72.394645366725797, -40.135597081794202 ], [ -72.394452664298001, -40.135617988332399 ], [ -72.394266550294702, -40.135621543982403 ], [ -72.393915710535694, -40.135559392476097 ], [ -72.393739153198695, -40.1355054730749 ], [ -72.393583006536403, -40.1354623924476 ], [ -72.393235771508699, -40.135472579179499 ], [ -72.392901283912494, -40.135589152422199 ], [ -72.392781068877198, -40.135651219781899 ], [ -72.3931013206725, -40.135871446885901 ], [ -72.393368603568803, -40.136063785258102 ], [ -72.393455296454405, -40.136245930180998 ], [ -72.393472760623794, -40.136390309070599 ], [ -72.393482861410803, -40.136385605664799 ], [ -72.393546802567002, -40.1362979390859 ], [ -72.393708258756305, -40.1362979686144 ], [ -72.393913218592203, -40.1363610640364 ], [ -72.393979018869103, -40.1364353920398 ], [ -72.394079653054604, -40.136461036099703 ], [ -72.394142863543706, -40.136421052427202 ], [ -72.394238026525102, -40.136399195104097 ], [ -72.394288599922504, -40.136354815726897 ], [ -72.394419881598296, -40.136372410478302 ], [ -72.394634992082999, -40.136389929070099 ], [ -72.394842715978996, -40.136383832709299 ], [ -72.395001545921602, -40.136393469499197 ], [ -72.395151785639001, -40.136417656653798 ], [ -72.395295351256493, -40.1364325075225 ], [ -72.395470410744906, -40.136394005497202 ], [ -72.395557120258104, -40.136327116687603 ], [ -72.395600067488303, -40.1362543637294 ], [ -72.395682490350694, -40.1361637702284 ], [ -72.395786140046397, -40.136063021512399 ], [ -72.395914592430501, -40.135961543637997 ], [ -72.396036844606996, -40.1358602485601 ], [ -72.396122365770793, -40.1357695637886 ], [ -72.396158756403807, -40.135689853460903 ], [ -72.396263370393896, -40.1355461806885 ], [ -72.396383113834602, -40.135456874132302 ], [ -72.396501415771695, -40.135400972213297 ], [ -72.3965440067754, -40.1353210797038 ], [ -72.396571451080902, -40.135248781620099 ], [ -72.396647535326693, -40.135217950568197 ], [ -72.396682485197204, -40.135171645720199 ], [ -72.396727701899806, -40.135082144046997 ], [ -72.396774238585195, -40.1349568579395 ], [ -72.396821351725393, -40.134905429418801 ], [ -72.396842477198703, -40.134830933608598 ], [ -72.396882441519793, -40.134760651009302 ], [ -72.396944122994995, -40.134627770410503 ], [ -72.396959996283599, -40.134572492810101 ], [ -72.396974801985607, -40.134495799346602 ], [ -72.3971108903459, -40.134360733498198 ], [ -72.397142383190399, -40.1343073812725 ], [ -72.397135842615, -40.134238464374199 ], [ -72.397287787044903, -40.1341100814196 ], [ -72.397325124599405, -40.134049407814501 ], [ -72.397363901658395, -40.133955328586602 ], [ -72.397435950555703, -40.1338435913475 ], [ -72.397479250231996, -40.133777976131 ], [ -72.397479163424407, -40.133651675924099 ], [ -72.397514483738505, -40.133550548505198 ], [ -72.397594273939902, -40.133469563901599 ], [ -72.397618379980202, -40.133392597181903 ], [ -72.397583581882103, -40.133317360634301 ], [ -72.3976334378453, -40.133258702458598 ], [ -72.397674364233197, -40.133145496006598 ], [ -72.397715172976305, -40.133029908871201 ], [ -72.397757286685604, -40.132940497951999 ], [ -72.397765297298804, -40.132852088767301 ], [ -72.397775696426095, -40.132749310977999 ], [ -72.397745555780304, -40.132642957553003 ], [ -72.397778027950395, -40.132484720840601 ], [ -72.397775552240105, -40.1323727892375 ], [ -72.397867267648095, -40.132281921266802 ], [ -72.397924762677704, -40.132189675238997 ], [ -72.398007769843503, -40.132110978186098 ], [ -72.398059895586101, -40.132035571488501 ], [ -72.398055505606195, -40.131947526564801 ], [ -72.398023332476797, -40.131862681026902 ], [ -72.398011421243098, -40.131810602703197 ], [ -72.398115774235507, -40.131724129748598 ], [ -72.398204269376706, -40.131630972896197 ], [ -72.3982081111713, -40.131521238029997 ], [ -72.398220543210897, -40.131396953257699 ], [ -72.398222337195506, -40.131370686890399 ], [ -72.398196231870998, -40.131345239237 ], [ -72.398224400365905, -40.131225257711598 ], [ -72.398363223245795, -40.131082961338002 ], [ -72.398524815496202, -40.130961443050097 ], [ -72.398869325842696, -40.130772589741397 ], [ -72.399291351943802, -40.130519497286997 ], [ -72.3997430682128, -40.130239317047398 ], [ -72.399919562517397, -40.130105443646897 ], [ -72.399903376903893, -40.129967700502498 ], [ -72.399940116539597, -40.129895128433397 ], [ -72.400404464346593, -40.129619340842197 ], [ -72.400798801110497, -40.129433783610502 ], [ -72.400884533754294, -40.129409814953597 ], [ -72.400942497418299, -40.129327086585803 ], [ -72.401187780462195, -40.129203104032797 ], [ -72.4013656930248, -40.129097782747998 ], [ -72.401028713514805, -40.128690652973098 ], [ -72.400825418508205, -40.1284135127243 ], [ -72.3999214380718, -40.128881985823597 ], [ -72.399542902317194, -40.129110447484699 ], [ -72.3992848289178, -40.129363965806597 ], [ -72.399140940865706, -40.129566465562 ], [ -72.399024735819097, -40.129676642552901 ], [ -72.398491848750595, -40.129947766041099 ], [ -72.398203082598798, -40.130083982658597 ], [ -72.397871654532807, -40.130311055043698 ], [ -72.397526280979093, -40.130607169545499 ], [ -72.3973338147334, -40.130881633226799 ], [ -72.397100406141504, -40.131231651823498 ], [ -72.396919444636197, -40.131637323578097 ], [ -72.396785616188794, -40.131992043337398 ], [ -72.396684544585796, -40.132555511304098 ], [ -72.396607283265297, -40.132899036870903 ], [ -72.396430691951196, -40.133342708431996 ], [ -72.3962227234761, -40.133754891481601 ], [ -72.395696878428197, -40.1346167993131 ], [ -72.395132720163105, -40.135308248039401 ], [ -72.394949612608102, -40.135471858230801 ], [ -72.394645366725797, -40.135597081794202 ] ] ] } },
{ "type": "Feature", "properties": { "id": "monoparte.10", "Name": null, "description": null, "timestamp": null, "begin": null, "end": null, "altitudeMode": null, "tessellate": -1, "extrude": 0, "visibility": -1, "drawOrder": null, "icon": null, "REG": "Los Ríos", "COM": "Futrono", "LOC": "Futrono", "ZONA": "ZE-2", "NOM": "Área de equipamientos deportivos", "UPERM": "Equipamiento de deportes de todo tipo y escala, vivienda exclusivamente aquella destinada al cuidador.", "UPROH": "Todos aquellos no permitidos", "P_DO": "03/12/1997", "N_DOC": "37", "T_DO": "Resolución", "OBS": null }, "geometry": { "type": "Polygon", "coordinates": [ [ [ -72.384598604225999, -40.128401237598702 ], [ -72.384667685010299, -40.128581790170699 ], [ -72.385249306151806, -40.128440849832401 ], [ -72.385032708387797, -40.128418018512498 ], [ -72.384814406099196, -40.128398192730799 ], [ -72.384598604225999, -40.128401237598702 ] ] ] } },
{ "type": "Feature", "properties": { "id": "monoparte.11", "Name": null, "description": null, "timestamp": null, "begin": null, "end": null, "altitudeMode": null, "tessellate": -1, "extrude": 0, "visibility": -1, "drawOrder": null, "icon": null, "REG": "Los Ríos", "COM": "Futrono", "LOC": "Futrono", "ZONA": "ZE-2", "NOM": "Área de equipamientos deportivos", "UPERM": "Equipamiento de deportes de todo tipo y escala, vivienda exclusivamente aquella destinada al cuidador.", "UPROH": "Todos aquellos no permitidos", "P_DO": "03/12/1997", "N_DOC": "37", "T_DO": "Resolución", "OBS": null }, "geometry": { "type": "Polygon", "coordinates": [ [ [ -72.384085767758506, -40.127066014237101 ], [ -72.384207222983306, -40.127411345024697 ], [ -72.384470757242894, -40.128067086360801 ], [ -72.3845409375716, -40.128250515187197 ], [ -72.384813398108705, -40.128252854167698 ], [ -72.385240464870193, -40.1282880188934 ], [ -72.385565467190105, -40.128330934809 ], [ -72.385698498910898, -40.128332645329202 ], [ -72.385988038175995, -40.128262898288703 ], [ -72.386397963660997, -40.128175344054 ], [ -72.386681064432906, -40.128114877155603 ], [ -72.387244256290501, -40.128003064256802 ], [ -72.387684486479401, -40.127915820522396 ], [ -72.387713339774194, -40.127796774189797 ], [ -72.387772392292106, -40.1275357654225 ], [ -72.387796345589905, -40.1272681584122 ], [ -72.387785442259499, -40.1272439951384 ], [ -72.387482732914506, -40.1272544650882 ], [ -72.387171675643799, -40.127292170607198 ], [ -72.386942193088899, -40.127272198819597 ], [ -72.386801466844105, -40.127223883529297 ], [ -72.386737531913795, -40.1272019330072 ], [ -72.386481473942894, -40.127096947472602 ], [ -72.386241736591003, -40.1269705127986 ], [ -72.386116835115303, -40.1268559676057 ], [ -72.385910188997897, -40.126745722648998 ], [ -72.385657348807001, -40.126705461149598 ], [ -72.385451512949004, -40.126711485374898 ], [ -72.385185567382806, -40.1267573972872 ], [ -72.384564775736806, -40.126859447481301 ], [ -72.384023341719896, -40.126959171960799 ], [ -72.384085767758506, -40.127066014237101 ] ] ] } },
{ "type": "Feature", "properties": { "id": "monoparte.12", "Name": null, "description": null, "timestamp": null, "begin": null, "end": null, "altitudeMode": null, "tessellate": -1, "extrude": 0, "visibility": -1, "drawOrder": null, "icon": null, "REG": "Los Ríos", "COM": "Futrono", "LOC": "Futrono", "ZONA": "Z-5", "NOM": "Áreas consolidadas y de extensión urbana", "UPERM": "Vivienda, equipamiento de escala comunal y vecinal. Actividades productivas. (Ver detalle en ordenanza)", "UPROH": "Todos aquellos no señalados como permitidos", "P_DO": "03/12/1997", "N_DOC": "37", "T_DO": "Resolución", "OBS": null }, "geometry": { "type": "Polygon", "coordinates": [ [ [ -72.383414532267196, -40.1226375011504 ], [ -72.382977818658503, -40.122807556736198 ], [ -72.382411034884896, -40.1230214497118 ], [ -72.381794738404594, -40.123251086801702 ], [ -72.381388502025004, -40.123397367879598 ], [ -72.381005218633504, -40.123555845796801 ], [ -72.380383049839097, -40.123779926774297 ], [ -72.379661696014495, -40.124069816544498 ], [ -72.379084438758795, -40.124298298786002 ], [ -72.378131624138504, -40.124653563425603 ], [ -72.377361538768298, -40.124937712376202 ], [ -72.376580994264302, -40.125236460054403 ], [ -72.376848690948407, -40.125413054776999 ], [ -72.377436384469704, -40.125839747572698 ], [ -72.377823811522205, -40.126218666071203 ], [ -72.378074081009899, -40.1264139201893 ], [ -72.378263279741404, -40.126551380924703 ], [ -72.378422364494696, -40.126707593282298 ], [ -72.378519786409896, -40.126794113858402 ], [ -72.378826037829796, -40.127100927630401 ], [ -72.379055611966507, -40.127269974891099 ], [ -72.379298917387104, -40.127402873850798 ], [ -72.379359233042095, -40.127436616239599 ], [ -72.379522992018906, -40.127417362509 ], [ -72.379733910036606, -40.127413583581102 ], [ -72.379976064684499, -40.127413657136501 ], [ -72.379751942513494, -40.126900693157502 ], [ -72.379764224010103, -40.126897951096701 ], [ -72.380017210118893, -40.126928688351398 ], [ -72.380309284236304, -40.126996412759503 ], [ -72.3805877792107, -40.127040702735002 ], [ -72.380925763158302, -40.127095167720597 ], [ -72.381261356875697, -40.1271640009696 ], [ -72.381570970417201, -40.127209761285798 ], [ -72.381702822345602, -40.127239270271303 ], [ -72.381896910483306, -40.127271725175902 ], [ -72.382073255763103, -40.127259420697101 ], [ -72.382295156581705, -40.127226719006003 ], [ -72.382471176149906, -40.127145313323197 ], [ -72.382613333185006, -40.127069664043098 ], [ -72.3830765270597, -40.126832108266697 ], [ -72.383768699058706, -40.126454400046697 ], [ -72.384023341719896, -40.126959171960799 ], [ -72.384564775736806, -40.126859447481301 ], [ -72.385185567382806, -40.1267573972872 ], [ -72.385451512949004, -40.126711485374898 ], [ -72.385657348807001, -40.126705461149598 ], [ -72.385910188997897, -40.126745722648998 ], [ -72.386116835115303, -40.1268559676057 ], [ -72.386241736591003, -40.1269705127986 ], [ -72.386481473942894, -40.127096947472602 ], [ -72.386737531913795, -40.1272019330072 ], [ -72.386801466844105, -40.127223883529297 ], [ -72.386942193088899, -40.127272198819597 ], [ -72.387171675643799, -40.127292170607198 ], [ -72.387482732914506, -40.1272544650882 ], [ -72.387785442259499, -40.1272439951384 ], [ -72.387796345589905, -40.1272681584122 ], [ -72.387596384602901, -40.126770905258297 ], [ -72.389083085123303, -40.126935877850102 ], [ -72.390101395848106, -40.127046045280402 ], [ -72.390801546937695, -40.127079143153203 ], [ -72.391738002684093, -40.1268699794648 ], [ -72.392568230626907, -40.126559559783601 ], [ -72.392861856314795, -40.1264497715988 ], [ -72.393840968580093, -40.126084439088601 ], [ -72.395205228983102, -40.125505233015303 ], [ -72.396166294638405, -40.1250897703001 ], [ -72.396417068344704, -40.124977600583101 ], [ -72.397157013043099, -40.124646619834699 ], [ -72.398659241075904, -40.123956082826801 ], [ -72.399406988141607, -40.123621332433203 ], [ -72.400958737435502, -40.122893605527203 ], [ -72.400930518157296, -40.1228025675087 ], [ -72.400595833383704, -40.1218806231022 ], [ -72.3991453288684, -40.122299780268698 ], [ -72.397936244166402, -40.1226427191718 ], [ -72.396837788589295, -40.122963333029197 ], [ -72.396070657772796, -40.123205100105302 ], [ -72.394894801178395, -40.123156206940301 ], [ -72.393462632650895, -40.123071924662703 ], [ -72.3922605602217, -40.1229951766854 ], [ -72.391587814428803, -40.122950559142801 ], [ -72.390373345101096, -40.122874154905702 ], [ -72.390178138089297, -40.1223508304071 ], [ -72.389897951639796, -40.121585492205199 ], [ -72.389521501872494, -40.120607066237497 ], [ -72.389372052575197, -40.120298307823496 ], [ -72.388328404516102, -40.120734958980698 ], [ -72.387103104409903, -40.121226963934497 ], [ -72.386071468702596, -40.1216060492888 ], [ -72.385558057435304, -40.121803976971698 ], [ -72.385437309012701, -40.121850526037498 ], [ -72.384787399049998, -40.122115478987098 ], [ -72.384378377007096, -40.122280440456201 ], [ -72.384181269776306, -40.122361989361202 ], [ -72.383815676448407, -40.122501370480002 ], [ -72.383414532267196, -40.1226375011504 ] ], [ [ -72.385960993915702, -40.122721665789904 ], [ -72.386372225372796, -40.122576174570199 ], [ -72.386808900176504, -40.123492794151097 ], [ -72.386922581548404, -40.1236253018537 ], [ -72.387171576495803, -40.123482175344201 ], [ -72.387498878593604, -40.124259009659099 ], [ -72.387967580578902, -40.125351034707002 ], [ -72.387259012580003, -40.125729248765403 ], [ -72.386440010006297, -40.123865824142101 ], [ -72.385960993915702, -40.122721665789904 ] ], [ [ -72.390712858981004, -40.125352338413201 ], [ -72.391010109539295, -40.125284773081603 ], [ -72.391242452556398, -40.1257638631362 ], [ -72.390960369894898, -40.125884613406903 ], [ -72.390712858981004, -40.125352338413201 ] ] ] } },
{ "type": "Feature", "properties": { "id": "monoparte.13", "Name": null, "description": null, "timestamp": null, "begin": null, "end": null, "altitudeMode": null, "tessellate": -1, "extrude": 0, "visibility": -1, "drawOrder": null, "icon": null, "REG": "Los Ríos", "COM": "Futrono", "LOC": "Futrono", "ZONA": "Z-4", "NOM": "Áreas consolidadas y de extensión urbana", "UPERM": "Vivienda, equipamiento de escala regional, comunal y vecinal. (Ver detalle en ordenanza)", "UPROH": "Todos aquellos no señalados como permitidos", "P_DO": "03/12/1997", "N_DOC": "37", "T_DO": "Resolución", "OBS": null }, "geometry": { "type": "Polygon", "coordinates": [ [ [ -72.396417068344704, -40.124977600583101 ], [ -72.396680881583194, -40.126454981849299 ], [ -72.396755583777207, -40.126645817908198 ], [ -72.3968412130139, -40.126775564379301 ], [ -72.396958503161898, -40.126886507738099 ], [ -72.395407207028995, -40.127621955266697 ], [ -72.395040586882402, -40.127803105846397 ], [ -72.394734700242395, -40.128019411165702 ], [ -72.394416284076001, -40.128264680278598 ], [ -72.394001638457397, -40.128541368925603 ], [ -72.393793456010002, -40.128671935242103 ], [ -72.3938671805072, -40.1288500508035 ], [ -72.394114834772594, -40.129583921965803 ], [ -72.394241842134804, -40.1298899957686 ], [ -72.394229759597806, -40.130021419639803 ], [ -72.394181249533105, -40.130356474900601 ], [ -72.393995641476195, -40.13061929317 ], [ -72.393701528537505, -40.130885295466598 ], [ -72.393209221803701, -40.131223836897597 ], [ -72.392995338141105, -40.131313919139799 ], [ -72.392813904847301, -40.131390333254103 ], [ -72.392429210470894, -40.1315207701454 ], [ -72.392071132214795, -40.131562250386501 ], [ -72.391799148962093, -40.131586907508499 ], [ -72.391548725670603, -40.131670508926 ], [ -72.391262402382793, -40.131781376003801 ], [ -72.391064185858198, -40.131915873192298 ], [ -72.390800487164796, -40.132107101098597 ], [ -72.390481220457303, -40.132304722724598 ], [ -72.390130736289706, -40.132436532544297 ], [ -72.389767990498399, -40.132509123555003 ], [ -72.3893929606418, -40.132584456601897 ], [ -72.389085803681596, -40.132588689868598 ], [ -72.389023162575597, -40.1325923796796 ], [ -72.388910456143506, -40.1326612087733 ], [ -72.388732608168695, -40.132752806142904 ], [ -72.388606913208704, -40.132878621165602 ], [ -72.388481957303796, -40.133019309128798 ], [ -72.388331204950205, -40.133187561661799 ], [ -72.388264229033894, -40.133323572429703 ], [ -72.388230799960994, -40.1334317896657 ], [ -72.388268162471107, -40.133558786091498 ], [ -72.388388711007494, -40.1336416419907 ], [ -72.388461690571106, -40.133782488834697 ], [ -72.388531120744204, -40.133851947281002 ], [ -72.388591587300496, -40.1339752881862 ], [ -72.388622530841303, -40.1341292815763 ], [ -72.388656905854205, -40.134274238676198 ], [ -72.388670424489206, -40.1343900182206 ], [ -72.388701545613202, -40.134469535476697 ], [ -72.388783342574598, -40.134553525278697 ], [ -72.388912236459504, -40.134648051338402 ], [ -72.3889843307673, -40.134771051344003 ], [ -72.389064620356606, -40.134902746937101 ], [ -72.389151772770902, -40.135016368989099 ], [ -72.389257415416793, -40.135111575894697 ], [ -72.389412253960899, -40.135181509802798 ], [ -72.389586027778407, -40.135241952880499 ], [ -72.389825830529006, -40.135303439275098 ], [ -72.390106191095896, -40.1353220318396 ], [ -72.390425011076104, -40.1353335392849 ], [ -72.390783794901907, -40.1352902553703 ], [ -72.391000669805607, -40.135280919130203 ], [ -72.391358095583101, -40.135288313648203 ], [ -72.391688688564003, -40.135302451009501 ], [ -72.392481639361606, -40.135326859376498 ], [ -72.392640061487597, -40.1353907266394 ], [ -72.3928348427022, -40.135483314825898 ], [ -72.392901283912494, -40.135589152422199 ], [ -72.393235771508699, -40.135472579179499 ], [ -72.393583006536403, -40.1354623924476 ], [ -72.393739153198695, -40.1355054730749 ], [ -72.393915710535694, -40.135559392476097 ], [ -72.394266550294702, -40.135621543982403 ], [ -72.394452664298001, -40.135617988332399 ], [ -72.394645366725797, -40.135597081794202 ], [ -72.394949612608102, -40.135471858230801 ], [ -72.395132720163105, -40.135308248039401 ], [ -72.395696878428197, -40.1346167993131 ], [ -72.3962227234761, -40.133754891481601 ], [ -72.396430691951196, -40.133342708431996 ], [ -72.396607283265297, -40.132899036870903 ], [ -72.396684544585796, -40.132555511304098 ], [ -72.396785616188794, -40.131992043337398 ], [ -72.396919444636197, -40.131637323578097 ], [ -72.397100406141504, -40.131231651823498 ], [ -72.3973338147334, -40.130881633226799 ], [ -72.397526280979093, -40.130607169545499 ], [ -72.397871654532807, -40.130311055043698 ], [ -72.398203082598798, -40.130083982658597 ], [ -72.398491848750595, -40.129947766041099 ], [ -72.399024735819097, -40.129676642552901 ], [ -72.399140940865706, -40.129566465562 ], [ -72.3992848289178, -40.129363965806597 ], [ -72.399542902317194, -40.129110447484699 ], [ -72.3999214380718, -40.128881985823597 ], [ -72.400825418508205, -40.1284135127243 ], [ -72.400778879677205, -40.128350068244202 ], [ -72.400427726255998, -40.1279076067337 ], [ -72.400149998474802, -40.1275678405135 ], [ -72.399720420059595, -40.1270466567507 ], [ -72.399475004733205, -40.1267321536967 ], [ -72.399235317254806, -40.126407949766602 ], [ -72.400121800100905, -40.1256955692063 ], [ -72.400650055656797, -40.125270151454799 ], [ -72.401347871463898, -40.124696760405101 ], [ -72.401793474293498, -40.124357175263199 ], [ -72.401409888990798, -40.124010993695698 ], [ -72.401329556902098, -40.1238942017212 ], [ -72.401314677969793, -40.123782633946902 ], [ -72.401223860439202, -40.123642319747297 ], [ -72.401138887002503, -40.123494683968701 ], [ -72.401067407583298, -40.123244179009298 ], [ -72.400962270801102, -40.122905001653997 ], [ -72.400958737435502, -40.122893605527203 ], [ -72.399406988141607, -40.123621332433203 ], [ -72.398659241075904, -40.123956082826801 ], [ -72.397157013043099, -40.124646619834699 ], [ -72.396417068344704, -40.124977600583101 ] ] ] } },
{ "type": "Feature", "properties": { "id": "monoparte.14", "Name": null, "description": null, "timestamp": null, "begin": null, "end": null, "altitudeMode": null, "tessellate": -1, "extrude": 0, "visibility": -1, "drawOrder": null, "icon": null, "REG": "Los Ríos", "COM": "Futrono", "LOC": "Futrono", "ZONA": "Área verde", "NOM": "Área Verde", "UPERM": "Sin información", "UPROH": "Sin información", "P_DO": "03/12/1997", "N_DOC": "37", "T_DO": "Resolución", "OBS": null }, "geometry": { "type": "Polygon", "coordinates": [ [ [ -72.382564280981796, -40.131424408963802 ], [ -72.382935785504102, -40.131534275349097 ], [ -72.383271247061003, -40.130912011804398 ], [ -72.383406586749999, -40.130636381235597 ], [ -72.383420344133398, -40.130538272694899 ], [ -72.383349039224498, -40.130290134388098 ], [ -72.382769286932202, -40.1303690502981 ], [ -72.382262055893193, -40.130441452892299 ], [ -72.382424649269296, -40.130527256043599 ], [ -72.3825668718858, -40.130577907979699 ], [ -72.382606199288105, -40.1306196534184 ], [ -72.382210972937898, -40.131288941263797 ], [ -72.382564280981796, -40.131424408963802 ] ] ] } },
{ "type": "Feature", "properties": { "id": "monoparte.15", "Name": null, "description": null, "timestamp": null, "begin": null, "end": null, "altitudeMode": null, "tessellate": -1, "extrude": 0, "visibility": -1, "drawOrder": null, "icon": null, "REG": "Los Ríos", "COM": "Futrono", "LOC": "Futrono", "ZONA": "ZE-2", "NOM": "Área de equipamientos deportivos", "UPERM": "Equipamiento de deportes de todo tipo y escala, vivienda exclusivamente aquella destinada al cuidador.", "UPROH": "Todos aquellos no permitidos", "P_DO": "03/12/1997", "N_DOC": "37", "T_DO": "Resolución", "OBS": null }, "geometry": { "type": "Polygon", "coordinates": [ [ [ -72.385960993915702, -40.122721665789904 ], [ -72.386440010006297, -40.123865824142101 ], [ -72.387259012580003, -40.125729248765403 ], [ -72.387967580578902, -40.125351034707002 ], [ -72.387498878593604, -40.124259009659099 ], [ -72.387171576495803, -40.123482175344201 ], [ -72.386922581548404, -40.1236253018537 ], [ -72.386808900176504, -40.123492794151097 ], [ -72.386372225372796, -40.122576174570199 ], [ -72.385960993915702, -40.122721665789904 ] ] ] } },
{ "type": "Feature", "properties": { "id": "monoparte.16", "Name": null, "description": null, "timestamp": null, "begin": null, "end": null, "altitudeMode": null, "tessellate": -1, "extrude": 0, "visibility": -1, "drawOrder": null, "icon": null, "REG": "Los Ríos", "COM": "Futrono", "LOC": "Futrono", "ZONA": "ZR-3", "NOM": "Protección de instalaciones de agua potable", "UPERM": "Usos atingentes a la planta y sus instalaciones de vivienda y cuidador. Áreas verdes", "UPROH": "Todos aquellos no permitidos", "P_DO": "03/12/1997", "N_DOC": "37", "T_DO": "Resolución", "OBS": null }, "geometry": { "type": "Polygon", "coordinates": [ [ [ -72.390712858981004, -40.125352338413201 ], [ -72.390960369894898, -40.125884613406903 ], [ -72.391242452556398, -40.1257638631362 ], [ -72.391010109539295, -40.125284773081603 ], [ -72.390712858981004, -40.125352338413201 ] ] ] } },
{ "type": "Feature", "properties": { "id": "monoparte.17", "Name": null, "description": null, "timestamp": null, "begin": null, "end": null, "altitudeMode": null, "tessellate": -1, "extrude": 0, "visibility": -1, "drawOrder": null, "icon": null, "REG": "Los Ríos", "COM": "Futrono", "LOC": "Futrono", "ZONA": "Z-2", "NOM": "Áreas consolidadas y de extensión urbana", "UPERM": "Vivienda, equipamiento de escala comunal y vecinal. Actividades productivas. Transporte", "UPROH": "Todos aquellos no señalados como permitidos", "P_DO": "03/12/1997", "N_DOC": "37", "T_DO": "Resolución", "OBS": null }, "geometry": { "type": "Polygon", "coordinates": [ [ [ -72.391738002684093, -40.1268699794648 ], [ -72.390801546937695, -40.127079143153203 ], [ -72.390101395848106, -40.127046045280402 ], [ -72.389083085123303, -40.126935877850102 ], [ -72.387596384602901, -40.126770905258297 ], [ -72.387796345589905, -40.1272681584122 ], [ -72.387772392292106, -40.1275357654225 ], [ -72.387713339774194, -40.127796774189797 ], [ -72.387684486479401, -40.127915820522396 ], [ -72.387244256290501, -40.128003064256802 ], [ -72.386681064432906, -40.128114877155603 ], [ -72.386397963660997, -40.128175344054 ], [ -72.385988038175995, -40.128262898288703 ], [ -72.385698498910898, -40.128332645329202 ], [ -72.385669948803297, -40.128339522788899 ], [ -72.3857662331353, -40.128372720617001 ], [ -72.385887842507401, -40.128383459617297 ], [ -72.386060852848601, -40.128366480171898 ], [ -72.386202390410304, -40.128340888856002 ], [ -72.386325563060197, -40.128320601444997 ], [ -72.386404710144802, -40.128311135669797 ], [ -72.386531183220598, -40.128303858284802 ], [ -72.386835904825006, -40.128375962199598 ], [ -72.387003279857197, -40.128433021952297 ], [ -72.387240300973502, -40.128454678687604 ], [ -72.3875555576994, -40.128426381962399 ], [ -72.387716994635596, -40.128426420665001 ], [ -72.388023990010893, -40.1284817722239 ], [ -72.388262549276106, -40.128534361978403 ], [ -72.388436835976705, -40.128605515654598 ], [ -72.388576337467597, -40.128601429231999 ], [ -72.389378557098894, -40.128501667697698 ], [ -72.390702308613598, -40.1283389536719 ], [ -72.390920672014303, -40.128859213744001 ], [ -72.391022131763805, -40.129213702059197 ], [ -72.391095164390805, -40.129371227436202 ], [ -72.391182751424793, -40.129509261158397 ], [ -72.3912572274524, -40.1296333816207 ], [ -72.3913007034744, -40.129758409974599 ], [ -72.391347635173005, -40.129890486677503 ], [ -72.391399496209502, -40.130021355121698 ], [ -72.3922003631141, -40.130620467320298 ], [ -72.392995338141105, -40.131313919139799 ], [ -72.393209221803701, -40.131223836897597 ], [ -72.393701528537505, -40.130885295466598 ], [ -72.393995641476195, -40.13061929317 ], [ -72.394181249533105, -40.130356474900601 ], [ -72.394229759597806, -40.130021419639803 ], [ -72.394241842134804, -40.1298899957686 ], [ -72.394114834772594, -40.129583921965803 ], [ -72.3938671805072, -40.1288500508035 ], [ -72.393793456010002, -40.128671935242103 ], [ -72.394001638457397, -40.128541368925603 ], [ -72.394416284076001, -40.128264680278598 ], [ -72.394734700242395, -40.128019411165702 ], [ -72.395040586882402, -40.127803105846397 ], [ -72.395407207028995, -40.127621955266697 ], [ -72.396958503161898, -40.126886507738099 ], [ -72.3968412130139, -40.126775564379301 ], [ -72.396755583777207, -40.126645817908198 ], [ -72.396680881583194, -40.126454981849299 ], [ -72.396417068344704, -40.124977600583101 ], [ -72.396166294638405, -40.1250897703001 ], [ -72.395205228983102, -40.125505233015303 ], [ -72.393840968580093, -40.126084439088601 ], [ -72.392861856314795, -40.1264497715988 ], [ -72.392568230626907, -40.126559559783601 ], [ -72.391738002684093, -40.1268699794648 ] ], [ [ -72.393593739920107, -40.128174330179903 ], [ -72.392799241767605, -40.128397814154297 ], [ -72.392398261577199, -40.127358635801897 ], [ -72.393197935895898, -40.127171932074397 ], [ -72.393602507325497, -40.1281633493493 ], [ -72.393593739920107, -40.128174330179903 ] ] ] } },
{ "type": "Feature", "properties": { "id": "monoparte.18", "Name": null, "description": null, "timestamp": null, "begin": null, "end": null, "altitudeMode": null, "tessellate": -1, "extrude": 0, "visibility": -1, "drawOrder": null, "icon": null, "REG": "Los Ríos", "COM": "Futrono", "LOC": "Futrono", "ZONA": "Z-2", "NOM": "Áreas consolidadas y de extensión urbana", "UPERM": "Vivienda, equipamiento de escala comunal y vecinal. Actividades productivas. Transporte", "UPROH": "Todos aquellos no señalados como permitidos", "P_DO": "03/12/1997", "N_DOC": "37", "T_DO": "Resolución", "OBS": null }, "geometry": { "type": "Polygon", "coordinates": [ [ [ -72.378620385798698, -40.128495721638501 ], [ -72.379266319000905, -40.129063093063799 ], [ -72.380190791066198, -40.129863013848002 ], [ -72.380501620041798, -40.130120836397502 ], [ -72.379703323467993, -40.130249529610701 ], [ -72.379744137998401, -40.130352680539701 ], [ -72.379858456770194, -40.130404152020297 ], [ -72.379980542495204, -40.130424415323702 ], [ -72.3801028643298, -40.130449438061603 ], [ -72.380207174371506, -40.130486902259499 ], [ -72.380274756205793, -40.1305349725681 ], [ -72.380306433572798, -40.130610305802101 ], [ -72.380314018810495, -40.1307006415486 ], [ -72.380286408712806, -40.130832518021897 ], [ -72.380260718615901, -40.130940506964599 ], [ -72.380231336865293, -40.131036689420597 ], [ -72.380228646241704, -40.131170220916303 ], [ -72.380246089787704, -40.131334144263 ], [ -72.380279775154904, -40.131449931051399 ], [ -72.380279711782293, -40.131573853741202 ], [ -72.380286203248303, -40.131704733675797 ], [ -72.380277902148507, -40.131850344369703 ], [ -72.380277572267005, -40.132031468794601 ], [ -72.380339631502594, -40.132155958422203 ], [ -72.3804386574962, -40.132274602148101 ], [ -72.380591717134294, -40.132355919989699 ], [ -72.380760632193002, -40.132443923917897 ], [ -72.380942657626605, -40.132545841986101 ], [ -72.381173430820098, -40.1326916144493 ], [ -72.381431516171801, -40.132824672785198 ], [ -72.381632616198999, -40.132935565059398 ], [ -72.381935642277298, -40.133098287719299 ], [ -72.382203149997295, -40.133233451134799 ], [ -72.382381252464498, -40.133318800766702 ], [ -72.382508215010105, -40.1333746653657 ], [ -72.382658444687806, -40.133398869229403 ], [ -72.3827942657622, -40.133382982058698 ], [ -72.382960616377204, -40.133356668951997 ], [ -72.383131958624304, -40.133368339492598 ], [ -72.383364095046701, -40.133416361482503 ], [ -72.383581675841697, -40.133483872807702 ], [ -72.383809648979806, -40.133510566606503 ], [ -72.383974553298501, -40.133517658660097 ], [ -72.384113356469399, -40.133499299467502 ], [ -72.384278879500897, -40.133456326968897 ], [ -72.384385853054098, -40.133422216987903 ], [ -72.384552321223495, -40.1333982822824 ], [ -72.384684686670198, -40.133375344313201 ], [ -72.384666022142994, -40.1332495865027 ], [ -72.384672867981905, -40.133137381616898 ], [ -72.384683523354497, -40.133039363735499 ], [ -72.384704807590794, -40.132905288204199 ], [ -72.384726326932196, -40.132775971346497 ], [ -72.384730427973594, -40.132670995556097 ], [ -72.384710155050698, -40.132527119660303 ], [ -72.383850859252206, -40.132455978034699 ], [ -72.383091481487796, -40.132356652353899 ], [ -72.382866849039502, -40.132334624944903 ], [ -72.382516819933301, -40.1322257066319 ], [ -72.382182528894404, -40.1321210935414 ], [ -72.382532467341903, -40.131415000212897 ], [ -72.382564280981796, -40.131424408963802 ], [ -72.382210972937898, -40.131288941263797 ], [ -72.382606199288105, -40.1306196534184 ], [ -72.3825668718858, -40.130577907979699 ], [ -72.382424649269296, -40.130527256043599 ], [ -72.382262055893193, -40.130441452892299 ], [ -72.382769286932202, -40.1303690502981 ], [ -72.382664265544406, -40.129816861961103 ], [ -72.383259986105401, -40.129747012516901 ], [ -72.383188059268505, -40.1292987125697 ], [ -72.384688195181297, -40.129123758675298 ], [ -72.385775778384797, -40.128956094820801 ], [ -72.386447210162203, -40.128864301353403 ], [ -72.387040058079293, -40.1287832480701 ], [ -72.388070308148599, -40.128649738366697 ], [ -72.3878751404675, -40.128610052472403 ], [ -72.387725037202799, -40.128588234813897 ], [ -72.387563363333598, -40.128583436607002 ], [ -72.387355898153103, -40.128594278468803 ], [ -72.387214005814599, -40.128612731900702 ], [ -72.3870798767812, -40.128599977661601 ], [ -72.386951355830902, -40.128575143816498 ], [ -72.386802580609597, -40.1285175394245 ], [ -72.386664405733995, -40.128485839117403 ], [ -72.386508103719805, -40.128464200447198 ], [ -72.386412569177196, -40.128469319230902 ], [ -72.386412631333002, -40.128470570273301 ], [ -72.386361030191196, -40.128472080878602 ], [ -72.386206501640899, -40.128486137429398 ], [ -72.386019409689098, -40.128532126245297 ], [ -72.385871908766006, -40.128562657450097 ], [ -72.385714516018297, -40.1285815627405 ], [ -72.385537459240496, -40.128579596061698 ], [ -72.385394647951202, -40.128517048830503 ], [ -72.385249306151806, -40.128440849832401 ], [ -72.384667685010299, -40.128581790170699 ], [ -72.384598604225999, -40.128401237598702 ], [ -72.384005610641097, -40.1284091617187 ], [ -72.383300722294095, -40.128405949863598 ], [ -72.382630760518296, -40.128418394098702 ], [ -72.382282847729897, -40.1284142687838 ], [ -72.382018282123397, -40.128400555950201 ], [ -72.381755871152293, -40.128367715465501 ], [ -72.381423489302705, -40.128301173085397 ], [ -72.381089425475295, -40.128263275885601 ], [ -72.380703635070404, -40.128183993973401 ], [ -72.3804144196707, -40.128111421534399 ], [ -72.380157298723702, -40.1279973973948 ], [ -72.379776682767101, -40.127834553404703 ], [ -72.379417059764293, -40.1276567963479 ], [ -72.379153413180305, -40.127488561421501 ], [ -72.379003644711304, -40.127524520926499 ], [ -72.378864455118105, -40.127572435972098 ], [ -72.378693212917796, -40.127647598083399 ], [ -72.378287482464998, -40.1278548613152 ], [ -72.378053463415, -40.128018979858801 ], [ -72.378620385798698, -40.128495721638501 ] ] ] } },
{ "type": "Feature", "properties": { "id": "monoparte.19", "Name": null, "description": null, "timestamp": null, "begin": null, "end": null, "altitudeMode": null, "tessellate": -1, "extrude": 0, "visibility": -1, "drawOrder": null, "icon": null, "REG": "Los Ríos", "COM": "Futrono", "LOC": "Futrono", "ZONA": "Z-2", "NOM": "Áreas consolidadas y de extensión urbana", "UPERM": "Vivienda, equipamiento de escala comunal y vecinal. Actividades productivas. Transporte", "UPROH": "Todos aquellos no señalados como permitidos", "P_DO": "03/12/1997", "N_DOC": "37", "T_DO": "Resolución", "OBS": null }, "geometry": { "type": "Polygon", "coordinates": [ [ [ -72.382073255763103, -40.127259420697101 ], [ -72.381896910483306, -40.127271725175902 ], [ -72.381702822345602, -40.127239270271303 ], [ -72.381570970417201, -40.127209761285798 ], [ -72.381261356875697, -40.1271640009696 ], [ -72.380925763158302, -40.127095167720597 ], [ -72.3805877792107, -40.127040702735002 ], [ -72.380309284236304, -40.126996412759503 ], [ -72.380017210118893, -40.126928688351398 ], [ -72.379764224010103, -40.126897951096701 ], [ -72.379751942513494, -40.126900693157502 ], [ -72.379976064684499, -40.127413657136501 ], [ -72.379733910036606, -40.127413583581102 ], [ -72.379522992018906, -40.127417362509 ], [ -72.379359233042095, -40.127436616239599 ], [ -72.379582302360205, -40.127561411365498 ], [ -72.380089955978207, -40.127781908249602 ], [ -72.380463944144097, -40.127967584695 ], [ -72.380975222759503, -40.128104563944397 ], [ -72.381393096694097, -40.1281578849757 ], [ -72.3816002446478, -40.128187575358297 ], [ -72.381909619930298, -40.128244066210002 ], [ -72.382123927313899, -40.1282616310761 ], [ -72.3829937073574, -40.128271944123803 ], [ -72.383667963434803, -40.128252223392899 ], [ -72.384269922086602, -40.128261422995301 ], [ -72.384448026107407, -40.1282532336107 ], [ -72.3845409375716, -40.128250515187197 ], [ -72.384470757242894, -40.128067086360801 ], [ -72.384207222983306, -40.127411345024697 ], [ -72.384085767758506, -40.127066014237101 ], [ -72.384023341719896, -40.126959171960799 ], [ -72.383768699058706, -40.126454400046697 ], [ -72.3830765270597, -40.126832108266697 ], [ -72.382613333185006, -40.127069664043098 ], [ -72.382471176149906, -40.127145313323197 ], [ -72.382295156581705, -40.127226719006003 ], [ -72.382073255763103, -40.127259420697101 ] ] ] } },
{ "type": "Feature", "properties": { "id": "monoparte.20", "Name": null, "description": null, "timestamp": null, "begin": null, "end": null, "altitudeMode": null, "tessellate": -1, "extrude": 0, "visibility": -1, "drawOrder": null, "icon": null, "REG": "Los Ríos", "COM": "Futrono", "LOC": "Futrono", "ZONA": "Z-4", "NOM": "Áreas consolidadas y de extensión urbana", "UPERM": "Vivienda, equipamiento de escala regional, comunal y vecinal. (Ver detalle en ordenanza)", "UPROH": "Todos aquellos no señalados como permitidos", "P_DO": "03/12/1997", "N_DOC": "37", "T_DO": "Resolución", "OBS": null }, "geometry": { "type": "Polygon", "coordinates": [ [ [ -72.387456866222806, -40.132688026403002 ], [ -72.387826038055906, -40.133421640253999 ], [ -72.388177519080301, -40.134121504175198 ], [ -72.388687479122893, -40.135136056867502 ], [ -72.389061035443206, -40.135530236914697 ], [ -72.389294674861205, -40.135733102611802 ], [ -72.389997305136006, -40.136251088466501 ], [ -72.388717918033905, -40.136622208655801 ], [ -72.389079127565395, -40.136892829622802 ], [ -72.389814287225306, -40.137475003912698 ], [ -72.389969759601399, -40.137541939825603 ], [ -72.390089447905495, -40.137638521209801 ], [ -72.390203646905206, -40.137749562707299 ], [ -72.390445156587703, -40.137985557675599 ], [ -72.390686764602506, -40.138285892713803 ], [ -72.391004304102097, -40.138676941576598 ], [ -72.391326725864602, -40.139103592933097 ], [ -72.391528766900805, -40.139357424352603 ], [ -72.391758951595506, -40.139615196585801 ], [ -72.391958487504596, -40.139881016781203 ], [ -72.392194283579599, -40.1401267083154 ], [ -72.3923772941057, -40.140247643802503 ], [ -72.3925064113822, -40.1403463292366 ], [ -72.392663314848406, -40.140441816300502 ], [ -72.392860289099602, -40.140531362215299 ], [ -72.393043912777699, -40.140602234528799 ], [ -72.393230520220101, -40.140670635789299 ], [ -72.393393646084803, -40.140703979081998 ], [ -72.393618426849102, -40.140728364469098 ], [ -72.393818285540505, -40.140751097437899 ], [ -72.394023159246601, -40.140749852471103 ], [ -72.394208599737894, -40.140732495738298 ], [ -72.394392974253805, -40.140693721882201 ], [ -72.394620162619404, -40.140641776021702 ], [ -72.394953972265199, -40.140548571461899 ], [ -72.395076675206695, -40.140494147671298 ], [ -72.395311652435296, -40.140145410998002 ], [ -72.395370398291107, -40.1398786876494 ], [ -72.395366170573894, -40.139644317371001 ], [ -72.395261574208106, -40.139439583412702 ], [ -72.3950989537759, -40.1393166237442 ], [ -72.394557017115503, -40.139557491831397 ], [ -72.394198373080897, -40.1396881234324 ], [ -72.393947456875694, -40.139737428507701 ], [ -72.393715830752498, -40.139725159783303 ], [ -72.393466572586703, -40.139658120870202 ], [ -72.393306513397903, -40.1395865578992 ], [ -72.393185194464095, -40.139494794253601 ], [ -72.393030222975497, -40.139325852218199 ], [ -72.392865631906403, -40.139113342964698 ], [ -72.392479513588, -40.138642332718597 ], [ -72.392126592330001, -40.138189412455297 ], [ -72.391889145312504, -40.137910406609798 ], [ -72.391585427399306, -40.137547551803898 ], [ -72.391442108921595, -40.137363014434499 ], [ -72.391333877029297, -40.137234641082799 ], [ -72.391080572560099, -40.137036169724297 ], [ -72.390861313894604, -40.136872921893698 ], [ -72.391080072748295, -40.136826473130498 ], [ -72.391408265791895, -40.136732966253597 ], [ -72.391690580676794, -40.136616020318399 ], [ -72.391884171356395, -40.136513114216697 ], [ -72.391984364821994, -40.136430104804198 ], [ -72.392073988687699, -40.1362844911758 ], [ -72.392176960940503, -40.136157551827097 ], [ -72.392375070121304, -40.135945843278897 ], [ -72.392666385233994, -40.135710430817802 ], [ -72.392665929355303, -40.135598486640198 ], [ -72.392565193081893, -40.135523991799097 ], [ -72.392315686140606, -40.135501520900903 ], [ -72.391984944090495, -40.135484410239201 ], [ -72.391428391226995, -40.135453067641599 ], [ -72.3910738046619, -40.1354247382395 ], [ -72.390706233073999, -40.135447429682799 ], [ -72.390295882678998, -40.135468393416602 ], [ -72.389969163966697, -40.135454138526597 ], [ -72.389684038840997, -40.135417811959002 ], [ -72.389424415441098, -40.135347969413203 ], [ -72.389223365779699, -40.135285346707299 ], [ -72.389071514603998, -40.135197451718497 ], [ -72.388967973106702, -40.135066436478397 ], [ -72.388839255285902, -40.134897434444198 ], [ -72.388771776911, -40.134789193837499 ], [ -72.388639007900395, -40.134694781146003 ], [ -72.388536650164795, -40.134587562186297 ], [ -72.388506890943304, -40.134457364560198 ], [ -72.388474141937493, -40.134345127810199 ], [ -72.388431573549596, -40.1341914740118 ], [ -72.388393618718396, -40.134052579769701 ], [ -72.388331525588896, -40.133896519276803 ], [ -72.388259581392205, -40.1337764939138 ], [ -72.388148736354594, -40.1336546293605 ], [ -72.388063657812495, -40.133582649533103 ], [ -72.388018841519596, -40.133461829425499 ], [ -72.388048100210298, -40.133347776327497 ], [ -72.388099870240097, -40.133218169135901 ], [ -72.388217373214104, -40.133083657952099 ], [ -72.388364545304995, -40.1329214676093 ], [ -72.388534230222007, -40.1327437228721 ], [ -72.388602881169902, -40.132617136348301 ], [ -72.388054617773705, -40.132642728195599 ], [ -72.387614860904904, -40.132665140669801 ], [ -72.387456866222806, -40.132688026403002 ] ] ] } },
{ "type": "Feature", "properties": { "id": "monoparte.21", "Name": null, "description": null, "timestamp": null, "begin": null, "end": null, "altitudeMode": null, "tessellate": -1, "extrude": 0, "visibility": -1, "drawOrder": null, "icon": null, "REG": "Los Ríos", "COM": "Futrono", "LOC": "Futrono", "ZONA": "ZR-1", "NOM": "Zona de restricción de Vertientes y Cauces Naturales de Agua", "UPERM": "Áreas verdes", "UPROH": "Todos aquellos no señalados como permitidos", "P_DO": "03/12/1997", "N_DOC": "37", "T_DO": "Resolución", "OBS": null }, "geometry": { "type": "Polygon", "coordinates": [ [ [ -72.388602881169902, -40.132617136348301 ], [ -72.388534230222007, -40.1327437228721 ], [ -72.388364545304995, -40.1329214676093 ], [ -72.388217373214104, -40.133083657952099 ], [ -72.388099870240097, -40.133218169135901 ], [ -72.388048100210298, -40.133347776327497 ], [ -72.388018841519596, -40.133461829425499 ], [ -72.388063657812495, -40.133582649533103 ], [ -72.388148736354594, -40.1336546293605 ], [ -72.388259581392205, -40.1337764939138 ], [ -72.388331525588896, -40.133896519276803 ], [ -72.388393618718396, -40.134052579769701 ], [ -72.388431573549596, -40.1341914740118 ], [ -72.388474141937493, -40.134345127810199 ], [ -72.388506890943304, -40.134457364560198 ], [ -72.388536650164795, -40.134587562186297 ], [ -72.388639007900395, -40.134694781146003 ], [ -72.388771776911, -40.134789193837499 ], [ -72.388839255285902, -40.134897434444198 ], [ -72.388967973106702, -40.135066436478397 ], [ -72.389071514603998, -40.135197451718497 ], [ -72.389223365779699, -40.135285346707299 ], [ -72.389424415441098, -40.135347969413203 ], [ -72.389684038840997, -40.135417811959002 ], [ -72.389969163966697, -40.135454138526597 ], [ -72.390295882678998, -40.135468393416602 ], [ -72.390706233073999, -40.135447429682799 ], [ -72.3910738046619, -40.1354247382395 ], [ -72.391428391226995, -40.135453067641599 ], [ -72.391984944090495, -40.135484410239201 ], [ -72.392315686140606, -40.135501520900903 ], [ -72.392565193081893, -40.135523991799097 ], [ -72.392665929355303, -40.135598486640198 ], [ -72.392666385233994, -40.135710430817802 ], [ -72.392781068877198, -40.135651219781899 ], [ -72.392901283912494, -40.135589152422199 ], [ -72.3928348427022, -40.135483314825898 ], [ -72.392640061487597, -40.1353907266394 ], [ -72.392481639361606, -40.135326859376498 ], [ -72.391688688564003, -40.135302451009501 ], [ -72.391358095583101, -40.135288313648203 ], [ -72.391000669805607, -40.135280919130203 ], [ -72.390783794901907, -40.1352902553703 ], [ -72.390425011076104, -40.1353335392849 ], [ -72.390106191095896, -40.1353220318396 ], [ -72.389825830529006, -40.135303439275098 ], [ -72.389586027778407, -40.135241952880499 ], [ -72.389412253960899, -40.135181509802798 ], [ -72.389257415416793, -40.135111575894697 ], [ -72.389151772770902, -40.135016368989099 ], [ -72.389064620356606, -40.134902746937101 ], [ -72.3889843307673, -40.134771051344003 ], [ -72.388912236459504, -40.134648051338402 ], [ -72.388783342574598, -40.134553525278697 ], [ -72.388701545613202, -40.134469535476697 ], [ -72.388670424489206, -40.1343900182206 ], [ -72.388656905854205, -40.134274238676198 ], [ -72.388622530841303, -40.1341292815763 ], [ -72.388591587300496, -40.1339752881862 ], [ -72.388531120744204, -40.133851947281002 ], [ -72.388461690571106, -40.133782488834697 ], [ -72.388388711007494, -40.1336416419907 ], [ -72.388268162471107, -40.133558786091498 ], [ -72.388230799960994, -40.1334317896657 ], [ -72.388264229033894, -40.133323572429703 ], [ -72.388331204950205, -40.133187561661799 ], [ -72.388481957303796, -40.133019309128798 ], [ -72.388606913208704, -40.132878621165602 ], [ -72.388732608168695, -40.132752806142904 ], [ -72.388910456143506, -40.1326612087733 ], [ -72.389023162575597, -40.1325923796796 ], [ -72.388602881169902, -40.132617136348301 ] ] ] } },
{ "type": "Feature", "properties": { "id": "monoparte.22", "Name": null, "description": null, "timestamp": null, "begin": null, "end": null, "altitudeMode": null, "tessellate": -1, "extrude": 0, "visibility": -1, "drawOrder": null, "icon": null, "REG": "Los Ríos", "COM": "Futrono", "LOC": "Futrono", "ZONA": "ZE-1", "NOM": "Cementerio", "UPERM": "Las instalaciones propias al funcionamiento de Cementerio, inclusive bodegas de herramientas, útiles, carros de arrastre y otros", "UPROH": "Todos aquellos no señalados como permitidos", "P_DO": "03/12/1997", "N_DOC": "37", "T_DO": "Resolución", "OBS": null }, "geometry": { "type": "Polygon", "coordinates": [ [ [ -72.392398261577199, -40.127358635801897 ], [ -72.392799241767605, -40.128397814154297 ], [ -72.393593739920107, -40.128174330179903 ], [ -72.393602507325497, -40.1281633493493 ], [ -72.393197935895898, -40.127171932074397 ], [ -72.392398261577199, -40.127358635801897 ] ] ] } },
{ "type": "Feature", "properties": { "id": "monoparte.23", "Name": null, "description": null, "timestamp": null, "begin": null, "end": null, "altitudeMode": null, "tessellate": -1, "extrude": 0, "visibility": -1, "drawOrder": null, "icon": null, "REG": "Los Ríos", "COM": "Futrono", "LOC": "Futrono", "ZONA": "Z-2", "NOM": "Áreas consolidadas y de extensión urbana", "UPERM": "Vivienda, equipamiento de escala comunal y vecinal. Actividades productivas. Transporte", "UPROH": "Todos aquellos no señalados como permitidos", "P_DO": "03/12/1997", "N_DOC": "37", "T_DO": "Resolución", "OBS": null }, "geometry": { "type": "Polygon", "coordinates": [ [ [ -72.374652969596497, -40.124401373129402 ], [ -72.3751241550966, -40.124833098926104 ], [ -72.375575034027094, -40.125239962561402 ], [ -72.376137224211703, -40.125684683396699 ], [ -72.376893022150995, -40.126277460266003 ], [ -72.377241494249404, -40.126543725199603 ], [ -72.377732263009605, -40.126924988645101 ], [ -72.378354737725999, -40.127395344246501 ], [ -72.378594163682806, -40.1275909138241 ], [ -72.378693212917796, -40.127647598083399 ], [ -72.378864455118105, -40.127572435972098 ], [ -72.379003644711304, -40.127524520926499 ], [ -72.379153413180305, -40.127488561421501 ], [ -72.379151770111406, -40.1274875123746 ], [ -72.379134938722501, -40.127476773309802 ], [ -72.3788542347054, -40.127325306069302 ], [ -72.378651975402207, -40.127190611955399 ], [ -72.378369539352803, -40.126941486917403 ], [ -72.378215112260506, -40.126769648357303 ], [ -72.378009318037499, -40.126563562891803 ], [ -72.377754633771005, -40.1263732040184 ], [ -72.377540957815299, -40.126195944827899 ], [ -72.377355181881398, -40.126017871560798 ], [ -72.377119488476396, -40.125772145078898 ], [ -72.376870656235795, -40.125574463624297 ], [ -72.376631207036894, -40.125440850559997 ], [ -72.3764222516009, -40.1253587754099 ], [ -72.376401972865693, -40.125307458533896 ], [ -72.376055246251994, -40.124925798055898 ], [ -72.375680788962995, -40.124510629262701 ], [ -72.375474488638105, -40.124256416242297 ], [ -72.375393920132396, -40.124171545773002 ], [ -72.374652969596497, -40.124401373129402 ] ] ] } },
{ "type": "Feature", "properties": { "id": "monoparte.24", "Name": null, "description": null, "timestamp": null, "begin": null, "end": null, "altitudeMode": null, "tessellate": -1, "extrude": 0, "visibility": -1, "drawOrder": null, "icon": null, "REG": "Los Ríos", "COM": "Futrono", "LOC": "Futrono", "ZONA": "ZR-1", "NOM": "Zona de restricción de Vertientes y Cauces Naturales de Agua", "UPERM": "Áreas verdes", "UPROH": "Todos aquellos no señalados como permitidos", "P_DO": "03/12/1997", "N_DOC": "37", "T_DO": "Resolución", "OBS": null }, "geometry": { "type": "Polygon", "coordinates": [ [ [ -72.376401972865693, -40.125307458533896 ], [ -72.3764222516009, -40.1253587754099 ], [ -72.376631207036894, -40.125440850559997 ], [ -72.376870656235795, -40.125574463624297 ], [ -72.377119488476396, -40.125772145078898 ], [ -72.377355181881398, -40.126017871560798 ], [ -72.377540957815299, -40.126195944827899 ], [ -72.377754633771005, -40.1263732040184 ], [ -72.378009318037499, -40.126563562891803 ], [ -72.378215112260506, -40.126769648357303 ], [ -72.378369539352803, -40.126941486917403 ], [ -72.378651975402207, -40.127190611955399 ], [ -72.3788542347054, -40.127325306069302 ], [ -72.379134938722501, -40.127476773309802 ], [ -72.379151770111406, -40.1274875123746 ], [ -72.379153413180305, -40.127488561421501 ], [ -72.379417059764293, -40.1276567963479 ], [ -72.379776682767101, -40.127834553404703 ], [ -72.380157298723702, -40.1279973973948 ], [ -72.3804144196707, -40.128111421534399 ], [ -72.380703635070404, -40.128183993973401 ], [ -72.381089425475295, -40.128263275885601 ], [ -72.381423489302705, -40.128301173085397 ], [ -72.381755871152293, -40.128367715465501 ], [ -72.382018282123397, -40.128400555950201 ], [ -72.382282847729897, -40.1284142687838 ], [ -72.382630760518296, -40.128418394098702 ], [ -72.383300722294095, -40.128405949863598 ], [ -72.384005610641097, -40.1284091617187 ], [ -72.384598604225999, -40.128401237598702 ], [ -72.384814406099196, -40.128398192730799 ], [ -72.385032708387797, -40.128418018512498 ], [ -72.385249306151806, -40.128440849832401 ], [ -72.385394647951202, -40.128517048830503 ], [ -72.385537459240496, -40.128579596061698 ], [ -72.385714516018297, -40.1285815627405 ], [ -72.385871908766006, -40.128562657450097 ], [ -72.386019409689098, -40.128532126245297 ], [ -72.386206501640899, -40.128486137429398 ], [ -72.386361030191196, -40.128472080878602 ], [ -72.386412631333002, -40.128470570273301 ], [ -72.386412569177196, -40.128469319230902 ], [ -72.386508103719805, -40.128464200447198 ], [ -72.386664405733995, -40.128485839117403 ], [ -72.386802580609597, -40.1285175394245 ], [ -72.386951355830902, -40.128575143816498 ], [ -72.3870798767812, -40.128599977661601 ], [ -72.387214005814599, -40.128612731900702 ], [ -72.387355898153103, -40.128594278468803 ], [ -72.387563363333598, -40.128583436607002 ], [ -72.387725037202799, -40.128588234813897 ], [ -72.3878751404675, -40.128610052472403 ], [ -72.388070308148599, -40.128649738366697 ], [ -72.388291999777195, -40.1287058231947 ], [ -72.388729492398298, -40.128919400008598 ], [ -72.388844087657901, -40.128960726167499 ], [ -72.389030337391901, -40.128912824572403 ], [ -72.388853771754995, -40.128795863674597 ], [ -72.388638900029704, -40.128688962208798 ], [ -72.388436835976705, -40.128605515654598 ], [ -72.388262549276106, -40.128534361978403 ], [ -72.388023990010893, -40.1284817722239 ], [ -72.387716994635596, -40.128426420665001 ], [ -72.3875555576994, -40.128426381962399 ], [ -72.387240300973502, -40.128454678687604 ], [ -72.387003279857197, -40.128433021952297 ], [ -72.386835904825006, -40.128375962199598 ], [ -72.386531183220598, -40.128303858284802 ], [ -72.386404710144802, -40.128311135669797 ], [ -72.386325563060197, -40.128320601444997 ], [ -72.386202390410304, -40.128340888856002 ], [ -72.386060852848601, -40.128366480171898 ], [ -72.385887842507401, -40.128383459617297 ], [ -72.3857662331353, -40.128372720617001 ], [ -72.385669948803297, -40.128339522788899 ], [ -72.385698498910898, -40.128332645329202 ], [ -72.385565467190105, -40.128330934809 ], [ -72.385240464870193, -40.1282880188934 ], [ -72.384813398108705, -40.128252854167698 ], [ -72.3845409375716, -40.128250515187197 ], [ -72.384448026107407, -40.1282532336107 ], [ -72.384269922086602, -40.128261422995301 ], [ -72.383667963434803, -40.128252223392899 ], [ -72.3829937073574, -40.128271944123803 ], [ -72.382123927313899, -40.1282616310761 ], [ -72.381909619930298, -40.128244066210002 ], [ -72.3816002446478, -40.128187575358297 ], [ -72.381393096694097, -40.1281578849757 ], [ -72.380975222759503, -40.128104563944397 ], [ -72.380463944144097, -40.127967584695 ], [ -72.380089955978207, -40.127781908249602 ], [ -72.379582302360205, -40.127561411365498 ], [ -72.379359233042095, -40.127436616239599 ], [ -72.379298917387104, -40.127402873850798 ], [ -72.379055611966507, -40.127269974891099 ], [ -72.378826037829796, -40.127100927630401 ], [ -72.378519786409896, -40.126794113858402 ], [ -72.378422364494696, -40.126707593282298 ], [ -72.378263279741404, -40.126551380924703 ], [ -72.378074081009899, -40.1264139201893 ], [ -72.377823811522205, -40.126218666071203 ], [ -72.377436384469704, -40.125839747572698 ], [ -72.376848690948407, -40.125413054776999 ], [ -72.376580994264302, -40.125236460054403 ], [ -72.376401972865693, -40.125307458533896 ] ] ] } },
{ "type": "Feature", "properties": { "id": "monoparte.25", "Name": null, "description": null, "timestamp": null, "begin": null, "end": null, "altitudeMode": null, "tessellate": -1, "extrude": 0, "visibility": -1, "drawOrder": null, "icon": null, "REG": "Los Ríos", "COM": "Futrono", "LOC": "Futrono", "ZONA": "Área verde", "NOM": "Área Verde", "UPERM": "Sin información", "UPROH": "Sin información", "P_DO": "03/12/1997", "N_DOC": "37", "T_DO": "Resolución", "OBS": null }, "geometry": { "type": "Polygon", "coordinates": [ [ [ -72.3902673611327, -40.131830072578602 ], [ -72.390643909779698, -40.132159816522403 ], [ -72.390754117455899, -40.132066028818898 ], [ -72.391104997289901, -40.131817434620302 ], [ -72.391296470821601, -40.131690362194398 ], [ -72.390883499056997, -40.1313592274008 ], [ -72.3902673611327, -40.131830072578602 ] ] ] } }
]
}
