{
"type": "FeatureCollection",
"name": "IPT_14_PRC_Panguipulli",
"crs": { "type": "name", "properties": { "name": "urn:ogc:def:crs:OGC:1.3:CRS84" } },
"features": [
{ "type": "Feature", "properties": { "id": "monoparte.1", "Name": null, "description": null, "timestamp": null, "begin": null, "end": null, "altitudeMode": null, "tessellate": -1, "extrude": 0, "visibility": -1, "drawOrder": null, "icon": null, "REG": "Los Ríos", "COM": "Panguipulli", "LOC": "Panguipulli", "ZONA": "Z-1", "NOM": "ZONA Z1", "UPERM": "Vivienda y equipamiento (ver detalles en ordenanza).", "UPROH": "Todos los no mencionados precedentemente", "P_DO": "27/07/1990", "N_DOC": "05", "T_DO": "Resolución", "OBS": null }, "geometry": { "type": "Polygon", "coordinates": [ [ [ -72.331027555719501, -39.635298071761603 ], [ -72.332922208252, -39.635358061372997 ], [ -72.333038097624893, -39.635331211247198 ], [ -72.332081154206406, -39.635123348713002 ], [ -72.331248116370205, -39.634944439052198 ], [ -72.3309762232536, -39.635031430472502 ], [ -72.3307718824164, -39.6351087933812 ], [ -72.330814929242607, -39.635202887816497 ], [ -72.331027555719501, -39.635298071761603 ] ] ] } },
{ "type": "Feature", "properties": { "id": "monoparte.2", "Name": null, "description": null, "timestamp": null, "begin": null, "end": null, "altitudeMode": null, "tessellate": -1, "extrude": 0, "visibility": -1, "drawOrder": null, "icon": null, "REG": "Los Ríos", "COM": "Panguipulli", "LOC": "Panguipulli", "ZONA": "Z-1", "NOM": "ZONA Z1", "UPERM": "Vivienda y equipamiento (ver detalles en ordenanza).", "UPROH": "Todos los no mencionados precedentemente", "P_DO": "27/07/1990", "N_DOC": "05", "T_DO": "Resolución", "OBS": null }, "geometry": { "type": "Polygon", "coordinates": [ [ [ -72.325273204318506, -39.636703599195101 ], [ -72.325269227130093, -39.637070732668697 ], [ -72.324913124802407, -39.637065102923103 ], [ -72.324983175523101, -39.638345338510298 ], [ -72.324992442953601, -39.639310287064802 ], [ -72.325015033389107, -39.639781521931198 ], [ -72.324795120667901, -39.640209657316603 ], [ -72.324674729381499, -39.6403990005211 ], [ -72.324363141554898, -39.640651018504698 ], [ -72.323965699450397, -39.640848297457701 ], [ -72.323525839460501, -39.640932395492598 ], [ -72.322797638881994, -39.640788807428699 ], [ -72.322037973582098, -39.640567468226202 ], [ -72.321656946789901, -39.640335286110997 ], [ -72.320726948586596, -39.640419103434901 ], [ -72.3204615149494, -39.640862833137703 ], [ -72.320341453456805, -39.641059311822801 ], [ -72.320365728117906, -39.641373205837702 ], [ -72.320454655847101, -39.641492206739301 ], [ -72.320928037004606, -39.641721749496597 ], [ -72.321657612319598, -39.641893908757702 ], [ -72.322274658635095, -39.642033536409798 ], [ -72.322508617092595, -39.6420911851813 ], [ -72.322976878202894, -39.642406663518301 ], [ -72.323375707186301, -39.642624031692797 ], [ -72.324097773631195, -39.6428321394447 ], [ -72.324717570771995, -39.6430288727869 ], [ -72.324725622633906, -39.643080416358202 ], [ -72.324820861603797, -39.643690085657397 ], [ -72.325521744476703, -39.643406211901102 ], [ -72.3260002596558, -39.643163705295798 ], [ -72.326075335495503, -39.643156980988302 ], [ -72.325774146369199, -39.6423912629133 ], [ -72.326490711233305, -39.6420668586495 ], [ -72.327636802588401, -39.641539473086802 ], [ -72.3278477321563, -39.641598962267103 ], [ -72.328416372027107, -39.641564777238102 ], [ -72.329108431488507, -39.641533006820602 ], [ -72.329926463325904, -39.641396329457997 ], [ -72.330452638515894, -39.641440808680898 ], [ -72.331182316912304, -39.641390071595197 ], [ -72.331802272877795, -39.641461642729602 ], [ -72.332416820639395, -39.641581029951503 ], [ -72.332825869229296, -39.641753982711997 ], [ -72.332669140093898, -39.642020640626903 ], [ -72.332808310897306, -39.642511165813701 ], [ -72.334041897929893, -39.642201652753101 ], [ -72.334936055860297, -39.6422057465576 ], [ -72.335661188556401, -39.642220651263898 ], [ -72.336012051652006, -39.642145024483398 ], [ -72.336527930841996, -39.641975280994799 ], [ -72.336941470682902, -39.641760812653303 ], [ -72.337348777327804, -39.641737181974698 ], [ -72.337837911213398, -39.641812483407797 ], [ -72.338269028891403, -39.641905189849098 ], [ -72.338716595798701, -39.6418261294804 ], [ -72.339347622623094, -39.641679274618603 ], [ -72.339605515263003, -39.641657552712601 ], [ -72.3397735939364, -39.641661001752702 ], [ -72.339451851396404, -39.6415899704662 ], [ -72.339158886785498, -39.641555503788197 ], [ -72.338907823702598, -39.641526979839803 ], [ -72.338704310972801, -39.641525685892802 ], [ -72.338595380728506, -39.641568144286801 ], [ -72.338205212371193, -39.6412433340167 ], [ -72.338304735042399, -39.641197571585799 ], [ -72.338561078642797, -39.641143723631899 ], [ -72.338787849639999, -39.641147922755799 ], [ -72.339067132210303, -39.641186359213201 ], [ -72.339243822243205, -39.641302819616399 ], [ -72.339333616329597, -39.641343133543799 ], [ -72.339571858128593, -39.641393474236999 ], [ -72.339802044252394, -39.641372549357897 ], [ -72.340051215804607, -39.6413618018208 ], [ -72.340222749831398, -39.6413711632499 ], [ -72.340502892448598, -39.641427445920201 ], [ -72.340826803179397, -39.641432419389297 ], [ -72.341175839468406, -39.641383045060302 ], [ -72.341428939283304, -39.641357882954203 ], [ -72.341621324827699, -39.6413201685898 ], [ -72.341805652131598, -39.641211189069999 ], [ -72.342079087169395, -39.6411282414266 ], [ -72.342394937718694, -39.641061945765301 ], [ -72.342636765686706, -39.641090727301403 ], [ -72.342843890126304, -39.641166982277099 ], [ -72.343039027434401, -39.641186383821001 ], [ -72.343249364918194, -39.641137425220897 ], [ -72.343461220855502, -39.641024074820599 ], [ -72.343669177206294, -39.641021657293699 ], [ -72.344012943100296, -39.641007753686203 ], [ -72.344020581812501, -39.641003416213898 ], [ -72.344157132834098, -39.640925881414802 ], [ -72.3446051025863, -39.640626980822198 ], [ -72.345167954017697, -39.6402175216326 ], [ -72.345268039528605, -39.640130657536503 ], [ -72.345594001416998, -39.639847752442599 ], [ -72.345916740842398, -39.639445212836101 ], [ -72.346411144465705, -39.638959074528898 ], [ -72.346933728265199, -39.638557159139097 ], [ -72.345761558017998, -39.637255919676903 ], [ -72.3449832159951, -39.636456144531401 ], [ -72.344712397852007, -39.6362732925882 ], [ -72.344388726864693, -39.6365924427935 ], [ -72.344049563746495, -39.636590301954698 ], [ -72.343705811680394, -39.636492962507504 ], [ -72.343283386674301, -39.636362140856797 ], [ -72.342891745772107, -39.6362304298571 ], [ -72.342402029416704, -39.635982381675703 ], [ -72.342179111001499, -39.635833892822198 ], [ -72.341833071901505, -39.635688948644699 ], [ -72.341355973066399, -39.635702688419499 ], [ -72.341121679672, -39.635637938037902 ], [ -72.3409319215355, -39.635857892824802 ], [ -72.340731931102297, -39.636185388738198 ], [ -72.340435010538201, -39.636420344039998 ], [ -72.340103295308694, -39.636572888098399 ], [ -72.339760772858398, -39.636821070407798 ], [ -72.339468351720896, -39.636829486785501 ], [ -72.338564243739995, -39.636617180820998 ], [ -72.3363507395499, -39.636096953765502 ], [ -72.334261532227998, -39.635596945219497 ], [ -72.333435301117504, -39.635417486564698 ], [ -72.333229119242702, -39.6354588748464 ], [ -72.331060763297501, -39.635396257831303 ], [ -72.331063478772805, -39.635404286636799 ], [ -72.330843461083205, -39.635476141256397 ], [ -72.330580967511494, -39.6354658024107 ], [ -72.330379177700195, -39.635435845276497 ], [ -72.330042588397802, -39.635487212048403 ], [ -72.329883558941802, -39.635545399416699 ], [ -72.329717708025697, -39.635782524710102 ], [ -72.329534751044406, -39.635984392507197 ], [ -72.329334118046901, -39.636139101239898 ], [ -72.329084756001293, -39.636402454773197 ], [ -72.328882993524601, -39.636694232763197 ], [ -72.328778698750895, -39.636929590758598 ], [ -72.328784708412797, -39.637215407806501 ], [ -72.3288656738344, -39.637457366977003 ], [ -72.328843744334506, -39.637642697863903 ], [ -72.328724613907596, -39.637729528686499 ], [ -72.328526816431506, -39.637782867950399 ], [ -72.328421935249906, -39.637845457633297 ], [ -72.328521418804002, -39.637991556623703 ], [ -72.328646273794305, -39.638184591841501 ], [ -72.328679638703406, -39.638398126980498 ], [ -72.328654853179899, -39.638523957763603 ], [ -72.3285365788159, -39.638628638356103 ], [ -72.328467903210594, -39.638803394092498 ], [ -72.328574797736096, -39.638943321942499 ], [ -72.328896600396703, -39.639065168233103 ], [ -72.329181338018699, -39.6390569988924 ], [ -72.329434722330802, -39.6390378124782 ], [ -72.329669017013501, -39.639102586457199 ], [ -72.329869119848595, -39.6392577128045 ], [ -72.329949521748304, -39.639487771217198 ], [ -72.330105451575406, -39.639685872294102 ], [ -72.330295861134502, -39.639799569491998 ], [ -72.330521036747797, -39.639834812898599 ], [ -72.330701465389396, -39.6399011308756 ], [ -72.330685236580806, -39.640044590904601 ], [ -72.330523359605195, -39.640204148609399 ], [ -72.330240063505002, -39.640402939150597 ], [ -72.329972425980699, -39.6404463694086 ], [ -72.329757515615498, -39.640464452973497 ], [ -72.3295793871998, -39.640606600360996 ], [ -72.329435753974593, -39.640825214130899 ], [ -72.329246214792093, -39.640890233779899 ], [ -72.328939238732801, -39.640916915907198 ], [ -72.329078605755996, -39.6407699222408 ], [ -72.329271270158401, -39.640609484026001 ], [ -72.329394386584795, -39.640445082669203 ], [ -72.329426867373797, -39.640319030052801 ], [ -72.329130700896599, -39.640089203685697 ], [ -72.329128115835104, -39.6398747865261 ], [ -72.3291879521135, -39.639676451976698 ], [ -72.329157439519093, -39.6395224171848 ], [ -72.329023186470593, -39.639454771963599 ], [ -72.328739303793895, -39.639480790013799 ], [ -72.328352535781704, -39.639611047241402 ], [ -72.328086041768898, -39.6396782723887 ], [ -72.327875974393507, -39.639636632434097 ], [ -72.327722904380806, -39.639498028243203 ], [ -72.327601749025902, -39.639221471879303 ], [ -72.327567518411598, -39.638829218839 ], [ -72.327448636662297, -39.638439392429397 ], [ -72.327243415332802, -39.638338032089798 ], [ -72.326910223221304, -39.638299920865997 ], [ -72.326674220136496, -39.6381994411758 ], [ -72.326472415210802, -39.638008608914802 ], [ -72.326421953409394, -39.637759815039701 ], [ -72.326590104150796, -39.637570293455902 ], [ -72.326845756878299, -39.637437843072398 ], [ -72.3269939583259, -39.637314431583 ], [ -72.327085723032297, -39.637139015519097 ], [ -72.327106230300998, -39.636923936017197 ], [ -72.327204263101606, -39.636718548672498 ], [ -72.327528302566705, -39.636405393402001 ], [ -72.3278739980463, -39.636061825597601 ], [ -72.328145592197501, -39.635779962435599 ], [ -72.328165239657693, -39.635547032907397 ], [ -72.328208297642405, -39.635282962166798 ], [ -72.323917093696807, -39.635092822048499 ], [ -72.323996036617999, -39.635306385408697 ], [ -72.324237850280895, -39.635914334962699 ], [ -72.324510104613296, -39.636385567524101 ], [ -72.324716138068496, -39.636684576938002 ], [ -72.325273204318506, -39.636703599195101 ] ] ] } },
{ "type": "Feature", "properties": { "id": "monoparte.3", "Name": null, "description": null, "timestamp": null, "begin": null, "end": null, "altitudeMode": null, "tessellate": -1, "extrude": 0, "visibility": -1, "drawOrder": null, "icon": null, "REG": "Los Ríos", "COM": "Panguipulli", "LOC": "Panguipulli", "ZONA": "Z-1", "NOM": "ZONA Z1", "UPERM": "Vivienda y equipamiento (ver detalles en ordenanza).", "UPROH": "Todos los no mencionados precedentemente", "P_DO": "27/07/1990", "N_DOC": "05", "T_DO": "Resolución", "OBS": null }, "geometry": { "type": "Polygon", "coordinates": [ [ [ -72.323825612718693, -39.633568122150798 ], [ -72.3238027813657, -39.633781877085198 ], [ -72.323841093842603, -39.634388507439297 ], [ -72.323826051488595, -39.634846521471303 ], [ -72.323880797232704, -39.634994628594399 ], [ -72.328225898600195, -39.635178687127897 ], [ -72.328353573923295, -39.634814741403297 ], [ -72.328340727765493, -39.634546994842303 ], [ -72.328168853419797, -39.6343374332358 ], [ -72.3277769746811, -39.634360588629796 ], [ -72.327605683567995, -39.634323794347999 ], [ -72.327002897943999, -39.634287455602298 ], [ -72.3266204171548, -39.634185217760702 ], [ -72.326241637811606, -39.633999458386398 ], [ -72.325979108697496, -39.633753965981498 ], [ -72.324962194462501, -39.633540126332697 ], [ -72.324547802158605, -39.6335758328145 ], [ -72.324179011026999, -39.633598314499203 ], [ -72.323825612718693, -39.633568122150798 ] ] ] } },
{ "type": "Feature", "properties": { "id": "monoparte.4", "Name": null, "description": null, "timestamp": null, "begin": null, "end": null, "altitudeMode": null, "tessellate": -1, "extrude": 0, "visibility": -1, "drawOrder": null, "icon": null, "REG": "Los Ríos", "COM": "Panguipulli", "LOC": "Panguipulli", "ZONA": "Z-3", "NOM": "ZONA Z3", "UPERM": "Vivienda y equipamiento.(ver detalles en ordenanza)", "UPROH": "Todos los no mencionados precedentemente", "P_DO": "27/07/1990", "N_DOC": "05", "T_DO": "Resolución", "OBS": null }, "geometry": { "type": "Polygon", "coordinates": [ [ [ -72.3278919090409, -39.649614924305801 ], [ -72.327367939173698, -39.649888129604797 ], [ -72.326655395315598, -39.650073005684597 ], [ -72.326109099577593, -39.650253110715397 ], [ -72.325127002145294, -39.650796041629199 ], [ -72.324125730369104, -39.651325213414097 ], [ -72.323548632860295, -39.6516348846935 ], [ -72.323189442263697, -39.651859664675897 ], [ -72.322814170589993, -39.6521349525392 ], [ -72.322379030969401, -39.652512050431703 ], [ -72.322021200928006, -39.652958429374898 ], [ -72.321564156119294, -39.653650738741703 ], [ -72.321247367320495, -39.654181737823002 ], [ -72.321188183308294, -39.654297827385903 ], [ -72.320360418897295, -39.654940045705899 ], [ -72.320666148270902, -39.6551838446372 ], [ -72.323390987024794, -39.652853661945301 ], [ -72.324768447103295, -39.651682157273498 ], [ -72.325475970707203, -39.651006489632699 ], [ -72.325716565274803, -39.650880431333299 ], [ -72.326061490375295, -39.6506798846602 ], [ -72.327891586021806, -39.649948183218001 ], [ -72.328161817814205, -39.649797436891603 ], [ -72.3283490229271, -39.6498117292006 ], [ -72.3282728861262, -39.649416275345601 ], [ -72.3278919090409, -39.649614924305801 ] ] ] } },
{ "type": "Feature", "properties": { "id": "monoparte.5", "Name": null, "description": null, "timestamp": null, "begin": null, "end": null, "altitudeMode": null, "tessellate": -1, "extrude": 0, "visibility": -1, "drawOrder": null, "icon": null, "REG": "Los Ríos", "COM": "Panguipulli", "LOC": "Panguipulli", "ZONA": "Z-4", "NOM": "ZONA Z4", "UPERM": "Equipamiento de escala comunal de esparcimiento y turismo a excepción de: quintas de recreo, hospederías y residenciales. Equipamiento de áreas verdes a escala vecinal", "UPROH": "Todos los no mencionados precedentemente", "P_DO": "27/07/1990", "N_DOC": "05", "T_DO": "Resolución", "OBS": null }, "geometry": { "type": "Polygon", "coordinates": [ [ [ -72.3278919090409, -39.649614924305801 ], [ -72.3269098802527, -39.648928236663401 ], [ -72.326750340668596, -39.649101495665299 ], [ -72.3261163801522, -39.649510523268198 ], [ -72.325552193230607, -39.649831750206303 ], [ -72.325123464929504, -39.650149092419298 ], [ -72.324873066799995, -39.650327862211199 ], [ -72.324525060737599, -39.6505284936528 ], [ -72.324086747228705, -39.650903304441499 ], [ -72.323649798173307, -39.651306674266003 ], [ -72.323325956968702, -39.6514970773013 ], [ -72.323086496386793, -39.651646930290902 ], [ -72.322626271934496, -39.651822171378697 ], [ -72.322201165166604, -39.6519582736153 ], [ -72.321819389791997, -39.652226594373403 ], [ -72.321612308436499, -39.652280188144402 ], [ -72.321311263797298, -39.652431800609698 ], [ -72.321202247812707, -39.652730443308201 ], [ -72.321213189906203, -39.653473701822001 ], [ -72.321138836350997, -39.653981077642399 ], [ -72.320611535823801, -39.654301225207199 ], [ -72.320352900639193, -39.654566017761098 ], [ -72.320257565446695, -39.654635476418697 ], [ -72.320089132904997, -39.654723709612398 ], [ -72.320360418897295, -39.654940045705899 ], [ -72.321188183308294, -39.654297827385903 ], [ -72.321247367320495, -39.654181737823002 ], [ -72.321564156119294, -39.653650738741703 ], [ -72.322021200928006, -39.652958429374898 ], [ -72.322379030969401, -39.652512050431703 ], [ -72.322814170589993, -39.6521349525392 ], [ -72.323189442263697, -39.651859664675897 ], [ -72.323548632860295, -39.6516348846935 ], [ -72.324125730369104, -39.651325213414097 ], [ -72.325127002145294, -39.650796041629199 ], [ -72.326109099577593, -39.650253110715397 ], [ -72.326655395315598, -39.650073005684597 ], [ -72.327367939173698, -39.649888129604797 ], [ -72.3278919090409, -39.649614924305801 ] ] ] } },
{ "type": "Feature", "properties": { "id": "monoparte.6", "Name": null, "description": null, "timestamp": null, "begin": null, "end": null, "altitudeMode": null, "tessellate": -1, "extrude": 0, "visibility": -1, "drawOrder": null, "icon": null, "REG": "Los Ríos", "COM": "Panguipulli", "LOC": "Panguipulli", "ZONA": "Z-4", "NOM": "ZONA Z4", "UPERM": "Equipamiento de escala comunal de esparcimiento y turismo a excepción de: quintas de recreo, hospederías y residenciales. Equipamiento de áreas verdes a escala vecinal", "UPROH": "Todos los no mencionados precedentemente", "P_DO": "27/07/1990", "N_DOC": "05", "T_DO": "Resolución", "OBS": null }, "geometry": { "type": "Polygon", "coordinates": [ [ [ -72.311332525654294, -39.6427173143597 ], [ -72.311134544565604, -39.643146788728998 ], [ -72.311812803975599, -39.643341923294301 ], [ -72.312024869093193, -39.643393068026 ], [ -72.312250157442506, -39.643462901136999 ], [ -72.312994907363006, -39.643565567943199 ], [ -72.313481065799706, -39.643675613971297 ], [ -72.313801684269094, -39.643675991122201 ], [ -72.314121847705394, -39.64366684681 ], [ -72.314497211186406, -39.643522662895101 ], [ -72.314688774526104, -39.6434027939979 ], [ -72.314992527355102, -39.6433083193768 ], [ -72.315333675995902, -39.643222308126802 ], [ -72.315792499807202, -39.643018537501902 ], [ -72.316202066089602, -39.642816172907203 ], [ -72.316566017466698, -39.642691374782402 ], [ -72.316858361616099, -39.642616287665398 ], [ -72.316995177938296, -39.642640975425003 ], [ -72.317201780933601, -39.642577870297998 ], [ -72.317515088477293, -39.642683309163999 ], [ -72.3177303429961, -39.6428010826803 ], [ -72.317881752886393, -39.642873017221703 ], [ -72.318215120687, -39.643139940322897 ], [ -72.318641066774106, -39.643537677241198 ], [ -72.318916059939397, -39.643872998263902 ], [ -72.3191668843412, -39.644218544432903 ], [ -72.319324221326298, -39.644414235652697 ], [ -72.319475179482495, -39.644476647389901 ], [ -72.319710969861006, -39.644508033825403 ], [ -72.319927609224393, -39.644396972452803 ], [ -72.320043457830707, -39.644241129657701 ], [ -72.320286547357895, -39.644167443217299 ], [ -72.320576613733394, -39.644044746775002 ], [ -72.320843873125398, -39.643960833909603 ], [ -72.321078294399399, -39.643963656984901 ], [ -72.321441326004802, -39.644077194440598 ], [ -72.321692165085906, -39.644165342900003 ], [ -72.321941637898604, -39.644224931955101 ], [ -72.322263169437505, -39.644244324792702 ], [ -72.322692789948206, -39.644203423720398 ], [ -72.323065855577497, -39.644011612940098 ], [ -72.323611769938296, -39.643824383450401 ], [ -72.323952908604497, -39.643738347182797 ], [ -72.324331444184196, -39.643660771120501 ], [ -72.324725487083697, -39.6436494807432 ], [ -72.324820861603797, -39.643690085657397 ], [ -72.324725622633906, -39.643080416358202 ], [ -72.324234263384497, -39.643300111194797 ], [ -72.323727748227498, -39.643505281153303 ], [ -72.323248877863193, -39.643644118453203 ], [ -72.322612376834797, -39.6437100112935 ], [ -72.322033737748995, -39.643696789261199 ], [ -72.321273526819496, -39.6435934326054 ], [ -72.320583153829403, -39.643499987432598 ], [ -72.320255356774993, -39.643414038744098 ], [ -72.320027895625898, -39.643331175750099 ], [ -72.319852598850005, -39.643211070720902 ], [ -72.319625714101605, -39.642979238424999 ], [ -72.319424197652793, -39.642794343225397 ], [ -72.318942776372594, -39.642557874182501 ], [ -72.318395509411701, -39.642394784391399 ], [ -72.317928905860398, -39.6423068393213 ], [ -72.317263060368504, -39.642242464217802 ], [ -72.316862865244005, -39.642253904960903 ], [ -72.316366034963394, -39.642339603640998 ], [ -72.315920501058002, -39.642531080614901 ], [ -72.315208728724798, -39.642795702861697 ], [ -72.314786844804303, -39.642998415872597 ], [ -72.314421695115499, -39.643098218865497 ], [ -72.313979296861504, -39.643194268592801 ], [ -72.313693400692401, -39.643178601719001 ], [ -72.313090539971697, -39.643142193585902 ], [ -72.312421561685497, -39.643012340397902 ], [ -72.311332525654294, -39.6427173143597 ] ] ] } },
{ "type": "Feature", "properties": { "id": "monoparte.7", "Name": null, "description": null, "timestamp": null, "begin": null, "end": null, "altitudeMode": null, "tessellate": -1, "extrude": 0, "visibility": -1, "drawOrder": null, "icon": null, "REG": "Los Ríos", "COM": "Panguipulli", "LOC": "Panguipulli", "ZONA": "Z-3", "NOM": "ZONA Z3", "UPERM": "Vivienda y equipamiento.(ver detalles en ordenanza)", "UPROH": "Todos los no mencionados precedentemente", "P_DO": "27/07/1990", "N_DOC": "05", "T_DO": "Resolución", "OBS": null }, "geometry": { "type": "Polygon", "coordinates": [ [ [ -72.319142222298893, -39.637841682928297 ], [ -72.317926127577607, -39.640772108161201 ], [ -72.317824078125597, -39.6408941886232 ], [ -72.317654199125002, -39.6408871299992 ], [ -72.317174776218494, -39.640853171891301 ], [ -72.316668552781096, -39.6409033921001 ], [ -72.316244409807993, -39.641058509686502 ], [ -72.315985024109395, -39.641113587953001 ], [ -72.315638405574504, -39.641278403862501 ], [ -72.315273549461693, -39.641384159522403 ], [ -72.3149731054705, -39.6415476550508 ], [ -72.3146253447742, -39.641688668477798 ], [ -72.314271897052905, -39.641710680858097 ], [ -72.313873978199595, -39.641769711378899 ], [ -72.313396824013395, -39.6417833380521 ], [ -72.312961297492393, -39.641700443845401 ], [ -72.311902703018603, -39.641480423298198 ], [ -72.311332525654294, -39.6427173143597 ], [ -72.312421561685497, -39.643012340397902 ], [ -72.313090539971697, -39.643142193585902 ], [ -72.313693400692401, -39.643178601719001 ], [ -72.313979296861504, -39.643194268592801 ], [ -72.314421695115499, -39.643098218865497 ], [ -72.314786844804303, -39.642998415872597 ], [ -72.315208728724798, -39.642795702861697 ], [ -72.315920501058002, -39.642531080614901 ], [ -72.316366034963394, -39.642339603640998 ], [ -72.316862865244005, -39.642253904960903 ], [ -72.317263060368504, -39.642242464217802 ], [ -72.317928905860398, -39.6423068393213 ], [ -72.318395509411701, -39.642394784391399 ], [ -72.318942776372594, -39.642557874182501 ], [ -72.319424197652793, -39.642794343225397 ], [ -72.319625714101605, -39.642979238424999 ], [ -72.319852598850005, -39.643211070720902 ], [ -72.320027895625898, -39.643331175750099 ], [ -72.320255356774993, -39.643414038744098 ], [ -72.320583153829403, -39.643499987432598 ], [ -72.321273526819496, -39.6435934326054 ], [ -72.322033737748995, -39.643696789261199 ], [ -72.322612376834797, -39.6437100112935 ], [ -72.323248877863193, -39.643644118453203 ], [ -72.323727748227498, -39.643505281153303 ], [ -72.324234263384497, -39.643300111194797 ], [ -72.324725622633906, -39.643080416358202 ], [ -72.324717570771995, -39.6430288727869 ], [ -72.324097773631195, -39.6428321394447 ], [ -72.323375707186301, -39.642624031692797 ], [ -72.322976878202894, -39.642406663518301 ], [ -72.322508617092595, -39.6420911851813 ], [ -72.322274658635095, -39.642033536409798 ], [ -72.321657612319598, -39.641893908757702 ], [ -72.320928037004606, -39.641721749496597 ], [ -72.320454655847101, -39.641492206739301 ], [ -72.320365728117906, -39.641373205837702 ], [ -72.320341453456805, -39.641059311822801 ], [ -72.3204615149494, -39.640862833137703 ], [ -72.320726948586596, -39.640419103434901 ], [ -72.321656946789901, -39.640335286110997 ], [ -72.322037973582098, -39.640567468226202 ], [ -72.322797638881994, -39.640788807428699 ], [ -72.323525839460501, -39.640932395492598 ], [ -72.323965699450397, -39.640848297457701 ], [ -72.324363141554898, -39.640651018504698 ], [ -72.324674729381499, -39.6403990005211 ], [ -72.324795120667901, -39.640209657316603 ], [ -72.325015033389107, -39.639781521931198 ], [ -72.324992442953601, -39.639310287064802 ], [ -72.324983175523101, -39.638345338510298 ], [ -72.324913124802407, -39.637065102923103 ], [ -72.3249085716579, -39.636981876900002 ], [ -72.324857949675902, -39.636890381546699 ], [ -72.324716138068496, -39.636684576938002 ], [ -72.324510104613296, -39.636385567524101 ], [ -72.324237850280895, -39.635914334962699 ], [ -72.323996036617999, -39.635306385408697 ], [ -72.323917093696807, -39.635092822048499 ], [ -72.320310521367702, -39.635024694536199 ], [ -72.319142222298893, -39.637841682928297 ] ] ] } },
{ "type": "Feature", "properties": { "id": "monoparte.8", "Name": null, "description": null, "timestamp": null, "begin": null, "end": null, "altitudeMode": null, "tessellate": -1, "extrude": 0, "visibility": -1, "drawOrder": null, "icon": null, "REG": "Los Ríos", "COM": "Panguipulli", "LOC": "Panguipulli", "ZONA": "Z-3", "NOM": "ZONA Z3", "UPERM": "Vivienda y equipamiento.(ver detalles en ordenanza)", "UPROH": "Todos los no mencionados precedentemente", "P_DO": "27/07/1990", "N_DOC": "05", "T_DO": "Resolución", "OBS": null }, "geometry": { "type": "Polygon", "coordinates": [ [ [ -72.320959625239695, -39.6336309167799 ], [ -72.320772655154599, -39.6339103407404 ], [ -72.320359253174601, -39.634907188517801 ], [ -72.323880797232704, -39.634994628594399 ], [ -72.323826051488595, -39.634846521471303 ], [ -72.323841093842603, -39.634388507439297 ], [ -72.3238027813657, -39.633781877085198 ], [ -72.323825612718693, -39.633568122150798 ], [ -72.323761198109295, -39.633562618030702 ], [ -72.323545736452104, -39.633568789547397 ], [ -72.323058383534104, -39.633689993744802 ], [ -72.322441067976897, -39.633671921773299 ], [ -72.321839142472399, -39.6336534068258 ], [ -72.321514240226506, -39.633626958449199 ], [ -72.320959625239695, -39.6336309167799 ] ] ] } },
{ "type": "Feature", "properties": { "id": "monoparte.9", "Name": null, "description": null, "timestamp": null, "begin": null, "end": null, "altitudeMode": null, "tessellate": -1, "extrude": 0, "visibility": -1, "drawOrder": null, "icon": null, "REG": "Los Ríos", "COM": "Panguipulli", "LOC": "Panguipulli", "ZONA": "Z-0", "NOM": "ZONA 0", "UPERM": "Vivienda y equipamiento (ver detalles en ordenanza).", "UPROH": "Todos los no mencionados precedentemente", "P_DO": "27/07/1990", "N_DOC": "05", "T_DO": "Resolución", "OBS": null }, "geometry": { "type": "Polygon", "coordinates": [ [ [ -72.326075335495503, -39.643156980988302 ], [ -72.326469890087793, -39.6431216434069 ], [ -72.326930639846694, -39.643280026175098 ], [ -72.327114346050706, -39.643639394263403 ], [ -72.327379130424603, -39.644146582202801 ], [ -72.3277075252266, -39.644437452030203 ], [ -72.328123479223095, -39.644625714354 ], [ -72.328701562622598, -39.644723526551701 ], [ -72.329301184373307, -39.644692023093498 ], [ -72.329689074937093, -39.644680892281002 ], [ -72.330107413993701, -39.644726083916602 ], [ -72.330275754684294, -39.644820042929403 ], [ -72.330524140924197, -39.644958678160698 ], [ -72.330582561827896, -39.644991284646203 ], [ -72.330626458854695, -39.645063614956399 ], [ -72.331470859547693, -39.644808488988502 ], [ -72.3321104810843, -39.644647126906897 ], [ -72.332195314809596, -39.644680439557497 ], [ -72.332825012147694, -39.644505060070003 ], [ -72.333399292617202, -39.6443312684003 ], [ -72.3339619325005, -39.644107760941303 ], [ -72.333910264372093, -39.643994850355099 ], [ -72.334308346891206, -39.6436187760685 ], [ -72.334890478391998, -39.643416152706997 ], [ -72.335233520977994, -39.643241848876698 ], [ -72.334994293399404, -39.642498005318899 ], [ -72.336065912189, -39.642474349133899 ], [ -72.336600136265105, -39.642237346720002 ], [ -72.337303334563998, -39.642052679434798 ], [ -72.337863279554, -39.642158117850698 ], [ -72.3381847450039, -39.641920078419702 ], [ -72.338269028891403, -39.641905189849098 ], [ -72.337837911213398, -39.641812483407797 ], [ -72.337348777327804, -39.641737181974698 ], [ -72.336941470682902, -39.641760812653303 ], [ -72.336527930841996, -39.641975280994799 ], [ -72.336012051652006, -39.642145024483398 ], [ -72.335661188556401, -39.642220651263898 ], [ -72.334936055860297, -39.6422057465576 ], [ -72.334041897929893, -39.642201652753101 ], [ -72.332808310897306, -39.642511165813701 ], [ -72.332669140093898, -39.642020640626903 ], [ -72.332825869229296, -39.641753982711997 ], [ -72.332416820639395, -39.641581029951503 ], [ -72.331802272877795, -39.641461642729602 ], [ -72.331182316912304, -39.641390071595197 ], [ -72.330452638515894, -39.641440808680898 ], [ -72.329926463325904, -39.641396329457997 ], [ -72.329108431488507, -39.641533006820602 ], [ -72.328416372027107, -39.641564777238102 ], [ -72.3278477321563, -39.641598962267103 ], [ -72.327636802588401, -39.641539473086802 ], [ -72.326490711233305, -39.6420668586495 ], [ -72.325774146369199, -39.6423912629133 ], [ -72.326075335495503, -39.643156980988302 ] ] ] } },
{ "type": "Feature", "properties": { "id": "monoparte.10", "Name": null, "description": null, "timestamp": null, "begin": null, "end": null, "altitudeMode": null, "tessellate": -1, "extrude": 0, "visibility": -1, "drawOrder": null, "icon": null, "REG": "Los Ríos", "COM": "Panguipulli", "LOC": "Panguipulli", "ZONA": "Z-2", "NOM": "ZONA Z2", "UPERM": "Vivienda, equipamiento, Industria, terminales de buses. (ver detalle en la ordenanza)", "UPROH": "Todos los no mencionados precedentemente", "P_DO": "27/07/1990", "N_DOC": "05", "T_DO": "Resolución", "OBS": null }, "geometry": { "type": "Polygon", "coordinates": [ [ [ -72.349045074033398, -39.641466912127598 ], [ -72.349357547498997, -39.641178385143 ], [ -72.347780832198893, -39.639497497777 ], [ -72.347746646357805, -39.639459549301201 ], [ -72.347445911919607, -39.639405364437899 ], [ -72.347154676815606, -39.639406616018199 ], [ -72.346891662843205, -39.6394177780357 ], [ -72.346708726720394, -39.639555324135998 ], [ -72.346612312880396, -39.639665350770898 ], [ -72.346544981253203, -39.6398031372891 ], [ -72.346594805536, -39.639973292736002 ], [ -72.346704999279495, -39.640148857037403 ], [ -72.346926700466497, -39.640335504159502 ], [ -72.347252534614299, -39.6404762487022 ], [ -72.347618239462605, -39.640676614533199 ], [ -72.347736121481404, -39.640819782162403 ], [ -72.3480161659717, -39.641065515386998 ], [ -72.348301310413305, -39.641225305422601 ], [ -72.348649721695296, -39.641354670100199 ], [ -72.349045074033398, -39.641466912127598 ] ] ] } },
{ "type": "Feature", "properties": { "id": "monoparte.11", "Name": null, "description": null, "timestamp": null, "begin": null, "end": null, "altitudeMode": null, "tessellate": -1, "extrude": 0, "visibility": -1, "drawOrder": null, "icon": null, "REG": "Los Ríos", "COM": "Panguipulli", "LOC": "Panguipulli", "ZONA": "Z-2", "NOM": "ZONA Z2", "UPERM": "Vivienda, equipamiento, Industria, terminales de buses. (ver detalle en la ordenanza)", "UPROH": "Todos los no mencionados precedentemente", "P_DO": "27/07/1990", "N_DOC": "05", "T_DO": "Resolución", "OBS": null }, "geometry": { "type": "Polygon", "coordinates": [ [ [ -72.345268039528605, -39.640130657536503 ], [ -72.345475543672904, -39.640062767244999 ], [ -72.345732017826194, -39.639915953359598 ], [ -72.345962475026397, -39.639709115697102 ], [ -72.346091522948697, -39.639508778059302 ], [ -72.346212540528697, -39.639333694654603 ], [ -72.346456363357802, -39.639212267743197 ], [ -72.346798870977906, -39.639123741875402 ], [ -72.347123942234404, -39.639057167504198 ], [ -72.347399239931903, -39.6390739097655 ], [ -72.346933728265199, -39.638557159139097 ], [ -72.346411144465705, -39.638959074528898 ], [ -72.345916740842398, -39.639445212836101 ], [ -72.345594001416998, -39.639847752442599 ], [ -72.345268039528605, -39.640130657536503 ] ] ] } },
{ "type": "Feature", "properties": { "id": "monoparte.12", "Name": null, "description": null, "timestamp": null, "begin": null, "end": null, "altitudeMode": null, "tessellate": -1, "extrude": 0, "visibility": -1, "drawOrder": null, "icon": null, "REG": "Los Ríos", "COM": "Panguipulli", "LOC": "Panguipulli", "ZONA": "R-2", "NOM": "Área de protección de quebradas naturales", "UPERM": "No se permite ningún tipo de edificación", "UPROH": "Todos", "P_DO": "27/07/1990", "N_DOC": "05", "T_DO": "Resolución", "OBS": null }, "geometry": { "type": "Polygon", "coordinates": [ [ [ -72.346212540528697, -39.639333694654603 ], [ -72.346091522948697, -39.639508778059302 ], [ -72.345962475026397, -39.639709115697102 ], [ -72.345732017826194, -39.639915953359598 ], [ -72.345475543672904, -39.640062767244999 ], [ -72.345268039528605, -39.640130657536503 ], [ -72.345167954017697, -39.6402175216326 ], [ -72.3446051025863, -39.640626980822198 ], [ -72.344157132834098, -39.640925881414802 ], [ -72.344020581812501, -39.641003416213898 ], [ -72.344012943100296, -39.641007753686203 ], [ -72.343669177206294, -39.641021657293699 ], [ -72.343461220855502, -39.641024074820599 ], [ -72.343249364918194, -39.641137425220897 ], [ -72.343039027434401, -39.641186383821001 ], [ -72.342843890126304, -39.641166982277099 ], [ -72.342636765686706, -39.641090727301403 ], [ -72.342394937718694, -39.641061945765301 ], [ -72.342079087169395, -39.6411282414266 ], [ -72.341805652131598, -39.641211189069999 ], [ -72.341621324827699, -39.6413201685898 ], [ -72.341428939283304, -39.641357882954203 ], [ -72.341175839468406, -39.641383045060302 ], [ -72.340826803179397, -39.641432419389297 ], [ -72.340502892448598, -39.641427445920201 ], [ -72.340222749831398, -39.6413711632499 ], [ -72.340051215804607, -39.6413618018208 ], [ -72.339802044252394, -39.641372549357897 ], [ -72.339571858128593, -39.641393474236999 ], [ -72.339333616329597, -39.641343133543799 ], [ -72.339243822243205, -39.641302819616399 ], [ -72.339067132210303, -39.641186359213201 ], [ -72.338787849639999, -39.641147922755799 ], [ -72.338561078642797, -39.641143723631899 ], [ -72.338304735042399, -39.641197571585799 ], [ -72.338205212371193, -39.6412433340167 ], [ -72.338595380728506, -39.641568144286801 ], [ -72.338704310972801, -39.641525685892802 ], [ -72.338907823702598, -39.641526979839803 ], [ -72.339158886785498, -39.641555503788197 ], [ -72.339451851396404, -39.6415899704662 ], [ -72.3397735939364, -39.641661001752702 ], [ -72.340040590583001, -39.641666478863698 ], [ -72.340179108252997, -39.641655977155501 ], [ -72.340690590724293, -39.641772377345497 ], [ -72.341294476998996, -39.6418300607275 ], [ -72.341630720028903, -39.641899023566097 ], [ -72.341832514502997, -39.641864612927598 ], [ -72.342038409286204, -39.641819359523403 ], [ -72.342201885993305, -39.641757453160899 ], [ -72.342394100063501, -39.641716167372302 ], [ -72.342703299505999, -39.641703685797196 ], [ -72.343028932026996, -39.641744351480902 ], [ -72.3433550811896, -39.641795726566698 ], [ -72.343582886626805, -39.641821335971997 ], [ -72.3437901568727, -39.641804638588503 ], [ -72.344093361316098, -39.6417637264069 ], [ -72.344426649326095, -39.641675473102303 ], [ -72.3447161421077, -39.641542009026601 ], [ -72.344995192997899, -39.641383820684702 ], [ -72.345202977980605, -39.641377830258399 ], [ -72.345327799628706, -39.641313458907902 ], [ -72.345418660487297, -39.641120180538998 ], [ -72.345378120297198, -39.640918774767499 ], [ -72.345455310254295, -39.640761638522001 ], [ -72.345666197152397, -39.640660228078403 ], [ -72.346057527052096, -39.640625111548601 ], [ -72.3464907808889, -39.640660281414597 ], [ -72.346881018923796, -39.6407622288745 ], [ -72.347308070590699, -39.640988233146302 ], [ -72.347546407875498, -39.641136267717599 ], [ -72.347709512145698, -39.641322220436898 ], [ -72.347900240429396, -39.6414418365488 ], [ -72.348260562768402, -39.641562516883397 ], [ -72.348745195824606, -39.641743806425303 ], [ -72.349045074033398, -39.641466912127598 ], [ -72.348649721695296, -39.641354670100199 ], [ -72.348301310413305, -39.641225305422601 ], [ -72.3480161659717, -39.641065515386998 ], [ -72.347736121481404, -39.640819782162403 ], [ -72.347618239462605, -39.640676614533199 ], [ -72.347252534614299, -39.6404762487022 ], [ -72.346926700466497, -39.640335504159502 ], [ -72.346704999279495, -39.640148857037403 ], [ -72.346594805536, -39.639973292736002 ], [ -72.346544981253203, -39.6398031372891 ], [ -72.346612312880396, -39.639665350770898 ], [ -72.346708726720394, -39.639555324135998 ], [ -72.346891662843205, -39.6394177780357 ], [ -72.347154676815606, -39.639406616018199 ], [ -72.347445911919607, -39.639405364437899 ], [ -72.347746646357805, -39.639459549301201 ], [ -72.347399239931903, -39.6390739097655 ], [ -72.347123942234404, -39.639057167504198 ], [ -72.346798870977906, -39.639123741875402 ], [ -72.346456363357802, -39.639212267743197 ], [ -72.346212540528697, -39.639333694654603 ] ] ] } },
{ "type": "Feature", "properties": { "id": "monoparte.13", "Name": null, "description": null, "timestamp": null, "begin": null, "end": null, "altitudeMode": null, "tessellate": -1, "extrude": 0, "visibility": -1, "drawOrder": null, "icon": null, "REG": "Los Ríos", "COM": "Panguipulli", "LOC": "Panguipulli", "ZONA": "R-6", "NOM": "Ärea de protección de esteros", "UPERM": "En esta zona sólo se permitirán las construcciones autorizadas por el servicio competente", "UPROH": "Todos los no mencionados precedentemente", "P_DO": "27/07/1990", "N_DOC": "05", "T_DO": "Resolución", "OBS": null }, "geometry": { "type": "Polygon", "coordinates": [ [ [ -72.331041913728399, -39.6457602381793 ], [ -72.330692541681699, -39.645572307325303 ], [ -72.330479086733007, -39.645492638167198 ], [ -72.330199047032195, -39.645438711791002 ], [ -72.329912851464698, -39.645384961401298 ], [ -72.329974864092904, -39.6452640195957 ], [ -72.330193302220707, -39.645062325236097 ], [ -72.330363412695206, -39.6450097776234 ], [ -72.330524140924197, -39.644958678160698 ], [ -72.330275754684294, -39.644820042929403 ], [ -72.3300090351336, -39.644948451835297 ], [ -72.329665184872894, -39.645234775512499 ], [ -72.3294747870127, -39.645378467518299 ], [ -72.328172951298697, -39.64587339949 ], [ -72.326890025519702, -39.646377307459503 ], [ -72.326507147965998, -39.646493147993901 ], [ -72.326240342268505, -39.646586593594897 ], [ -72.326153056064598, -39.646664892261597 ], [ -72.326401337515705, -39.646793182508503 ], [ -72.326552996485006, -39.646677725930601 ], [ -72.326893002848493, -39.646567881287602 ], [ -72.327382825811597, -39.646367942841898 ], [ -72.327729215114303, -39.646262678597203 ], [ -72.328454819324307, -39.645965409786797 ], [ -72.329107674881101, -39.645694055921602 ], [ -72.329564199242299, -39.645571326730803 ], [ -72.3299897214753, -39.645573414354097 ], [ -72.330634644124402, -39.645778927823002 ], [ -72.331176840736902, -39.645993561646897 ], [ -72.331041913728399, -39.6457602381793 ] ] ] } },
{ "type": "Feature", "properties": { "id": "monoparte.14", "Name": null, "description": null, "timestamp": null, "begin": null, "end": null, "altitudeMode": null, "tessellate": -1, "extrude": 0, "visibility": -1, "drawOrder": null, "icon": null, "REG": "Los Ríos", "COM": "Panguipulli", "LOC": "Panguipulli", "ZONA": "R-2", "NOM": "Área de protección de quebradas naturales", "UPERM": "No se permite ningún tipo de edificación", "UPROH": "Todos", "P_DO": "27/07/1990", "N_DOC": "05", "T_DO": "Resolución", "OBS": null }, "geometry": { "type": "Polygon", "coordinates": [ [ [ -72.328208297642405, -39.635282962166798 ], [ -72.328165239657693, -39.635547032907397 ], [ -72.328145592197501, -39.635779962435599 ], [ -72.3278739980463, -39.636061825597601 ], [ -72.327528302566705, -39.636405393402001 ], [ -72.327204263101606, -39.636718548672498 ], [ -72.327106230300998, -39.636923936017197 ], [ -72.327085723032297, -39.637139015519097 ], [ -72.3269939583259, -39.637314431583 ], [ -72.326845756878299, -39.637437843072398 ], [ -72.326590104150796, -39.637570293455902 ], [ -72.326421953409394, -39.637759815039701 ], [ -72.326472415210802, -39.638008608914802 ], [ -72.326674220136496, -39.6381994411758 ], [ -72.326910223221304, -39.638299920865997 ], [ -72.327243415332802, -39.638338032089798 ], [ -72.327448636662297, -39.638439392429397 ], [ -72.327567518411598, -39.638829218839 ], [ -72.327601749025902, -39.639221471879303 ], [ -72.327722904380806, -39.639498028243203 ], [ -72.327875974393507, -39.639636632434097 ], [ -72.328086041768898, -39.6396782723887 ], [ -72.328352535781704, -39.639611047241402 ], [ -72.328739303793895, -39.639480790013799 ], [ -72.329023186470593, -39.639454771963599 ], [ -72.329157439519093, -39.6395224171848 ], [ -72.3291879521135, -39.639676451976698 ], [ -72.329128115835104, -39.6398747865261 ], [ -72.329130700896599, -39.640089203685697 ], [ -72.329426867373797, -39.640319030052801 ], [ -72.329394386584795, -39.640445082669203 ], [ -72.329271270158401, -39.640609484026001 ], [ -72.329078605755996, -39.6407699222408 ], [ -72.328939238732801, -39.640916915907198 ], [ -72.329246214792093, -39.640890233779899 ], [ -72.329435753974593, -39.640825214130899 ], [ -72.3295793871998, -39.640606600360996 ], [ -72.329757515615498, -39.640464452973497 ], [ -72.329972425980699, -39.6404463694086 ], [ -72.330240063505002, -39.640402939150597 ], [ -72.330523359605195, -39.640204148609399 ], [ -72.330685236580806, -39.640044590904601 ], [ -72.330701465389396, -39.6399011308756 ], [ -72.330521036747797, -39.639834812898599 ], [ -72.330295861134502, -39.639799569491998 ], [ -72.330105451575406, -39.639685872294102 ], [ -72.329949521748304, -39.639487771217198 ], [ -72.329869119848595, -39.6392577128045 ], [ -72.329669017013501, -39.639102586457199 ], [ -72.329434722330802, -39.6390378124782 ], [ -72.329181338018699, -39.6390569988924 ], [ -72.328896600396703, -39.639065168233103 ], [ -72.328574797736096, -39.638943321942499 ], [ -72.328467903210594, -39.638803394092498 ], [ -72.3285365788159, -39.638628638356103 ], [ -72.328654853179899, -39.638523957763603 ], [ -72.328679638703406, -39.638398126980498 ], [ -72.328646273794305, -39.638184591841501 ], [ -72.328521418804002, -39.637991556623703 ], [ -72.328421935249906, -39.637845457633297 ], [ -72.328526816431506, -39.637782867950399 ], [ -72.328724613907596, -39.637729528686499 ], [ -72.328843744334506, -39.637642697863903 ], [ -72.3288656738344, -39.637457366977003 ], [ -72.328784708412797, -39.637215407806501 ], [ -72.328778698750895, -39.636929590758598 ], [ -72.328882993524601, -39.636694232763197 ], [ -72.329084756001293, -39.636402454773197 ], [ -72.329334118046901, -39.636139101239898 ], [ -72.329534751044406, -39.635984392507197 ], [ -72.329717708025697, -39.635782524710102 ], [ -72.329883558941802, -39.635545399416699 ], [ -72.330042588397802, -39.635487212048403 ], [ -72.330379177700195, -39.635435845276497 ], [ -72.330580967511494, -39.6354658024107 ], [ -72.330843461083205, -39.635476141256397 ], [ -72.331063478772805, -39.635404286636799 ], [ -72.331060763297501, -39.635396257831303 ], [ -72.328208297642405, -39.635282962166798 ] ] ] } },
{ "type": "Feature", "properties": { "id": "monoparte.15", "Name": null, "description": null, "timestamp": null, "begin": null, "end": null, "altitudeMode": null, "tessellate": -1, "extrude": 0, "visibility": -1, "drawOrder": null, "icon": null, "REG": "Los Ríos", "COM": "Panguipulli", "LOC": "Panguipulli", "ZONA": "R-2", "NOM": "Área de protección de quebradas naturales", "UPERM": "No se permite ningún tipo de edificación", "UPROH": "Todos", "P_DO": "27/07/1990", "N_DOC": "05", "T_DO": "Resolución", "OBS": null }, "geometry": { "type": "Polygon", "coordinates": [ [ [ -72.327605683567995, -39.634323794347999 ], [ -72.3277769746811, -39.634360588629796 ], [ -72.328168853419797, -39.6343374332358 ], [ -72.328340727765493, -39.634546994842303 ], [ -72.328353573923295, -39.634814741403297 ], [ -72.328225898600195, -39.635178687127897 ], [ -72.331027555719501, -39.635298071761603 ], [ -72.330814929242607, -39.635202887816497 ], [ -72.3307718824164, -39.6351087933812 ], [ -72.3309762232536, -39.635031430472502 ], [ -72.331248116370205, -39.634944439052198 ], [ -72.330025638282606, -39.634681876436197 ], [ -72.327904590415201, -39.634158833534102 ], [ -72.325979108697496, -39.633753965981498 ], [ -72.326241637811606, -39.633999458386398 ], [ -72.3266204171548, -39.634185217760702 ], [ -72.327002897943999, -39.634287455602298 ], [ -72.327605683567995, -39.634323794347999 ] ] ] } },
{ "type": "Feature", "properties": { "id": "monoparte.16", "Name": null, "description": null, "timestamp": null, "begin": null, "end": null, "altitudeMode": null, "tessellate": -1, "extrude": 0, "visibility": -1, "drawOrder": null, "icon": null, "REG": "Los Ríos", "COM": "Panguipulli", "LOC": "Panguipulli", "ZONA": "R-4", "NOM": "Áreas de protección de trazado de línea de alta tensión", "UPERM": "Franjas de terreno no edificables de 1,5m., a cada lado del tendido de la línea de alta tensión, de acuerdo a lo informado por la Superintendencia de Servicios Eléctricos y gas", "UPROH": "Todos los no mencionados precedentemente", "P_DO": "27/07/1990", "N_DOC": "05", "T_DO": "Resolución", "OBS": null }, "geometry": { "type": "Polygon", "coordinates": [ [ [ -72.331060763297501, -39.635396257831303 ], [ -72.333229119242702, -39.6354588748464 ], [ -72.333435301117504, -39.635417486564698 ], [ -72.333038097624893, -39.635331211247198 ], [ -72.332922208252, -39.635358061372997 ], [ -72.331027555719501, -39.635298071761603 ], [ -72.328225898600195, -39.635178687127897 ], [ -72.323880797232704, -39.634994628594399 ], [ -72.320359253174601, -39.634907188517801 ], [ -72.320310521367702, -39.635024694536199 ], [ -72.323917093696807, -39.635092822048499 ], [ -72.328208297642405, -39.635282962166798 ], [ -72.331060763297501, -39.635396257831303 ] ] ] } },
{ "type": "Feature", "properties": { "id": "monoparte.17", "Name": null, "description": null, "timestamp": null, "begin": null, "end": null, "altitudeMode": null, "tessellate": -1, "extrude": 0, "visibility": -1, "drawOrder": null, "icon": null, "REG": "Los Ríos", "COM": "Panguipulli", "LOC": "Panguipulli", "ZONA": "R-3", "NOM": "Áreas de protección de obras de infraestructura", "UPERM": "En estas zonas solo se permitirán las obras que autorice el servicio respectivo", "UPROH": "Todos los no mencionados precedentemente", "P_DO": "27/07/1990", "N_DOC": "05", "T_DO": "Resolución", "OBS": null }, "geometry": { "type": "Polygon", "coordinates": [ [ [ -72.324913124802407, -39.637065102923103 ], [ -72.325269227130093, -39.637070732668697 ], [ -72.325273204318506, -39.636703599195101 ], [ -72.324716138068496, -39.636684576938002 ], [ -72.324857949675902, -39.636890381546699 ], [ -72.3249085716579, -39.636981876900002 ], [ -72.324913124802407, -39.637065102923103 ] ] ] } },
{ "type": "Feature", "properties": { "id": "monoparte.18", "Name": null, "description": null, "timestamp": null, "begin": null, "end": null, "altitudeMode": null, "tessellate": -1, "extrude": 0, "visibility": -1, "drawOrder": null, "icon": null, "REG": "Los Ríos", "COM": "Panguipulli", "LOC": "Panguipulli", "ZONA": "R-2", "NOM": "Área de protección de quebradas naturales", "UPERM": "No se permite ningún tipo de edificación", "UPROH": "Todos", "P_DO": "27/07/1990", "N_DOC": "05", "T_DO": "Resolución", "OBS": null }, "geometry": { "type": "Polygon", "coordinates": [ [ [ -72.333520526352899, -39.647548541755498 ], [ -72.333686334355704, -39.647662938839403 ], [ -72.333842095924197, -39.647696595638003 ], [ -72.334063299036998, -39.647680706775802 ], [ -72.334256209402298, -39.647589365912502 ], [ -72.334668444131907, -39.6471866681891 ], [ -72.335614436744194, -39.6463444084185 ], [ -72.335803932799905, -39.646310361668803 ], [ -72.336239941012295, -39.646273993349901 ], [ -72.336596621108498, -39.646382897703099 ], [ -72.336910889475107, -39.646507321007 ], [ -72.337128248490004, -39.646667896335302 ], [ -72.337265107418403, -39.646821253186801 ], [ -72.337349301965801, -39.647033323170902 ], [ -72.3373349822036, -39.647248225884297 ], [ -72.337381089067307, -39.647437559360903 ], [ -72.337754215089305, -39.647631784187404 ], [ -72.338203750264299, -39.647876240168799 ], [ -72.338654527728295, -39.648018370505199 ], [ -72.338773855081001, -39.648014936739699 ], [ -72.339215175506396, -39.6482167278498 ], [ -72.339474646736207, -39.648483331483398 ], [ -72.339690233776807, -39.648798863494598 ], [ -72.339705409814002, -39.648859908131598 ], [ -72.339766709738299, -39.649106482606904 ], [ -72.339783355222394, -39.649240144687099 ], [ -72.339816984669596, -39.649510184752401 ], [ -72.339845561749996, -39.649783434579398 ], [ -72.340157040597205, -39.650489437567998 ], [ -72.340493829085005, -39.650380994997199 ], [ -72.340290281560996, -39.650104093404202 ], [ -72.340194904839905, -39.649916180621403 ], [ -72.340073065623301, -39.6496908981864 ], [ -72.340010770508698, -39.649549696857797 ], [ -72.340075257307305, -39.649352415910201 ], [ -72.340063826886507, -39.649243115810798 ], [ -72.3400682044646, -39.649157900613403 ], [ -72.340026356766998, -39.648977272177298 ], [ -72.339983990205297, -39.648783303262199 ], [ -72.339819627431098, -39.648525642202699 ], [ -72.3395221785687, -39.648238682960802 ], [ -72.339144230898, -39.647944507052102 ], [ -72.338890607734996, -39.647799278628803 ], [ -72.338572923944596, -39.647732156657803 ], [ -72.338195241791198, -39.647571431129897 ], [ -72.337901958363801, -39.647498838493803 ], [ -72.337750262368701, -39.6472934784871 ], [ -72.337667899193093, -39.6471194884382 ], [ -72.337627260839696, -39.646915698379601 ], [ -72.337567923586306, -39.646707681229003 ], [ -72.337454317220306, -39.646525056207203 ], [ -72.337247440260498, -39.646326048592499 ], [ -72.336963728047607, -39.646195980625798 ], [ -72.336694164098205, -39.646103637380698 ], [ -72.336267035875096, -39.646068255092601 ], [ -72.335862502043199, -39.646118018875399 ], [ -72.335550551326406, -39.646169885541497 ], [ -72.335206948366405, -39.646460985084303 ], [ -72.334723811172196, -39.646927686862099 ], [ -72.334404372322496, -39.647208556947902 ], [ -72.334113884294695, -39.647450461920698 ], [ -72.333944916652996, -39.647526814263102 ], [ -72.333760657236894, -39.6475416422916 ], [ -72.333556762018205, -39.647404505783001 ], [ -72.332912004467303, -39.646946380876102 ], [ -72.332815529096294, -39.646863355753801 ], [ -72.332784036775905, -39.646721266352401 ], [ -72.332675934323504, -39.646652874488701 ], [ -72.332543203199094, -39.646585189918902 ], [ -72.332447413875897, -39.646516444171098 ], [ -72.332283669293005, -39.646444883279798 ], [ -72.332063823726401, -39.6463606338842 ], [ -72.331794264854096, -39.646268279000601 ], [ -72.331618189252794, -39.646068375697297 ], [ -72.3314932003656, -39.645905138504801 ], [ -72.331353856959694, -39.645828108852299 ], [ -72.331041913728399, -39.6457602381793 ], [ -72.331176840736902, -39.645993561646897 ], [ -72.331348877465501, -39.646109474078301 ], [ -72.331490736968604, -39.6462388623344 ], [ -72.331697369162001, -39.646433121626799 ], [ -72.331943444440498, -39.646549983153399 ], [ -72.332148916859794, -39.646591747344999 ], [ -72.332324061719206, -39.646643914831301 ], [ -72.332649972419304, -39.646882410626198 ], [ -72.333035188303896, -39.647200232366401 ], [ -72.333520526352899, -39.647548541755498 ] ] ] } },
{ "type": "Feature", "properties": { "id": "monoparte.19", "Name": null, "description": null, "timestamp": null, "begin": null, "end": null, "altitudeMode": null, "tessellate": -1, "extrude": 0, "visibility": -1, "drawOrder": null, "icon": null, "REG": "Los Ríos", "COM": "Panguipulli", "LOC": "Panguipulli", "ZONA": "R-5", "NOM": "Área de protección del trazado ferroviario", "UPERM": "En esta zona solo se permitirán las construcciones autorizadas por el servicio competente", "UPROH": "Todos los no mencionados precedentemente", "P_DO": "27/07/1990", "N_DOC": "05", "T_DO": "Resolución", "OBS": null }, "geometry": { "type": "Polygon", "coordinates": [ [ [ -72.349045074033398, -39.641466912127598 ], [ -72.348745195824606, -39.641743806425303 ], [ -72.348260113675806, -39.642191703786899 ], [ -72.347328061128295, -39.642999105246297 ], [ -72.346287779646005, -39.6441194411114 ], [ -72.345358656696405, -39.645308059800399 ], [ -72.344798767505594, -39.646003423111999 ], [ -72.344494177647306, -39.646399479070702 ], [ -72.344005731953899, -39.646818707840097 ], [ -72.343512117394496, -39.647130837824001 ], [ -72.340813893708997, -39.6485550885576 ], [ -72.339983990205297, -39.648783303262199 ], [ -72.340026356766998, -39.648977272177298 ], [ -72.3400682044646, -39.649157900613403 ], [ -72.341273196513896, -39.648809976319299 ], [ -72.3424682726463, -39.648179746269797 ], [ -72.344172336952994, -39.647236929457399 ], [ -72.344469287904303, -39.647001962632899 ], [ -72.344879906448597, -39.646567102105699 ], [ -72.345810201531407, -39.645402285280099 ], [ -72.346544159223896, -39.644481447739103 ], [ -72.347095173955495, -39.643762500282399 ], [ -72.3473513230457, -39.643481038465801 ], [ -72.347659837120204, -39.643220683026698 ], [ -72.347921507459105, -39.6429998575368 ], [ -72.349488092514306, -39.641608117548301 ], [ -72.349626464864997, -39.641465058371303 ], [ -72.349357547498997, -39.641178385143 ], [ -72.349045074033398, -39.641466912127598 ] ] ] } },
{ "type": "Feature", "properties": { "id": "monoparte.20", "Name": null, "description": null, "timestamp": null, "begin": null, "end": null, "altitudeMode": null, "tessellate": -1, "extrude": 0, "visibility": -1, "drawOrder": null, "icon": null, "REG": "Los Ríos", "COM": "Panguipulli", "LOC": "Panguipulli", "ZONA": "R-1", "NOM": "Área de Alto Riesgo para el asentamiento humano por inundación", "UPERM": "Equipamiento de escala comunal y vecinal: áreas verdes y deportes.", "UPROH": "Todos los no mencionados precedentemente", "P_DO": "27/07/1990", "N_DOC": "05", "T_DO": "Resolución", "OBS": null }, "geometry": { "type": "Polygon", "coordinates": [ [ [ -72.327337915894105, -39.6486427719014 ], [ -72.328034246962801, -39.649125447994997 ], [ -72.328257266374095, -39.648954607040601 ], [ -72.328522027336405, -39.648882664953199 ], [ -72.329179480196203, -39.648706507612303 ], [ -72.329732591437306, -39.648476144347903 ], [ -72.330574707824695, -39.647908595523603 ], [ -72.331508826374801, -39.647331248880597 ], [ -72.3316178613739, -39.646713241876803 ], [ -72.331398209459707, -39.646376363134998 ], [ -72.331176840736902, -39.645993561646897 ], [ -72.330634644124402, -39.645778927823002 ], [ -72.3299897214753, -39.645573414354097 ], [ -72.329564199242299, -39.645571326730803 ], [ -72.329107674881101, -39.645694055921602 ], [ -72.328454819324307, -39.645965409786797 ], [ -72.327729215114303, -39.646262678597203 ], [ -72.327382825811597, -39.646367942841898 ], [ -72.326893002848493, -39.646567881287602 ], [ -72.326552996485006, -39.646677725930601 ], [ -72.326401337515705, -39.646793182508503 ], [ -72.326544491126597, -39.646867151758599 ], [ -72.3270078885826, -39.647015925266999 ], [ -72.327276541703995, -39.647217946765402 ], [ -72.327540169901695, -39.647315249055602 ], [ -72.327770054744207, -39.647480248840203 ], [ -72.327926509485394, -39.647656887893802 ], [ -72.328039190397803, -39.6479491776239 ], [ -72.328011385192696, -39.648140634303097 ], [ -72.327813459365103, -39.648384635488597 ], [ -72.327404811748494, -39.648606079983502 ], [ -72.327337915894105, -39.6486427719014 ] ] ] } },
{ "type": "Feature", "properties": { "id": "monoparte.21", "Name": null, "description": null, "timestamp": null, "begin": null, "end": null, "altitudeMode": null, "tessellate": -1, "extrude": 0, "visibility": -1, "drawOrder": null, "icon": null, "REG": "Los Ríos", "COM": "Panguipulli", "LOC": "Panguipulli", "ZONA": "R-1", "NOM": "Área de Alto Riesgo para el asentamiento humano por inundación", "UPERM": "Equipamiento de escala comunal y vecinal: áreas verdes y deportes.", "UPROH": "Todos los no mencionados precedentemente", "P_DO": "27/07/1990", "N_DOC": "05", "T_DO": "Resolución", "OBS": null }, "geometry": { "type": "Polygon", "coordinates": [ [ [ -72.330692541681699, -39.645572307325303 ], [ -72.331041913728399, -39.6457602381793 ], [ -72.330893898196507, -39.645504277017402 ], [ -72.330626458854695, -39.645063614956399 ], [ -72.330582561827896, -39.644991284646203 ], [ -72.330524140924197, -39.644958678160698 ], [ -72.330363412695206, -39.6450097776234 ], [ -72.330193302220707, -39.645062325236097 ], [ -72.329974864092904, -39.6452640195957 ], [ -72.329912851464698, -39.645384961401298 ], [ -72.330199047032195, -39.645438711791002 ], [ -72.330479086733007, -39.645492638167198 ], [ -72.330692541681699, -39.645572307325303 ] ] ] } },
{ "type": "Feature", "properties": { "id": "monoparte.22", "Name": null, "description": null, "timestamp": null, "begin": null, "end": null, "altitudeMode": null, "tessellate": -1, "extrude": 0, "visibility": -1, "drawOrder": null, "icon": null, "REG": "Los Ríos", "COM": "Panguipulli", "LOC": "Panguipulli", "ZONA": "R-1", "NOM": "Área de Alto Riesgo para el asentamiento humano por inundación", "UPERM": "Equipamiento de escala comunal y vecinal: áreas verdes y deportes.", "UPROH": "Todos los no mencionados precedentemente", "P_DO": "27/07/1990", "N_DOC": "05", "T_DO": "Resolución", "OBS": null }, "geometry": { "type": "Polygon", "coordinates": [ [ [ -72.325950091051993, -39.644758340623099 ], [ -72.325863449572395, -39.645008681143104 ], [ -72.325868498939599, -39.645628179229 ], [ -72.325796910774301, -39.645935285878402 ], [ -72.325702976071199, -39.646290698945897 ], [ -72.325732627385605, -39.646394710856001 ], [ -72.325950189907502, -39.646560068472901 ], [ -72.326153056064598, -39.646664892261597 ], [ -72.326240342268505, -39.646586593594897 ], [ -72.326507147965998, -39.646493147993901 ], [ -72.326890025519702, -39.646377307459503 ], [ -72.328172951298697, -39.64587339949 ], [ -72.3294747870127, -39.645378467518299 ], [ -72.329665184872894, -39.645234775512499 ], [ -72.3300090351336, -39.644948451835297 ], [ -72.330275754684294, -39.644820042929403 ], [ -72.330107413993701, -39.644726083916602 ], [ -72.329689074937093, -39.644680892281002 ], [ -72.329301184373307, -39.644692023093498 ], [ -72.328701562622598, -39.644723526551701 ], [ -72.328123479223095, -39.644625714354 ], [ -72.3277075252266, -39.644437452030203 ], [ -72.327379130424603, -39.644146582202801 ], [ -72.327114346050706, -39.643639394263403 ], [ -72.326930639846694, -39.643280026175098 ], [ -72.326469890087793, -39.6431216434069 ], [ -72.326075335495503, -39.643156980988302 ], [ -72.3260002596558, -39.643163705295798 ], [ -72.325521744476703, -39.643406211901102 ], [ -72.324820861603797, -39.643690085657397 ], [ -72.325040180113305, -39.643783458158097 ], [ -72.325230823044294, -39.643901922787002 ], [ -72.325371752669994, -39.6440122792362 ], [ -72.325551908267499, -39.6441691771848 ], [ -72.325487611611194, -39.644371211958997 ], [ -72.325406435963501, -39.644478401260699 ], [ -72.325728425518605, -39.644507303961198 ], [ -72.325916331033, -39.644568649080597 ], [ -72.325950091051993, -39.644758340623099 ] ] ] } },
{ "type": "Feature", "properties": { "id": "monoparte.23", "Name": null, "description": null, "timestamp": null, "begin": null, "end": null, "altitudeMode": null, "tessellate": -1, "extrude": 0, "visibility": -1, "drawOrder": null, "icon": null, "REG": "Los Ríos", "COM": "Panguipulli", "LOC": "Panguipulli", "ZONA": "Z-2", "NOM": "ZONA Z2", "UPERM": "Vivienda, equipamiento, Industria, terminales de buses. (ver detalle en la ordenanza)", "UPROH": "Todos los no mencionados precedentemente", "P_DO": "27/07/1990", "N_DOC": "05", "T_DO": "Resolución", "OBS": null }, "geometry": { "type": "Polygon", "coordinates": [ [ [ -72.331508826374801, -39.647331248880597 ], [ -72.330574707824695, -39.647908595523603 ], [ -72.329732591437306, -39.648476144347903 ], [ -72.329179480196203, -39.648706507612303 ], [ -72.328522027336405, -39.648882664953199 ], [ -72.328257266374095, -39.648954607040601 ], [ -72.328034246962801, -39.649125447994997 ], [ -72.328256958988106, -39.649333551556403 ], [ -72.3282728861262, -39.649416275345601 ], [ -72.3283490229271, -39.6498117292006 ], [ -72.328502190953003, -39.649823421693398 ], [ -72.328970889182202, -39.650274705810801 ], [ -72.329022783377894, -39.650392378848203 ], [ -72.331793558725295, -39.6496693707562 ], [ -72.333971943215502, -39.649130146963401 ], [ -72.337292181295695, -39.6482958883986 ], [ -72.338039571135297, -39.648131394385999 ], [ -72.3381123198875, -39.648113037449399 ], [ -72.338465993657493, -39.648023795513602 ], [ -72.338654527728295, -39.648018370505199 ], [ -72.338203750264299, -39.647876240168799 ], [ -72.337754215089305, -39.647631784187404 ], [ -72.337381089067307, -39.647437559360903 ], [ -72.3373349822036, -39.647248225884297 ], [ -72.337349301965801, -39.647033323170902 ], [ -72.337265107418403, -39.646821253186801 ], [ -72.337128248490004, -39.646667896335302 ], [ -72.336910889475107, -39.646507321007 ], [ -72.336596621108498, -39.646382897703099 ], [ -72.336239941012295, -39.646273993349901 ], [ -72.335803932799905, -39.646310361668803 ], [ -72.335614436744194, -39.6463444084185 ], [ -72.334668444131907, -39.6471866681891 ], [ -72.334256209402298, -39.647589365912502 ], [ -72.334063299036998, -39.647680706775802 ], [ -72.333842095924197, -39.647696595638003 ], [ -72.333686334355704, -39.647662938839403 ], [ -72.333520526352899, -39.647548541755498 ], [ -72.333035188303896, -39.647200232366401 ], [ -72.332649972419304, -39.646882410626198 ], [ -72.332324061719206, -39.646643914831301 ], [ -72.332148916859794, -39.646591747344999 ], [ -72.331943444440498, -39.646549983153399 ], [ -72.331697369162001, -39.646433121626799 ], [ -72.331490736968604, -39.6462388623344 ], [ -72.331348877465501, -39.646109474078301 ], [ -72.331176840736902, -39.645993561646897 ], [ -72.331398209459707, -39.646376363134998 ], [ -72.3316178613739, -39.646713241876803 ], [ -72.331508826374801, -39.647331248880597 ] ] ] } },
{ "type": "Feature", "properties": { "id": "monoparte.24", "Name": null, "description": null, "timestamp": null, "begin": null, "end": null, "altitudeMode": null, "tessellate": -1, "extrude": 0, "visibility": -1, "drawOrder": null, "icon": null, "REG": "Los Ríos", "COM": "Panguipulli", "LOC": "Panguipulli", "ZONA": "R-3", "NOM": "Áreas de protección de obras de infraestructura", "UPERM": "En estas zonas solo se permitirán las obras que autorice el servicio respectivo", "UPROH": "Todos los no mencionados precedentemente", "P_DO": "27/07/1990", "N_DOC": "05", "T_DO": "Resolución", "OBS": null }, "geometry": { "type": "Polygon", "coordinates": [ [ [ -72.341732782097594, -39.643527727078599 ], [ -72.341784979561197, -39.643651343079398 ], [ -72.342060315370304, -39.643607664603998 ], [ -72.342103911270698, -39.643552785501498 ], [ -72.342167105202904, -39.643423492204398 ], [ -72.341838389727997, -39.643224397477603 ], [ -72.341661426360304, -39.643390362538597 ], [ -72.341732782097594, -39.643527727078599 ] ] ] } },
{ "type": "Feature", "properties": { "id": "monoparte.25", "Name": null, "description": null, "timestamp": null, "begin": null, "end": null, "altitudeMode": null, "tessellate": -1, "extrude": 0, "visibility": -1, "drawOrder": null, "icon": null, "REG": "Los Ríos", "COM": "Panguipulli", "LOC": "Panguipulli", "ZONA": "R-6", "NOM": "Ärea de protección de esteros", "UPERM": "En esta zona sólo se permitirán las construcciones autorizadas por el servicio competente", "UPROH": "Todos los no mencionados precedentemente", "P_DO": "27/07/1990", "N_DOC": "05", "T_DO": "Resolución", "OBS": null }, "geometry": { "type": "Polygon", "coordinates": [ [ [ -72.3269098802527, -39.648928236663401 ], [ -72.3278919090409, -39.649614924305801 ], [ -72.3282728861262, -39.649416275345601 ], [ -72.328256958988106, -39.649333551556403 ], [ -72.328034246962801, -39.649125447994997 ], [ -72.327337915894105, -39.6486427719014 ], [ -72.327056363898805, -39.648797198897697 ], [ -72.326984759621894, -39.648846917171902 ], [ -72.3269098802527, -39.648928236663401 ] ] ] } },
{ "type": "Feature", "properties": { "id": "monoparte.26", "Name": null, "description": null, "timestamp": null, "begin": null, "end": null, "altitudeMode": null, "tessellate": -1, "extrude": 0, "visibility": -1, "drawOrder": null, "icon": null, "REG": "Los Ríos", "COM": "Panguipulli", "LOC": "Panguipulli", "ZONA": "Z-2", "NOM": "ZONA Z2", "UPERM": "Vivienda, equipamiento, Industria, terminales de buses. (ver detalle en la ordenanza)", "UPROH": "Todos los no mencionados precedentemente", "P_DO": "27/07/1990", "N_DOC": "05", "T_DO": "Resolución", "OBS": null }, "geometry": { "type": "Polygon", "coordinates": [ [ [ -72.347659837120204, -39.643220683026698 ], [ -72.3473513230457, -39.643481038465801 ], [ -72.347095173955495, -39.643762500282399 ], [ -72.346544159223896, -39.644481447739103 ], [ -72.345810201531407, -39.645402285280099 ], [ -72.344879906448597, -39.646567102105699 ], [ -72.344469287904303, -39.647001962632899 ], [ -72.344172336952994, -39.647236929457399 ], [ -72.3424682726463, -39.648179746269797 ], [ -72.341273196513896, -39.648809976319299 ], [ -72.3400682044646, -39.649157900613403 ], [ -72.340063826886507, -39.649243115810798 ], [ -72.340075257307305, -39.649352415910201 ], [ -72.340010770508698, -39.649549696857797 ], [ -72.340073065623301, -39.6496908981864 ], [ -72.340194904839905, -39.649916180621403 ], [ -72.340290281560996, -39.650104093404202 ], [ -72.340493829085005, -39.650380994997199 ], [ -72.341416928656798, -39.650083758686598 ], [ -72.342111835369195, -39.649789672046801 ], [ -72.343273026731197, -39.649255738520601 ], [ -72.344200432882204, -39.648668951450098 ], [ -72.345591798219004, -39.647794707376697 ], [ -72.346244392631505, -39.6472634931296 ], [ -72.346536167510806, -39.646921424698903 ], [ -72.346842757666096, -39.646567013112097 ], [ -72.347226765085296, -39.645900546308098 ], [ -72.347470628760604, -39.645524109834597 ], [ -72.347702544648897, -39.645219514412503 ], [ -72.347905972562302, -39.644963405404397 ], [ -72.348120769259594, -39.644623555187302 ], [ -72.348463297754094, -39.644375347158402 ], [ -72.348934007437606, -39.643908948021597 ], [ -72.349155014763397, -39.6437248333282 ], [ -72.349112200789904, -39.643655042544999 ], [ -72.3490619369759, -39.643588286119702 ], [ -72.349004579547397, -39.643525040163901 ], [ -72.348940535821797, -39.643465753192103 ], [ -72.348870261924901, -39.6434108470892 ], [ -72.348794257832097, -39.643360710948201 ], [ -72.348713060387794, -39.6433157012723 ], [ -72.348627250069399, -39.6432761372767 ], [ -72.348537434698798, -39.643242301358299 ], [ -72.348444252673104, -39.643214433599098 ], [ -72.348348365940396, -39.643192731067799 ], [ -72.348250455390499, -39.643177348854401 ], [ -72.348151217191699, -39.643168396572499 ], [ -72.348051356887197, -39.643165936729098 ], [ -72.347951582502205, -39.643169986724097 ], [ -72.347852604544997, -39.643180518851103 ], [ -72.347755125406394, -39.643197457900797 ], [ -72.347659837120204, -39.643220683026698 ] ] ] } },
{ "type": "Feature", "properties": { "id": "monoparte.27", "Name": null, "description": null, "timestamp": null, "begin": null, "end": null, "altitudeMode": null, "tessellate": -1, "extrude": 0, "visibility": -1, "drawOrder": null, "icon": null, "REG": "Los Ríos", "COM": "Panguipulli", "LOC": "Panguipulli", "ZONA": "R-3", "NOM": "Áreas de protección de obras de infraestructura", "UPERM": "En estas zonas solo se permitirán las obras que autorice el servicio respectivo", "UPROH": "Todos los no mencionados precedentemente", "P_DO": "27/07/1990", "N_DOC": "05", "T_DO": "Resolución", "OBS": null }, "geometry": { "type": "Polygon", "coordinates": [ [ [ -72.347921507459105, -39.6429998575368 ], [ -72.347659837120204, -39.643220683026698 ], [ -72.347755125406394, -39.643197457900797 ], [ -72.347852604544997, -39.643180518851103 ], [ -72.347951582502205, -39.643169986724097 ], [ -72.348051356887197, -39.643165936729098 ], [ -72.348151217191699, -39.643168396572499 ], [ -72.348250455390499, -39.643177348854401 ], [ -72.348348365940396, -39.643192731067799 ], [ -72.348444252673104, -39.643214433599098 ], [ -72.348537434698798, -39.643242301358299 ], [ -72.348627250069399, -39.6432761372767 ], [ -72.348713060387794, -39.6433157012723 ], [ -72.348794257832097, -39.643360710948201 ], [ -72.348870261924901, -39.6434108470892 ], [ -72.348940535821797, -39.643465753192103 ], [ -72.349004579547397, -39.643525040163901 ], [ -72.3490619369759, -39.643588286119702 ], [ -72.349112200789904, -39.643655042544999 ], [ -72.349155014763397, -39.6437248333282 ], [ -72.349571147551501, -39.6433781607561 ], [ -72.350522305789198, -39.642647645063597 ], [ -72.350609482612697, -39.642537881979301 ], [ -72.350120715537003, -39.641991936076998 ], [ -72.349626464864997, -39.641465058371303 ], [ -72.349488092514306, -39.641608117548301 ], [ -72.347921507459105, -39.6429998575368 ] ] ] } },
{ "type": "Feature", "properties": { "id": "monoparte.28", "Name": null, "description": null, "timestamp": null, "begin": null, "end": null, "altitudeMode": null, "tessellate": -1, "extrude": 0, "visibility": -1, "drawOrder": null, "icon": null, "REG": "Los Ríos", "COM": "Panguipulli", "LOC": "Panguipulli", "ZONA": "Z-2", "NOM": "ZONA Z2", "UPERM": "Vivienda, equipamiento, Industria, terminales de buses. (ver detalle en la ordenanza)", "UPROH": "Todos los no mencionados precedentemente", "P_DO": "27/07/1990", "N_DOC": "05", "T_DO": "Resolución", "OBS": null }, "geometry": { "type": "Polygon", "coordinates": [ [ [ -72.345327799628706, -39.641313458907902 ], [ -72.345202977980605, -39.641377830258399 ], [ -72.344995192997899, -39.641383820684702 ], [ -72.3447161421077, -39.641542009026601 ], [ -72.344426649326095, -39.641675473102303 ], [ -72.344093361316098, -39.6417637264069 ], [ -72.3437901568727, -39.641804638588503 ], [ -72.343582886626805, -39.641821335971997 ], [ -72.3433550811896, -39.641795726566698 ], [ -72.343028932026996, -39.641744351480902 ], [ -72.342703299505999, -39.641703685797196 ], [ -72.342394100063501, -39.641716167372302 ], [ -72.342201885993305, -39.641757453160899 ], [ -72.342038409286204, -39.641819359523403 ], [ -72.341832514502997, -39.641864612927598 ], [ -72.341630720028903, -39.641899023566097 ], [ -72.341294476998996, -39.6418300607275 ], [ -72.340690590724293, -39.641772377345497 ], [ -72.340179108252997, -39.641655977155501 ], [ -72.340040590583001, -39.641666478863698 ], [ -72.3397735939364, -39.641661001752702 ], [ -72.339605515263003, -39.641657552712601 ], [ -72.339347622623094, -39.641679274618603 ], [ -72.338716595798701, -39.6418261294804 ], [ -72.338269028891403, -39.641905189849098 ], [ -72.3381847450039, -39.641920078419702 ], [ -72.337863279554, -39.642158117850698 ], [ -72.337303334563998, -39.642052679434798 ], [ -72.336600136265105, -39.642237346720002 ], [ -72.336065912189, -39.642474349133899 ], [ -72.334994293399404, -39.642498005318899 ], [ -72.335233520977994, -39.643241848876698 ], [ -72.334890478391998, -39.643416152706997 ], [ -72.334308346891206, -39.6436187760685 ], [ -72.333910264372093, -39.643994850355099 ], [ -72.3339619325005, -39.644107760941303 ], [ -72.333399292617202, -39.6443312684003 ], [ -72.332825012147694, -39.644505060070003 ], [ -72.332195314809596, -39.644680439557497 ], [ -72.3321104810843, -39.644647126906897 ], [ -72.331470859547693, -39.644808488988502 ], [ -72.330626458854695, -39.645063614956399 ], [ -72.330893898196507, -39.645504277017402 ], [ -72.331041913728399, -39.6457602381793 ], [ -72.331353856959694, -39.645828108852299 ], [ -72.3314932003656, -39.645905138504801 ], [ -72.331618189252794, -39.646068375697297 ], [ -72.331794264854096, -39.646268279000601 ], [ -72.332063823726401, -39.6463606338842 ], [ -72.332283669293005, -39.646444883279798 ], [ -72.332447413875897, -39.646516444171098 ], [ -72.332543203199094, -39.646585189918902 ], [ -72.332675934323504, -39.646652874488701 ], [ -72.332784036775905, -39.646721266352401 ], [ -72.332815529096294, -39.646863355753801 ], [ -72.332912004467303, -39.646946380876102 ], [ -72.333556762018205, -39.647404505783001 ], [ -72.333760657236894, -39.6475416422916 ], [ -72.333944916652996, -39.647526814263102 ], [ -72.334113884294695, -39.647450461920698 ], [ -72.334404372322496, -39.647208556947902 ], [ -72.334723811172196, -39.646927686862099 ], [ -72.335206948366405, -39.646460985084303 ], [ -72.335550551326406, -39.646169885541497 ], [ -72.335862502043199, -39.646118018875399 ], [ -72.336267035875096, -39.646068255092601 ], [ -72.336694164098205, -39.646103637380698 ], [ -72.336963728047607, -39.646195980625798 ], [ -72.337247440260498, -39.646326048592499 ], [ -72.337454317220306, -39.646525056207203 ], [ -72.337567923586306, -39.646707681229003 ], [ -72.337627260839696, -39.646915698379601 ], [ -72.337667899193093, -39.6471194884382 ], [ -72.337750262368701, -39.6472934784871 ], [ -72.337901958363801, -39.647498838493803 ], [ -72.338195241791198, -39.647571431129897 ], [ -72.338572923944596, -39.647732156657803 ], [ -72.338890607734996, -39.647799278628803 ], [ -72.339144230898, -39.647944507052102 ], [ -72.3395221785687, -39.648238682960802 ], [ -72.339819627431098, -39.648525642202699 ], [ -72.339983990205297, -39.648783303262199 ], [ -72.340813893708997, -39.6485550885576 ], [ -72.343512117394496, -39.647130837824001 ], [ -72.344005731953899, -39.646818707840097 ], [ -72.344494177647306, -39.646399479070702 ], [ -72.344798767505594, -39.646003423111999 ], [ -72.345358656696405, -39.645308059800399 ], [ -72.346287779646005, -39.6441194411114 ], [ -72.347328061128295, -39.642999105246297 ], [ -72.348260113675806, -39.642191703786899 ], [ -72.348745195824606, -39.641743806425303 ], [ -72.348260562768402, -39.641562516883397 ], [ -72.347900240429396, -39.6414418365488 ], [ -72.347709512145698, -39.641322220436898 ], [ -72.347546407875498, -39.641136267717599 ], [ -72.347308070590699, -39.640988233146302 ], [ -72.346881018923796, -39.6407622288745 ], [ -72.3464907808889, -39.640660281414597 ], [ -72.346057527052096, -39.640625111548601 ], [ -72.345666197152397, -39.640660228078403 ], [ -72.345455310254295, -39.640761638522001 ], [ -72.345378120297198, -39.640918774767499 ], [ -72.345418660487297, -39.641120180538998 ], [ -72.345327799628706, -39.641313458907902 ] ], [ [ -72.342060315370304, -39.643607664603998 ], [ -72.341784979561197, -39.643651343079398 ], [ -72.341732782097594, -39.643527727078599 ], [ -72.341661426360304, -39.643390362538597 ], [ -72.341838389727997, -39.643224397477603 ], [ -72.342167105202904, -39.643423492204398 ], [ -72.342103911270698, -39.643552785501498 ], [ -72.342060315370304, -39.643607664603998 ] ] ] } }
]
}
