{
"type": "FeatureCollection",
"name": "IPT_14_PNOSECC_Lago_Ranco_Ignao",
"crs": { "type": "name", "properties": { "name": "urn:ogc:def:crs:OGC:1.3:CRS84" } },
"features": [
{ "type": "Feature", "properties": { "id": "monoparte.1", "Name": null, "description": null, "timestamp": null, "begin": null, "end": null, "altitudeMode": null, "tessellate": -1, "extrude": 0, "visibility": -1, "drawOrder": null, "icon": null, "REG": "Los Ríos", "COM": "Lago Ranco", "LOC": "Ignao", "ZONA": "Área Verde", "NOM": "Zona Área Verde", "UPERM": "Sin información.", "UPROH": "Sin información.", "P_DO": "21/07/2007", "N_DOC": "74", "T_DO": "Resolución", "OBS": null }, "geometry": { "type": "Polygon", "coordinates": [ [ [ -72.557466487500307, -40.333127483671198 ], [ -72.5583921865626, -40.333736150328797 ], [ -72.558535102906404, -40.3336003135948 ], [ -72.557622054352905, -40.3329882584543 ], [ -72.557466487500307, -40.333127483671198 ] ] ] } },
{ "type": "Feature", "properties": { "id": "monoparte.2", "Name": null, "description": null, "timestamp": null, "begin": null, "end": null, "altitudeMode": null, "tessellate": -1, "extrude": 0, "visibility": -1, "drawOrder": null, "icon": null, "REG": "Los Ríos", "COM": "Lago Ranco", "LOC": "Ignao", "ZONA": "Área Verde", "NOM": "Zona Área Verde", "UPERM": "Sin información.", "UPROH": "Sin información.", "P_DO": "21/07/2007", "N_DOC": "74", "T_DO": "Resolución", "OBS": null }, "geometry": { "type": "Polygon", "coordinates": [ [ [ -72.550786693182005, -40.333654597980399 ], [ -72.5510014368177, -40.333789464531002 ], [ -72.551394697684998, -40.333031052773897 ], [ -72.551411481657894, -40.332989313388403 ], [ -72.551412268517296, -40.332987779718202 ], [ -72.551420282754805, -40.332975172897797 ], [ -72.551435945831201, -40.3329505315901 ], [ -72.551437247081594, -40.33294848405 ], [ -72.551450152567398, -40.332933749948502 ], [ -72.551467792489603, -40.3329136096336 ], [ -72.550352374194105, -40.333048029372797 ], [ -72.550786693182005, -40.333654597980399 ] ] ] } },
{ "type": "Feature", "properties": { "id": "monoparte.3", "Name": null, "description": null, "timestamp": null, "begin": null, "end": null, "altitudeMode": null, "tessellate": -1, "extrude": 0, "visibility": -1, "drawOrder": null, "icon": null, "REG": "Los Ríos", "COM": "Lago Ranco", "LOC": "Ignao", "ZONA": "Área Verde", "NOM": "Zona Área Verde", "UPERM": "Sin información.", "UPROH": "Sin información.", "P_DO": "21/07/2007", "N_DOC": "74", "T_DO": "Resolución", "OBS": null }, "geometry": { "type": "Polygon", "coordinates": [ [ [ -72.556312879106201, -40.332972370305399 ], [ -72.557080822064094, -40.333434901846097 ], [ -72.557540464367605, -40.333042729143699 ], [ -72.557832775145698, -40.332799396800297 ], [ -72.557114548639802, -40.332353532456999 ], [ -72.556312879106201, -40.332972370305399 ] ] ] } },
{ "type": "Feature", "properties": { "id": "monoparte.4", "Name": null, "description": null, "timestamp": null, "begin": null, "end": null, "altitudeMode": null, "tessellate": -1, "extrude": 0, "visibility": -1, "drawOrder": null, "icon": null, "REG": "Los Ríos", "COM": "Lago Ranco", "LOC": "Ignao", "ZONA": "Área Verde", "NOM": "Zona Área Verde", "UPERM": "Sin información.", "UPROH": "Sin información.", "P_DO": "21/07/2007", "N_DOC": "74", "T_DO": "Resolución", "OBS": null }, "geometry": { "type": "Polygon", "coordinates": [ [ [ -72.556114998945901, -40.332220672827198 ], [ -72.556598514645501, -40.332560977336797 ], [ -72.556789115398502, -40.332413629835202 ], [ -72.555644060168802, -40.331660329917902 ], [ -72.5547030503499, -40.331042544851499 ], [ -72.554637486787897, -40.331099932917198 ], [ -72.555381875890703, -40.331670623584202 ], [ -72.556114998945901, -40.332220672827198 ] ] ] } },
{ "type": "Feature", "properties": { "id": "monoparte.5", "Name": null, "description": null, "timestamp": null, "begin": null, "end": null, "altitudeMode": null, "tessellate": -1, "extrude": 0, "visibility": -1, "drawOrder": null, "icon": null, "REG": "Los Ríos", "COM": "Lago Ranco", "LOC": "Ignao", "ZONA": "Área Verde", "NOM": "Zona Área Verde", "UPERM": "Sin información.", "UPROH": "Sin información.", "P_DO": "21/07/2007", "N_DOC": "74", "T_DO": "Resolución", "OBS": null }, "geometry": { "type": "Polygon", "coordinates": [ [ [ -72.554122002094502, -40.330885439077598 ], [ -72.554388880017697, -40.331022350314399 ], [ -72.554442103373603, -40.330983736830497 ], [ -72.554592495784902, -40.330854137035701 ], [ -72.554691023196497, -40.330769230556903 ], [ -72.554585072125505, -40.330714345788699 ], [ -72.554388237979197, -40.330612380286297 ], [ -72.554239681181301, -40.330547145359702 ], [ -72.554169860499798, -40.330524134762001 ], [ -72.553941303745603, -40.330448432715698 ], [ -72.553894746701701, -40.3304330129479 ], [ -72.553669110321096, -40.330339205813601 ], [ -72.553445216455401, -40.330285089200999 ], [ -72.553364541549897, -40.3302617490885 ], [ -72.553224114164493, -40.3302236847316 ], [ -72.552965058918403, -40.330176367699202 ], [ -72.552687053300502, -40.330123913736998 ], [ -72.552222512792198, -40.330036857530601 ], [ -72.551930642386495, -40.330279765980002 ], [ -72.551883129755893, -40.3303193078345 ], [ -72.552315576202304, -40.3304032524969 ], [ -72.552712965986402, -40.330474874685201 ], [ -72.553034874834196, -40.330526742092701 ], [ -72.553277637553506, -40.330592200091601 ], [ -72.553469421242795, -40.330655507756298 ], [ -72.553694200495798, -40.330729707573099 ], [ -72.553725683109604, -40.3307400998875 ], [ -72.553781860327703, -40.330758643543 ], [ -72.553874024199999, -40.3307923557119 ], [ -72.553978572304203, -40.330830598048898 ], [ -72.554122002094502, -40.330885439077598 ] ] ] } },
{ "type": "Feature", "properties": { "id": "monoparte.6", "Name": null, "description": null, "timestamp": null, "begin": null, "end": null, "altitudeMode": null, "tessellate": -1, "extrude": 0, "visibility": -1, "drawOrder": null, "icon": null, "REG": "Los Ríos", "COM": "Lago Ranco", "LOC": "Ignao", "ZONA": "ZE-1", "NOM": "Zona ZE-1 especial de equipamiento educacional y deportivo", "UPERM": "Vivienda, equipamiento de seguridad, cultura, áreas verdes, deporte, esparcimeinto (sólo restaurantes), turismo  y comercio. Para mayor detalle ver ordenanza.", "UPROH": null, "P_DO": "21/07/2007", "N_DOC": "74", "T_DO": "Resolución", "OBS": null }, "geometry": { "type": "Polygon", "coordinates": [ [ [ -72.553529067611507, -40.332127372416601 ], [ -72.553626860345204, -40.332185584785599 ], [ -72.553461867859994, -40.332320676950097 ], [ -72.553365665566901, -40.332260256677998 ], [ -72.553184130570301, -40.3323983124208 ], [ -72.552791606501799, -40.3325639190831 ], [ -72.553961437449104, -40.333346677624498 ], [ -72.555317085906196, -40.3323166973112 ], [ -72.555003569816606, -40.331917249026702 ], [ -72.554678930406098, -40.331494547890102 ], [ -72.553900794928794, -40.332206376934799 ], [ -72.553629484234804, -40.332027602106301 ], [ -72.553529067611507, -40.332127372416601 ] ] ] } },
{ "type": "Feature", "properties": { "id": "monoparte.7", "Name": null, "description": null, "timestamp": null, "begin": null, "end": null, "altitudeMode": null, "tessellate": -1, "extrude": 0, "visibility": -1, "drawOrder": null, "icon": null, "REG": "Los Ríos", "COM": "Lago Ranco", "LOC": "Ignao", "ZONA": "ZEX-1", "NOM": "Zona ZEX-1 de extensión urbana", "UPERM": "Vivienda, equipamiento de seguridad, cultura, áreas verdes, deporte, esparcimeinto (sólo restaurantes), turismo  y comercio. Para mayor detalle ver ordenanza.", "UPROH": "Todos aquellos usos no señalados como permitidos.", "P_DO": "21/07/2007", "N_DOC": "74", "T_DO": "Resolución", "OBS": null }, "geometry": { "type": "Polygon", "coordinates": [ [ [ -72.551433316558104, -40.3349323693635 ], [ -72.552954822483599, -40.335774579919303 ], [ -72.553850055369793, -40.335041887622303 ], [ -72.553331752738103, -40.334746365287998 ], [ -72.552824976123006, -40.334462577249397 ], [ -72.552727479923107, -40.334407980220902 ], [ -72.552191042012495, -40.334107576730602 ], [ -72.551254211151402, -40.333546000255502 ], [ -72.551023267223897, -40.3339929130332 ], [ -72.550577929086799, -40.334415872974603 ], [ -72.551433316558104, -40.3349323693635 ] ] ] } },
{ "type": "Feature", "properties": { "id": "monoparte.8", "Name": null, "description": null, "timestamp": null, "begin": null, "end": null, "altitudeMode": null, "tessellate": -1, "extrude": 0, "visibility": -1, "drawOrder": null, "icon": null, "REG": "Los Ríos", "COM": "Lago Ranco", "LOC": "Ignao", "ZONA": "ZEX-1", "NOM": "Zona ZEX-1 de extensión urbana", "UPERM": "Vivienda, equipamiento de seguridad, cultura, áreas verdes, deporte, esparcimeinto (sólo restaurantes), turismo  y comercio. Para mayor detalle ver ordenanza.", "UPROH": "Todos aquellos usos no señalados como permitidos.", "P_DO": "21/07/2007", "N_DOC": "74", "T_DO": "Resolución", "OBS": null }, "geometry": { "type": "Polygon", "coordinates": [ [ [ -72.549955241286099, -40.332791924721 ], [ -72.550581649554204, -40.333688068816699 ], [ -72.549861228037201, -40.333756615482201 ], [ -72.5499775142532, -40.333914131644804 ], [ -72.550162926081398, -40.334165282756402 ], [ -72.550492483802799, -40.334364279276102 ], [ -72.550810790421906, -40.334048715499797 ], [ -72.550921437465306, -40.333943742544399 ], [ -72.550934020601503, -40.333919475170397 ], [ -72.550650283375603, -40.333747267233299 ], [ -72.549955241286099, -40.332791924721 ] ] ] } },
{ "type": "Feature", "properties": { "id": "monoparte.9", "Name": null, "description": null, "timestamp": null, "begin": null, "end": null, "altitudeMode": null, "tessellate": -1, "extrude": 0, "visibility": -1, "drawOrder": null, "icon": null, "REG": "Los Ríos", "COM": "Lago Ranco", "LOC": "Ignao", "ZONA": "ZEX-1", "NOM": "Zona ZEX-1 de extensión urbana", "UPERM": "Vivienda, equipamiento de seguridad, cultura, áreas verdes, deporte, esparcimeinto (sólo restaurantes), turismo  y comercio. Para mayor detalle ver ordenanza.", "UPROH": "Todos aquellos usos no señalados como permitidos.", "P_DO": "21/07/2007", "N_DOC": "74", "T_DO": "Resolución", "OBS": null }, "geometry": { "type": "Polygon", "coordinates": [ [ [ -72.549955241286099, -40.332791924721 ], [ -72.549846404319098, -40.332638218092399 ], [ -72.549760878007604, -40.332518626662299 ], [ -72.552258262345205, -40.330450291130802 ], [ -72.552315576202304, -40.3304032524969 ], [ -72.551883129755893, -40.3303193078345 ], [ -72.549058828147494, -40.332669689135301 ], [ -72.549185210297097, -40.332840888437197 ], [ -72.549302008930297, -40.332999104705003 ], [ -72.549955241286099, -40.332791924721 ] ] ] } },
{ "type": "Feature", "properties": { "id": "monoparte.10", "Name": null, "description": null, "timestamp": null, "begin": null, "end": null, "altitudeMode": null, "tessellate": -1, "extrude": 0, "visibility": -1, "drawOrder": null, "icon": null, "REG": "Los Ríos", "COM": "Lago Ranco", "LOC": "Ignao", "ZONA": "ZEX-1", "NOM": "Zona ZEX-1 de extensión urbana", "UPERM": "Vivienda, equipamiento de seguridad, cultura, áreas verdes, deporte, esparcimeinto (sólo restaurantes), turismo  y comercio. Para mayor detalle ver ordenanza.", "UPROH": "Todos aquellos usos no señalados como permitidos.", "P_DO": "21/07/2007", "N_DOC": "74", "T_DO": "Resolución", "OBS": null }, "geometry": { "type": "Polygon", "coordinates": [ [ [ -72.557205918699793, -40.331067113511502 ], [ -72.558294175551197, -40.3318253310687 ], [ -72.558297842008997, -40.331822096507103 ], [ -72.558976276023401, -40.331223711665302 ], [ -72.559620009203599, -40.330530241167899 ], [ -72.560356757119905, -40.329625379961598 ], [ -72.559188946256597, -40.328946167435497 ], [ -72.558572253889395, -40.329703677805703 ], [ -72.558282443024595, -40.330075315469998 ], [ -72.557848512963105, -40.330516611036103 ], [ -72.557205918699793, -40.331067113511502 ] ] ] } },
{ "type": "Feature", "properties": { "id": "monoparte.11", "Name": null, "description": null, "timestamp": null, "begin": null, "end": null, "altitudeMode": null, "tessellate": -1, "extrude": 0, "visibility": -1, "drawOrder": null, "icon": null, "REG": "Los Ríos", "COM": "Lago Ranco", "LOC": "Ignao", "ZONA": "ZEX-1", "NOM": "Zona ZEX-1 de extensión urbana", "UPERM": "Vivienda, equipamiento de seguridad, cultura, áreas verdes, deporte, esparcimeinto (sólo restaurantes), turismo  y comercio. Para mayor detalle ver ordenanza.", "UPROH": "Todos aquellos usos no señalados como permitidos.", "P_DO": "21/07/2007", "N_DOC": "74", "T_DO": "Resolución", "OBS": null }, "geometry": { "type": "Polygon", "coordinates": [ [ [ -72.552327192556803, -40.329949738324601 ], [ -72.552965330332597, -40.330069339283497 ], [ -72.553386086585107, -40.329723116649603 ], [ -72.553600698448506, -40.329546519640303 ], [ -72.554728612220202, -40.328541577802199 ], [ -72.554844023504302, -40.328429253947597 ], [ -72.554951664474899, -40.328316670123002 ], [ -72.555057798588194, -40.328162328227698 ], [ -72.555961698887202, -40.327069026324203 ], [ -72.555522348873794, -40.326813461794103 ], [ -72.554556809448599, -40.328015701195703 ], [ -72.554074744231599, -40.328495292942797 ], [ -72.552327192556803, -40.329949738324601 ] ] ] } },
{ "type": "Feature", "properties": { "id": "monoparte.12", "Name": null, "description": null, "timestamp": null, "begin": null, "end": null, "altitudeMode": null, "tessellate": -1, "extrude": 0, "visibility": -1, "drawOrder": null, "icon": null, "REG": "Los Ríos", "COM": "Lago Ranco", "LOC": "Ignao", "ZONA": "ZR-3", "NOM": "Zona ZR-3 de restricción de cementerios", "UPERM": "Cementerio.", "UPROH": "Todos aquellos usos no señalados como permitidos.", "P_DO": "21/07/2007", "N_DOC": "74", "T_DO": "Resolución", "OBS": null }, "geometry": { "type": "Polygon", "coordinates": [ [ [ -72.549302008930297, -40.332999104705003 ], [ -72.549861228037201, -40.333756615482201 ], [ -72.550581649554204, -40.333688068816699 ], [ -72.549955241286099, -40.332791924721 ], [ -72.549302008930297, -40.332999104705003 ] ] ] } },
{ "type": "Feature", "properties": { "id": "monoparte.13", "Name": null, "description": null, "timestamp": null, "begin": null, "end": null, "altitudeMode": null, "tessellate": -1, "extrude": 0, "visibility": -1, "drawOrder": null, "icon": null, "REG": "Los Ríos", "COM": "Lago Ranco", "LOC": "Ignao", "ZONA": "ZR-4", "NOM": "Zona ZR-4 de faja de protección de instalaciones de agua potable", "UPERM": "Sin información.", "UPROH": "Sin información.", "P_DO": "21/07/2007", "N_DOC": "74", "T_DO": "Resolución", "OBS": null }, "geometry": { "type": "Polygon", "coordinates": [ [ [ -72.553365665566901, -40.332260256677998 ], [ -72.553461867859994, -40.332320676950097 ], [ -72.553626860345204, -40.332185584785599 ], [ -72.553529067611507, -40.332127372416601 ], [ -72.553365665566901, -40.332260256677998 ] ] ] } },
{ "type": "Feature", "properties": { "id": "monoparte.14", "Name": null, "description": null, "timestamp": null, "begin": null, "end": null, "altitudeMode": null, "tessellate": -1, "extrude": 0, "visibility": -1, "drawOrder": null, "icon": null, "REG": "Los Ríos", "COM": "Lago Ranco", "LOC": "Ignao", "ZONA": "ZR-4", "NOM": "Zona ZR-4 de faja de protección de instalaciones de agua potable", "UPERM": "Sin información.", "UPROH": "Sin información.", "P_DO": "21/07/2007", "N_DOC": "74", "T_DO": "Resolución", "OBS": null }, "geometry": { "type": "Polygon", "coordinates": [ [ [ -72.555916035895194, -40.331806924678503 ], [ -72.556016506747795, -40.331879878979898 ], [ -72.556146186943394, -40.3317341221981 ], [ -72.556044574104604, -40.331672040615501 ], [ -72.555916035895194, -40.331806924678503 ] ] ] } },
{ "type": "Feature", "properties": { "id": "monoparte.15", "Name": null, "description": null, "timestamp": null, "begin": null, "end": null, "altitudeMode": null, "tessellate": -1, "extrude": 0, "visibility": -1, "drawOrder": null, "icon": null, "REG": "Los Ríos", "COM": "Lago Ranco", "LOC": "Ignao", "ZONA": "ZR-4", "NOM": "Zona ZR-4 de faja de protección de instalaciones de agua potable", "UPERM": "Sin información.", "UPROH": "Sin información.", "P_DO": "21/07/2007", "N_DOC": "74", "T_DO": "Resolución", "OBS": null }, "geometry": { "type": "Polygon", "coordinates": [ [ [ -72.554365074409105, -40.331383102913001 ], [ -72.554466949885907, -40.331453245898999 ], [ -72.554515010586698, -40.331402421763798 ], [ -72.554439179192102, -40.331307798670899 ], [ -72.554365074409105, -40.331383102913001 ] ] ] } },
{ "type": "Feature", "properties": { "id": "monoparte.16", "Name": null, "description": null, "timestamp": null, "begin": null, "end": null, "altitudeMode": null, "tessellate": -1, "extrude": 0, "visibility": -1, "drawOrder": null, "icon": null, "REG": "Los Ríos", "COM": "Lago Ranco", "LOC": "Ignao", "ZONA": "ZR-5", "NOM": "Zona ZR-5 de faja de restricción de líneas eléctricas de alta tensión", "UPERM": "Sin información.", "UPROH": "Sin información.", "P_DO": "21/07/2007", "N_DOC": "74", "T_DO": "Resolución", "OBS": null }, "geometry": { "type": "Polygon", "coordinates": [ [ [ -72.556246824119697, -40.329424747196001 ], [ -72.556160772310307, -40.329491938044598 ], [ -72.555732834364505, -40.3291953231574 ], [ -72.555308852205897, -40.328901445338403 ], [ -72.555241286913898, -40.328972114097702 ], [ -72.555655272992496, -40.3292592657764 ], [ -72.5556556027406, -40.329259494298597 ], [ -72.555737326848501, -40.3293161802209 ], [ -72.556091668372105, -40.329556834690202 ], [ -72.555771054129394, -40.329837824180302 ], [ -72.555032843958799, -40.330489731363201 ], [ -72.554906633055197, -40.330592931864601 ], [ -72.554766866651704, -40.3307072156679 ], [ -72.554765344436504, -40.330708459462997 ], [ -72.554372267354907, -40.330491630422898 ], [ -72.554087208926703, -40.330379129297597 ], [ -72.553660674176896, -40.330224711416903 ], [ -72.553539219508593, -40.330192045927397 ], [ -72.553189043269796, -40.3301073912953 ], [ -72.552978073713803, -40.3300717276651 ], [ -72.552965330332597, -40.330069339283497 ], [ -72.552327192556803, -40.329949738324601 ], [ -72.552222512792198, -40.330036857530601 ], [ -72.552687053300502, -40.330123913736998 ], [ -72.552965058918403, -40.330176367699202 ], [ -72.553224114164493, -40.3302236847316 ], [ -72.553364541549897, -40.3302617490885 ], [ -72.553445216455401, -40.330285089200999 ], [ -72.553669110321096, -40.330339205813601 ], [ -72.553894746701701, -40.3304330129479 ], [ -72.553941303745603, -40.330448432715698 ], [ -72.554169860499798, -40.330524134762001 ], [ -72.554239681181301, -40.330547145359702 ], [ -72.554388237979197, -40.330612380286297 ], [ -72.554585072125505, -40.330714345788699 ], [ -72.554691023196497, -40.330769230556903 ], [ -72.554592495784902, -40.330854137035701 ], [ -72.554442103373603, -40.330983736830497 ], [ -72.554388880017697, -40.331022350314399 ], [ -72.554122002094502, -40.330885439077598 ], [ -72.553978572304203, -40.330830598048898 ], [ -72.553874024199999, -40.3307923557119 ], [ -72.553781860327703, -40.330758643543 ], [ -72.553750745541194, -40.330809234312802 ], [ -72.553765764974202, -40.330814600374403 ], [ -72.553852570585505, -40.330843245538198 ], [ -72.554054925775205, -40.330933436397402 ], [ -72.554349899318893, -40.331063191492397 ], [ -72.553102614581107, -40.332180681169397 ], [ -72.552690839353303, -40.332367091834001 ], [ -72.551863178743503, -40.332724519768099 ], [ -72.551774988461005, -40.332760191141901 ], [ -72.551610686025995, -40.332826648342603 ], [ -72.551563870064399, -40.3328467867765 ], [ -72.551550428560603, -40.332854021484799 ], [ -72.551520217174001, -40.332872097627799 ], [ -72.551507017031994, -40.332881150519 ], [ -72.551478546246599, -40.332904271694503 ], [ -72.551470235015501, -40.332911489181598 ], [ -72.551467792489603, -40.3329136096336 ], [ -72.551450152567398, -40.332933749948502 ], [ -72.551437247081594, -40.33294848405 ], [ -72.551435945831201, -40.3329505315901 ], [ -72.551420282754805, -40.332975172897797 ], [ -72.551412268517296, -40.332987779718202 ], [ -72.551411481657894, -40.332989313388403 ], [ -72.551394697684998, -40.333031052773897 ], [ -72.5510014368177, -40.333789464531002 ], [ -72.550934020601503, -40.333919475170397 ], [ -72.550921437465306, -40.333943742544399 ], [ -72.550810790421906, -40.334048715499797 ], [ -72.550492483802799, -40.334364279276102 ], [ -72.550577929086799, -40.334415872974603 ], [ -72.551023267223897, -40.3339929130332 ], [ -72.551254211151402, -40.333546000255502 ], [ -72.551519139892903, -40.333033314709198 ], [ -72.551537265155503, -40.333001457380902 ], [ -72.551561995315694, -40.332972317792702 ], [ -72.5515926553947, -40.332946691245802 ], [ -72.551628409985895, -40.3329252762002 ], [ -72.551668282381101, -40.332908657475897 ], [ -72.551871074763497, -40.332824422440503 ], [ -72.552200383988804, -40.332687635155999 ], [ -72.552256998483998, -40.332785385031599 ], [ -72.552548943017101, -40.333289451288699 ], [ -72.553131016981098, -40.334002962402899 ], [ -72.552727479923107, -40.334407980220902 ], [ -72.552824976123006, -40.334462577249397 ], [ -72.5530027766969, -40.334287540221901 ], [ -72.553277189919896, -40.334017389150901 ], [ -72.552936238763607, -40.3335985713165 ], [ -72.552936175811396, -40.333598493095202 ], [ -72.552935804680999, -40.333598037074303 ], [ -72.552653292117398, -40.333250999274199 ], [ -72.552616359836804, -40.3331875164275 ], [ -72.552515013338706, -40.333013309445597 ], [ -72.552359126664001, -40.332745349795303 ], [ -72.552301191605196, -40.332645761830797 ], [ -72.553170593443994, -40.332255410037497 ], [ -72.553365267023693, -40.332075075618299 ], [ -72.554454321532802, -40.331110539178503 ], [ -72.554787903497001, -40.330817756579798 ], [ -72.555066115760795, -40.330962915933704 ], [ -72.5554983473546, -40.3312466947066 ], [ -72.555921003678407, -40.331480100768403 ], [ -72.5563766305185, -40.331736058349499 ], [ -72.557263844220202, -40.332232864056898 ], [ -72.558353881493503, -40.332886590815498 ], [ -72.558973729116602, -40.333272150127002 ], [ -72.559053522036805, -40.333202058989301 ], [ -72.557537768089205, -40.332289690752297 ], [ -72.556687715825703, -40.331796514738699 ], [ -72.555933063555898, -40.331378022471398 ], [ -72.555580130923701, -40.331177931674503 ], [ -72.555198701535303, -40.3309316039865 ], [ -72.554863472115301, -40.330748786298599 ], [ -72.555016627443607, -40.330629979835003 ], [ -72.555541400007399, -40.330161896768402 ], [ -72.555880024563393, -40.329860060227603 ], [ -72.556256597187797, -40.3295480526454 ], [ -72.556327484456403, -40.329484645612197 ], [ -72.556586064257004, -40.3292101594608 ], [ -72.557223290745199, -40.328423534422598 ], [ -72.557566840180797, -40.328002688744 ], [ -72.557473872728806, -40.327948613645297 ], [ -72.557064603623402, -40.328453976183503 ], [ -72.556684994409395, -40.328917461982499 ], [ -72.556589925647202, -40.329044410218401 ], [ -72.556445461649801, -40.329218325506403 ], [ -72.556246824119697, -40.329424747196001 ] ] ] } },
{ "type": "Feature", "properties": { "id": "monoparte.17", "Name": null, "description": null, "timestamp": null, "begin": null, "end": null, "altitudeMode": null, "tessellate": -1, "extrude": 0, "visibility": -1, "drawOrder": null, "icon": null, "REG": "Los Ríos", "COM": "Lago Ranco", "LOC": "Ignao", "ZONA": "ZU-1", "NOM": "Zona ZU-1", "UPERM": "Vivienda y equipamientos de escala comunal y vecinal (definidos en el artículo 20 de la Ordenanza)", "UPROH": "Todos aquellos no señalados como permitidos", "P_DO": "21/07/2007", "N_DOC": "74", "T_DO": "Resolución", "OBS": null }, "geometry": { "type": "Polygon", "coordinates": [ [ [ -72.551871074763497, -40.332824422440503 ], [ -72.551977073269498, -40.332904150715798 ], [ -72.552256998483998, -40.332785385031599 ], [ -72.552200383988804, -40.332687635155999 ], [ -72.551871074763497, -40.332824422440503 ] ] ] } },
{ "type": "Feature", "properties": { "id": "monoparte.18", "Name": null, "description": null, "timestamp": null, "begin": null, "end": null, "altitudeMode": null, "tessellate": -1, "extrude": 0, "visibility": -1, "drawOrder": null, "icon": null, "REG": "Los Ríos", "COM": "Lago Ranco", "LOC": "Ignao", "ZONA": "ZU-1", "NOM": "Zona ZU-1", "UPERM": "Vivienda y equipamientos de escala comunal y vecinal (definidos en el artículo 20 de la Ordenanza)", "UPROH": "Todos aquellos no señalados como permitidos", "P_DO": "21/07/2007", "N_DOC": "74", "T_DO": "Resolución", "OBS": null }, "geometry": { "type": "Polygon", "coordinates": [ [ [ -72.554787903497001, -40.330817756579798 ], [ -72.554454321532802, -40.331110539178503 ], [ -72.553365267023693, -40.332075075618299 ], [ -72.553170593443994, -40.332255410037497 ], [ -72.552301191605196, -40.332645761830797 ], [ -72.552359126664001, -40.332745349795303 ], [ -72.552791606501799, -40.3325639190831 ], [ -72.553184130570301, -40.3323983124208 ], [ -72.553365665566901, -40.332260256677998 ], [ -72.553529067611507, -40.332127372416601 ], [ -72.553629484234804, -40.332027602106301 ], [ -72.553900794928794, -40.332206376934799 ], [ -72.554678930406098, -40.331494547890102 ], [ -72.555003569816606, -40.331917249026702 ], [ -72.555317085906196, -40.3323166973112 ], [ -72.553961437449104, -40.333346677624498 ], [ -72.555396930778997, -40.334324591235003 ], [ -72.555417771068704, -40.334312626054199 ], [ -72.555820336823302, -40.334025797947099 ], [ -72.556470582823806, -40.333437424018399 ], [ -72.557817227058095, -40.334288018911302 ], [ -72.558973729116602, -40.333272150127002 ], [ -72.558353881493503, -40.332886590815498 ], [ -72.557263844220202, -40.332232864056898 ], [ -72.5563766305185, -40.331736058349499 ], [ -72.555921003678407, -40.331480100768403 ], [ -72.5554983473546, -40.3312466947066 ], [ -72.555066115760795, -40.330962915933704 ], [ -72.554787903497001, -40.330817756579798 ] ], [ [ -72.555644060168802, -40.331660329917902 ], [ -72.556789115398502, -40.332413629835202 ], [ -72.556598514645501, -40.332560977336797 ], [ -72.556114998945901, -40.332220672827198 ], [ -72.555381875890703, -40.331670623584202 ], [ -72.554637486787897, -40.331099932917198 ], [ -72.5547030503499, -40.331042544851499 ], [ -72.555644060168802, -40.331660329917902 ] ], [ [ -72.554515010586698, -40.331402421763798 ], [ -72.554466949885907, -40.331453245898999 ], [ -72.554365074409105, -40.331383102913001 ], [ -72.554439179192102, -40.331307798670899 ], [ -72.554515010586698, -40.331402421763798 ] ], [ [ -72.556312879106201, -40.332972370305399 ], [ -72.557114548639802, -40.332353532456999 ], [ -72.557832775145698, -40.332799396800297 ], [ -72.557540464367605, -40.333042729143699 ], [ -72.557080822064094, -40.333434901846097 ], [ -72.556312879106201, -40.332972370305399 ] ], [ [ -72.557466487500307, -40.333127483671198 ], [ -72.557622054352905, -40.3329882584543 ], [ -72.558535102906404, -40.3336003135948 ], [ -72.5583921865626, -40.333736150328797 ], [ -72.557466487500307, -40.333127483671198 ] ], [ [ -72.555916035895194, -40.331806924678503 ], [ -72.556044574104604, -40.331672040615501 ], [ -72.556146186943394, -40.3317341221981 ], [ -72.556016506747795, -40.331879878979898 ], [ -72.555916035895194, -40.331806924678503 ] ] ] } },
{ "type": "Feature", "properties": { "id": "monoparte.19", "Name": null, "description": null, "timestamp": null, "begin": null, "end": null, "altitudeMode": null, "tessellate": -1, "extrude": 0, "visibility": -1, "drawOrder": null, "icon": null, "REG": "Los Ríos", "COM": "Lago Ranco", "LOC": "Ignao", "ZONA": "ZU-1", "NOM": "Zona ZU-1", "UPERM": "Vivienda y equipamientos de escala comunal y vecinal (definidos en el artículo 20 de la Ordenanza)", "UPROH": "Todos aquellos no señalados como permitidos", "P_DO": "21/07/2007", "N_DOC": "74", "T_DO": "Resolución", "OBS": null }, "geometry": { "type": "Polygon", "coordinates": [ [ [ -72.551325372242403, -40.332446247792198 ], [ -72.551774988461005, -40.332760191141901 ], [ -72.551863178743503, -40.332724519768099 ], [ -72.552690839353303, -40.332367091834001 ], [ -72.553102614581107, -40.332180681169397 ], [ -72.554349899318893, -40.331063191492397 ], [ -72.554054925775205, -40.330933436397402 ], [ -72.553852570585505, -40.330843245538198 ], [ -72.553834965052602, -40.330858863912098 ], [ -72.552726242299698, -40.3318568171265 ], [ -72.552304113237099, -40.3320500303522 ], [ -72.551325372242403, -40.332446247792198 ] ] ] } },
{ "type": "Feature", "properties": { "id": "monoparte.20", "Name": null, "description": null, "timestamp": null, "begin": null, "end": null, "altitudeMode": null, "tessellate": -1, "extrude": 0, "visibility": -1, "drawOrder": null, "icon": null, "REG": "Los Ríos", "COM": "Lago Ranco", "LOC": "Ignao", "ZONA": "ZU-1", "NOM": "Zona ZU-1", "UPERM": "Vivienda y equipamientos de escala comunal y vecinal (definidos en el artículo 20 de la Ordenanza)", "UPROH": "Todos aquellos no señalados como permitidos", "P_DO": "21/07/2007", "N_DOC": "74", "T_DO": "Resolución", "OBS": null }, "geometry": { "type": "Polygon", "coordinates": [ [ [ -72.555111674031195, -40.329740096364297 ], [ -72.5546684478457, -40.330139362956999 ], [ -72.554592611516995, -40.330104053865298 ], [ -72.554356143204998, -40.330018681750602 ], [ -72.554024242689707, -40.329900321845699 ], [ -72.553818007128896, -40.329830856110199 ], [ -72.553568864735894, -40.329762932244499 ], [ -72.553386086585107, -40.329723116649603 ], [ -72.552965330332597, -40.330069339283497 ], [ -72.552978073713803, -40.3300717276651 ], [ -72.553189043269796, -40.3301073912953 ], [ -72.553539219508593, -40.330192045927397 ], [ -72.553660674176896, -40.330224711416903 ], [ -72.554087208926703, -40.330379129297597 ], [ -72.554372267354907, -40.330491630422898 ], [ -72.554765344436504, -40.330708459462997 ], [ -72.554766866651704, -40.3307072156679 ], [ -72.554906633055197, -40.330592931864601 ], [ -72.555032843958799, -40.330489731363201 ], [ -72.555771054129394, -40.329837824180302 ], [ -72.556091668372105, -40.329556834690202 ], [ -72.555737326848501, -40.3293161802209 ], [ -72.5556556027406, -40.329259494298597 ], [ -72.555111674031195, -40.329740096364297 ] ] ] } },
{ "type": "Feature", "properties": { "id": "monoparte.21", "Name": null, "description": null, "timestamp": null, "begin": null, "end": null, "altitudeMode": null, "tessellate": -1, "extrude": 0, "visibility": -1, "drawOrder": null, "icon": null, "REG": "Los Ríos", "COM": "Lago Ranco", "LOC": "Ignao", "ZONA": "ZU-1", "NOM": "Zona ZU-1", "UPERM": "Vivienda y equipamientos de escala comunal y vecinal (definidos en el artículo 20 de la Ordenanza)", "UPROH": "Todos aquellos no señalados como permitidos", "P_DO": "21/07/2007", "N_DOC": "74", "T_DO": "Resolución", "OBS": null }, "geometry": { "type": "Polygon", "coordinates": [ [ [ -72.557537768089205, -40.332289690752297 ], [ -72.559053522036805, -40.333202058989301 ], [ -72.559672975942107, -40.332657914427102 ], [ -72.558294175551197, -40.3318253310687 ], [ -72.557205918699793, -40.331067113511502 ], [ -72.556938721539495, -40.330906239943403 ], [ -72.556460253306597, -40.330559550638903 ], [ -72.556212655652701, -40.3303963517413 ], [ -72.556450230573603, -40.330189802312503 ], [ -72.556884826347201, -40.329805136563401 ], [ -72.557253877671002, -40.329409339809601 ], [ -72.557346824135607, -40.329281367509502 ], [ -72.557564646678003, -40.329011593571401 ], [ -72.558128488786494, -40.328329370913302 ], [ -72.557566840180797, -40.328002688744 ], [ -72.557223290745199, -40.328423534422598 ], [ -72.556586064257004, -40.3292101594608 ], [ -72.556327484456403, -40.329484645612197 ], [ -72.556256597187797, -40.3295480526454 ], [ -72.555880024563393, -40.329860060227603 ], [ -72.555541400007399, -40.330161896768402 ], [ -72.555016627443607, -40.330629979835003 ], [ -72.554863472115301, -40.330748786298599 ], [ -72.555198701535303, -40.3309316039865 ], [ -72.555580130923701, -40.331177931674503 ], [ -72.555933063555898, -40.331378022471398 ], [ -72.556687715825703, -40.331796514738699 ], [ -72.557537768089205, -40.332289690752297 ] ] ] } },
{ "type": "Feature", "properties": { "id": "monoparte.22", "Name": null, "description": null, "timestamp": null, "begin": null, "end": null, "altitudeMode": null, "tessellate": -1, "extrude": 0, "visibility": -1, "drawOrder": null, "icon": null, "REG": "Los Ríos", "COM": "Lago Ranco", "LOC": "Ignao", "ZONA": "ZU-1", "NOM": "Zona ZU-1", "UPERM": "Vivienda y equipamientos de escala comunal y vecinal (definidos en el artículo 20 de la Ordenanza)", "UPROH": "Todos aquellos no señalados como permitidos", "P_DO": "21/07/2007", "N_DOC": "74", "T_DO": "Resolución", "OBS": null }, "geometry": { "type": "Polygon", "coordinates": [ [ [ -72.555732834364505, -40.3291953231574 ], [ -72.556160772310307, -40.329491938044598 ], [ -72.556246824119697, -40.329424747196001 ], [ -72.556445461649801, -40.329218325506403 ], [ -72.556589925647202, -40.329044410218401 ], [ -72.556684994409395, -40.328917461982499 ], [ -72.557064603623402, -40.328453976183503 ], [ -72.557473872728806, -40.327948613645297 ], [ -72.557012668444898, -40.327680348832203 ], [ -72.556602586026699, -40.328172312495802 ], [ -72.556180121550497, -40.328685485098099 ], [ -72.5560611445772, -40.328860252750999 ], [ -72.555928664791296, -40.328998818377798 ], [ -72.555732834364505, -40.3291953231574 ] ] ] } },
{ "type": "Feature", "properties": { "id": "monoparte.23", "Name": null, "description": null, "timestamp": null, "begin": null, "end": null, "altitudeMode": null, "tessellate": -1, "extrude": 0, "visibility": -1, "drawOrder": null, "icon": null, "REG": "Los Ríos", "COM": "Lago Ranco", "LOC": "Ignao", "ZONA": "ZU-2", "NOM": "Zona ZU-2", "UPERM": "Vivienda, equipamiento de salud, comercio, educación, seguridad, deporte, servicios, áreas verdes, actividades productivas (talleres, almacenamientos, terminales rodoviarios). Para mayor detalle  revisar ordenanza.", "UPROH": "Todos aquellos no señalados como permitidos", "P_DO": "21/07/2007", "N_DOC": "74", "T_DO": "Resolución", "OBS": null }, "geometry": { "type": "Polygon", "coordinates": [ [ [ -72.552256998483998, -40.332785385031599 ], [ -72.551977073269498, -40.332904150715798 ], [ -72.551871074763497, -40.332824422440503 ], [ -72.551668282381101, -40.332908657475897 ], [ -72.551628409985895, -40.3329252762002 ], [ -72.5515926553947, -40.332946691245802 ], [ -72.551561995315694, -40.332972317792702 ], [ -72.551537265155503, -40.333001457380902 ], [ -72.551519139892903, -40.333033314709198 ], [ -72.551254211151402, -40.333546000255502 ], [ -72.552191042012495, -40.334107576730602 ], [ -72.552727479923107, -40.334407980220902 ], [ -72.553131016981098, -40.334002962402899 ], [ -72.552548943017101, -40.333289451288699 ], [ -72.552256998483998, -40.332785385031599 ] ] ] } },
{ "type": "Feature", "properties": { "id": "monoparte.24", "Name": null, "description": null, "timestamp": null, "begin": null, "end": null, "altitudeMode": null, "tessellate": -1, "extrude": 0, "visibility": -1, "drawOrder": null, "icon": null, "REG": "Los Ríos", "COM": "Lago Ranco", "LOC": "Ignao", "ZONA": "ZU-2", "NOM": "Zona ZU-2", "UPERM": "Vivienda, equipamiento de salud, comercio, educación, seguridad, deporte, servicios, áreas verdes, actividades productivas (talleres, almacenamientos, terminales rodoviarios). Para mayor detalle  revisar ordenanza.", "UPROH": "Todos aquellos no señalados como permitidos", "P_DO": "21/07/2007", "N_DOC": "74", "T_DO": "Resolución", "OBS": null }, "geometry": { "type": "Polygon", "coordinates": [ [ [ -72.553331752738103, -40.334746365287998 ], [ -72.553850055369793, -40.335041887622303 ], [ -72.554283679500102, -40.334865736129899 ], [ -72.554403207887006, -40.334813784983503 ], [ -72.554986292594407, -40.334560352084097 ], [ -72.555303193955396, -40.334378409266797 ], [ -72.555396930778997, -40.334324591235003 ], [ -72.553961437449104, -40.333346677624498 ], [ -72.552791606501799, -40.3325639190831 ], [ -72.552359126664001, -40.332745349795303 ], [ -72.552515013338706, -40.333013309445597 ], [ -72.552616359836804, -40.3331875164275 ], [ -72.552653292117398, -40.333250999274199 ], [ -72.552935804680999, -40.333598037074303 ], [ -72.552936175811396, -40.333598493095202 ], [ -72.552936238763607, -40.3335985713165 ], [ -72.553277189919896, -40.334017389150901 ], [ -72.5530027766969, -40.334287540221901 ], [ -72.552824976123006, -40.334462577249397 ], [ -72.553331752738103, -40.334746365287998 ] ] ] } },
{ "type": "Feature", "properties": { "id": "monoparte.25", "Name": null, "description": null, "timestamp": null, "begin": null, "end": null, "altitudeMode": null, "tessellate": -1, "extrude": 0, "visibility": -1, "drawOrder": null, "icon": null, "REG": "Los Ríos", "COM": "Lago Ranco", "LOC": "Ignao", "ZONA": "ZU-2", "NOM": "Zona ZU-2", "UPERM": "Vivienda, equipamiento de salud, comercio, educación, seguridad, deporte, servicios, áreas verdes, actividades productivas (talleres, almacenamientos, terminales rodoviarios). Para mayor detalle  revisar ordenanza.", "UPROH": "Todos aquellos no señalados como permitidos", "P_DO": "21/07/2007", "N_DOC": "74", "T_DO": "Resolución", "OBS": null }, "geometry": { "type": "Polygon", "coordinates": [ [ [ -72.550650283375603, -40.333747267233299 ], [ -72.550934020601503, -40.333919475170397 ], [ -72.5510014368177, -40.333789464531002 ], [ -72.550786693182005, -40.333654597980399 ], [ -72.550352374194105, -40.333048029372797 ], [ -72.551467792489603, -40.3329136096336 ], [ -72.551470235015501, -40.332911489181598 ], [ -72.551478546246599, -40.332904271694503 ], [ -72.551507017031994, -40.332881150519 ], [ -72.551520217174001, -40.332872097627799 ], [ -72.551550428560603, -40.332854021484799 ], [ -72.551563870064399, -40.3328467867765 ], [ -72.551610686025995, -40.332826648342603 ], [ -72.551774988461005, -40.332760191141901 ], [ -72.551325372242403, -40.332446247792198 ], [ -72.552304113237099, -40.3320500303522 ], [ -72.552726242299698, -40.3318568171265 ], [ -72.553834965052602, -40.330858863912098 ], [ -72.553852570585505, -40.330843245538198 ], [ -72.553765764974202, -40.330814600374403 ], [ -72.553750745541194, -40.330809234312802 ], [ -72.553781860327703, -40.330758643543 ], [ -72.553725683109604, -40.3307400998875 ], [ -72.553694200495798, -40.330729707573099 ], [ -72.553469421242795, -40.330655507756298 ], [ -72.553277637553506, -40.330592200091601 ], [ -72.553034874834196, -40.330526742092701 ], [ -72.552712965986402, -40.330474874685201 ], [ -72.552315576202304, -40.3304032524969 ], [ -72.552258262345205, -40.330450291130802 ], [ -72.549760878007604, -40.332518626662299 ], [ -72.549846404319098, -40.332638218092399 ], [ -72.549955241286099, -40.332791924721 ], [ -72.550650283375603, -40.333747267233299 ] ] ] } },
{ "type": "Feature", "properties": { "id": "monoparte.26", "Name": null, "description": null, "timestamp": null, "begin": null, "end": null, "altitudeMode": null, "tessellate": -1, "extrude": 0, "visibility": -1, "drawOrder": null, "icon": null, "REG": "Los Ríos", "COM": "Lago Ranco", "LOC": "Ignao", "ZONA": "ZU-2", "NOM": "Zona ZU-2", "UPERM": "Vivienda, equipamiento de salud, comercio, educación, seguridad, deporte, servicios, áreas verdes, actividades productivas (talleres, almacenamientos, terminales rodoviarios). Para mayor detalle  revisar ordenanza.", "UPROH": "Todos aquellos no señalados como permitidos", "P_DO": "21/07/2007", "N_DOC": "74", "T_DO": "Resolución", "OBS": null }, "geometry": { "type": "Polygon", "coordinates": [ [ [ -72.556938721539495, -40.330906239943403 ], [ -72.557205918699793, -40.331067113511502 ], [ -72.557848512963105, -40.330516611036103 ], [ -72.558282443024595, -40.330075315469998 ], [ -72.558572253889395, -40.329703677805703 ], [ -72.559188946256597, -40.328946167435497 ], [ -72.558128488786494, -40.328329370913302 ], [ -72.557564646678003, -40.329011593571401 ], [ -72.557346824135607, -40.329281367509502 ], [ -72.557253877671002, -40.329409339809601 ], [ -72.556884826347201, -40.329805136563401 ], [ -72.556450230573603, -40.330189802312503 ], [ -72.556212655652701, -40.3303963517413 ], [ -72.556460253306597, -40.330559550638903 ], [ -72.556938721539495, -40.330906239943403 ] ] ] } },
{ "type": "Feature", "properties": { "id": "monoparte.27", "Name": null, "description": null, "timestamp": null, "begin": null, "end": null, "altitudeMode": null, "tessellate": -1, "extrude": 0, "visibility": -1, "drawOrder": null, "icon": null, "REG": "Los Ríos", "COM": "Lago Ranco", "LOC": "Ignao", "ZONA": "ZU-2", "NOM": "Zona ZU-2", "UPERM": "Vivienda, equipamiento de salud, comercio, educación, seguridad, deporte, servicios, áreas verdes, actividades productivas (talleres, almacenamientos, terminales rodoviarios). Para mayor detalle  revisar ordenanza.", "UPROH": "Todos aquellos no señalados como permitidos", "P_DO": "21/07/2007", "N_DOC": "74", "T_DO": "Resolución", "OBS": null }, "geometry": { "type": "Polygon", "coordinates": [ [ [ -72.554728612220202, -40.328541577802199 ], [ -72.553600698448506, -40.329546519640303 ], [ -72.553386086585107, -40.329723116649603 ], [ -72.553568864735894, -40.329762932244499 ], [ -72.553818007128896, -40.329830856110199 ], [ -72.554024242689707, -40.329900321845699 ], [ -72.554356143204998, -40.330018681750602 ], [ -72.554592611516995, -40.330104053865298 ], [ -72.5546684478457, -40.330139362956999 ], [ -72.555111674031195, -40.329740096364297 ], [ -72.5556556027406, -40.329259494298597 ], [ -72.555655272992496, -40.3292592657764 ], [ -72.555241286913898, -40.328972114097702 ], [ -72.555308852205897, -40.328901445338403 ], [ -72.555732834364505, -40.3291953231574 ], [ -72.555928664791296, -40.328998818377798 ], [ -72.5560611445772, -40.328860252750999 ], [ -72.556180121550497, -40.328685485098099 ], [ -72.556602586026699, -40.328172312495802 ], [ -72.557012668444898, -40.327680348832203 ], [ -72.555961698887202, -40.327069026324203 ], [ -72.555057798588194, -40.328162328227698 ], [ -72.554951664474899, -40.328316670123002 ], [ -72.554844023504302, -40.328429253947597 ], [ -72.554728612220202, -40.328541577802199 ] ] ] } }
]
}
