{
"type": "FeatureCollection",
"name": "IPT_14_PNOSECC_Valdivia_Barrios_Bajos",
"crs": { "type": "name", "properties": { "name": "urn:ogc:def:crs:OGC:1.3:CRS84" } },
"features": [
{ "type": "Feature", "properties": { "id": "monoparte.1", "Name": null, "description": null, "timestamp": null, "begin": null, "end": null, "altitudeMode": null, "tessellate": -1, "extrude": 0, "visibility": -1, "drawOrder": null, "icon": null, "REG": "Los Ríos", "COM": "Valdivia", "LOC": "Valdivia", "ZONA": "ZR-3", "NOM": "Zona ZR-3", "UPERM": "Zonas de restricción", "UPROH": "Ver detalles en ordenanza", "P_DO": "20/02/2001", "N_DOC": "80", "T_DO": "Resolución", "OBS": null }, "geometry": { "type": "Polygon", "coordinates": [ [ [ -73.2455353692675, -39.830401483975997 ], [ -73.245719292603695, -39.830360826082497 ], [ -73.245577969492999, -39.830045257379602 ], [ -73.244893277677903, -39.829466332707902 ], [ -73.244444235264496, -39.829100361950999 ], [ -73.244411419761605, -39.829071359853103 ], [ -73.244218701775694, -39.829126498343399 ], [ -73.244271776653306, -39.829160293759401 ], [ -73.245385469477199, -39.830080907137301 ], [ -73.2455353692675, -39.830401483975997 ] ] ] } },
{ "type": "Feature", "properties": { "id": "monoparte.2", "Name": null, "description": null, "timestamp": null, "begin": null, "end": null, "altitudeMode": null, "tessellate": -1, "extrude": 0, "visibility": -1, "drawOrder": null, "icon": null, "REG": "Los Ríos", "COM": "Valdivia", "LOC": "Valdivia", "ZONA": "ZB-2", "NOM": "Zona ZB-2", "UPERM": "Mixto", "UPROH": "Todos los no mencionados precedentemente", "P_DO": "20/02/2001", "N_DOC": "80", "T_DO": "Resolución", "OBS": null }, "geometry": { "type": "Polygon", "coordinates": [ [ [ -73.244448425190896, -39.822076640815503 ], [ -73.244710522093698, -39.822893101352001 ], [ -73.2446640205671, -39.823191456692598 ], [ -73.2445666125043, -39.823791902185697 ], [ -73.244600728101105, -39.823969357297599 ], [ -73.244715427501305, -39.8243261386732 ], [ -73.244974770440606, -39.825149399385701 ], [ -73.245011989374206, -39.825151609478297 ], [ -73.245018593284101, -39.8251835345365 ], [ -73.245326131774107, -39.826214205354098 ], [ -73.245474325332694, -39.8267108424564 ], [ -73.246076559429198, -39.828625123761 ], [ -73.246688030920794, -39.828486753994 ], [ -73.247273556143696, -39.830208252721 ], [ -73.2475396188931, -39.830152746087997 ], [ -73.248042611128298, -39.8300504238006 ], [ -73.248548068894095, -39.829948009791202 ], [ -73.248889660248693, -39.829874479122999 ], [ -73.249223967985998, -39.829803122088997 ], [ -73.249558744464906, -39.829739370129602 ], [ -73.249920067123298, -39.829665113302099 ], [ -73.250103374668598, -39.829625984921996 ], [ -73.249817440757198, -39.828893776224703 ], [ -73.249644638353899, -39.8284473972478 ], [ -73.249680611703496, -39.828429397929803 ], [ -73.249507225512005, -39.827923472620498 ], [ -73.249555826360606, -39.827909775750499 ], [ -73.249371288837594, -39.827273209059399 ], [ -73.249149614626106, -39.826535546099898 ], [ -73.248852050964004, -39.825519504906403 ], [ -73.248500322627507, -39.824476856065203 ], [ -73.248256648819606, -39.8236828124165 ], [ -73.248012544879501, -39.8228315992285 ], [ -73.247866790481496, -39.822322274395901 ], [ -73.247586588062404, -39.8213866048238 ], [ -73.247604981281796, -39.8213455950428 ], [ -73.247002810270004, -39.821534417453698 ], [ -73.244448425190896, -39.822076640815503 ] ] ] } },
{ "type": "Feature", "properties": { "id": "monoparte.3", "Name": null, "description": null, "timestamp": null, "begin": null, "end": null, "altitudeMode": null, "tessellate": -1, "extrude": 0, "visibility": -1, "drawOrder": null, "icon": null, "REG": "Los Ríos", "COM": "Valdivia", "LOC": "Valdivia", "ZONA": "ZR-2", "NOM": "Zona ZR-2", "UPERM": "Zonas de restricción", "UPROH": "Ver detalles en ordenanza", "P_DO": "20/02/2001", "N_DOC": "80", "T_DO": "Resolución", "OBS": null }, "geometry": { "type": "Polygon", "coordinates": [ [ [ -73.244354739972394, -39.829021264995298 ], [ -73.244411419761605, -39.829071359853103 ], [ -73.244444235264496, -39.829100361950999 ], [ -73.244893277677903, -39.829466332707902 ], [ -73.245577969492999, -39.830045257379602 ], [ -73.245719292603695, -39.830360826082497 ], [ -73.2460527309632, -39.830287114541797 ], [ -73.245978081683305, -39.830093731159501 ], [ -73.245786487734094, -39.829843419661898 ], [ -73.245338120160298, -39.829262981887197 ], [ -73.2450613696017, -39.828857708201603 ], [ -73.244354739972394, -39.829021264995298 ] ] ] } },
{ "type": "Feature", "properties": { "id": "monoparte.4", "Name": null, "description": null, "timestamp": null, "begin": null, "end": null, "altitudeMode": null, "tessellate": -1, "extrude": 0, "visibility": -1, "drawOrder": null, "icon": null, "REG": "Los Ríos", "COM": "Valdivia", "LOC": "Valdivia", "ZONA": "ZB-4", "NOM": "Zona ZB-4", "UPERM": "Mixto", "UPROH": "Todos los no mencionados precedentemente", "P_DO": "20/02/2001", "N_DOC": "80", "T_DO": "Resolución", "OBS": null }, "geometry": { "type": "Polygon", "coordinates": [ [ [ -73.246076559429198, -39.828625123761 ], [ -73.245613665334702, -39.828729869479098 ], [ -73.2450613696017, -39.828857708201603 ], [ -73.245338120160298, -39.829262981887197 ], [ -73.245786487734094, -39.829843419661898 ], [ -73.245978081683305, -39.830093731159501 ], [ -73.2460527309632, -39.830287114541797 ], [ -73.246061892002999, -39.830285089204999 ], [ -73.246864079077596, -39.830103179991703 ], [ -73.247020779713694, -39.830078371274197 ], [ -73.247085842839795, -39.830251354796602 ], [ -73.247273556143696, -39.830208252721 ], [ -73.246688030920794, -39.828486753994 ], [ -73.246076559429198, -39.828625123761 ] ] ] } },
{ "type": "Feature", "properties": { "id": "monoparte.5", "Name": null, "description": null, "timestamp": null, "begin": null, "end": null, "altitudeMode": null, "tessellate": -1, "extrude": 0, "visibility": -1, "drawOrder": null, "icon": null, "REG": "Los Ríos", "COM": "Valdivia", "LOC": "Valdivia", "ZONA": "ZB-4", "NOM": "Zona ZB-4", "UPERM": "Mixto", "UPROH": "Todos los no mencionados precedentemente", "P_DO": "20/02/2001", "N_DOC": "80", "T_DO": "Resolución", "OBS": null }, "geometry": { "type": "Polygon", "coordinates": [ [ [ -73.240915843784805, -39.824096007050798 ], [ -73.241167713312095, -39.823846727300499 ], [ -73.241659448365198, -39.823364084716403 ], [ -73.242249549107399, -39.822848051875603 ], [ -73.242920774323196, -39.822206929824603 ], [ -73.243169020661099, -39.822146966706804 ], [ -73.243239994171404, -39.821128958485097 ], [ -73.243261829417804, -39.8208815452073 ], [ -73.242748517828801, -39.820750238152399 ], [ -73.242449867273194, -39.820704562876003 ], [ -73.242390300694098, -39.820919429532402 ], [ -73.242336701640099, -39.821002406491999 ], [ -73.242204707040798, -39.821066809948697 ], [ -73.242049812314207, -39.821110606973001 ], [ -73.241864672678403, -39.8211650430951 ], [ -73.241726811670802, -39.821184388754197 ], [ -73.241586600606894, -39.821215733845797 ], [ -73.241458420264905, -39.821291910300403 ], [ -73.241378397479394, -39.821347261712397 ], [ -73.241332143172002, -39.821398992631401 ], [ -73.241290874511193, -39.821481517567499 ], [ -73.241237712948703, -39.821571625776102 ], [ -73.241166784663804, -39.821674298114601 ], [ -73.241084996801106, -39.8217511581419 ], [ -73.241035071886301, -39.8217934927209 ], [ -73.240976631412195, -39.821848053537799 ], [ -73.240960311724507, -39.821984467536801 ], [ -73.240962637182193, -39.822122580760301 ], [ -73.240933683850102, -39.822304729511004 ], [ -73.240886353217107, -39.822640045986802 ], [ -73.240831382785103, -39.823001853037297 ], [ -73.240779934549195, -39.823370678844 ], [ -73.240733790378002, -39.823624939095197 ], [ -73.240719528575099, -39.8237445984023 ], [ -73.240747992854807, -39.82385554455 ], [ -73.240847801857797, -39.824021064759201 ], [ -73.240915843784805, -39.824096007050798 ] ] ] } },
{ "type": "Feature", "properties": { "id": "monoparte.6", "Name": null, "description": null, "timestamp": null, "begin": null, "end": null, "altitudeMode": null, "tessellate": -1, "extrude": 0, "visibility": -1, "drawOrder": null, "icon": null, "REG": "Los Ríos", "COM": "Valdivia", "LOC": "Valdivia", "ZONA": "ZR-3", "NOM": "Zona ZR-3", "UPERM": "Zonas de restricción", "UPROH": "Ver detalles en ordenanza", "P_DO": "20/02/2001", "N_DOC": "80", "T_DO": "Resolución", "OBS": null }, "geometry": { "type": "Polygon", "coordinates": [ [ [ -73.240407051034893, -39.8245765604699 ], [ -73.240915843784805, -39.824096007050798 ], [ -73.240847801857797, -39.824021064759201 ], [ -73.240747992854807, -39.82385554455 ], [ -73.240719528575099, -39.8237445984023 ], [ -73.240733790378002, -39.823624939095197 ], [ -73.240779934549195, -39.823370678844 ], [ -73.240831382785103, -39.823001853037297 ], [ -73.240886353217107, -39.822640045986802 ], [ -73.240933683850102, -39.822304729511004 ], [ -73.240962637182193, -39.822122580760301 ], [ -73.240960311724507, -39.821984467536801 ], [ -73.240976631412195, -39.821848053537799 ], [ -73.241035071886301, -39.8217934927209 ], [ -73.241084996801106, -39.8217511581419 ], [ -73.241166784663804, -39.821674298114601 ], [ -73.241237712948703, -39.821571625776102 ], [ -73.241290874511193, -39.821481517567499 ], [ -73.241332143172002, -39.821398992631401 ], [ -73.241378397479394, -39.821347261712397 ], [ -73.241458420264905, -39.821291910300403 ], [ -73.241586600606894, -39.821215733845797 ], [ -73.241726811670802, -39.821184388754197 ], [ -73.241864672678403, -39.8211650430951 ], [ -73.242049812314207, -39.821110606973001 ], [ -73.242204707040798, -39.821066809948697 ], [ -73.242336701640099, -39.821002406491999 ], [ -73.242390300694098, -39.820919429532402 ], [ -73.242449867273194, -39.820704562876003 ], [ -73.242277173378497, -39.820678151521399 ], [ -73.242269181807998, -39.820708943562799 ], [ -73.242236225756997, -39.820785921260601 ], [ -73.242201271512997, -39.820870598095603 ], [ -73.242136519676507, -39.820923006870302 ], [ -73.242025521007093, -39.820977110429098 ], [ -73.241833190048098, -39.821015130597402 ], [ -73.241707515994094, -39.821031646984302 ], [ -73.241551595941004, -39.821058801595399 ], [ -73.241466879502894, -39.821088115019101 ], [ -73.241359256092807, -39.821146859208099 ], [ -73.241233719651603, -39.821215790833399 ], [ -73.241163239429895, -39.821275557512699 ], [ -73.241138565724299, -39.821326498068501 ], [ -73.241118879945404, -39.821408232579799 ], [ -73.241076439662393, -39.821471738160596 ], [ -73.241017404000701, -39.8215668262498 ], [ -73.240974379062393, -39.8216208225614 ], [ -73.240877174472999, -39.8216982469824 ], [ -73.240782458600293, -39.8218160865569 ], [ -73.240744273542902, -39.821898498396799 ], [ -73.240730167002496, -39.821970497010298 ], [ -73.240711650672793, -39.822071249924797 ], [ -73.240687261632601, -39.8221769836452 ], [ -73.240647886255601, -39.822340451763701 ], [ -73.240561161952499, -39.822939311812 ], [ -73.240479947894201, -39.823502230348303 ], [ -73.240413437710799, -39.823927601719099 ], [ -73.240390615113697, -39.824309675673497 ], [ -73.240407051034893, -39.8245765604699 ] ] ] } },
{ "type": "Feature", "properties": { "id": "monoparte.7", "Name": null, "description": null, "timestamp": null, "begin": null, "end": null, "altitudeMode": null, "tessellate": -1, "extrude": 0, "visibility": -1, "drawOrder": null, "icon": null, "REG": "Los Ríos", "COM": "Valdivia", "LOC": "Valdivia", "ZONA": "ZB-4", "NOM": "Zona ZB-4", "UPERM": "Mixto", "UPROH": "Todos los no mencionados precedentemente", "P_DO": "20/02/2001", "N_DOC": "80", "T_DO": "Resolución", "OBS": null }, "geometry": { "type": "Polygon", "coordinates": [ [ [ -73.242278620730801, -39.826630182076201 ], [ -73.242186267246097, -39.826635947930001 ], [ -73.242026087115207, -39.8265941602711 ], [ -73.241879705952499, -39.826575694009101 ], [ -73.241786472505893, -39.826567195365598 ], [ -73.241609104297893, -39.826597519602998 ], [ -73.241477545903606, -39.826619016279899 ], [ -73.241396052727396, -39.826650593683802 ], [ -73.241324403919904, -39.826641304162003 ], [ -73.241251729970202, -39.826615372844401 ], [ -73.241185954192403, -39.826601102382597 ], [ -73.241143080017693, -39.826607438264901 ], [ -73.241084634659501, -39.826661998458199 ], [ -73.241028979896896, -39.8267116915613 ], [ -73.240927816013098, -39.826724927704198 ], [ -73.240841481655906, -39.826728089182303 ], [ -73.240804188657705, -39.826724689024502 ], [ -73.240743985727704, -39.826750720588798 ], [ -73.240682750428505, -39.8268101485166 ], [ -73.240652348187098, -39.826868448303202 ], [ -73.240654837496606, -39.826908863498801 ], [ -73.240704162233698, -39.826957094347897 ], [ -73.240936715670898, -39.827070098521801 ], [ -73.241180879904206, -39.827120725602903 ], [ -73.241368517603405, -39.827156743070198 ], [ -73.241552780195505, -39.827188118973197 ], [ -73.241607532783604, -39.827274274979402 ], [ -73.241641581717502, -39.827375485651501 ], [ -73.241817303777793, -39.8275691992581 ], [ -73.241988911616005, -39.827796421856398 ], [ -73.242081251929903, -39.827890732353097 ], [ -73.242129546793805, -39.827972358862802 ], [ -73.242173732812304, -39.828037457471098 ], [ -73.242240381794403, -39.828116028724097 ], [ -73.242313636471806, -39.828201506609901 ], [ -73.242423886275503, -39.828335667081703 ], [ -73.242468658812001, -39.828410274716198 ], [ -73.242517833559802, -39.828506165216602 ], [ -73.242549539358194, -39.828569337977299 ], [ -73.242598574836606, -39.828612813699003 ], [ -73.242654508977594, -39.828667950186201 ], [ -73.242703982933307, -39.828718557547603 ], [ -73.242797512415294, -39.828731810321003 ], [ -73.242904692702695, -39.8287660070459 ], [ -73.243033158805005, -39.828844696785403 ], [ -73.243123743642499, -39.828910477010403 ], [ -73.243219030628893, -39.828952257842801 ], [ -73.243323122585906, -39.829036605173201 ], [ -73.243391092748496, -39.829136572358202 ], [ -73.243457304646597, -39.829208011127797 ], [ -73.243572704873699, -39.829275264581902 ], [ -73.243660208372503, -39.829341158175502 ], [ -73.243810839706299, -39.8294786023678 ], [ -73.243906121884905, -39.829570419726203 ], [ -73.243984956632502, -39.8296961992029 ], [ -73.244055126876006, -39.829831825879999 ], [ -73.244062899420996, -39.829907788783402 ], [ -73.244047030921095, -39.8300012973436 ], [ -73.244046733135804, -39.830046580327 ], [ -73.244074619978306, -39.830148016002603 ], [ -73.244133341394104, -39.830248321648902 ], [ -73.244266066767096, -39.830345915104303 ], [ -73.244436523006797, -39.830504076887102 ], [ -73.244575382959397, -39.830612035721103 ], [ -73.245193566016297, -39.830477043330497 ], [ -73.2455353692675, -39.830401483975997 ], [ -73.245385469477199, -39.830080907137301 ], [ -73.244271776653306, -39.829160293759401 ], [ -73.244218701775694, -39.829126498343399 ], [ -73.244411419761605, -39.829071359853103 ], [ -73.244354739972394, -39.829021264995298 ], [ -73.244329392281898, -39.8290271317479 ], [ -73.2438258940753, -39.827326438682597 ], [ -73.243211015619906, -39.825397506013502 ], [ -73.242975425108, -39.824959373763697 ], [ -73.242944828913593, -39.824838974808699 ], [ -73.2431095892521, -39.822999421487097 ], [ -73.243155614714098, -39.822339257572899 ], [ -73.243038023559393, -39.822354533713899 ], [ -73.242702320313796, -39.822673610240201 ], [ -73.242090198834703, -39.823208321756603 ], [ -73.241030736767698, -39.824220327890401 ], [ -73.240840879220201, -39.824416725967303 ], [ -73.240610339651894, -39.824641435694403 ], [ -73.240612048955001, -39.824658740434202 ], [ -73.240642131684595, -39.824745800280397 ], [ -73.240730358524701, -39.824823583299199 ], [ -73.240826956153796, -39.8248867624119 ], [ -73.240925173135906, -39.824926055088604 ], [ -73.241053930797804, -39.824959464411798 ], [ -73.241225414134902, -39.824984160260499 ], [ -73.241446522255103, -39.8250118033001 ], [ -73.241828986272395, -39.825050216269602 ], [ -73.242051568218798, -39.825051594228398 ], [ -73.2423465286236, -39.8250741484093 ], [ -73.242439467074703, -39.825077891669203 ], [ -73.242519777604798, -39.825077332582303 ], [ -73.242582322153197, -39.825089337789898 ], [ -73.242679075413093, -39.825104855528998 ], [ -73.242774656736003, -39.825101353945698 ], [ -73.242833238904097, -39.825099207772503 ], [ -73.242925143772794, -39.825136347084403 ], [ -73.242989592962999, -39.825179257983798 ], [ -73.243067387919695, -39.825338434009701 ], [ -73.243117726212503, -39.825503381706099 ], [ -73.243149124341699, -39.825661874661002 ], [ -73.243156596410202, -39.825783120777601 ], [ -73.243120463592206, -39.825898815852497 ], [ -73.243027504671403, -39.826045185699797 ], [ -73.242948203715599, -39.826162463186797 ], [ -73.242903705781401, -39.826242723209702 ], [ -73.242844229789995, -39.826330681504999 ], [ -73.242768312837896, -39.826402561902597 ], [ -73.242640124759603, -39.826478740057098 ], [ -73.242484332358103, -39.826558312185099 ], [ -73.242363928213294, -39.826610377851402 ], [ -73.242278620730801, -39.826630182076201 ] ] ] } },
{ "type": "Feature", "properties": { "id": "monoparte.8", "Name": null, "description": null, "timestamp": null, "begin": null, "end": null, "altitudeMode": null, "tessellate": -1, "extrude": 0, "visibility": -1, "drawOrder": null, "icon": null, "REG": "Los Ríos", "COM": "Valdivia", "LOC": "Valdivia", "ZONA": "ZR-3", "NOM": "Zona ZR-3", "UPERM": "Zonas de restricción", "UPROH": "Ver detalles en ordenanza", "P_DO": "20/02/2001", "N_DOC": "80", "T_DO": "Resolución", "OBS": null }, "geometry": { "type": "Polygon", "coordinates": [ [ [ -73.240448811538997, -39.824793467122198 ], [ -73.240473100062204, -39.824896383721601 ], [ -73.240528626439996, -39.8249951405475 ], [ -73.240707711602397, -39.825042909479798 ], [ -73.240850944287104, -39.825080553863799 ], [ -73.240957886279901, -39.825100942126703 ], [ -73.241101211335604, -39.825109989990601 ], [ -73.241280921715699, -39.825107697237897 ], [ -73.241418785389101, -39.825118374804298 ], [ -73.241590828272393, -39.825142096814503 ], [ -73.241744282570494, -39.825165069303502 ], [ -73.241912272981594, -39.8251832197924 ], [ -73.242090397711905, -39.825185273226197 ], [ -73.242282969401799, -39.825181078619401 ], [ -73.242442417540403, -39.8251809563642 ], [ -73.242598077874007, -39.825179543458702 ], [ -73.242724139943405, -39.825179213766702 ], [ -73.242850991947805, -39.825191722212097 ], [ -73.242900233611394, -39.825208503976 ], [ -73.242930179901094, -39.825243147418199 ], [ -73.242964794305294, -39.825293347223997 ], [ -73.242974919068004, -39.825337294690001 ], [ -73.242984073538096, -39.825395575008301 ], [ -73.242988296245699, -39.825434020143398 ], [ -73.243004586880204, -39.825487749640097 ], [ -73.243026514796995, -39.8255427026901 ], [ -73.243034085924805, -39.8255753074842 ], [ -73.243048174468896, -39.825623399090297 ], [ -73.243062966270301, -39.825682902051703 ], [ -73.243065512105801, -39.825754290798002 ], [ -73.243059602027301, -39.825808833664297 ], [ -73.243048322994795, -39.825836410518598 ], [ -73.242985499101806, -39.825930209200997 ], [ -73.242911307999194, -39.826050157832803 ], [ -73.242881172782404, -39.826102728930103 ], [ -73.242800911534701, -39.826154277141299 ], [ -73.242678711679602, -39.8262473925368 ], [ -73.242555189405294, -39.826349133194299 ], [ -73.242501974934896, -39.826388253262103 ], [ -73.2424152847328, -39.8264257403196 ], [ -73.242324367093602, -39.826454804327099 ], [ -73.242237416760304, -39.826457989408397 ], [ -73.242188877476295, -39.826452619671798 ], [ -73.2421287108494, -39.826439097077198 ], [ -73.242078413801394, -39.826405197966601 ], [ -73.242020453203196, -39.826367291068102 ], [ -73.241928133209498, -39.8263435098755 ], [ -73.241857042528295, -39.826333246543399 ], [ -73.241753618702205, -39.826339893918302 ], [ -73.241678559335995, -39.826355510269103 ], [ -73.241590989908701, -39.8263787325076 ], [ -73.241417348783898, -39.826419403372 ], [ -73.241238425795302, -39.826434533873901 ], [ -73.241090426046298, -39.826439953826302 ], [ -73.240907896228805, -39.826426623081197 ], [ -73.240713563608594, -39.826402287106298 ], [ -73.240536144021604, -39.826381619990002 ], [ -73.240353613224698, -39.826368288398903 ], [ -73.240187904124596, -39.826387222827698 ], [ -73.240011791774407, -39.826447997045697 ], [ -73.239973375690298, -39.826486574179697 ], [ -73.239965081966403, -39.826562649262399 ], [ -73.239960300740506, -39.8266957805006 ], [ -73.239967142022806, -39.826867087891401 ], [ -73.239934627692804, -39.826911167510801 ], [ -73.239920168357799, -39.826977460377798 ], [ -73.239949055255806, -39.827025010608303 ], [ -73.240020404178793, -39.827069577045201 ], [ -73.240083827149306, -39.827105854874802 ], [ -73.240117385211505, -39.827138937626302 ], [ -73.240129534906302, -39.8271856714058 ], [ -73.240149260400798, -39.827234987095302 ], [ -73.240169429718307, -39.827261411371701 ], [ -73.240241228560095, -39.827253064018898 ], [ -73.240308362157506, -39.827229161833401 ], [ -73.2404248306336, -39.8271934452791 ], [ -73.240497601345993, -39.827170764871603 ], [ -73.240560765558499, -39.8271727414227 ], [ -73.240580407916298, -39.8271906079746 ], [ -73.240600753094796, -39.8272198850159 ], [ -73.240659861459605, -39.827246313470603 ], [ -73.240726193062102, -39.827269618113597 ], [ -73.240809000915505, -39.827289460101802 ], [ -73.240893213480007, -39.827332124845299 ], [ -73.240954435109501, -39.8273627651322 ], [ -73.241029929713207, -39.827384303958503 ], [ -73.241201810800206, -39.8273451281853 ], [ -73.241253343649703, -39.827368974477899 ], [ -73.241349271846502, -39.827421217763003 ], [ -73.241379395368199, -39.827458714389998 ], [ -73.241406081364104, -39.827500626275899 ], [ -73.241482890440594, -39.827573584626101 ], [ -73.241573004761705, -39.827621751274101 ], [ -73.241627798621096, -39.827638330205303 ], [ -73.241735258069795, -39.827757343475803 ], [ -73.241820253864702, -39.827872890954502 ], [ -73.241919522867406, -39.827979336819297 ], [ -73.241999760769104, -39.8281079256423 ], [ -73.242190193431298, -39.828339700528502 ], [ -73.242278890809004, -39.828455111147797 ], [ -73.242339130438396, -39.828590150836703 ], [ -73.242419900850095, -39.828697274775898 ], [ -73.242534353400004, -39.828809358811597 ], [ -73.242703376263606, -39.828864165322599 ], [ -73.242855601752197, -39.828927211127898 ], [ -73.243153583297996, -39.829108819169399 ], [ -73.243228982865602, -39.829208990640801 ], [ -73.243313898399904, -39.829303094828198 ], [ -73.243392830114104, -39.8293402326088 ], [ -73.243503711819599, -39.829374294030899 ], [ -73.243584284991897, -39.829438057840001 ], [ -73.243744488835105, -39.8295904014416 ], [ -73.243865693600398, -39.829751798100503 ], [ -73.243914663177506, -39.829864375646999 ], [ -73.243924047901899, -39.8299764964191 ], [ -73.243880930605798, -39.830039075050003 ], [ -73.243901833096402, -39.830097400232098 ], [ -73.243988977318807, -39.830227640047497 ], [ -73.244050164971398, -39.8303378632841 ], [ -73.244148125050799, -39.830402895970302 ], [ -73.244286960397503, -39.830489304756597 ], [ -73.244382805511094, -39.830560133305397 ], [ -73.244427784964003, -39.8306480761267 ], [ -73.244564167654104, -39.830614484750399 ], [ -73.244575382959397, -39.830612035721103 ], [ -73.244436523006797, -39.830504076887102 ], [ -73.244266066767096, -39.830345915104303 ], [ -73.244133341394104, -39.830248321648902 ], [ -73.244074619978306, -39.830148016002603 ], [ -73.244046733135804, -39.830046580327 ], [ -73.244047030921095, -39.8300012973436 ], [ -73.244062899420996, -39.829907788783402 ], [ -73.244055126876006, -39.829831825879999 ], [ -73.243984956632502, -39.8296961992029 ], [ -73.243906121884905, -39.829570419726203 ], [ -73.243810839706299, -39.8294786023678 ], [ -73.243660208372503, -39.829341158175502 ], [ -73.243572704873699, -39.829275264581902 ], [ -73.243457304646597, -39.829208011127797 ], [ -73.243391092748496, -39.829136572358202 ], [ -73.243323122585906, -39.829036605173201 ], [ -73.243219030628893, -39.828952257842801 ], [ -73.243123743642499, -39.828910477010403 ], [ -73.243033158805005, -39.828844696785403 ], [ -73.242904692702695, -39.8287660070459 ], [ -73.242797512415294, -39.828731810321003 ], [ -73.242703982933307, -39.828718557547603 ], [ -73.242654508977594, -39.828667950186201 ], [ -73.242598574836606, -39.828612813699003 ], [ -73.242549539358194, -39.828569337977299 ], [ -73.242517833559802, -39.828506165216602 ], [ -73.242468658812001, -39.828410274716198 ], [ -73.242423886275503, -39.828335667081703 ], [ -73.242313636471806, -39.828201506609901 ], [ -73.242240381794403, -39.828116028724097 ], [ -73.242173732812304, -39.828037457471098 ], [ -73.242129546793805, -39.827972358862802 ], [ -73.242081251929903, -39.827890732353097 ], [ -73.241988911616005, -39.827796421856398 ], [ -73.241817303777793, -39.8275691992581 ], [ -73.241641581717502, -39.827375485651501 ], [ -73.241607532783604, -39.827274274979402 ], [ -73.241552780195505, -39.827188118973197 ], [ -73.241368517603405, -39.827156743070198 ], [ -73.241180879904206, -39.827120725602903 ], [ -73.240936715670898, -39.827070098521801 ], [ -73.240704162233698, -39.826957094347897 ], [ -73.240654837496606, -39.826908863498801 ], [ -73.240652348187098, -39.826868448303202 ], [ -73.240682750428505, -39.8268101485166 ], [ -73.240743985727704, -39.826750720588798 ], [ -73.240804188657705, -39.826724689024502 ], [ -73.240841481655906, -39.826728089182303 ], [ -73.240927816013098, -39.826724927704198 ], [ -73.241028979896896, -39.8267116915613 ], [ -73.241084634659501, -39.826661998458199 ], [ -73.241143080017693, -39.826607438264901 ], [ -73.241185954192403, -39.826601102382597 ], [ -73.241251729970202, -39.826615372844401 ], [ -73.241324403919904, -39.826641304162003 ], [ -73.241396052727396, -39.826650593683802 ], [ -73.241477545903606, -39.826619016279899 ], [ -73.241609104297893, -39.826597519602998 ], [ -73.241786472505893, -39.826567195365598 ], [ -73.241879705952499, -39.826575694009101 ], [ -73.242026087115207, -39.8265941602711 ], [ -73.242186267246097, -39.826635947930001 ], [ -73.242278620730801, -39.826630182076201 ], [ -73.242363928213294, -39.826610377851402 ], [ -73.242484332358103, -39.826558312185099 ], [ -73.242640124759603, -39.826478740057098 ], [ -73.242768312837896, -39.826402561902597 ], [ -73.242844229789995, -39.826330681504999 ], [ -73.242903705781401, -39.826242723209702 ], [ -73.242948203715599, -39.826162463186797 ], [ -73.243027504671403, -39.826045185699797 ], [ -73.243120463592206, -39.825898815852497 ], [ -73.243156596410202, -39.825783120777601 ], [ -73.243149124341699, -39.825661874661002 ], [ -73.243117726212503, -39.825503381706099 ], [ -73.243067387919695, -39.825338434009701 ], [ -73.242989592962999, -39.825179257983798 ], [ -73.242925143772794, -39.825136347084403 ], [ -73.242833238904097, -39.825099207772503 ], [ -73.242774656736003, -39.825101353945698 ], [ -73.242679075413093, -39.825104855528998 ], [ -73.242582322153197, -39.825089337789898 ], [ -73.242519777604798, -39.825077332582303 ], [ -73.242439467074703, -39.825077891669203 ], [ -73.2423465286236, -39.8250741484093 ], [ -73.242051568218798, -39.825051594228398 ], [ -73.241828986272395, -39.825050216269602 ], [ -73.241446522255103, -39.8250118033001 ], [ -73.241225414134902, -39.824984160260499 ], [ -73.241053930797804, -39.824959464411798 ], [ -73.240925173135906, -39.824926055088604 ], [ -73.240826956153796, -39.8248867624119 ], [ -73.240730358524701, -39.824823583299199 ], [ -73.240642131684595, -39.824745800280397 ], [ -73.240612048955001, -39.824658740434202 ], [ -73.240610339651894, -39.824641435694403 ], [ -73.240448811538997, -39.824793467122198 ] ] ] } },
{ "type": "Feature", "properties": { "id": "monoparte.9", "Name": null, "description": null, "timestamp": null, "begin": null, "end": null, "altitudeMode": null, "tessellate": -1, "extrude": 0, "visibility": -1, "drawOrder": null, "icon": null, "REG": "Los Ríos", "COM": "Valdivia", "LOC": "Valdivia", "ZONA": "ZR-2", "NOM": "Zona ZR-2", "UPERM": "Zonas de restricción", "UPROH": "Ver detalles en ordenanza", "P_DO": "20/02/2001", "N_DOC": "80", "T_DO": "Resolución", "OBS": null }, "geometry": { "type": "Polygon", "coordinates": [ [ [ -73.241165376637198, -39.820290788056901 ], [ -73.240676016134401, -39.819871815146897 ], [ -73.240207658965105, -39.820043842019899 ], [ -73.239924659785899, -39.820152490957 ], [ -73.239694527919994, -39.8201787855173 ], [ -73.2391696763422, -39.820186084129702 ], [ -73.238658409286401, -39.8201630988926 ], [ -73.238388092293405, -39.820164056314503 ], [ -73.238044749024297, -39.8201081167729 ], [ -73.237722335060695, -39.820015669776801 ], [ -73.237458642932197, -39.819935965080198 ], [ -73.237235148890605, -39.819819047572999 ], [ -73.237109464268599, -39.819722379319202 ], [ -73.236957365947504, -39.819573065835002 ], [ -73.236858110183803, -39.8194664950516 ], [ -73.236695731167401, -39.819338405319201 ], [ -73.236421972664303, -39.819157799946602 ], [ -73.236134447020305, -39.819004503599402 ], [ -73.235730577127697, -39.818843547128097 ], [ -73.235190184251394, -39.818660776378699 ], [ -73.234871817137503, -39.818576194561302 ], [ -73.234972653286206, -39.818658286073401 ], [ -73.235124731078699, -39.8187194424208 ], [ -73.235314243826707, -39.818786377382096 ], [ -73.235511836828195, -39.818833954310101 ], [ -73.235764180652893, -39.818917652944499 ], [ -73.235888659270799, -39.8189821996285 ], [ -73.235966746073203, -39.819046060957902 ], [ -73.236019332117806, -39.8191725668947 ], [ -73.236073798614399, -39.8192944777959 ], [ -73.236169843174693, -39.819409148421798 ], [ -73.236227731710798, -39.819466123275298 ], [ -73.236301470709293, -39.819539674046602 ], [ -73.236399992774807, -39.819614224734003 ], [ -73.236463993960697, -39.819650007168697 ], [ -73.236576962809593, -39.819718310675 ], [ -73.236572829748198, -39.819811864619098 ], [ -73.236584979763904, -39.820089724645399 ], [ -73.236574861235297, -39.820166342719197 ], [ -73.236561339833798, -39.820227836042399 ], [ -73.236520084322706, -39.820360872335698 ], [ -73.236498677025907, -39.820495089069098 ], [ -73.236504283424694, -39.820626411159203 ], [ -73.236509090403899, -39.820664359738998 ], [ -73.236498376933298, -39.820771498021202 ], [ -73.236472153988601, -39.820907797393701 ], [ -73.236382630382806, -39.8210197249606 ], [ -73.236283240153597, -39.821132013361797 ], [ -73.236166349794502, -39.821241129700901 ], [ -73.236051223987502, -39.821338744240798 ], [ -73.2359001633491, -39.821414798685602 ], [ -73.235763082455307, -39.821476998013502 ], [ -73.235593819347997, -39.821538467662002 ], [ -73.235420919279804, -39.821581008760297 ], [ -73.235258119331704, -39.8216269923334 ], [ -73.235103303568593, -39.821682215273498 ], [ -73.234952591949295, -39.8217639743145 ], [ -73.234826779444504, -39.821848634803402 ], [ -73.234681818450696, -39.821943525966198 ], [ -73.234633179340705, -39.821996771573801 ], [ -73.234559172819303, -39.8220395084278 ], [ -73.234438759765595, -39.822131595251903 ], [ -73.234332432986704, -39.8222517607188 ], [ -73.234329955108905, -39.822291881336 ], [ -73.234344744546604, -39.822331370638501 ], [ -73.234384315585302, -39.8223718603763 ], [ -73.234506324253502, -39.822466521727797 ], [ -73.234613184274394, -39.822556018261402 ], [ -73.234745294073804, -39.8226541220955 ], [ -73.234867538822698, -39.822752586496698 ], [ -73.234944459609196, -39.822797428870501 ], [ -73.235021506843395, -39.822804143043903 ], [ -73.2350929206372, -39.822799625121398 ], [ -73.235179610919204, -39.822762143566202 ], [ -73.235273934687598, -39.822728194876902 ], [ -73.235347814144106, -39.822723586629998 ], [ -73.235404545528596, -39.822721511943598 ], [ -73.235533508315498, -39.822728232771802 ], [ -73.235703105025195, -39.8227525295597 ], [ -73.235877635707396, -39.822776645637603 ], [ -73.235949166385893, -39.822774029401899 ], [ -73.236053590347296, -39.822743523644199 ], [ -73.236200070735904, -39.822673355068602 ], [ -73.236350198769998, -39.8225820850882 ], [ -73.236469078911696, -39.822505300696498 ], [ -73.236609807765504, -39.822421999269899 ], [ -73.236740552672003, -39.8223371555193 ], [ -73.2368761129879, -39.822250230772198 ], [ -73.237016606724197, -39.822163124483701 ], [ -73.237067592706197, -39.8221078855481 ], [ -73.237103663616494, -39.822051285771899 ], [ -73.237138915317104, -39.821981373223899 ], [ -73.237164768637996, -39.821919429573903 ], [ -73.237182988289803, -39.821853952221701 ], [ -73.237241140577197, -39.821794638948099 ], [ -73.237261583712197, -39.8217652981524 ], [ -73.237318447317605, -39.821685063295902 ], [ -73.237423589526898, -39.821585907201303 ], [ -73.237525210009494, -39.821469723257103 ], [ -73.237563396070897, -39.8214073282847 ], [ -73.237603462558297, -39.821335332945203 ], [ -73.2376261370149, -39.821302097464901 ], [ -73.237634381853994, -39.821195049435303 ], [ -73.237648855736296, -39.821068711283097 ], [ -73.237661808083303, -39.820917648027098 ], [ -73.237686499233604, -39.820796653692199 ], [ -73.237717995539498, -39.820705910596303 ], [ -73.237739968693603, -39.8206612636152 ], [ -73.237808452817603, -39.820609197088999 ], [ -73.237897839701304, -39.820575426959998 ], [ -73.237979241903702, -39.820532418291002 ], [ -73.237999216187205, -39.820495469468 ], [ -73.238011791129694, -39.820458792304201 ], [ -73.238032467649305, -39.820433254920403 ], [ -73.238124555108499, -39.820403197878903 ], [ -73.238296973334798, -39.8203930762607 ], [ -73.238365682145599, -39.820384843262403 ], [ -73.238457877854401, -39.820396719377896 ], [ -73.238520241970207, -39.820405874191401 ], [ -73.238634276037203, -39.8204512614614 ], [ -73.238776378625602, -39.820510871450502 ], [ -73.238936214138107, -39.820577456382701 ], [ -73.239064689220399, -39.8206566269806 ], [ -73.239131509597598, -39.820698023275199 ], [ -73.239131260150799, -39.820774280292902 ], [ -73.239121853981501, -39.8208222796233 ], [ -73.239062058002204, -39.8208949976014 ], [ -73.238969486590804, -39.820997508016802 ], [ -73.238921187262804, -39.821136521474898 ], [ -73.238862436092901, -39.8212663868063 ], [ -73.238822596733399, -39.8213822163126 ], [ -73.238778410045697, -39.821507736465698 ], [ -73.239186771196401, -39.821595724142597 ], [ -73.239250220410895, -39.8214618746103 ], [ -73.239287827510907, -39.821349938756001 ], [ -73.239341512059198, -39.821298412150597 ], [ -73.239443239008693, -39.821224159142901 ], [ -73.239491163183899, -39.8211995305832 ], [ -73.2396109752153, -39.821137959040399 ], [ -73.239704825979402, -39.821096399949802 ], [ -73.239807020634203, -39.821029754567 ], [ -73.2398908955156, -39.820946624064 ], [ -73.239958317621699, -39.820917468533601 ], [ -73.240136854308901, -39.820846121497603 ], [ -73.240317624423, -39.820770880340703 ], [ -73.240479481488194, -39.820709675015898 ], [ -73.240600820436697, -39.820632796450397 ], [ -73.240918083892296, -39.820445809385703 ], [ -73.241080063879593, -39.820346475258503 ], [ -73.241165376637198, -39.820290788056901 ] ] ] } },
{ "type": "Feature", "properties": { "id": "monoparte.10", "Name": null, "description": null, "timestamp": null, "begin": null, "end": null, "altitudeMode": null, "tessellate": -1, "extrude": 0, "visibility": -1, "drawOrder": null, "icon": null, "REG": "Los Ríos", "COM": "Valdivia", "LOC": "Valdivia", "ZONA": "ZB-5", "NOM": "Zona ZB-5", "UPERM": "Equipamiento", "UPROH": "Todos los no mencionados precedentemente", "P_DO": "20/02/2001", "N_DOC": "80", "T_DO": "Resolución", "OBS": null }, "geometry": { "type": "Polygon", "coordinates": [ [ [ -73.245326131774107, -39.826214205354098 ], [ -73.245018593284101, -39.8251835345365 ], [ -73.245011989374206, -39.825151609478297 ], [ -73.244974770440606, -39.825149399385701 ], [ -73.243953706077207, -39.825331533060599 ], [ -73.244258423988498, -39.826389619820397 ], [ -73.245326131774107, -39.826214205354098 ] ] ] } },
{ "type": "Feature", "properties": { "id": "monoparte.11", "Name": null, "description": null, "timestamp": null, "begin": null, "end": null, "altitudeMode": null, "tessellate": -1, "extrude": 0, "visibility": -1, "drawOrder": null, "icon": null, "REG": "Los Ríos", "COM": "Valdivia", "LOC": "Valdivia", "ZONA": "ZB-3", "NOM": "Zona ZB-3", "UPERM": "Mixto", "UPROH": "Todos los no mencionados precedentemente", "P_DO": "20/02/2001", "N_DOC": "80", "T_DO": "Resolución", "OBS": null }, "geometry": { "type": "Polygon", "coordinates": [ [ [ -73.243155614714098, -39.822339257572899 ], [ -73.2431095892521, -39.822999421487097 ], [ -73.242944828913593, -39.824838974808699 ], [ -73.242975425108, -39.824959373763697 ], [ -73.243211015619906, -39.825397506013502 ], [ -73.2438258940753, -39.827326438682597 ], [ -73.244329392281898, -39.8290271317479 ], [ -73.244354739972394, -39.829021264995298 ], [ -73.2450613696017, -39.828857708201603 ], [ -73.245613665334702, -39.828729869479098 ], [ -73.246076559429198, -39.828625123761 ], [ -73.245474325332694, -39.8267108424564 ], [ -73.245326131774107, -39.826214205354098 ], [ -73.244258423988498, -39.826389619820397 ], [ -73.243953706077207, -39.825331533060599 ], [ -73.244974770440606, -39.825149399385701 ], [ -73.244715427501305, -39.8243261386732 ], [ -73.244600728101105, -39.823969357297599 ], [ -73.2445666125043, -39.823791902185697 ], [ -73.2446640205671, -39.823191456692598 ], [ -73.244710522093698, -39.822893101352001 ], [ -73.244448425190896, -39.822076640815503 ], [ -73.243155614714098, -39.822339257572899 ] ] ] } },
{ "type": "Feature", "properties": { "id": "monoparte.12", "Name": null, "description": null, "timestamp": null, "begin": null, "end": null, "altitudeMode": null, "tessellate": -1, "extrude": 0, "visibility": -1, "drawOrder": null, "icon": null, "REG": "Los Ríos", "COM": "Valdivia", "LOC": "Valdivia", "ZONA": "ZR-3", "NOM": "Zona ZR-3", "UPERM": "Zonas de restricción", "UPROH": "Ver detalles en ordenanza", "P_DO": "20/02/2001", "N_DOC": "80", "T_DO": "Resolución", "OBS": null }, "geometry": { "type": "Polygon", "coordinates": [ [ [ -73.242809478218305, -39.819026480154697 ], [ -73.242819178353201, -39.818930086230402 ], [ -73.242671799706699, -39.818933190572302 ], [ -73.242495442623294, -39.818954543459803 ], [ -73.242177402795903, -39.819058524168597 ], [ -73.241760445190806, -39.819186975808499 ], [ -73.241293387994105, -39.819317261564898 ], [ -73.241041407573505, -39.819427755394102 ], [ -73.240428988319294, -39.819643777147 ], [ -73.2401305773204, -39.8197529908402 ], [ -73.239823725418304, -39.819850599247701 ], [ -73.239835823314294, -39.819921638470497 ], [ -73.239898033431501, -39.819928296419398 ], [ -73.240847405091699, -39.819601651494402 ], [ -73.241096812939006, -39.819512101185701 ], [ -73.241651421483098, -39.819298192305098 ], [ -73.242445142656607, -39.819078501232298 ], [ -73.242539838234805, -39.819048226308801 ], [ -73.242809478218305, -39.819026480154697 ] ] ] } },
{ "type": "Feature", "properties": { "id": "monoparte.13", "Name": null, "description": null, "timestamp": null, "begin": null, "end": null, "altitudeMode": null, "tessellate": -1, "extrude": 0, "visibility": -1, "drawOrder": null, "icon": null, "REG": "Los Ríos", "COM": "Valdivia", "LOC": "Valdivia", "ZONA": "ZB-3", "NOM": "Zona ZB-3", "UPERM": "Mixto", "UPROH": "Todos los no mencionados precedentemente", "P_DO": "20/02/2001", "N_DOC": "80", "T_DO": "Resolución", "OBS": null }, "geometry": { "type": "Polygon", "coordinates": [ [ [ -73.242809478218305, -39.819026480154697 ], [ -73.242539838234805, -39.819048226308801 ], [ -73.242445142656607, -39.819078501232298 ], [ -73.241651421483098, -39.819298192305098 ], [ -73.241096812939006, -39.819512101185701 ], [ -73.240847405091699, -39.819601651494402 ], [ -73.239898033431501, -39.819928296419398 ], [ -73.239835823314294, -39.819921638470497 ], [ -73.239823725418304, -39.819850599247701 ], [ -73.2401305773204, -39.8197529908402 ], [ -73.240428988319294, -39.819643777147 ], [ -73.241041407573505, -39.819427755394102 ], [ -73.241293387994105, -39.819317261564898 ], [ -73.241760445190806, -39.819186975808499 ], [ -73.242177402795903, -39.819058524168597 ], [ -73.242495442623294, -39.818954543459803 ], [ -73.242671799706699, -39.818933190572302 ], [ -73.242819178353201, -39.818930086230402 ], [ -73.242889789534601, -39.818228412522302 ], [ -73.242913480334806, -39.817850594812803 ], [ -73.242787518317101, -39.817862357963101 ], [ -73.242588144941607, -39.817936377827699 ], [ -73.242268088437996, -39.818057708064899 ], [ -73.241942303707006, -39.8181863949915 ], [ -73.241804002293094, -39.818248646031599 ], [ -73.241661291354504, -39.818339651236997 ], [ -73.241268979580596, -39.818592292757202 ], [ -73.240970782549297, -39.8187676217537 ], [ -73.240680515997596, -39.818921214543501 ], [ -73.240523712738906, -39.818984141538003 ], [ -73.240347532952995, -39.819033482229997 ], [ -73.240218915817493, -39.8191025246078 ], [ -73.240095430891202, -39.819204738470198 ], [ -73.2398882549315, -39.8193529044174 ], [ -73.239674365013798, -39.819291635221802 ], [ -73.239488515808702, -39.819234104064897 ], [ -73.239322627276806, -39.819199669942797 ], [ -73.238632939910502, -39.819089096524102 ], [ -73.237632184598596, -39.818894591809801 ], [ -73.237100027257199, -39.818783010928598 ], [ -73.236974670371296, -39.818704200361402 ], [ -73.236704887666406, -39.818487709542801 ], [ -73.236409955117495, -39.818465139415501 ], [ -73.236054692097198, -39.818416182277403 ], [ -73.235292644541801, -39.818284408129102 ], [ -73.234871817137503, -39.818576194561302 ], [ -73.235190184251394, -39.818660776378699 ], [ -73.235730577127697, -39.818843547128097 ], [ -73.236134447020305, -39.819004503599402 ], [ -73.236421972664303, -39.819157799946602 ], [ -73.236695731167401, -39.819338405319201 ], [ -73.236858110183803, -39.8194664950516 ], [ -73.236957365947504, -39.819573065835002 ], [ -73.237109464268599, -39.819722379319202 ], [ -73.237235148890605, -39.819819047572999 ], [ -73.237458642932197, -39.819935965080198 ], [ -73.237722335060695, -39.820015669776801 ], [ -73.238044749024297, -39.8201081167729 ], [ -73.238388092293405, -39.820164056314503 ], [ -73.238658409286401, -39.8201630988926 ], [ -73.2391696763422, -39.820186084129702 ], [ -73.239694527919994, -39.8201787855173 ], [ -73.239924659785899, -39.820152490957 ], [ -73.240207658965105, -39.820043842019899 ], [ -73.240676016134401, -39.819871815146897 ], [ -73.241165376637198, -39.820290788056901 ], [ -73.241244040449502, -39.820239441838297 ], [ -73.241385935731302, -39.820135123340599 ], [ -73.241580218249993, -39.819998387663396 ], [ -73.241665606916101, -39.819980010291196 ], [ -73.241860460764102, -39.8199328437953 ], [ -73.242050383021606, -39.819885857606302 ], [ -73.242265554227998, -39.819847476899497 ], [ -73.242463225511798, -39.8198059247609 ], [ -73.242642220091398, -39.81978221216 ], [ -73.242682503409696, -39.819794080086403 ], [ -73.242731669048098, -39.819799665395699 ], [ -73.242809478218305, -39.819026480154697 ] ] ] } },
{ "type": "Feature", "properties": { "id": "monoparte.14", "Name": null, "description": null, "timestamp": null, "begin": null, "end": null, "altitudeMode": null, "tessellate": -1, "extrude": 0, "visibility": -1, "drawOrder": null, "icon": null, "REG": "Los Ríos", "COM": "Valdivia", "LOC": "Valdivia", "ZONA": "ZR-4", "NOM": "Zona ZR-4", "UPERM": "Zonas de restricción", "UPROH": "Ver detalles en ordenanza", "P_DO": "20/02/2001", "N_DOC": "80", "T_DO": "Resolución", "OBS": null }, "geometry": { "type": "Polygon", "coordinates": [ [ [ -73.247695277068999, -39.821186423360302 ], [ -73.2470960936447, -39.8213549217813 ], [ -73.244609831083196, -39.821884481284201 ], [ -73.243169020661099, -39.822146966706804 ], [ -73.242920774323196, -39.822206929824603 ], [ -73.242249549107399, -39.822848051875603 ], [ -73.241659448365198, -39.823364084716403 ], [ -73.241167713312095, -39.823846727300499 ], [ -73.240915843784805, -39.824096007050798 ], [ -73.240407051034893, -39.8245765604699 ], [ -73.240410380389505, -39.824630621751602 ], [ -73.240448811538997, -39.824793467122198 ], [ -73.240610339651894, -39.824641435694403 ], [ -73.240840879220201, -39.824416725967303 ], [ -73.241030736767698, -39.824220327890401 ], [ -73.242090198834703, -39.823208321756603 ], [ -73.242702320313796, -39.822673610240201 ], [ -73.243038023559393, -39.822354533713899 ], [ -73.243155614714098, -39.822339257572899 ], [ -73.244448425190896, -39.822076640815503 ], [ -73.247002810270004, -39.821534417453698 ], [ -73.247604981281796, -39.8213455950428 ], [ -73.2477674726277, -39.821330885551198 ], [ -73.248126579442498, -39.821291503980802 ], [ -73.248592714007003, -39.821233898692498 ], [ -73.248809114892097, -39.821235490548098 ], [ -73.249474469578601, -39.821251585430801 ], [ -73.249443058770495, -39.821093094810301 ], [ -73.248709878719396, -39.821079487950399 ], [ -73.248545888956301, -39.821075973257599 ], [ -73.248276340049401, -39.821114453886601 ], [ -73.247917527597906, -39.821158590875498 ], [ -73.247695277068999, -39.821186423360302 ] ] ] } },
{ "type": "Feature", "properties": { "id": "monoparte.15", "Name": null, "description": null, "timestamp": null, "begin": null, "end": null, "altitudeMode": null, "tessellate": -1, "extrude": 0, "visibility": -1, "drawOrder": null, "icon": null, "REG": "Los Ríos", "COM": "Valdivia", "LOC": "Valdivia", "ZONA": "ZB-1", "NOM": "Zona ZB-1", "UPERM": "Mixto", "UPROH": "Todos los no mencionados precedentemente", "P_DO": "20/02/2001", "N_DOC": "80", "T_DO": "Resolución", "OBS": null }, "geometry": { "type": "Polygon", "coordinates": [ [ [ -73.247695277068999, -39.821186423360302 ], [ -73.247917527597906, -39.821158590875498 ], [ -73.248276340049401, -39.821114453886601 ], [ -73.248545888956301, -39.821075973257599 ], [ -73.248709878719396, -39.821079487950399 ], [ -73.249443058770495, -39.821093094810301 ], [ -73.249474469578601, -39.821251585430801 ], [ -73.248809114892097, -39.821235490548098 ], [ -73.248592714007003, -39.821233898692498 ], [ -73.248126579442498, -39.821291503980802 ], [ -73.2477674726277, -39.821330885551198 ], [ -73.247604981281796, -39.8213455950428 ], [ -73.247586588062404, -39.8213866048238 ], [ -73.247866790481496, -39.822322274395901 ], [ -73.248012544879501, -39.8228315992285 ], [ -73.248256648819606, -39.8236828124165 ], [ -73.248500322627507, -39.824476856065203 ], [ -73.248852050964004, -39.825519504906403 ], [ -73.249149614626106, -39.826535546099898 ], [ -73.249371288837594, -39.827273209059399 ], [ -73.249555826360606, -39.827909775750499 ], [ -73.249507225512005, -39.827923472620498 ], [ -73.249680611703496, -39.828429397929803 ], [ -73.249644638353899, -39.8284473972478 ], [ -73.249817440757198, -39.828893776224703 ], [ -73.250103374668598, -39.829625984921996 ], [ -73.250254372472696, -39.829593752498802 ], [ -73.250598544407794, -39.829522028595598 ], [ -73.250937546426997, -39.829446681380603 ], [ -73.251225685736202, -39.829388449486501 ], [ -73.251208185618495, -39.829265190302998 ], [ -73.251184341966606, -39.829119288880797 ], [ -73.251183521055594, -39.828985885898 ], [ -73.251174361770794, -39.828717450301298 ], [ -73.251178474403105, -39.828503805616201 ], [ -73.251158036512095, -39.828493118761997 ], [ -73.251153574635197, -39.828380818041403 ], [ -73.251331059541897, -39.828372396238002 ], [ -73.251362070005399, -39.828354102194197 ], [ -73.251398717679294, -39.8283070084508 ], [ -73.251414811154007, -39.828247325673502 ], [ -73.251520879390199, -39.828243431794697 ], [ -73.251569978605204, -39.828197787366598 ], [ -73.251559642327805, -39.828070452265003 ], [ -73.251538734817203, -39.827972097994703 ], [ -73.251500677521904, -39.827956339485503 ], [ -73.251516065504205, -39.827925275341599 ], [ -73.251802200214399, -39.827914770576101 ], [ -73.251842372713398, -39.8278847029354 ], [ -73.251849068516407, -39.8276328409477 ], [ -73.251769313121301, -39.827542365808497 ], [ -73.2517696648476, -39.827508041600097 ], [ -73.251782233630294, -39.827351272842499 ], [ -73.251789635059794, -39.827150850982797 ], [ -73.251763795680503, -39.826652378446703 ], [ -73.251747001702796, -39.826220290811001 ], [ -73.251731263798604, -39.825965439433404 ], [ -73.251712236881701, -39.825777425813101 ], [ -73.251655036694501, -39.825571751477597 ], [ -73.251599244704195, -39.825468959314598 ], [ -73.251650340158605, -39.825295526098401 ], [ -73.251541340946702, -39.825291903489997 ], [ -73.251526658440596, -39.825254318228403 ], [ -73.251423061777601, -39.825258121308401 ], [ -73.251404152648703, -39.825112039625502 ], [ -73.251382543815296, -39.8249222142178 ], [ -73.251447144940002, -39.824887436998502 ], [ -73.251447379479103, -39.824851210599803 ], [ -73.251406976248703, -39.824757384918499 ], [ -73.251388302492501, -39.824655136508298 ], [ -73.251282008346195, -39.824415046352897 ], [ -73.251195797348501, -39.824300027008597 ], [ -73.251112877732695, -39.8241181706424 ], [ -73.251065429118995, -39.823950261363699 ], [ -73.251047930393895, -39.823867031888398 ], [ -73.251013986297295, -39.823797748743601 ], [ -73.250962073984098, -39.823717688019798 ], [ -73.250950095195705, -39.823643786532202 ], [ -73.250979928409194, -39.823606473688301 ], [ -73.251052868693705, -39.823546610816003 ], [ -73.2510745988926, -39.823498158277097 ], [ -73.251052990700501, -39.823308332737597 ], [ -73.251042774336398, -39.823222929461402 ], [ -73.251023865733202, -39.823156907382099 ], [ -73.251017877535602, -39.823059910897499 ], [ -73.251011653406806, -39.822999141769898 ], [ -73.250969137357998, -39.822911111099302 ], [ -73.250904072012304, -39.822778160564397 ], [ -73.250847109651602, -39.822656348776903 ], [ -73.250791911120203, -39.822523035112098 ], [ -73.250754564736198, -39.822358567832097 ], [ -73.250689498979995, -39.822265647041398 ], [ -73.250676816410603, -39.822180333332497 ], [ -73.250657911744895, -39.821994221417498 ], [ -73.250633018363899, -39.8217511428617 ], [ -73.250598843813094, -39.821638026075597 ], [ -73.250578879581397, -39.821554886084201 ], [ -73.250560562456101, -39.821378283195699 ], [ -73.250536018045494, -39.821301029846701 ], [ -73.250512178532304, -39.821195158752701 ], [ -73.250496444329997, -39.821060396509402 ], [ -73.250491046376396, -39.820892850073697 ], [ -73.250461569789195, -39.820815777717101 ], [ -73.2504650952269, -39.820752744237801 ], [ -73.2504659207316, -39.820645967900397 ], [ -73.250427517811005, -39.820544442431903 ], [ -73.250408024307006, -39.820428880279401 ], [ -73.250405328363399, -39.8202650476332 ], [ -73.250401924144199, -39.820209892609697 ], [ -73.250412144029895, -39.820175206213797 ], [ -73.250389125186103, -39.820122677530698 ], [ -73.250364464191406, -39.820043522821599 ], [ -73.250357301522101, -39.820007568777697 ], [ -73.250345557374501, -39.8199775005248 ], [ -73.250269693865306, -39.819749635978901 ], [ -73.250196297002603, -39.819561710734 ], [ -73.250130296656096, -39.819413543885297 ], [ -73.250118319858402, -39.819339641286597 ], [ -73.250100117767104, -39.8192850301877 ], [ -73.250018025847893, -39.819196545815203 ], [ -73.250059368898903, -39.8191454672533 ], [ -73.2501047045684, -39.819119023766099 ], [ -73.250099655593999, -39.819077272677497 ], [ -73.250079222737895, -39.819026555505303 ], [ -73.250022734995795, -39.818912350825499 ], [ -73.250010993222602, -39.818842252555598 ], [ -73.250031551263802, -39.8187347511819 ], [ -73.250025213349303, -39.818632049762101 ], [ -73.249996206790101, -39.818562585041697 ], [ -73.249986695124406, -39.818528622748801 ], [ -73.249983408834495, -39.8184753698566 ], [ -73.249958478563499, -39.818364296462398 ], [ -73.249912786468499, -39.818312361922501 ], [ -73.249808374234306, -39.818247689517698 ], [ -73.249742866889306, -39.818124999162102 ], [ -73.249734802179503, -39.817931698096203 ], [ -73.248887152886596, -39.817815068663201 ], [ -73.248739921256401, -39.817582196120298 ], [ -73.248250615353498, -39.817664479493303 ], [ -73.246700769267093, -39.817935764638499 ], [ -73.245676339754397, -39.818109139540397 ], [ -73.245299574959702, -39.818080526052498 ], [ -73.245271641686401, -39.8186217289146 ], [ -73.245420497579602, -39.818680605849501 ], [ -73.245570087714796, -39.818751370092002 ], [ -73.245710134346496, -39.818817718223102 ], [ -73.245877050318398, -39.818868784737603 ], [ -73.245988623590407, -39.818874225890397 ], [ -73.246129414952506, -39.818852384906002 ], [ -73.246632681212603, -39.8187457714521 ], [ -73.246988550246002, -39.818654091615002 ], [ -73.247181164351403, -39.818620818372104 ], [ -73.247374364701102, -39.818597053942298 ], [ -73.247534237991204, -39.8185840429894 ], [ -73.247795627272694, -39.819615712103499 ], [ -73.247956929119098, -39.820226924613003 ], [ -73.248054682780094, -39.820559304777802 ], [ -73.247695277068999, -39.821186423360302 ] ] ] } },
{ "type": "Feature", "properties": { "id": "monoparte.16", "Name": null, "description": null, "timestamp": null, "begin": null, "end": null, "altitudeMode": null, "tessellate": -1, "extrude": 0, "visibility": -1, "drawOrder": null, "icon": null, "REG": "Los Ríos", "COM": "Valdivia", "LOC": "Valdivia", "ZONA": "ZB-2", "NOM": "Zona ZB-2", "UPERM": "Mixto", "UPROH": "Todos los no mencionados precedentemente", "P_DO": "20/02/2001", "N_DOC": "80", "T_DO": "Resolución", "OBS": null }, "geometry": { "type": "Polygon", "coordinates": [ [ [ -73.244609831083196, -39.821884481284201 ], [ -73.2470960936447, -39.8213549217813 ], [ -73.247695277068999, -39.821186423360302 ], [ -73.248054682780094, -39.820559304777802 ], [ -73.247956929119098, -39.820226924613003 ], [ -73.247795627272694, -39.819615712103499 ], [ -73.247534237991204, -39.8185840429894 ], [ -73.247374364701102, -39.818597053942298 ], [ -73.247181164351403, -39.818620818372104 ], [ -73.246988550246002, -39.818654091615002 ], [ -73.246632681212603, -39.8187457714521 ], [ -73.246129414952506, -39.818852384906002 ], [ -73.245988623590407, -39.818874225890397 ], [ -73.245877050318398, -39.818868784737603 ], [ -73.245710134346496, -39.818817718223102 ], [ -73.245570087714796, -39.818751370092002 ], [ -73.245420497579602, -39.818680605849501 ], [ -73.245271641686401, -39.8186217289146 ], [ -73.245299574959702, -39.818080526052498 ], [ -73.244639455999007, -39.818030391401997 ], [ -73.243457828175806, -39.817909282304797 ], [ -73.242913480334806, -39.817850594812803 ], [ -73.242889789534601, -39.818228412522302 ], [ -73.242819178353201, -39.818930086230402 ], [ -73.242809478218305, -39.819026480154697 ], [ -73.242731669048098, -39.819799665395699 ], [ -73.242682503409696, -39.819794080086403 ], [ -73.242682380001696, -39.819832208071901 ], [ -73.242680801889605, -39.819873736734102 ], [ -73.244034610909395, -39.819672581991 ], [ -73.244323392328695, -39.820823584331698 ], [ -73.244609831083196, -39.821884481284201 ] ] ] } },
{ "type": "Feature", "properties": { "id": "monoparte.17", "Name": null, "description": null, "timestamp": null, "begin": null, "end": null, "altitudeMode": null, "tessellate": -1, "extrude": 0, "visibility": -1, "drawOrder": null, "icon": null, "REG": "Los Ríos", "COM": "Valdivia", "LOC": "Valdivia", "ZONA": "ZB-3", "NOM": "Zona ZB-3", "UPERM": "Mixto", "UPROH": "Todos los no mencionados precedentemente", "P_DO": "20/02/2001", "N_DOC": "80", "T_DO": "Resolución", "OBS": null }, "geometry": { "type": "Polygon", "coordinates": [ [ [ -73.243169020661099, -39.822146966706804 ], [ -73.244609831083196, -39.821884481284201 ], [ -73.244323392328695, -39.820823584331698 ], [ -73.244034610909395, -39.819672581991 ], [ -73.242680801889605, -39.819873736734102 ], [ -73.242679550409093, -39.819906653069602 ], [ -73.242661342643203, -39.819932100820502 ], [ -73.242534834222596, -39.820045387846498 ], [ -73.242362282916702, -39.820173704931896 ], [ -73.242161779275904, -39.8202897029078 ], [ -73.241781206242905, -39.820532384763098 ], [ -73.241830412214597, -39.820568706937102 ], [ -73.241917199538605, -39.820613182361697 ], [ -73.242050031070704, -39.820642628515799 ], [ -73.242277173378497, -39.820678151521399 ], [ -73.242449867273194, -39.820704562876003 ], [ -73.242748517828801, -39.820750238152399 ], [ -73.243261829417804, -39.8208815452073 ], [ -73.243239994171404, -39.821128958485097 ], [ -73.243169020661099, -39.822146966706804 ] ] ] } }
]
}
