{
"type": "FeatureCollection",
"name": "IPT_14_PRC_Lanco",
"crs": { "type": "name", "properties": { "name": "urn:ogc:def:crs:OGC:1.3:CRS84" } },
"features": [
{ "type": "Feature", "properties": { "id": "monoparte.1", "Name": null, "description": null, "timestamp": null, "begin": null, "end": null, "altitudeMode": null, "tessellate": -1, "extrude": 0, "visibility": -1, "drawOrder": null, "icon": null, "REG": "Los Ríos", "COM": "Lanco", "LOC": "Lanco", "ZONA": "ZU-5", "NOM": "Zona Urbana Consolidada", "UPERM": "Vivienda, equipamiento de escala regional, comunal y vecinal. Actividades productivas inofensivas. Actividades complementarias a la vialidad y el transporte (Ver detalle en ordenanza).", "UPROH": "Todos los usos no mencionados como permitidos", "P_DO": "30/05/2003", "N_DOC": "16", "T_DO": "Resolución", "OBS": null }, "geometry": { "type": "Polygon", "coordinates": [ [ [ -72.771882989693196, -39.445913179917902 ], [ -72.772943749676202, -39.446612065130203 ], [ -72.773088240329599, -39.4465215897186 ], [ -72.773530293797407, -39.446397606221502 ], [ -72.773932990263702, -39.446341626438901 ], [ -72.774348766412601, -39.446413905865803 ], [ -72.7752480807263, -39.446561024012901 ], [ -72.7756083732192, -39.446630336848003 ], [ -72.775818559212695, -39.446652100604197 ], [ -72.776084964239104, -39.446576712883001 ], [ -72.776214306417799, -39.446467652307398 ], [ -72.776429084782194, -39.446460668844203 ], [ -72.776999563515702, -39.446551739594298 ], [ -72.777483617885096, -39.446636085611999 ], [ -72.777719122967198, -39.446671320800299 ], [ -72.778144601888997, -39.446695610179503 ], [ -72.778638614508296, -39.446736732202098 ], [ -72.779103959316203, -39.4467025265415 ], [ -72.779325344114895, -39.446590467566601 ], [ -72.780091867304705, -39.446025407518803 ], [ -72.779960181363194, -39.445980720456497 ], [ -72.779142956614095, -39.445703473960698 ], [ -72.778731193524393, -39.445591759942801 ], [ -72.778475169033399, -39.445546470753897 ], [ -72.778046928349099, -39.445471036775203 ], [ -72.776970312404998, -39.445341621424198 ], [ -72.776042515898496, -39.4452359544674 ], [ -72.774734824718607, -39.445096157462402 ], [ -72.774117123913001, -39.445012567857802 ], [ -72.773912501344299, -39.444979896564803 ], [ -72.773022135751702, -39.444969503930203 ], [ -72.771882989693196, -39.445913179917902 ] ] ] } },
{ "type": "Feature", "properties": { "id": "monoparte.2", "Name": null, "description": null, "timestamp": null, "begin": null, "end": null, "altitudeMode": null, "tessellate": -1, "extrude": 0, "visibility": -1, "drawOrder": null, "icon": null, "REG": "Los Ríos", "COM": "Lanco", "LOC": "Lanco", "ZONA": "ZU-4", "NOM": "Zona Urbana Consolidada", "UPERM": "Vivienda, equipmaiento de escala regional, comunal y vecinal. Actividades productivas inofensivas. Actividades complementarias a la vialidad y el trasnporte (Ver detalle en ordenanza).", "UPROH": "Todos los usos no mencionados como permitidos", "P_DO": "30/05/2003", "N_DOC": "16", "T_DO": "Resolución", "OBS": null }, "geometry": { "type": "Polygon", "coordinates": [ [ [ -72.783282127384993, -39.453173552162603 ], [ -72.783437540035493, -39.453318622601998 ], [ -72.783810266602103, -39.453559798751897 ], [ -72.784232936026598, -39.453826275857701 ], [ -72.784596646284598, -39.454034898817397 ], [ -72.784321243804797, -39.453835693586299 ], [ -72.784414903224402, -39.453769348723597 ], [ -72.784525171127598, -39.453747882275401 ], [ -72.784656517309003, -39.453689983360903 ], [ -72.784691004403001, -39.453617367661998 ], [ -72.784782703468295, -39.453536929439302 ], [ -72.784882108711599, -39.453527731816898 ], [ -72.784978450191701, -39.453462036762303 ], [ -72.785050970974098, -39.453382223372202 ], [ -72.785176741742603, -39.453363230513403 ], [ -72.785323302755998, -39.4533733473124 ], [ -72.785348700873996, -39.453345709717297 ], [ -72.785428892929502, -39.453265646959402 ], [ -72.785558498612801, -39.453246527790903 ], [ -72.785733360411896, -39.453282531342097 ], [ -72.785879761214503, -39.453289674998402 ], [ -72.785912778369095, -39.4532379009677 ], [ -72.7842574158161, -39.4521795142592 ], [ -72.7813096336032, -39.4501951108439 ], [ -72.778604854609796, -39.448352857075299 ], [ -72.777919415925297, -39.447898541414197 ], [ -72.776688905279997, -39.4488739175859 ], [ -72.778390616612896, -39.449789668784298 ], [ -72.780435490948094, -39.451081473116297 ], [ -72.781533409652795, -39.451772565060502 ], [ -72.782535814138498, -39.4525442061028 ], [ -72.782693865745799, -39.452658535937502 ], [ -72.783282127384993, -39.453173552162603 ] ] ] } },
{ "type": "Feature", "properties": { "id": "monoparte.3", "Name": null, "description": null, "timestamp": null, "begin": null, "end": null, "altitudeMode": null, "tessellate": -1, "extrude": 0, "visibility": -1, "drawOrder": null, "icon": null, "REG": "Los Ríos", "COM": "Lanco", "LOC": "Lanco", "ZONA": "ZU-4", "NOM": "Zona Urbana Consolidada", "UPERM": "Vivienda, equipmaiento de escala regional, comunal y vecinal. Actividades productivas inofensivas. Actividades complementarias a la vialidad y el trasnporte (Ver detalle en ordenanza).", "UPROH": "Todos los usos no mencionados como permitidos", "P_DO": "30/05/2003", "N_DOC": "16", "T_DO": "Resolución", "OBS": null }, "geometry": { "type": "Polygon", "coordinates": [ [ [ -72.777008395779703, -39.454125345609803 ], [ -72.775264560711804, -39.454620531641297 ], [ -72.774983714020905, -39.454429482491001 ], [ -72.773504307911907, -39.455039965881298 ], [ -72.7725349772371, -39.4554193865333 ], [ -72.768692426794004, -39.456330557759202 ], [ -72.768790854505696, -39.456217742792099 ], [ -72.770058924714405, -39.455904914012599 ], [ -72.771620935111599, -39.455523712785798 ], [ -72.771703385583294, -39.455503590583199 ], [ -72.770129120384794, -39.454472791780603 ], [ -72.768490032678898, -39.455575435797101 ], [ -72.767028154775005, -39.456611838942401 ], [ -72.766173639462806, -39.457197824929999 ], [ -72.766578798242307, -39.457519903960304 ], [ -72.766498100494402, -39.4575739955012 ], [ -72.766086331166093, -39.4572576959103 ], [ -72.765661998953703, -39.457548676575001 ], [ -72.764396862140799, -39.458416205505699 ], [ -72.764974273627502, -39.458852925834897 ], [ -72.765747204672195, -39.459432569808499 ], [ -72.765910421189702, -39.459537494328998 ], [ -72.766213265262195, -39.459310218613801 ], [ -72.766781067280903, -39.458865828545797 ], [ -72.767626466178399, -39.458296255991598 ], [ -72.767957594876606, -39.458094867190503 ], [ -72.768232948596307, -39.457928054234799 ], [ -72.7697833745477, -39.457463677276998 ], [ -72.770419942409603, -39.457297049491501 ], [ -72.771372457918304, -39.457003982516802 ], [ -72.772393047488706, -39.456690824259603 ], [ -72.773387257403797, -39.456387450861101 ], [ -72.776643914586799, -39.455500540839601 ], [ -72.782231638455002, -39.455402077913099 ], [ -72.782183392540205, -39.455361248531801 ], [ -72.782036409289404, -39.455201603585301 ], [ -72.781799071462999, -39.454991282108303 ], [ -72.781618129839899, -39.454800570848697 ], [ -72.781378124760096, -39.454626081693299 ], [ -72.781049312152604, -39.4544294605574 ], [ -72.780511686428198, -39.454083000612599 ], [ -72.780424782354899, -39.454090444643597 ], [ -72.7770380514133, -39.454105317219302 ], [ -72.777008395779703, -39.454125345609803 ] ] ] } },
{ "type": "Feature", "properties": { "id": "monoparte.4", "Name": null, "description": null, "timestamp": null, "begin": null, "end": null, "altitudeMode": null, "tessellate": -1, "extrude": 0, "visibility": -1, "drawOrder": null, "icon": null, "REG": "Los Ríos", "COM": "Lanco", "LOC": "Lanco", "ZONA": "ZU-2", "NOM": "Zona Urbana Consolidada", "UPERM": "Vivienda, equipamiento de escala regional, comunal y vecinal. Actividades productivas inofensivas. Actividades complementarias a la vialidad y el transporte (Ver detalle en ordenanza).", "UPROH": "Todos los usos no mencionados como permitidos", "P_DO": "30/05/2003", "N_DOC": "16", "T_DO": "Resolución", "OBS": null }, "geometry": { "type": "Polygon", "coordinates": [ [ [ -72.778174484279305, -39.453150870280197 ], [ -72.777910417863694, -39.453213079364097 ], [ -72.777674321627202, -39.453195737368702 ], [ -72.777494264538802, -39.453276660864397 ], [ -72.776874035165307, -39.453829449107602 ], [ -72.776697256644695, -39.453971032250799 ], [ -72.776533290996596, -39.454008535837303 ], [ -72.775949081283102, -39.453948891126103 ], [ -72.775204109934606, -39.454326996009499 ], [ -72.774983714020905, -39.454429482491001 ], [ -72.775264560711804, -39.454620531641297 ], [ -72.777008395779703, -39.454125345609803 ], [ -72.7770380514133, -39.454105317219302 ], [ -72.780424782354899, -39.454090444643597 ], [ -72.780511686428198, -39.454083000612599 ], [ -72.778589183628299, -39.452804939901299 ], [ -72.778518982048396, -39.452785776812199 ], [ -72.778349131733407, -39.452970033045503 ], [ -72.778174484279305, -39.453150870280197 ] ] ] } },
{ "type": "Feature", "properties": { "id": "monoparte.5", "Name": null, "description": null, "timestamp": null, "begin": null, "end": null, "altitudeMode": null, "tessellate": -1, "extrude": 0, "visibility": -1, "drawOrder": null, "icon": null, "REG": "Los Ríos", "COM": "Lanco", "LOC": "Lanco", "ZONA": "ZU-2", "NOM": "Zona Urbana Consolidada", "UPERM": "Vivienda, equipamiento de escala regional, comunal y vecinal. Actividades productivas inofensivas. Actividades complementarias a la vialidad y el transporte (Ver detalle en ordenanza).", "UPROH": "Todos los usos no mencionados como permitidos", "P_DO": "30/05/2003", "N_DOC": "16", "T_DO": "Resolución", "OBS": null }, "geometry": { "type": "Polygon", "coordinates": [ [ [ -72.778236718642006, -39.451389166016803 ], [ -72.776398494288003, -39.453022753566103 ], [ -72.775650779576196, -39.453747687516397 ], [ -72.775552070127603, -39.4537413646107 ], [ -72.774522085855097, -39.453112350044897 ], [ -72.773685377916294, -39.453897357515999 ], [ -72.772542886589406, -39.454940131853903 ], [ -72.7728817939213, -39.455181727956102 ], [ -72.773477554016097, -39.454943129608601 ], [ -72.775040048170197, -39.454277517760097 ], [ -72.775800169691493, -39.453895347443797 ], [ -72.775956905247796, -39.453837823538201 ], [ -72.7765059440801, -39.453872399252802 ], [ -72.776663966148007, -39.453838663812903 ], [ -72.777012927977495, -39.4535842417936 ], [ -72.777305365999396, -39.453307826845297 ], [ -72.777470767860393, -39.4531832935495 ], [ -72.7777430740189, -39.453102944230402 ], [ -72.778121513120695, -39.453052504840201 ], [ -72.778275411753299, -39.452942643026901 ], [ -72.778464026799199, -39.452679134831399 ], [ -72.778574750956594, -39.452680298840299 ], [ -72.779186060545001, -39.453070295484302 ], [ -72.780072609550203, -39.453661040579497 ], [ -72.780694044218194, -39.454067380984597 ], [ -72.782000382896797, -39.453781774535898 ], [ -72.779409312106395, -39.452140782576997 ], [ -72.778236718642006, -39.451389166016803 ] ] ] } },
{ "type": "Feature", "properties": { "id": "monoparte.6", "Name": null, "description": null, "timestamp": null, "begin": null, "end": null, "altitudeMode": null, "tessellate": -1, "extrude": 0, "visibility": -1, "drawOrder": null, "icon": null, "REG": "Los Ríos", "COM": "Lanco", "LOC": "Lanco", "ZONA": "ZEX-2", "NOM": "Zona de extensión urbana", "UPERM": "Vivienda, equipamiento de escala regional, comunal y vecinal. Actividades productivas inofensivas. Actividades complementarias a la vialidad (ver detalle en ordenanza).", "UPROH": "Todos los no mencionados como permitidos", "P_DO": "30/05/2003", "N_DOC": "16", "T_DO": "Resolución", "OBS": null }, "geometry": { "type": "Polygon", "coordinates": [ [ [ -72.759886009664598, -39.454850365129097 ], [ -72.760186343860298, -39.455155697168102 ], [ -72.760686018275194, -39.454930594161198 ], [ -72.758775125452203, -39.453448025015 ], [ -72.758871764949404, -39.453569524765697 ], [ -72.759436508510205, -39.454281062884803 ], [ -72.759886009664598, -39.454850365129097 ] ] ] } },
{ "type": "Feature", "properties": { "id": "monoparte.7", "Name": null, "description": null, "timestamp": null, "begin": null, "end": null, "altitudeMode": null, "tessellate": -1, "extrude": 0, "visibility": -1, "drawOrder": null, "icon": null, "REG": "Los Ríos", "COM": "Lanco", "LOC": "Lanco", "ZONA": "ZEX-2", "NOM": "Zona de extensión urbana", "UPERM": "Vivienda, equipamiento de escala regional, comunal y vecinal. Actividades productivas inofensivas. Actividades complementarias a la vialidad (ver detalle en ordenanza).", "UPROH": "Todos los no mencionados como permitidos", "P_DO": "30/05/2003", "N_DOC": "16", "T_DO": "Resolución", "OBS": null }, "geometry": { "type": "Polygon", "coordinates": [ [ [ -72.760623471751899, -39.449625488240301 ], [ -72.760374139380502, -39.449903662798597 ], [ -72.760177740883705, -39.450038112242503 ], [ -72.759975904691004, -39.450142948899199 ], [ -72.7597905237525, -39.450196612138498 ], [ -72.759567906299395, -39.450272331435301 ], [ -72.759308053244396, -39.450370108351201 ], [ -72.758868094368296, -39.450548185671998 ], [ -72.758416777786096, -39.450658114324902 ], [ -72.757979522521794, -39.4507437566999 ], [ -72.757719024909704, -39.450829634832203 ], [ -72.7574940145808, -39.451003730728502 ], [ -72.757171830410897, -39.451157138498097 ], [ -72.756982959284301, -39.451243678223001 ], [ -72.757628816725003, -39.452030608886801 ], [ -72.757746995131896, -39.451995406985802 ], [ -72.757889218027202, -39.451930751704403 ], [ -72.758020931750906, -39.451876444771997 ], [ -72.758122187024895, -39.451804535758903 ], [ -72.758225744891007, -39.451741131219002 ], [ -72.758327846250396, -39.451684922496803 ], [ -72.758495769601396, -39.451652320787197 ], [ -72.758684865175894, -39.4516018763915 ], [ -72.758804691332301, -39.451600858017599 ], [ -72.758661090624997, -39.451674138062899 ], [ -72.758428272881702, -39.451768893589701 ], [ -72.758279992768706, -39.451858052448799 ], [ -72.758059908678206, -39.451949535496503 ], [ -72.757875878294996, -39.452025553110303 ], [ -72.757678661110901, -39.452091340134203 ], [ -72.758241177925697, -39.452776706909702 ], [ -72.7585253057823, -39.453133934335398 ], [ -72.758602219244807, -39.453112130809103 ], [ -72.7606733713057, -39.4547537498932 ], [ -72.7608837829858, -39.4548415005085 ], [ -72.761226787242606, -39.454686974809398 ], [ -72.7616057897731, -39.454510813101699 ], [ -72.761553975280506, -39.4544380710132 ], [ -72.764263631796098, -39.453153972151597 ], [ -72.762494856422805, -39.450983453281196 ], [ -72.762411202310901, -39.451003292640799 ], [ -72.762262587403001, -39.451029077759401 ], [ -72.762080528681906, -39.451073105058597 ], [ -72.761876785521096, -39.451125459691902 ], [ -72.761701885536098, -39.4511654410056 ], [ -72.761537207935802, -39.451166962100302 ], [ -72.761291213934697, -39.451165396223303 ], [ -72.761161621038895, -39.451179126038298 ], [ -72.761060877450305, -39.451226236816701 ], [ -72.760980182012204, -39.451280324421397 ], [ -72.760870850138801, -39.451350591563397 ], [ -72.760603177657401, -39.451403107387002 ], [ -72.760340818769095, -39.4514173216713 ], [ -72.760123871526901, -39.451407187614599 ], [ -72.759882175735598, -39.451439796765399 ], [ -72.759712491529896, -39.451485325623899 ], [ -72.759562239163699, -39.451526412588997 ], [ -72.759483683947394, -39.451528955483099 ], [ -72.759628918579494, -39.451440369264603 ], [ -72.759917347813797, -39.451316644403597 ], [ -72.760108105952796, -39.451297123099302 ], [ -72.760396140755205, -39.4513030487606 ], [ -72.760674048358496, -39.451303583153702 ], [ -72.760817754143304, -39.451277958124301 ], [ -72.760864595443607, -39.451234499806397 ], [ -72.760941810341606, -39.451161460101702 ], [ -72.761012583510194, -39.451105787084401 ], [ -72.761234330587897, -39.451068102270703 ], [ -72.761496380169206, -39.451048176624397 ], [ -72.761658910022106, -39.451052445432502 ], [ -72.761807320110904, -39.451022854201703 ], [ -72.7619377255741, -39.450978594612401 ], [ -72.7622147018905, -39.4509162414599 ], [ -72.762415109821603, -39.450885591012003 ], [ -72.762012136434393, -39.450391063334301 ], [ -72.761694898442201, -39.449966087122903 ], [ -72.761457787112604, -39.449648445857697 ], [ -72.761246268671698, -39.4497446616272 ], [ -72.761006928475695, -39.4497524124791 ], [ -72.760766243687598, -39.449735184322698 ], [ -72.760641959979196, -39.449653418030898 ], [ -72.760623471751899, -39.449625488240301 ] ] ] } },
{ "type": "Feature", "properties": { "id": "monoparte.8", "Name": null, "description": null, "timestamp": null, "begin": null, "end": null, "altitudeMode": null, "tessellate": -1, "extrude": 0, "visibility": -1, "drawOrder": null, "icon": null, "REG": "Los Ríos", "COM": "Lanco", "LOC": "Lanco", "ZONA": "ZR-5", "NOM": "Restricción por tendido de Alta Tensión", "UPERM": "Vegetación, ejecución de vías de carácter peatonal y obras de mejoramiento, tales como muros de contención.", "UPROH": "Todo tipo de construcción de edificio.", "P_DO": "30/05/2003", "N_DOC": "16", "T_DO": "Resolución", "OBS": null }, "geometry": { "type": "Polygon", "coordinates": [ [ [ -72.7585253057823, -39.453133934335398 ], [ -72.758775125452203, -39.453448025015 ], [ -72.760686018275194, -39.454930594161198 ], [ -72.7608837829858, -39.4548415005085 ], [ -72.7606733713057, -39.4547537498932 ], [ -72.758602219244807, -39.453112130809103 ], [ -72.7585253057823, -39.453133934335398 ] ] ] } },
{ "type": "Feature", "properties": { "id": "monoparte.9", "Name": null, "description": null, "timestamp": null, "begin": null, "end": null, "altitudeMode": null, "tessellate": -1, "extrude": 0, "visibility": -1, "drawOrder": null, "icon": null, "REG": "Los Ríos", "COM": "Lanco", "LOC": "Lanco", "ZONA": "ZR-4", "NOM": "Protección de Cementerios", "UPERM": "Obras específicas y propias del Cementerio", "UPROH": "Todos los usos no mencionados como permitidos", "P_DO": "30/05/2003", "N_DOC": "16", "T_DO": "Resolución", "OBS": null }, "geometry": { "type": "Polygon", "coordinates": [ [ [ -72.768656908329305, -39.445706177089498 ], [ -72.769950645488606, -39.446523550050102 ], [ -72.770321820193004, -39.446399235887803 ], [ -72.771153436296999, -39.446089841808899 ], [ -72.771294931040899, -39.4459780088076 ], [ -72.770015633115193, -39.445168784695298 ], [ -72.768656908329305, -39.445706177089498 ] ] ] } },
{ "type": "Feature", "properties": { "id": "monoparte.10", "Name": null, "description": null, "timestamp": null, "begin": null, "end": null, "altitudeMode": null, "tessellate": -1, "extrude": 0, "visibility": -1, "drawOrder": null, "icon": null, "REG": "Los Ríos", "COM": "Lanco", "LOC": "Lanco", "ZONA": "ZEX-2", "NOM": "Zona de extensión urbana", "UPERM": "Vivienda, equipamiento de escala regional, comunal y vecinal. Actividades productivas inofensivas. Actividades complementarias a la vialidad (ver detalle en ordenanza).", "UPROH": "Todos los no mencionados como permitidos", "P_DO": "30/05/2003", "N_DOC": "16", "T_DO": "Resolución", "OBS": null }, "geometry": { "type": "Polygon", "coordinates": [ [ [ -72.767659935401895, -39.448192194287302 ], [ -72.7677153302606, -39.448244034129502 ], [ -72.768490894125506, -39.447785989222702 ], [ -72.768396067991006, -39.447790018073697 ], [ -72.768241331332405, -39.447838886847599 ], [ -72.768156558417104, -39.447908363876302 ], [ -72.768050514923999, -39.447993781393897 ], [ -72.767931272593103, -39.448062469814701 ], [ -72.767792188690294, -39.448127989193701 ], [ -72.767659935401895, -39.448192194287302 ] ] ] } },
{ "type": "Feature", "properties": { "id": "monoparte.11", "Name": null, "description": null, "timestamp": null, "begin": null, "end": null, "altitudeMode": null, "tessellate": -1, "extrude": 0, "visibility": -1, "drawOrder": null, "icon": null, "REG": "Los Ríos", "COM": "Lanco", "LOC": "Lanco", "ZONA": "ZEX-2", "NOM": "Zona de extensión urbana", "UPERM": "Vivienda, equipamiento de escala regional, comunal y vecinal. Actividades productivas inofensivas. Actividades complementarias a la vialidad (ver detalle en ordenanza).", "UPROH": "Todos los no mencionados como permitidos", "P_DO": "30/05/2003", "N_DOC": "16", "T_DO": "Resolución", "OBS": null }, "geometry": { "type": "Polygon", "coordinates": [ [ [ -72.769094815247897, -39.4450684231712 ], [ -72.768418910655697, -39.445358451859803 ], [ -72.768122492796394, -39.445589695209499 ], [ -72.767865973199093, -39.445876837180798 ], [ -72.767828458717801, -39.445897714430203 ], [ -72.768651028128502, -39.446444227874601 ], [ -72.768035964078607, -39.446753623026403 ], [ -72.768126543666796, -39.446813643302697 ], [ -72.768137867666695, -39.446852596351199 ], [ -72.766816686077306, -39.447403048139698 ], [ -72.7676094702054, -39.448144968147098 ], [ -72.767765587196095, -39.448090722447802 ], [ -72.767941892004401, -39.447985866727599 ], [ -72.768041189074097, -39.447912106925301 ], [ -72.768135677295504, -39.447840408016098 ], [ -72.7682312965199, -39.447789644859697 ], [ -72.768361487120799, -39.4477415716308 ], [ -72.7685204237753, -39.447724975879503 ], [ -72.768595599166602, -39.447724149722497 ], [ -72.769203294096997, -39.447365238483101 ], [ -72.769437881087697, -39.4475883038684 ], [ -72.769527929845594, -39.4476739287784 ], [ -72.769528662173897, -39.447674625559998 ], [ -72.770097555425906, -39.448215567216003 ], [ -72.770993587195605, -39.447049751041 ], [ -72.771040938274695, -39.446987445101698 ], [ -72.771941285553297, -39.4476087871396 ], [ -72.772143073501297, -39.447759515992601 ], [ -72.771657113696506, -39.448408005224799 ], [ -72.7711715071339, -39.448977838422202 ], [ -72.770548246188596, -39.449730869407702 ], [ -72.770049755500395, -39.450233199152699 ], [ -72.769897635861895, -39.450324062664997 ], [ -72.769983410977304, -39.450405270179601 ], [ -72.770197989710198, -39.4502531119401 ], [ -72.770434198770403, -39.450016669097302 ], [ -72.770920203648004, -39.449453974670597 ], [ -72.771540591498706, -39.4487332058143 ], [ -72.772136410441405, -39.447984634931203 ], [ -72.772298362590703, -39.447654085257 ], [ -72.772376478503304, -39.447222594763403 ], [ -72.772295824155094, -39.446839157326899 ], [ -72.772115265857394, -39.446483985669197 ], [ -72.771755633192797, -39.446018680196303 ], [ -72.769781631763806, -39.4447244166725 ], [ -72.769094815247897, -39.4450684231712 ] ], [ [ -72.770321820193004, -39.446399235887803 ], [ -72.769950645488606, -39.446523550050102 ], [ -72.768656908329305, -39.445706177089498 ], [ -72.770015633115193, -39.445168784695298 ], [ -72.771294931040899, -39.4459780088076 ], [ -72.771153436296999, -39.446089841808899 ], [ -72.770321820193004, -39.446399235887803 ] ] ] } },
{ "type": "Feature", "properties": { "id": "monoparte.12", "Name": null, "description": null, "timestamp": null, "begin": null, "end": null, "altitudeMode": null, "tessellate": -1, "extrude": 0, "visibility": -1, "drawOrder": null, "icon": null, "REG": "Los Ríos", "COM": "Lanco", "LOC": "Lanco", "ZONA": "ZR-6", "NOM": "Restricción de fuertes pendientes", "UPERM": "Vegetación, ejecución de vías de carácter peatonal y obras de mejoramiento, tales como muros de contención.", "UPROH": "Se prohibe todo tipo de construcción de edificios", "P_DO": "30/05/2003", "N_DOC": "16", "T_DO": "Resolución", "OBS": null }, "geometry": { "type": "Polygon", "coordinates": [ [ [ -72.761457787112604, -39.449648445857697 ], [ -72.761694898442201, -39.449966087122903 ], [ -72.761850374396801, -39.449877685284399 ], [ -72.762941508126801, -39.449306144967402 ], [ -72.763442164189797, -39.449042679095101 ], [ -72.764289897754395, -39.448589230586002 ], [ -72.764972867882406, -39.448215588935 ], [ -72.765456737140994, -39.447997340098198 ], [ -72.765892826577996, -39.447819364556203 ], [ -72.766816686077306, -39.447403048139698 ], [ -72.768137867666695, -39.446852596351199 ], [ -72.768126543666796, -39.446813643302697 ], [ -72.768035964078607, -39.446753623026403 ], [ -72.767846582795002, -39.446628135024703 ], [ -72.7675798524822, -39.446726153272202 ], [ -72.767425121764305, -39.446849134783001 ], [ -72.767264824983897, -39.446954423377903 ], [ -72.767029346788703, -39.447033553405198 ], [ -72.766652924428698, -39.447149425754901 ], [ -72.766380048607203, -39.4472190437344 ], [ -72.766132669086005, -39.447248513852998 ], [ -72.765984636613595, -39.447324806156303 ], [ -72.765858093509394, -39.447457595220797 ], [ -72.765712947462703, -39.447587413391901 ], [ -72.7655570554642, -39.447688982028097 ], [ -72.765471340164794, -39.447723932761697 ], [ -72.765300677916599, -39.447808106664901 ], [ -72.765102400690097, -39.447893176453199 ], [ -72.764927134776997, -39.447977499960501 ], [ -72.764661533957806, -39.4480111315887 ], [ -72.764084306556995, -39.4480798856058 ], [ -72.763843834060694, -39.448152021449403 ], [ -72.763783630146705, -39.448232614340697 ], [ -72.763464720529797, -39.448303717349901 ], [ -72.763207375128204, -39.448404996420599 ], [ -72.763090236315605, -39.448626843308503 ], [ -72.762859775712997, -39.448970324005401 ], [ -72.762703697110993, -39.449154111644901 ], [ -72.762601683558302, -39.449228908807598 ], [ -72.762277793056199, -39.449378811866701 ], [ -72.761844015411597, -39.449542996984597 ], [ -72.761457787112604, -39.449648445857697 ] ] ] } },
{ "type": "Feature", "properties": { "id": "monoparte.13", "Name": null, "description": null, "timestamp": null, "begin": null, "end": null, "altitudeMode": null, "tessellate": -1, "extrude": 0, "visibility": -1, "drawOrder": null, "icon": null, "REG": "Los Ríos", "COM": "Lanco", "LOC": "Lanco", "ZONA": "ZU-3", "NOM": "Zona Urbana Consolidada", "UPERM": "Vivienda, equipamiento de escala comunal, vecinal. Actividades productivas inofensivas. Actividades complementarias a la vialidad y el trasnporte (Ver detalle en ordenanza).", "UPROH": "Todos los usos no mencionados como permitidos", "P_DO": "30/05/2003", "N_DOC": "16", "T_DO": "Resolución", "OBS": null }, "geometry": { "type": "Polygon", "coordinates": [ [ [ -72.761694898442201, -39.449966087122903 ], [ -72.762012136434393, -39.450391063334301 ], [ -72.762415109821603, -39.450885591012003 ], [ -72.762604044813898, -39.450871337870701 ], [ -72.762755728762301, -39.450856891637599 ], [ -72.762972776835895, -39.450868923371601 ], [ -72.762737747065998, -39.450979487846901 ], [ -72.762660724637101, -39.450964824201499 ], [ -72.762540439150399, -39.450968721119402 ], [ -72.762494856422805, -39.450983453281196 ], [ -72.764263631796098, -39.453153972151597 ], [ -72.761553975280506, -39.4544380710132 ], [ -72.7616057897731, -39.454510813101699 ], [ -72.763331993165096, -39.453708441177902 ], [ -72.765231811676003, -39.452798489122401 ], [ -72.767520214456894, -39.451685254754899 ], [ -72.767970940756001, -39.451447814807501 ], [ -72.769148345432995, -39.450880567130099 ], [ -72.769891582990297, -39.450470385791903 ], [ -72.769983410977304, -39.450405270179601 ], [ -72.769897635861895, -39.450324062664997 ], [ -72.768634138938594, -39.449127821117301 ], [ -72.7678946755602, -39.448411868558303 ], [ -72.7677153302606, -39.448244034129502 ], [ -72.767659935401895, -39.448192194287302 ], [ -72.767537526873497, -39.448193444215804 ], [ -72.767356700855998, -39.448214561292602 ], [ -72.767262303119495, -39.4482424075401 ], [ -72.767104000211006, -39.448361929702799 ], [ -72.766885254272495, -39.448500570175497 ], [ -72.766325759307094, -39.448886662752898 ], [ -72.765833339472294, -39.449194319237201 ], [ -72.765592093758002, -39.449371815728803 ], [ -72.765294592338293, -39.4495549490832 ], [ -72.764898198174393, -39.449819452884299 ], [ -72.764502622001302, -39.450099180214401 ], [ -72.764271077607205, -39.450228698738997 ], [ -72.763945438025303, -39.450391769080099 ], [ -72.763705295920104, -39.4504986876453 ], [ -72.763818610313805, -39.450411131599303 ], [ -72.763969464280194, -39.450335703439698 ], [ -72.764120317911093, -39.450260275098699 ], [ -72.764353496864899, -39.450115452528898 ], [ -72.7645409577366, -39.4499892695261 ], [ -72.764956171907599, -39.449708905464597 ], [ -72.765523352219603, -39.449328289519002 ], [ -72.766285242312804, -39.448819344211799 ], [ -72.766857934301498, -39.4484499819213 ], [ -72.767249609567898, -39.448189438186198 ], [ -72.767454468102898, -39.448158008815398 ], [ -72.7676094702054, -39.448144968147098 ], [ -72.766816686077306, -39.447403048139698 ], [ -72.765892826577996, -39.447819364556203 ], [ -72.765456737140994, -39.447997340098198 ], [ -72.764972867882406, -39.448215588935 ], [ -72.764289897754395, -39.448589230586002 ], [ -72.763442164189797, -39.449042679095101 ], [ -72.762941508126801, -39.449306144967402 ], [ -72.761850374396801, -39.449877685284399 ], [ -72.761694898442201, -39.449966087122903 ] ] ] } },
{ "type": "Feature", "properties": { "id": "monoparte.14", "Name": null, "description": null, "timestamp": null, "begin": null, "end": null, "altitudeMode": null, "tessellate": -1, "extrude": 0, "visibility": -1, "drawOrder": null, "icon": null, "REG": "Los Ríos", "COM": "Lanco", "LOC": "Lanco", "ZONA": "ZU-1", "NOM": "Zona Urbana Consolidada", "UPERM": "Vivienda, equipamiento de escala regional, comunal y vecinal. Actividades productivas inofensivas. Actividades complementarias a la vialidad y el transporte.(Ver detalle en ordenanza).", "UPROH": "Todos los usos no mencionados como permitidos", "P_DO": "30/05/2003", "N_DOC": "16", "T_DO": "Resolución", "OBS": null }, "geometry": { "type": "Polygon", "coordinates": [ [ [ -72.7667183220927, -39.452219455994403 ], [ -72.767700381746806, -39.4528856832166 ], [ -72.767929074667705, -39.452824282885899 ], [ -72.768351367484996, -39.4527319396501 ], [ -72.768777125951601, -39.4527038257459 ], [ -72.769044373703395, -39.452691843866603 ], [ -72.768884660106593, -39.452589447959703 ], [ -72.767655405677104, -39.451774845062701 ], [ -72.7667183220927, -39.452219455994403 ] ] ] } },
{ "type": "Feature", "properties": { "id": "monoparte.15", "Name": null, "description": null, "timestamp": null, "begin": null, "end": null, "altitudeMode": null, "tessellate": -1, "extrude": 0, "visibility": -1, "drawOrder": null, "icon": null, "REG": "Los Ríos", "COM": "Lanco", "LOC": "Lanco", "ZONA": "ZU-1", "NOM": "Zona Urbana Consolidada", "UPERM": "Vivienda, equipamiento de escala regional, comunal y vecinal. Actividades productivas inofensivas. Actividades complementarias a la vialidad y el transporte.(Ver detalle en ordenanza).", "UPROH": "Todos los usos no mencionados como permitidos", "P_DO": "30/05/2003", "N_DOC": "16", "T_DO": "Resolución", "OBS": null }, "geometry": { "type": "Polygon", "coordinates": [ [ [ -72.772028359765599, -39.4524015959881 ], [ -72.770604131566699, -39.453691808092003 ], [ -72.769169023533195, -39.452771757893203 ], [ -72.768842993030702, -39.452785095549103 ], [ -72.768423498900702, -39.452815389657701 ], [ -72.768055927334601, -39.452896425778597 ], [ -72.767817694381407, -39.4529652666115 ], [ -72.768173313267496, -39.453206511317802 ], [ -72.770129120384794, -39.454472791780603 ], [ -72.771703385583294, -39.455503590583199 ], [ -72.771620935111599, -39.455523712785798 ], [ -72.772475389614101, -39.455319368040698 ], [ -72.7728817939213, -39.455181727956102 ], [ -72.772542886589406, -39.454940131853903 ], [ -72.773685377916294, -39.453897357515999 ], [ -72.774522085855097, -39.453112350044897 ], [ -72.775552070127603, -39.4537413646107 ], [ -72.775650779576196, -39.453747687516397 ], [ -72.776398494288003, -39.453022753566103 ], [ -72.778236718642006, -39.451389166016803 ], [ -72.777944498163194, -39.451201851689802 ], [ -72.776340079544894, -39.450181650623797 ], [ -72.775200158436206, -39.4494513614505 ], [ -72.773605114219507, -39.4508633365324 ], [ -72.772028359765599, -39.4524015959881 ] ] ] } },
{ "type": "Feature", "properties": { "id": "monoparte.16", "Name": null, "description": null, "timestamp": null, "begin": null, "end": null, "altitudeMode": null, "tessellate": -1, "extrude": 0, "visibility": -1, "drawOrder": null, "icon": null, "REG": "Los Ríos", "COM": "Lanco", "LOC": "Lanco", "ZONA": "ZU-2", "NOM": "Zona Urbana Consolidada", "UPERM": "Vivienda, equipamiento de escala regional, comunal y vecinal. Actividades productivas inofensivas. Actividades complementarias a la vialidad y el transporte (Ver detalle en ordenanza).", "UPROH": "Todos los usos no mencionados como permitidos", "P_DO": "30/05/2003", "N_DOC": "16", "T_DO": "Resolución", "OBS": null }, "geometry": { "type": "Polygon", "coordinates": [ [ [ -72.769169023533195, -39.452771757893203 ], [ -72.770604131566699, -39.453691808092003 ], [ -72.772028359765599, -39.4524015959881 ], [ -72.773605114219507, -39.4508633365324 ], [ -72.775200158436206, -39.4494513614505 ], [ -72.776021991887404, -39.448733553841599 ], [ -72.775406132487603, -39.448305259558502 ], [ -72.774836272549393, -39.447998493397201 ], [ -72.774357172197895, -39.447835333741502 ], [ -72.773839737764604, -39.447730612208602 ], [ -72.773390623286502, -39.447780950247797 ], [ -72.772909700995697, -39.447925259962403 ], [ -72.772445670183799, -39.448126213587102 ], [ -72.772141014792794, -39.448304631090302 ], [ -72.772105615473905, -39.448758644588303 ], [ -72.771943607988106, -39.449457976800701 ], [ -72.771989534685304, -39.449667982774997 ], [ -72.772027651789102, -39.449946755838504 ], [ -72.772082837535095, -39.450114757420202 ], [ -72.772103181873305, -39.450277932547799 ], [ -72.772111055463, -39.450423640374503 ], [ -72.772146581382898, -39.450583343826999 ], [ -72.772192873815001, -39.450942279914202 ], [ -72.772170544396204, -39.451097905333 ], [ -72.772098835107997, -39.451264070298301 ], [ -72.771570307555507, -39.451793595689999 ], [ -72.770983754589594, -39.4523160671421 ], [ -72.770907543318998, -39.452398970355603 ], [ -72.770568898679599, -39.452460605650899 ], [ -72.7701193406036, -39.452531798592197 ], [ -72.769601720714306, -39.452694563379502 ], [ -72.769294241241397, -39.4527641200376 ], [ -72.769169023533195, -39.452771757893203 ] ] ] } },
{ "type": "Feature", "properties": { "id": "monoparte.17", "Name": null, "description": null, "timestamp": null, "begin": null, "end": null, "altitudeMode": null, "tessellate": -1, "extrude": 0, "visibility": -1, "drawOrder": null, "icon": null, "REG": "Los Ríos", "COM": "Lanco", "LOC": "Lanco", "ZONA": "ZU-2", "NOM": "Zona Urbana Consolidada", "UPERM": "Vivienda, equipamiento de escala regional, comunal y vecinal. Actividades productivas inofensivas. Actividades complementarias a la vialidad y el transporte (Ver detalle en ordenanza).", "UPROH": "Todos los usos no mencionados como permitidos", "P_DO": "30/05/2003", "N_DOC": "16", "T_DO": "Resolución", "OBS": null }, "geometry": { "type": "Polygon", "coordinates": [ [ [ -72.772499732536005, -39.447306467762502 ], [ -72.772488107177494, -39.447446850914098 ], [ -72.772630371946704, -39.447022213196298 ], [ -72.772800510417795, -39.446829019261301 ], [ -72.7728724858124, -39.446760056420899 ], [ -72.772758761851193, -39.446696327940003 ], [ -72.772117331197506, -39.446273314440496 ], [ -72.772354904361805, -39.446617101376297 ], [ -72.772431212099093, -39.446891655359799 ], [ -72.772509267812694, -39.447127427446901 ], [ -72.772499732536005, -39.447306467762502 ] ] ] } },
{ "type": "Feature", "properties": { "id": "monoparte.18", "Name": null, "description": null, "timestamp": null, "begin": null, "end": null, "altitudeMode": null, "tessellate": -1, "extrude": 0, "visibility": -1, "drawOrder": null, "icon": null, "REG": "Los Ríos", "COM": "Lanco", "LOC": "Lanco", "ZONA": "ZU-2", "NOM": "Zona Urbana Consolidada", "UPERM": "Vivienda, equipamiento de escala regional, comunal y vecinal. Actividades productivas inofensivas. Actividades complementarias a la vialidad y el transporte (Ver detalle en ordenanza).", "UPROH": "Todos los usos no mencionados como permitidos", "P_DO": "30/05/2003", "N_DOC": "16", "T_DO": "Resolución", "OBS": null }, "geometry": { "type": "Polygon", "coordinates": [ [ [ -72.772645980368196, -39.447382145932004 ], [ -72.772406062847395, -39.447777188582201 ], [ -72.772227166247404, -39.448092798732198 ], [ -72.772695828859796, -39.447877993363903 ], [ -72.773153485231404, -39.447743972365501 ], [ -72.773759938412695, -39.447661712214497 ], [ -72.774129101559396, -39.447667589683697 ], [ -72.774478789032699, -39.447739633795997 ], [ -72.773658155761794, -39.447200320693398 ], [ -72.772968150397304, -39.446813664091998 ], [ -72.772909347475206, -39.446852293559502 ], [ -72.772739711751498, -39.447125899091297 ], [ -72.772645980368196, -39.447382145932004 ] ] ] } },
{ "type": "Feature", "properties": { "id": "monoparte.19", "Name": null, "description": null, "timestamp": null, "begin": null, "end": null, "altitudeMode": null, "tessellate": -1, "extrude": 0, "visibility": -1, "drawOrder": null, "icon": null, "REG": "Los Ríos", "COM": "Lanco", "LOC": "Lanco", "ZONA": "ZR-2", "NOM": "Protección de vertientes y cauces naturales de agua", "UPERM": "Equipamiento de áreas verdes a escala comunal. Deportes a escala vecinal, en aquellos puntos que no presenten riesgos de inundación y/o sean habilitados mediante obras de mejoramiento (ver detalle en ordenanza).", "UPROH": "Todos los usos no mencionados como permitidos", "P_DO": "30/05/2003", "N_DOC": "16", "T_DO": "Resolución", "OBS": null }, "geometry": { "type": "Polygon", "coordinates": [ [ [ -72.785428892929502, -39.453265646959402 ], [ -72.785348700873996, -39.453345709717297 ], [ -72.785323302755998, -39.4533733473124 ], [ -72.785176741742603, -39.453363230513403 ], [ -72.785050970974098, -39.453382223372202 ], [ -72.784978450191701, -39.453462036762303 ], [ -72.784882108711599, -39.453527731816898 ], [ -72.784782703468295, -39.453536929439302 ], [ -72.784691004403001, -39.453617367661998 ], [ -72.784656517309003, -39.453689983360903 ], [ -72.784525171127598, -39.453747882275401 ], [ -72.784414903224402, -39.453769348723597 ], [ -72.784321243804797, -39.453835693586299 ], [ -72.784596646284598, -39.454034898817397 ], [ -72.784613896168906, -39.454047375885899 ], [ -72.7847778696419, -39.453970335030199 ], [ -72.785772299795099, -39.453601910960003 ], [ -72.786250898804397, -39.453454077417803 ], [ -72.785912778369095, -39.4532379009677 ], [ -72.785879761214503, -39.453289674998402 ], [ -72.785733360411896, -39.453282531342097 ], [ -72.785558498612801, -39.453246527790903 ], [ -72.785428892929502, -39.453265646959402 ] ] ] } },
{ "type": "Feature", "properties": { "id": "monoparte.20", "Name": null, "description": null, "timestamp": null, "begin": null, "end": null, "altitudeMode": null, "tessellate": -1, "extrude": 0, "visibility": -1, "drawOrder": null, "icon": null, "REG": "Los Ríos", "COM": "Lanco", "LOC": "Lanco", "ZONA": "ZR-2", "NOM": "Protección de vertientes y cauces naturales de agua", "UPERM": "Equipamiento de áreas verdes a escala comunal. Deportes a escala vecinal, en aquellos puntos que no presenten riesgos de inundación y/o sean habilitados mediante obras de mejoramiento (ver detalle en ordenanza).", "UPROH": "Todos los usos no mencionados como permitidos", "P_DO": "30/05/2003", "N_DOC": "16", "T_DO": "Resolución", "OBS": null }, "geometry": { "type": "Polygon", "coordinates": [ [ [ -72.778464026799199, -39.452679134831399 ], [ -72.778275411753299, -39.452942643026901 ], [ -72.778121513120695, -39.453052504840201 ], [ -72.7777430740189, -39.453102944230402 ], [ -72.777470767860393, -39.4531832935495 ], [ -72.777305365999396, -39.453307826845297 ], [ -72.777012927977495, -39.4535842417936 ], [ -72.776663966148007, -39.453838663812903 ], [ -72.7765059440801, -39.453872399252802 ], [ -72.775956905247796, -39.453837823538201 ], [ -72.775800169691493, -39.453895347443797 ], [ -72.775040048170197, -39.454277517760097 ], [ -72.773477554016097, -39.454943129608601 ], [ -72.7728817939213, -39.455181727956102 ], [ -72.772475389614101, -39.455319368040698 ], [ -72.771620935111599, -39.455523712785798 ], [ -72.770058924714405, -39.455904914012599 ], [ -72.768790854505696, -39.456217742792099 ], [ -72.768692426794004, -39.456330557759202 ], [ -72.7725349772371, -39.4554193865333 ], [ -72.773504307911907, -39.455039965881298 ], [ -72.774983714020905, -39.454429482491001 ], [ -72.775204109934606, -39.454326996009499 ], [ -72.775949081283102, -39.453948891126103 ], [ -72.776533290996596, -39.454008535837303 ], [ -72.776697256644695, -39.453971032250799 ], [ -72.776874035165307, -39.453829449107602 ], [ -72.777494264538802, -39.453276660864397 ], [ -72.777674321627202, -39.453195737368702 ], [ -72.777910417863694, -39.453213079364097 ], [ -72.778174484279305, -39.453150870280197 ], [ -72.778349131733407, -39.452970033045503 ], [ -72.778518982048396, -39.452785776812199 ], [ -72.778589183628299, -39.452804939901299 ], [ -72.780511686428198, -39.454083000612599 ], [ -72.781049312152604, -39.4544294605574 ], [ -72.781378124760096, -39.454626081693299 ], [ -72.781618129839899, -39.454800570848697 ], [ -72.781799071462999, -39.454991282108303 ], [ -72.782036409289404, -39.455201603585301 ], [ -72.782183392540205, -39.455361248531801 ], [ -72.782231638455002, -39.455402077913099 ], [ -72.782393046256601, -39.455399229544597 ], [ -72.7831021297701, -39.455040121080003 ], [ -72.783599552639799, -39.4548594847247 ], [ -72.783716132091499, -39.454798493113699 ], [ -72.783785830112507, -39.454553149195299 ], [ -72.783882064058005, -39.454457073937199 ], [ -72.784041963360096, -39.454344626738397 ], [ -72.784201475138602, -39.454225041419399 ], [ -72.784418156406801, -39.454139340218099 ], [ -72.784205934639502, -39.453991798091202 ], [ -72.784150368538604, -39.4540496375445 ], [ -72.783939064158304, -39.454149462321098 ], [ -72.783785314689197, -39.454290306640303 ], [ -72.783629090418302, -39.454470551672003 ], [ -72.783510268718899, -39.4546603024341 ], [ -72.7834090842032, -39.454835179234998 ], [ -72.783273317967399, -39.454882497217397 ], [ -72.7830922967905, -39.4549455876015 ], [ -72.782916650924605, -39.455022800981403 ], [ -72.782697877082299, -39.455155038414603 ], [ -72.782441312067107, -39.455270633106103 ], [ -72.782280402166293, -39.455279447669099 ], [ -72.782212287741103, -39.455213748979801 ], [ -72.7820407430264, -39.455026307195403 ], [ -72.781788050651301, -39.454787888975297 ], [ -72.7815622402305, -39.454620086711301 ], [ -72.781318212672304, -39.454456451049701 ], [ -72.781017599888003, -39.454269635182499 ], [ -72.780694044218194, -39.454067380984597 ], [ -72.780072609550203, -39.453661040579497 ], [ -72.779186060545001, -39.453070295484302 ], [ -72.778574750956594, -39.452680298840299 ], [ -72.778464026799199, -39.452679134831399 ] ] ] } },
{ "type": "Feature", "properties": { "id": "monoparte.21", "Name": null, "description": null, "timestamp": null, "begin": null, "end": null, "altitudeMode": null, "tessellate": -1, "extrude": 0, "visibility": -1, "drawOrder": null, "icon": null, "REG": "Los Ríos", "COM": "Lanco", "LOC": "Lanco", "ZONA": "ZR-2", "NOM": "Protección de vertientes y cauces naturales de agua", "UPERM": "Equipamiento de áreas verdes a escala comunal. Deportes a escala vecinal, en aquellos puntos que no presenten riesgos de inundación y/o sean habilitados mediante obras de mejoramiento (ver detalle en ordenanza).", "UPROH": "Todos los usos no mencionados como permitidos", "P_DO": "30/05/2003", "N_DOC": "16", "T_DO": "Resolución", "OBS": null }, "geometry": { "type": "Polygon", "coordinates": [ [ [ -72.790158197736005, -39.451554861812198 ], [ -72.790053709253499, -39.451611891268598 ], [ -72.789991048639607, -39.451590104963699 ], [ -72.789901256080398, -39.451634738656502 ], [ -72.789705358856907, -39.451706665864599 ], [ -72.789620331660302, -39.4516975252536 ], [ -72.789399806027504, -39.4517404663845 ], [ -72.788865980291604, -39.451674476359202 ], [ -72.788386175619095, -39.4516126788196 ], [ -72.7880748129393, -39.4515394281445 ], [ -72.787926157885707, -39.451490657271698 ], [ -72.787636914903501, -39.4515417952435 ], [ -72.787550670406603, -39.451651845181999 ], [ -72.787572466437098, -39.451770287625401 ], [ -72.787604155856002, -39.451858619087702 ], [ -72.787584245142099, -39.451987358300201 ], [ -72.787489845588695, -39.452088738476 ], [ -72.787292045142706, -39.452196469164903 ], [ -72.787180725045204, -39.452340104355699 ], [ -72.7870550291602, -39.452502081394101 ], [ -72.786836471480498, -39.452652191664399 ], [ -72.786302173719903, -39.452931749120403 ], [ -72.786105175493802, -39.453054346295602 ], [ -72.786557182988204, -39.453359468668602 ], [ -72.786652079590993, -39.4533301565505 ], [ -72.787014107222603, -39.453203964154099 ], [ -72.787297349320397, -39.453155407438501 ], [ -72.787371291861504, -39.452988564532603 ], [ -72.787281428013898, -39.452777019754897 ], [ -72.787297278261804, -39.452644242841302 ], [ -72.787454650633094, -39.452485402677397 ], [ -72.787662697062999, -39.452410700673397 ], [ -72.787876895090207, -39.452364393472301 ], [ -72.788073842771198, -39.452340096525901 ], [ -72.788348069325295, -39.452295406177697 ], [ -72.788495355606699, -39.452290601623801 ], [ -72.788758337161795, -39.452378536219399 ], [ -72.788923157259902, -39.452526867061202 ], [ -72.7892068295276, -39.452571230526601 ], [ -72.789388807019904, -39.452525972702098 ], [ -72.790319282434695, -39.452424116827103 ], [ -72.790785269475606, -39.452344564497601 ], [ -72.790992730016498, -39.452259151255902 ], [ -72.791174269269504, -39.452120965264797 ], [ -72.791230373423403, -39.451965426789798 ], [ -72.791138609954402, -39.451803990920297 ], [ -72.790733141401702, -39.451384700143997 ], [ -72.790552790044899, -39.451218850724899 ], [ -72.790441868229706, -39.451259636812303 ], [ -72.790354092906298, -39.451482934817903 ], [ -72.790158197736005, -39.451554861812198 ] ] ] } },
{ "type": "Feature", "properties": { "id": "monoparte.22", "Name": null, "description": null, "timestamp": null, "begin": null, "end": null, "altitudeMode": null, "tessellate": -1, "extrude": 0, "visibility": -1, "drawOrder": null, "icon": null, "REG": "Los Ríos", "COM": "Lanco", "LOC": "Lanco", "ZONA": "ZU-6", "NOM": "Zona Urbana Consolidada", "UPERM": "Vivienda, equipamiento de escala regional, comunal y vecinal. Actividades productivas inofensivas. Actividades complementarias a la vialidad y el transporte (Ver detalle en ordenanza).", "UPROH": "Todos los usos no mencionados como permitidos", "P_DO": "30/05/2003", "N_DOC": "16", "T_DO": "Resolución", "OBS": null }, "geometry": { "type": "Polygon", "coordinates": [ [ [ -72.779201722519105, -39.446812415723201 ], [ -72.777919415925297, -39.447898541414197 ], [ -72.778604854609796, -39.448352857075299 ], [ -72.7813096336032, -39.4501951108439 ], [ -72.7842574158161, -39.4521795142592 ], [ -72.785912778369095, -39.4532379009677 ], [ -72.786250898804397, -39.453454077417803 ], [ -72.786557182988204, -39.453359468668602 ], [ -72.786105175493802, -39.453054346295602 ], [ -72.786302173719903, -39.452931749120403 ], [ -72.786836471480498, -39.452652191664399 ], [ -72.7870550291602, -39.452502081394101 ], [ -72.787180725045204, -39.452340104355699 ], [ -72.787292045142706, -39.452196469164903 ], [ -72.787489845588695, -39.452088738476 ], [ -72.787584245142099, -39.451987358300201 ], [ -72.787604155856002, -39.451858619087702 ], [ -72.787572466437098, -39.451770287625401 ], [ -72.787550670406603, -39.451651845181999 ], [ -72.787636914903501, -39.4515417952435 ], [ -72.787926157885707, -39.451490657271698 ], [ -72.7880748129393, -39.4515394281445 ], [ -72.788386175619095, -39.4516126788196 ], [ -72.788865980291604, -39.451674476359202 ], [ -72.789399806027504, -39.4517404663845 ], [ -72.789620331660302, -39.4516975252536 ], [ -72.789705358856907, -39.451706665864599 ], [ -72.789901256080398, -39.451634738656502 ], [ -72.789991048639607, -39.451590104963699 ], [ -72.790053709253499, -39.451611891268598 ], [ -72.790158197736005, -39.451554861812198 ], [ -72.790354092906298, -39.451482934817903 ], [ -72.790441868229706, -39.451259636812303 ], [ -72.790552790044899, -39.451218850724899 ], [ -72.789854730760695, -39.450576913503703 ], [ -72.789213725745896, -39.450065214528799 ], [ -72.788622629074595, -39.449623375533001 ], [ -72.787845890013202, -39.449158991511197 ], [ -72.7871403283863, -39.448731602287403 ], [ -72.786377846237997, -39.448359682990898 ], [ -72.785581067935198, -39.448035345441603 ], [ -72.784596911677596, -39.447656341012703 ], [ -72.783571342638695, -39.447278677165897 ], [ -72.782573593465898, -39.446903672805497 ], [ -72.781576433164105, -39.446539364049599 ], [ -72.780786810746207, -39.446261229742603 ], [ -72.780204178287804, -39.4460635195626 ], [ -72.7795652266378, -39.446504516955798 ], [ -72.779201722519105, -39.446812415723201 ] ] ] } },
{ "type": "Feature", "properties": { "id": "monoparte.23", "Name": null, "description": null, "timestamp": null, "begin": null, "end": null, "altitudeMode": null, "tessellate": -1, "extrude": 0, "visibility": -1, "drawOrder": null, "icon": null, "REG": "Los Ríos", "COM": "Lanco", "LOC": "Lanco", "ZONA": "ZEX-1", "NOM": "Zona de extensión urbana", "UPERM": "Vivienda, equipamiento de escala regional, comunal y vecinal. Actividades productivas inofensivas. Actividades complementarias a la vialidad (ver detalle en ordenanza).", "UPROH": "Todos los no mencionados como permitidos", "P_DO": "30/05/2003", "N_DOC": "16", "T_DO": "Resolución", "OBS": null }, "geometry": { "type": "Polygon", "coordinates": [ [ [ -72.763656240287801, -39.457856031722699 ], [ -72.764396862140799, -39.458416205505699 ], [ -72.765661998953703, -39.457548676575001 ], [ -72.763710761378505, -39.456090860475797 ], [ -72.761752136583198, -39.454613707036302 ], [ -72.760327128434895, -39.455288158880798 ], [ -72.760742633126299, -39.455629896785702 ], [ -72.760898962266793, -39.4557499463887 ], [ -72.761179013382502, -39.455955353516003 ], [ -72.761660318380194, -39.4563299937317 ], [ -72.761973625803407, -39.456581984305302 ], [ -72.762170563963195, -39.456742419435699 ], [ -72.762619267474307, -39.4570823659623 ], [ -72.763259639605906, -39.457556104718698 ], [ -72.763656240287801, -39.457856031722699 ] ] ] } },
{ "type": "Feature", "properties": { "id": "monoparte.24", "Name": null, "description": null, "timestamp": null, "begin": null, "end": null, "altitudeMode": null, "tessellate": -1, "extrude": 0, "visibility": -1, "drawOrder": null, "icon": null, "REG": "Los Ríos", "COM": "Lanco", "LOC": "Lanco", "ZONA": "ZR-3", "NOM": "Protección de pozos de captación, plantas de filtros y estanques de agua potable", "UPERM": "Los atinentes a la planta, sus instalaciones y vivienda del cuidador", "UPROH": "Todos los usos no mencionados como permitidos", "P_DO": "30/05/2003", "N_DOC": "16", "T_DO": "Resolución", "OBS": null }, "geometry": { "type": "Polygon", "coordinates": [ [ [ -72.767846582795002, -39.446628135024703 ], [ -72.768035964078607, -39.446753623026403 ], [ -72.768651028128502, -39.446444227874601 ], [ -72.767828458717801, -39.445897714430203 ], [ -72.767579508118601, -39.446036263262002 ], [ -72.767232246317207, -39.446179789221397 ], [ -72.767846582795002, -39.446628135024703 ] ] ] } },
{ "type": "Feature", "properties": { "id": "monoparte.25", "Name": null, "description": null, "timestamp": null, "begin": null, "end": null, "altitudeMode": null, "tessellate": -1, "extrude": 0, "visibility": -1, "drawOrder": null, "icon": null, "REG": "Los Ríos", "COM": "Lanco", "LOC": "Lanco", "ZONA": "ZU-2", "NOM": "Zona Urbana Consolidada", "UPERM": "Vivienda, equipamiento de escala regional, comunal y vecinal. Actividades productivas inofensivas. Actividades complementarias a la vialidad y el transporte (Ver detalle en ordenanza).", "UPROH": "Todos los usos no mencionados como permitidos", "P_DO": "30/05/2003", "N_DOC": "16", "T_DO": "Resolución", "OBS": null }, "geometry": { "type": "Polygon", "coordinates": [ [ [ -72.768884660106593, -39.452589447959703 ], [ -72.769044373703395, -39.452691843866603 ], [ -72.7692807896982, -39.452657318058499 ], [ -72.769529466881096, -39.4526373317061 ], [ -72.769790596796796, -39.452563321788901 ], [ -72.770106369717993, -39.452433917741999 ], [ -72.770552091862996, -39.452362849398199 ], [ -72.770833843008603, -39.452314976617401 ], [ -72.770931159798806, -39.452267134642597 ], [ -72.771253436357, -39.4519736795516 ], [ -72.771990153135505, -39.451243769786103 ], [ -72.772044431540394, -39.451039445078301 ], [ -72.772041497954106, -39.450842937479202 ], [ -72.771965765599802, -39.4503658037642 ], [ -72.771946846553206, -39.450157899228202 ], [ -72.771917868197704, -39.449977131239699 ], [ -72.771891258182194, -39.449697984417 ], [ -72.771838282054702, -39.449428630482899 ], [ -72.771958422129998, -39.448736616205998 ], [ -72.772014507316001, -39.448378718764701 ], [ -72.771967468100897, -39.448406266449503 ], [ -72.771421477153297, -39.4490531286758 ], [ -72.770788819859703, -39.449802892121298 ], [ -72.770321585192306, -39.450286334953802 ], [ -72.769652402535399, -39.4507870554867 ], [ -72.767655405677104, -39.451774845062701 ], [ -72.768884660106593, -39.452589447959703 ] ] ] } },
{ "type": "Feature", "properties": { "id": "monoparte.26", "Name": null, "description": null, "timestamp": null, "begin": null, "end": null, "altitudeMode": null, "tessellate": -1, "extrude": 0, "visibility": -1, "drawOrder": null, "icon": null, "REG": "Los Ríos", "COM": "Lanco", "LOC": "Lanco", "ZONA": "ZU-5", "NOM": "Zona Urbana Consolidada", "UPERM": "Vivienda, equipamiento de escala regional, comunal y vecinal. Actividades productivas inofensivas. Actividades complementarias a la vialidad y el transporte (Ver detalle en ordenanza).", "UPROH": "Todos los usos no mencionados como permitidos", "P_DO": "30/05/2003", "N_DOC": "16", "T_DO": "Resolución", "OBS": null }, "geometry": { "type": "Polygon", "coordinates": [ [ [ -72.773071410549505, -39.446693871405202 ], [ -72.773951225258102, -39.447250414412103 ], [ -72.774833024526203, -39.447755565745098 ], [ -72.7759422299102, -39.448486857776103 ], [ -72.776628276213501, -39.448941165475397 ], [ -72.776688905279997, -39.4488739175859 ], [ -72.777919415925297, -39.447898541414197 ], [ -72.779201722519105, -39.446812415723201 ], [ -72.778638142790797, -39.446841602727098 ], [ -72.778022429244999, -39.4468235035744 ], [ -72.777454521657504, -39.446780016821101 ], [ -72.777197775199895, -39.446693043863597 ], [ -72.776821388145393, -39.446667155485002 ], [ -72.776448820754695, -39.4465982455785 ], [ -72.776313045014007, -39.446588361965198 ], [ -72.776140747892896, -39.446698819262899 ], [ -72.775916783920195, -39.4467632944434 ], [ -72.775656989954399, -39.446733611623301 ], [ -72.775277772761598, -39.446655382144101 ], [ -72.774639792214003, -39.446566496728998 ], [ -72.774086953535701, -39.446460543571703 ], [ -72.773834069547405, -39.446444929592701 ], [ -72.773300739850995, -39.446586178135703 ], [ -72.773071410549505, -39.446693871405202 ] ] ] } },
{ "type": "Feature", "properties": { "id": "monoparte.27", "Name": null, "description": null, "timestamp": null, "begin": null, "end": null, "altitudeMode": null, "tessellate": -1, "extrude": 0, "visibility": -1, "drawOrder": null, "icon": null, "REG": "Los Ríos", "COM": "Lanco", "LOC": "Lanco", "ZONA": "ZR-2", "NOM": "Protección de vertientes y cauces naturales de agua", "UPERM": "Equipamiento de áreas verdes a escala comunal. Deportes a escala vecinal, en aquellos puntos que no presenten riesgos de inundación y/o sean habilitados mediante obras de mejoramiento (ver detalle en ordenanza).", "UPROH": "Todos los usos no mencionados como permitidos", "P_DO": "30/05/2003", "N_DOC": "16", "T_DO": "Resolución", "OBS": null }, "geometry": { "type": "Polygon", "coordinates": [ [ [ -72.779103959316203, -39.4467025265415 ], [ -72.778638614508296, -39.446736732202098 ], [ -72.778144601888997, -39.446695610179503 ], [ -72.777719122967198, -39.446671320800299 ], [ -72.777483617885096, -39.446636085611999 ], [ -72.776999563515702, -39.446551739594298 ], [ -72.776429084782194, -39.446460668844203 ], [ -72.776214306417799, -39.446467652307398 ], [ -72.776084964239104, -39.446576712883001 ], [ -72.775818559212695, -39.446652100604197 ], [ -72.7756083732192, -39.446630336848003 ], [ -72.7752480807263, -39.446561024012901 ], [ -72.774348766412601, -39.446413905865803 ], [ -72.773932990263702, -39.446341626438901 ], [ -72.773530293797407, -39.446397606221502 ], [ -72.773088240329599, -39.4465215897186 ], [ -72.772943749676202, -39.446612065130203 ], [ -72.772983749183894, -39.446638418615997 ], [ -72.773071410549505, -39.446693871405202 ], [ -72.773300739850995, -39.446586178135703 ], [ -72.773834069547405, -39.446444929592701 ], [ -72.774086953535701, -39.446460543571703 ], [ -72.774639792214003, -39.446566496728998 ], [ -72.775277772761598, -39.446655382144101 ], [ -72.775656989954399, -39.446733611623301 ], [ -72.775916783920195, -39.4467632944434 ], [ -72.776140747892896, -39.446698819262899 ], [ -72.776313045014007, -39.446588361965198 ], [ -72.776448820754695, -39.4465982455785 ], [ -72.776821388145393, -39.446667155485002 ], [ -72.777197775199895, -39.446693043863597 ], [ -72.777454521657504, -39.446780016821101 ], [ -72.778022429244999, -39.4468235035744 ], [ -72.778638142790797, -39.446841602727098 ], [ -72.779201722519105, -39.446812415723201 ], [ -72.7795652266378, -39.446504516955798 ], [ -72.780204178287804, -39.4460635195626 ], [ -72.780091867304705, -39.446025407518803 ], [ -72.779325344114895, -39.446590467566601 ], [ -72.779103959316203, -39.4467025265415 ] ] ] } },
{ "type": "Feature", "properties": { "id": "monoparte.28", "Name": null, "description": null, "timestamp": null, "begin": null, "end": null, "altitudeMode": null, "tessellate": -1, "extrude": 0, "visibility": -1, "drawOrder": null, "icon": null, "REG": "Los Ríos", "COM": "Lanco", "LOC": "Lanco", "ZONA": "ZU-4", "NOM": "Zona Urbana Consolidada", "UPERM": "Vivienda, equipmaiento de escala regional, comunal y vecinal. Actividades productivas inofensivas. Actividades complementarias a la vialidad y el trasnporte (Ver detalle en ordenanza).", "UPROH": "Todos los usos no mencionados como permitidos", "P_DO": "30/05/2003", "N_DOC": "16", "T_DO": "Resolución", "OBS": null }, "geometry": { "type": "Polygon", "coordinates": [ [ [ -72.775200158436206, -39.4494513614505 ], [ -72.776340079544894, -39.450181650623797 ], [ -72.777944498163194, -39.451201851689802 ], [ -72.778236718642006, -39.451389166016803 ], [ -72.779409312106395, -39.452140782576997 ], [ -72.782000382896797, -39.453781774535898 ], [ -72.780694044218194, -39.454067380984597 ], [ -72.781017599888003, -39.454269635182499 ], [ -72.781318212672304, -39.454456451049701 ], [ -72.7815622402305, -39.454620086711301 ], [ -72.781788050651301, -39.454787888975297 ], [ -72.7820407430264, -39.455026307195403 ], [ -72.782212287741103, -39.455213748979801 ], [ -72.782280402166293, -39.455279447669099 ], [ -72.782441312067107, -39.455270633106103 ], [ -72.782697877082299, -39.455155038414603 ], [ -72.782916650924605, -39.455022800981403 ], [ -72.7830922967905, -39.4549455876015 ], [ -72.783273317967399, -39.454882497217397 ], [ -72.7834090842032, -39.454835179234998 ], [ -72.783510268718899, -39.4546603024341 ], [ -72.783629090418302, -39.454470551672003 ], [ -72.783785314689197, -39.454290306640303 ], [ -72.783939064158304, -39.454149462321098 ], [ -72.784150368538604, -39.4540496375445 ], [ -72.784205934639502, -39.453991798091202 ], [ -72.7840085590325, -39.453854577342597 ], [ -72.783094386062999, -39.453321956295603 ], [ -72.782528333969694, -39.452973401781499 ], [ -72.781548687890407, -39.452366642237699 ], [ -72.780180019633605, -39.451500867887901 ], [ -72.778540759166404, -39.450405573674303 ], [ -72.777049644950594, -39.449434122999399 ], [ -72.776021991887404, -39.448733553841599 ], [ -72.775200158436206, -39.4494513614505 ] ] ] } },
{ "type": "Feature", "properties": { "id": "monoparte.29", "Name": null, "description": null, "timestamp": null, "begin": null, "end": null, "altitudeMode": null, "tessellate": -1, "extrude": 0, "visibility": -1, "drawOrder": null, "icon": null, "REG": "Los Ríos", "COM": "Lanco", "LOC": "Lanco", "ZONA": "ZR-1", "NOM": "Protección de trazados ferroviarios", "UPERM": "Protección de trazados ferroviarios , destinados a proteger el normal funcionamiento de las vías. (Ver detalle en ordenanza)", "UPROH": "Sin información. (ver detalle en ordenanza)", "P_DO": "30/05/2003", "N_DOC": "16", "T_DO": "Resolución", "OBS": null }, "geometry": { "type": "Polygon", "coordinates": [ [ [ -72.771755633192797, -39.446018680196303 ], [ -72.772115265857394, -39.446483985669197 ], [ -72.772295824155094, -39.446839157326899 ], [ -72.772376478503304, -39.447222594763403 ], [ -72.772298362590703, -39.447654085257 ], [ -72.772136410441405, -39.447984634931203 ], [ -72.771540591498706, -39.4487332058143 ], [ -72.770920203648004, -39.449453974670597 ], [ -72.770434198770403, -39.450016669097302 ], [ -72.770197989710198, -39.4502531119401 ], [ -72.769983410977304, -39.450405270179601 ], [ -72.769891582990297, -39.450470385791903 ], [ -72.769148345432995, -39.450880567130099 ], [ -72.767970940756001, -39.451447814807501 ], [ -72.767520214456894, -39.451685254754899 ], [ -72.765231811676003, -39.452798489122401 ], [ -72.763331993165096, -39.453708441177902 ], [ -72.7616057897731, -39.454510813101699 ], [ -72.761226787242606, -39.454686974809398 ], [ -72.7608837829858, -39.4548415005085 ], [ -72.760686018275194, -39.454930594161198 ], [ -72.760186343860298, -39.455155697168102 ], [ -72.760272204808501, -39.455242985195497 ], [ -72.760327128434895, -39.455288158880798 ], [ -72.761752136583198, -39.454613707036302 ], [ -72.763693226458003, -39.453694948189501 ], [ -72.7667183220927, -39.452219455994403 ], [ -72.767655405677104, -39.451774845062701 ], [ -72.769652402535399, -39.4507870554867 ], [ -72.770321585192306, -39.450286334953802 ], [ -72.770788819859703, -39.449802892121298 ], [ -72.771421477153297, -39.4490531286758 ], [ -72.771967468100897, -39.448406266449503 ], [ -72.772014507316001, -39.448378718764701 ], [ -72.772141014792794, -39.448304631090302 ], [ -72.772445670183799, -39.448126213587102 ], [ -72.772909700995697, -39.447925259962403 ], [ -72.773390623286502, -39.447780950247797 ], [ -72.773839737764604, -39.447730612208602 ], [ -72.774357172197895, -39.447835333741502 ], [ -72.774836272549393, -39.447998493397201 ], [ -72.775406132487603, -39.448305259558502 ], [ -72.776021991887404, -39.448733553841599 ], [ -72.777049644950594, -39.449434122999399 ], [ -72.778540759166404, -39.450405573674303 ], [ -72.780180019633605, -39.451500867887901 ], [ -72.781548687890407, -39.452366642237699 ], [ -72.782528333969694, -39.452973401781499 ], [ -72.783094386062999, -39.453321956295603 ], [ -72.7840085590325, -39.453854577342597 ], [ -72.784205934639502, -39.453991798091202 ], [ -72.784418156406801, -39.454139340218099 ], [ -72.784613896168906, -39.454047375885899 ], [ -72.784596646284598, -39.454034898817397 ], [ -72.784232936026598, -39.453826275857701 ], [ -72.783810266602103, -39.453559798751897 ], [ -72.783437540035493, -39.453318622601998 ], [ -72.783282127384993, -39.453173552162603 ], [ -72.782693865745799, -39.452658535937502 ], [ -72.782535814138498, -39.4525442061028 ], [ -72.781533409652795, -39.451772565060502 ], [ -72.780435490948094, -39.451081473116297 ], [ -72.778390616612896, -39.449789668784298 ], [ -72.776688905279997, -39.4488739175859 ], [ -72.776628276213501, -39.448941165475397 ], [ -72.7759422299102, -39.448486857776103 ], [ -72.774833024526203, -39.447755565745098 ], [ -72.773951225258102, -39.447250414412103 ], [ -72.773071410549505, -39.446693871405202 ], [ -72.772983749183894, -39.446638418615997 ], [ -72.772943749676202, -39.446612065130203 ], [ -72.771882989693196, -39.445913179917902 ], [ -72.771755633192797, -39.446018680196303 ] ], [ [ -72.7728724858124, -39.446760056420899 ], [ -72.772800510417795, -39.446829019261301 ], [ -72.772630371946704, -39.447022213196298 ], [ -72.772488107177494, -39.447446850914098 ], [ -72.772499732536005, -39.447306467762502 ], [ -72.772509267812694, -39.447127427446901 ], [ -72.772431212099093, -39.446891655359799 ], [ -72.772354904361805, -39.446617101376297 ], [ -72.772117331197506, -39.446273314440496 ], [ -72.772758761851193, -39.446696327940003 ], [ -72.7728724858124, -39.446760056420899 ] ], [ [ -72.772645980368196, -39.447382145932004 ], [ -72.772739711751498, -39.447125899091297 ], [ -72.772909347475206, -39.446852293559502 ], [ -72.772968150397304, -39.446813664091998 ], [ -72.773658155761794, -39.447200320693398 ], [ -72.774478789032699, -39.447739633795997 ], [ -72.774129101559396, -39.447667589683697 ], [ -72.773759938412695, -39.447661712214497 ], [ -72.773153485231404, -39.447743972365501 ], [ -72.772695828859796, -39.447877993363903 ], [ -72.772227166247404, -39.448092798732198 ], [ -72.772406062847395, -39.447777188582201 ], [ -72.772645980368196, -39.447382145932004 ] ] ] } },
{ "type": "Feature", "properties": { "id": "monoparte.30", "Name": null, "description": null, "timestamp": null, "begin": null, "end": null, "altitudeMode": null, "tessellate": -1, "extrude": 0, "visibility": -1, "drawOrder": null, "icon": null, "REG": "Los Ríos", "COM": "Lanco", "LOC": "Lanco", "ZONA": "ZR-6", "NOM": "Restricción de fuertes pendientes", "UPERM": "Vegetación, ejecución de vías de carácter peatonal y obras de mejoramiento, tales como muros de contención.", "UPROH": "Se prohibe todo tipo de construcción de edificios", "P_DO": "30/05/2003", "N_DOC": "16", "T_DO": "Resolución", "OBS": null }, "geometry": { "type": "Polygon", "coordinates": [ [ [ -72.759034340196706, -39.450280975416199 ], [ -72.758519035551203, -39.450387018318203 ], [ -72.758048402562807, -39.450380799796399 ], [ -72.757682096608406, -39.450342607935703 ], [ -72.757497795248398, -39.450344995953103 ], [ -72.757300844928196, -39.450455031751098 ], [ -72.757008970665893, -39.450686100426999 ], [ -72.756789772641199, -39.4508111535213 ], [ -72.756695036954895, -39.450892858959499 ], [ -72.756982959284301, -39.451243678223001 ], [ -72.757171830410897, -39.451157138498097 ], [ -72.7574940145808, -39.451003730728502 ], [ -72.757719024909704, -39.450829634832203 ], [ -72.757979522521794, -39.4507437566999 ], [ -72.758416777786096, -39.450658114324902 ], [ -72.758868094368296, -39.450548185671998 ], [ -72.759308053244396, -39.450370108351201 ], [ -72.759567906299395, -39.450272331435301 ], [ -72.7597905237525, -39.450196612138498 ], [ -72.759975904691004, -39.450142948899199 ], [ -72.760177740883705, -39.450038112242503 ], [ -72.760374139380502, -39.449903662798597 ], [ -72.760623471751899, -39.449625488240301 ], [ -72.760551614447607, -39.449516932865301 ], [ -72.760504040207707, -39.449404085703598 ], [ -72.760459144529406, -39.449255405224498 ], [ -72.760453377929196, -39.449148353136998 ], [ -72.760405035282304, -39.449021232356799 ], [ -72.760278082591299, -39.449061089312302 ], [ -72.760163027584795, -39.449150605051102 ], [ -72.760049114461097, -39.449175740244698 ], [ -72.760019596836798, -39.449312531575004 ], [ -72.759981075199804, -39.449538979920199 ], [ -72.759890772135904, -39.449745656491203 ], [ -72.759757313219794, -39.449921559233097 ], [ -72.759498619961306, -39.450083641578502 ], [ -72.759034340196706, -39.450280975416199 ] ] ] } },
{ "type": "Feature", "properties": { "id": "monoparte.31", "Name": null, "description": null, "timestamp": null, "begin": null, "end": null, "altitudeMode": null, "tessellate": -1, "extrude": 0, "visibility": -1, "drawOrder": null, "icon": null, "REG": "Los Ríos", "COM": "Lanco", "LOC": "Lanco", "ZONA": "ZR-2", "NOM": "Protección de vertientes y cauces naturales de agua", "UPERM": "Equipamiento de áreas verdes a escala comunal. Deportes a escala vecinal, en aquellos puntos que no presenten riesgos de inundación y/o sean habilitados mediante obras de mejoramiento (ver detalle en ordenanza).", "UPROH": "Todos los usos no mencionados como permitidos", "P_DO": "30/05/2003", "N_DOC": "16", "T_DO": "Resolución", "OBS": null }, "geometry": { "type": "Polygon", "coordinates": [ [ [ -72.757675143717904, -39.4520870549701 ], [ -72.757678661110901, -39.452091340134203 ], [ -72.757875878294996, -39.452025553110303 ], [ -72.758059908678206, -39.451949535496503 ], [ -72.758279992768706, -39.451858052448799 ], [ -72.758428272881702, -39.451768893589701 ], [ -72.758661090624997, -39.451674138062899 ], [ -72.758804691332301, -39.451600858017599 ], [ -72.758684865175894, -39.4516018763915 ], [ -72.758495769601396, -39.451652320787197 ], [ -72.758327846250396, -39.451684922496803 ], [ -72.758225744891007, -39.451741131219002 ], [ -72.758122187024895, -39.451804535758903 ], [ -72.758020931750906, -39.451876444771997 ], [ -72.757889218027202, -39.451930751704403 ], [ -72.757746995131896, -39.451995406985802 ], [ -72.757628816725003, -39.452030608886801 ], [ -72.757675143717904, -39.4520870549701 ] ] ] } },
{ "type": "Feature", "properties": { "id": "monoparte.32", "Name": null, "description": null, "timestamp": null, "begin": null, "end": null, "altitudeMode": null, "tessellate": -1, "extrude": 0, "visibility": -1, "drawOrder": null, "icon": null, "REG": "Los Ríos", "COM": "Lanco", "LOC": "Lanco", "ZONA": "ZR-2", "NOM": "Protección de vertientes y cauces naturales de agua", "UPERM": "Equipamiento de áreas verdes a escala comunal. Deportes a escala vecinal, en aquellos puntos que no presenten riesgos de inundación y/o sean habilitados mediante obras de mejoramiento (ver detalle en ordenanza).", "UPROH": "Todos los usos no mencionados como permitidos", "P_DO": "30/05/2003", "N_DOC": "16", "T_DO": "Resolución", "OBS": null }, "geometry": { "type": "Polygon", "coordinates": [ [ [ -72.7619377255741, -39.450978594612401 ], [ -72.761807320110904, -39.451022854201703 ], [ -72.761658910022106, -39.451052445432502 ], [ -72.761496380169206, -39.451048176624397 ], [ -72.761234330587897, -39.451068102270703 ], [ -72.761012583510194, -39.451105787084401 ], [ -72.760941810341606, -39.451161460101702 ], [ -72.760864595443607, -39.451234499806397 ], [ -72.760817754143304, -39.451277958124301 ], [ -72.760674048358496, -39.451303583153702 ], [ -72.760396140755205, -39.4513030487606 ], [ -72.760108105952796, -39.451297123099302 ], [ -72.759917347813797, -39.451316644403597 ], [ -72.759628918579494, -39.451440369264603 ], [ -72.759483683947394, -39.451528955483099 ], [ -72.759562239163699, -39.451526412588997 ], [ -72.759712491529896, -39.451485325623899 ], [ -72.759882175735598, -39.451439796765399 ], [ -72.760123871526901, -39.451407187614599 ], [ -72.760340818769095, -39.4514173216713 ], [ -72.760603177657401, -39.451403107387002 ], [ -72.760870850138801, -39.451350591563397 ], [ -72.760980182012204, -39.451280324421397 ], [ -72.761060877450305, -39.451226236816701 ], [ -72.761161621038895, -39.451179126038298 ], [ -72.761291213934697, -39.451165396223303 ], [ -72.761537207935802, -39.451166962100302 ], [ -72.761701885536098, -39.4511654410056 ], [ -72.761876785521096, -39.451125459691902 ], [ -72.762080528681906, -39.451073105058597 ], [ -72.762262587403001, -39.451029077759401 ], [ -72.762411202310901, -39.451003292640799 ], [ -72.762494856422805, -39.450983453281196 ], [ -72.762540439150399, -39.450968721119402 ], [ -72.762660724637101, -39.450964824201499 ], [ -72.762737747065998, -39.450979487846901 ], [ -72.762972776835895, -39.450868923371601 ], [ -72.762755728762301, -39.450856891637599 ], [ -72.762604044813898, -39.450871337870701 ], [ -72.762415109821603, -39.450885591012003 ], [ -72.7622147018905, -39.4509162414599 ], [ -72.7619377255741, -39.450978594612401 ] ] ] } },
{ "type": "Feature", "properties": { "id": "monoparte.33", "Name": null, "description": null, "timestamp": null, "begin": null, "end": null, "altitudeMode": null, "tessellate": -1, "extrude": 0, "visibility": -1, "drawOrder": null, "icon": null, "REG": "Los Ríos", "COM": "Lanco", "LOC": "Lanco", "ZONA": "ZR-2", "NOM": "Protección de vertientes y cauces naturales de agua", "UPERM": "Equipamiento de áreas verdes a escala comunal. Deportes a escala vecinal, en aquellos puntos que no presenten riesgos de inundación y/o sean habilitados mediante obras de mejoramiento (ver detalle en ordenanza).", "UPROH": "Todos los usos no mencionados como permitidos", "P_DO": "30/05/2003", "N_DOC": "16", "T_DO": "Resolución", "OBS": null }, "geometry": { "type": "Polygon", "coordinates": [ [ [ -72.769275035285801, -39.447719552912503 ], [ -72.769160704817594, -39.447788083165598 ], [ -72.769057197761398, -39.447783816129103 ], [ -72.768934863799601, -39.447749657258299 ], [ -72.768795860574599, -39.447725571156802 ], [ -72.7686611617127, -39.447735661429903 ], [ -72.768595599166602, -39.447724149722497 ], [ -72.7685204237753, -39.447724975879503 ], [ -72.768361487120799, -39.4477415716308 ], [ -72.7682312965199, -39.447789644859697 ], [ -72.768135677295504, -39.447840408016098 ], [ -72.768041189074097, -39.447912106925301 ], [ -72.767941892004401, -39.447985866727599 ], [ -72.767765587196095, -39.448090722447802 ], [ -72.7676094702054, -39.448144968147098 ], [ -72.767454468102898, -39.448158008815398 ], [ -72.767249609567898, -39.448189438186198 ], [ -72.766857934301498, -39.4484499819213 ], [ -72.766285242312804, -39.448819344211799 ], [ -72.765523352219603, -39.449328289519002 ], [ -72.764956171907599, -39.449708905464597 ], [ -72.7645409577366, -39.4499892695261 ], [ -72.764353496864899, -39.450115452528898 ], [ -72.764120317911093, -39.450260275098699 ], [ -72.763969464280194, -39.450335703439698 ], [ -72.763818610313805, -39.450411131599303 ], [ -72.763705295920104, -39.4504986876453 ], [ -72.763945438025303, -39.450391769080099 ], [ -72.764271077607205, -39.450228698738997 ], [ -72.764502622001302, -39.450099180214401 ], [ -72.764898198174393, -39.449819452884299 ], [ -72.765294592338293, -39.4495549490832 ], [ -72.765592093758002, -39.449371815728803 ], [ -72.765833339472294, -39.449194319237201 ], [ -72.766325759307094, -39.448886662752898 ], [ -72.766885254272495, -39.448500570175497 ], [ -72.767104000211006, -39.448361929702799 ], [ -72.767262303119495, -39.4482424075401 ], [ -72.767356700855998, -39.448214561292602 ], [ -72.767537526873497, -39.448193444215804 ], [ -72.767659935401895, -39.448192194287302 ], [ -72.767792188690294, -39.448127989193701 ], [ -72.767931272593103, -39.448062469814701 ], [ -72.768050514923999, -39.447993781393897 ], [ -72.768156558417104, -39.447908363876302 ], [ -72.768241331332405, -39.447838886847599 ], [ -72.768396067991006, -39.447790018073697 ], [ -72.768490894125506, -39.447785989222702 ], [ -72.768612173275201, -39.447780940714402 ], [ -72.768738080514794, -39.447790199744198 ], [ -72.768920456742805, -39.447843382018704 ], [ -72.769116739292897, -39.447880861353397 ], [ -72.769276795262996, -39.447839444007002 ], [ -72.769438781220003, -39.447742676878399 ], [ -72.769528662173897, -39.447674625559998 ], [ -72.769527929845594, -39.4476739287784 ], [ -72.769437881087697, -39.4475883038684 ], [ -72.769377092600394, -39.447651420875701 ], [ -72.769275035285801, -39.447719552912503 ] ] ] } },
{ "type": "Feature", "properties": { "id": "monoparte.34", "Name": null, "description": null, "timestamp": null, "begin": null, "end": null, "altitudeMode": null, "tessellate": -1, "extrude": 0, "visibility": -1, "drawOrder": null, "icon": null, "REG": "Los Ríos", "COM": "Lanco", "LOC": "Lanco", "ZONA": "ZE-D", "NOM": "Zona especial y de restricción", "UPERM": "Equipamiento deportivo y de áreas verdes de todo tipo y escala.", "UPROH": "Todos los no mencionados como permitidos", "P_DO": "30/05/2003", "N_DOC": "16", "T_DO": "Resolución", "OBS": null }, "geometry": { "type": "Polygon", "coordinates": [ [ [ -72.768595599166602, -39.447724149722497 ], [ -72.7686611617127, -39.447735661429903 ], [ -72.768795860574599, -39.447725571156802 ], [ -72.768934863799601, -39.447749657258299 ], [ -72.769057197761398, -39.447783816129103 ], [ -72.769160704817594, -39.447788083165598 ], [ -72.769275035285801, -39.447719552912503 ], [ -72.769377092600394, -39.447651420875701 ], [ -72.769437881087697, -39.4475883038684 ], [ -72.769203294096997, -39.447365238483101 ], [ -72.768595599166602, -39.447724149722497 ] ] ] } },
{ "type": "Feature", "properties": { "id": "monoparte.35", "Name": null, "description": null, "timestamp": null, "begin": null, "end": null, "altitudeMode": null, "tessellate": -1, "extrude": 0, "visibility": -1, "drawOrder": null, "icon": null, "REG": "Los Ríos", "COM": "Lanco", "LOC": "Lanco", "ZONA": "ZE-D", "NOM": "Zona especial y de restricción", "UPERM": "Equipamiento deportivo y de áreas verdes de todo tipo y escala.", "UPROH": "Todos los no mencionados como permitidos", "P_DO": "30/05/2003", "N_DOC": "16", "T_DO": "Resolución", "OBS": null }, "geometry": { "type": "Polygon", "coordinates": [ [ [ -72.770993587195605, -39.447049751041 ], [ -72.770097555425906, -39.448215567216003 ], [ -72.769528662173897, -39.447674625559998 ], [ -72.769438781220003, -39.447742676878399 ], [ -72.769276795262996, -39.447839444007002 ], [ -72.769116739292897, -39.447880861353397 ], [ -72.768920456742805, -39.447843382018704 ], [ -72.768738080514794, -39.447790199744198 ], [ -72.768612173275201, -39.447780940714402 ], [ -72.768490894125506, -39.447785989222702 ], [ -72.7677153302606, -39.448244034129502 ], [ -72.7678946755602, -39.448411868558303 ], [ -72.768634138938594, -39.449127821117301 ], [ -72.769897635861895, -39.450324062664997 ], [ -72.770049755500395, -39.450233199152699 ], [ -72.770548246188596, -39.449730869407702 ], [ -72.7711715071339, -39.448977838422202 ], [ -72.771657113696506, -39.448408005224799 ], [ -72.772143073501297, -39.447759515992601 ], [ -72.771941285553297, -39.4476087871396 ], [ -72.771040938274695, -39.446987445101698 ], [ -72.770993587195605, -39.447049751041 ] ] ] } },
{ "type": "Feature", "properties": { "id": "monoparte.36", "Name": null, "description": null, "timestamp": null, "begin": null, "end": null, "altitudeMode": null, "tessellate": -1, "extrude": 0, "visibility": -1, "drawOrder": null, "icon": null, "REG": "Los Ríos", "COM": "Lanco", "LOC": "Lanco", "ZONA": "ZR-2", "NOM": "Protección de vertientes y cauces naturales de agua", "UPERM": "Equipamiento de áreas verdes a escala comunal. Deportes a escala vecinal, en aquellos puntos que no presenten riesgos de inundación y/o sean habilitados mediante obras de mejoramiento (ver detalle en ordenanza).", "UPROH": "Todos los usos no mencionados como permitidos", "P_DO": "30/05/2003", "N_DOC": "16", "T_DO": "Resolución", "OBS": null }, "geometry": { "type": "Polygon", "coordinates": [ [ [ -72.766836008391493, -39.4530925073893 ], [ -72.766912438173705, -39.453187257680099 ], [ -72.767817694381407, -39.4529652666115 ], [ -72.768055927334601, -39.452896425778597 ], [ -72.768423498900702, -39.452815389657701 ], [ -72.768842993030702, -39.452785095549103 ], [ -72.769169023533195, -39.452771757893203 ], [ -72.769294241241397, -39.4527641200376 ], [ -72.769601720714306, -39.452694563379502 ], [ -72.7701193406036, -39.452531798592197 ], [ -72.770568898679599, -39.452460605650899 ], [ -72.770907543318998, -39.452398970355603 ], [ -72.770983754589594, -39.4523160671421 ], [ -72.771570307555507, -39.451793595689999 ], [ -72.772098835107997, -39.451264070298301 ], [ -72.772170544396204, -39.451097905333 ], [ -72.772192873815001, -39.450942279914202 ], [ -72.772146581382898, -39.450583343826999 ], [ -72.772111055463, -39.450423640374503 ], [ -72.772103181873305, -39.450277932547799 ], [ -72.772082837535095, -39.450114757420202 ], [ -72.772027651789102, -39.449946755838504 ], [ -72.771989534685304, -39.449667982774997 ], [ -72.771943607988106, -39.449457976800701 ], [ -72.772105615473905, -39.448758644588303 ], [ -72.772141014792794, -39.448304631090302 ], [ -72.772014507316001, -39.448378718764701 ], [ -72.771958422129998, -39.448736616205998 ], [ -72.771838282054702, -39.449428630482899 ], [ -72.771891258182194, -39.449697984417 ], [ -72.771917868197704, -39.449977131239699 ], [ -72.771946846553206, -39.450157899228202 ], [ -72.771965765599802, -39.4503658037642 ], [ -72.772041497954106, -39.450842937479202 ], [ -72.772044431540394, -39.451039445078301 ], [ -72.771990153135505, -39.451243769786103 ], [ -72.771253436357, -39.4519736795516 ], [ -72.770931159798806, -39.452267134642597 ], [ -72.770833843008603, -39.452314976617401 ], [ -72.770552091862996, -39.452362849398199 ], [ -72.770106369717993, -39.452433917741999 ], [ -72.769790596796796, -39.452563321788901 ], [ -72.769529466881096, -39.4526373317061 ], [ -72.7692807896982, -39.452657318058499 ], [ -72.769044373703395, -39.452691843866603 ], [ -72.768777125951601, -39.4527038257459 ], [ -72.768351367484996, -39.4527319396501 ], [ -72.767929074667705, -39.452824282885899 ], [ -72.767700381746806, -39.4528856832166 ], [ -72.766836008391493, -39.4530925073893 ] ] ] } },
{ "type": "Feature", "properties": { "id": "monoparte.37", "Name": null, "description": null, "timestamp": null, "begin": null, "end": null, "altitudeMode": null, "tessellate": -1, "extrude": 0, "visibility": -1, "drawOrder": null, "icon": null, "REG": "Los Ríos", "COM": "Lanco", "LOC": "Lanco", "ZONA": "ZU-3", "NOM": "Zona Urbana Consolidada", "UPERM": "Vivienda, equipamiento de escala comunal, vecinal. Actividades productivas inofensivas. Actividades complementarias a la vialidad y el trasnporte (Ver detalle en ordenanza).", "UPROH": "Todos los usos no mencionados como permitidos", "P_DO": "30/05/2003", "N_DOC": "16", "T_DO": "Resolución", "OBS": null }, "geometry": { "type": "Polygon", "coordinates": [ [ [ -72.7667183220927, -39.452219455994403 ], [ -72.763693226458003, -39.453694948189501 ], [ -72.761752136583198, -39.454613707036302 ], [ -72.763710761378505, -39.456090860475797 ], [ -72.765661998953703, -39.457548676575001 ], [ -72.766086331166093, -39.4572576959103 ], [ -72.765322975314504, -39.456670310827 ], [ -72.764681610553495, -39.456178265098103 ], [ -72.7640977541041, -39.455749171583101 ], [ -72.763522698803897, -39.455300725811099 ], [ -72.762874404959405, -39.454816520282399 ], [ -72.762733124707097, -39.454704803528102 ], [ -72.762594710615204, -39.454600619866198 ], [ -72.762562686644401, -39.454553995631997 ], [ -72.762567281383497, -39.454502372415902 ], [ -72.762522272058405, -39.454488579245599 ], [ -72.762622506090196, -39.454431950772403 ], [ -72.762684707283896, -39.4544909427945 ], [ -72.762686143624506, -39.454517586365398 ], [ -72.762702317698398, -39.454589507433298 ], [ -72.763124926446906, -39.454901819715602 ], [ -72.763566469711705, -39.455245926257099 ], [ -72.764196766050006, -39.455715459735998 ], [ -72.764949529509707, -39.4562668091082 ], [ -72.766173639462806, -39.457197824929999 ], [ -72.767028154775005, -39.456611838942401 ], [ -72.768490032678898, -39.455575435797101 ], [ -72.770129120384794, -39.454472791780603 ], [ -72.768173313267496, -39.453206511317802 ], [ -72.767817694381407, -39.4529652666115 ], [ -72.766912438173705, -39.453187257680099 ], [ -72.766836008391493, -39.4530925073893 ], [ -72.767700381746806, -39.4528856832166 ], [ -72.7667183220927, -39.452219455994403 ] ] ] } },
{ "type": "Feature", "properties": { "id": "monoparte.38", "Name": null, "description": null, "timestamp": null, "begin": null, "end": null, "altitudeMode": null, "tessellate": -1, "extrude": 0, "visibility": -1, "drawOrder": null, "icon": null, "REG": "Los Ríos", "COM": "Lanco", "LOC": "Lanco", "ZONA": "ZR-2", "NOM": "Protección de vertientes y cauces naturales de agua", "UPERM": "Equipamiento de áreas verdes a escala comunal. Deportes a escala vecinal, en aquellos puntos que no presenten riesgos de inundación y/o sean habilitados mediante obras de mejoramiento (ver detalle en ordenanza).", "UPROH": "Todos los usos no mencionados como permitidos", "P_DO": "30/05/2003", "N_DOC": "16", "T_DO": "Resolución", "OBS": null }, "geometry": { "type": "Polygon", "coordinates": [ [ [ -72.766086331166093, -39.4572576959103 ], [ -72.766498100494402, -39.4575739955012 ], [ -72.766578798242307, -39.457519903960304 ], [ -72.766173639462806, -39.457197824929999 ], [ -72.764949529509707, -39.4562668091082 ], [ -72.764196766050006, -39.455715459735998 ], [ -72.763566469711705, -39.455245926257099 ], [ -72.763124926446906, -39.454901819715602 ], [ -72.762702317698398, -39.454589507433298 ], [ -72.762686143624506, -39.454517586365398 ], [ -72.762684707283896, -39.4544909427945 ], [ -72.762622506090196, -39.454431950772403 ], [ -72.762522272058405, -39.454488579245599 ], [ -72.762567281383497, -39.454502372415902 ], [ -72.762562686644401, -39.454553995631997 ], [ -72.762594710615204, -39.454600619866198 ], [ -72.762733124707097, -39.454704803528102 ], [ -72.762874404959405, -39.454816520282399 ], [ -72.763522698803897, -39.455300725811099 ], [ -72.7640977541041, -39.455749171583101 ], [ -72.764681610553495, -39.456178265098103 ], [ -72.765322975314504, -39.456670310827 ], [ -72.766086331166093, -39.4572576959103 ] ] ] } }
]
}
