{
"type": "FeatureCollection",
"name": "IPT_13_PRC_Isla_de_Maipo",
"crs": { "type": "name", "properties": { "name": "urn:ogc:def:crs:OGC:1.3:CRS84" } },
"features": [
{ "type": "Feature", "properties": { "id": "monoparte.1", "Name": null, "description": null, "timestamp": null, "begin": null, "end": null, "altitudeMode": null, "tessellate": -1, "extrude": 0, "visibility": -1, "drawOrder": null, "icon": null, "Shape_Leng": 1868.9847400799999, "Shape_Area": 82896.709463599997, "REG": "Metropolitana", "COM": "Isla de Maipo", "LOC": "Islita", "ZONA": "Z1", "NOM": "Zona Z1", "UPERM": "Vivienda, equipamiento comunal en todos sus tipos, almacenamiento inofensivo, establecimientos de impacto similar al industrial inofensivo y servicios artesanales.", "UPROH": "Todos los no mencionados como permitidos.", "P_DO": "16/04/1994", "N_DOC": "24", "T_DO": "Resolución", "OBS": null }, "geometry": { "type": "Polygon", "coordinates": [ [ [ -70.860587660234302, -33.738387712928599 ], [ -70.858983550082797, -33.7390882797743 ], [ -70.859280016388297, -33.739529214305598 ], [ -70.860382162677197, -33.739031316547504 ], [ -70.860909612222798, -33.739638111628302 ], [ -70.861713129854806, -33.741282514545098 ], [ -70.861714086791494, -33.741283691318102 ], [ -70.861714470983699, -33.7412852365267 ], [ -70.862712752791396, -33.743273090669 ], [ -70.863330467935796, -33.743077815043698 ], [ -70.863493689256103, -33.7433597496589 ], [ -70.864069882336096, -33.743113624715903 ], [ -70.863843480373703, -33.7427502308432 ], [ -70.863193838550501, -33.7412648816128 ], [ -70.862890764130697, -33.741441794294801 ], [ -70.862617979007396, -33.741580307306698 ], [ -70.8624095691939, -33.741120919573603 ], [ -70.862352589039801, -33.740997855065999 ], [ -70.863146670995803, -33.740748348535398 ], [ -70.862278479446999, -33.738884931968997 ], [ -70.861016277571693, -33.738081053637202 ], [ -70.860587660234302, -33.738387712928599 ] ] ] } },
{ "type": "Feature", "properties": { "id": "monoparte.2", "Name": null, "description": null, "timestamp": null, "begin": null, "end": null, "altitudeMode": null, "tessellate": -1, "extrude": 0, "visibility": -1, "drawOrder": null, "icon": null, "Shape_Leng": 269.03271224299999, "Shape_Area": 4351.5091230999997, "REG": "Metropolitana", "COM": "Isla de Maipo", "LOC": "Islita", "ZONA": "AV", "NOM": "AV Área verde", "UPERM": "Áreas verdes", "UPROH": "Todos los no mencionados como permitidos.", "P_DO": "16/04/1994", "N_DOC": "24", "T_DO": "Resolución", "OBS": null }, "geometry": { "type": "Polygon", "coordinates": [ [ [ -70.862352589039801, -33.740997855065999 ], [ -70.8624095691939, -33.741120919573603 ], [ -70.862617979007396, -33.741580307306698 ], [ -70.862890764130697, -33.741441794294801 ], [ -70.863193838550501, -33.7412648816128 ], [ -70.863146670995803, -33.740748348535398 ], [ -70.862352589039801, -33.740997855065999 ] ] ] } },
{ "type": "Feature", "properties": { "id": "monoparte.3", "Name": null, "description": null, "timestamp": null, "begin": null, "end": null, "altitudeMode": null, "tessellate": -1, "extrude": 0, "visibility": -1, "drawOrder": null, "icon": null, "Shape_Leng": 750.29595092399995, "Shape_Area": 20865.943676899999, "REG": "Metropolitana", "COM": "Isla de Maipo", "LOC": "Isla de Maipo", "ZONA": "AV", "NOM": "AV Área verde", "UPERM": "Áreas verdes", "UPROH": "Todos los no mencionados como permitidos.", "P_DO": "16/04/1994", "N_DOC": "24", "T_DO": "Resolución", "OBS": null }, "geometry": { "type": "Polygon", "coordinates": [ [ [ -70.895763973501204, -33.749012181186004 ], [ -70.8954484647996, -33.7491054526879 ], [ -70.895275417261999, -33.749127438174398 ], [ -70.894722537208295, -33.749237399294202 ], [ -70.894168806770196, -33.749308715278197 ], [ -70.894184170432794, -33.749343440783498 ], [ -70.894207370598593, -33.749384082246898 ], [ -70.894549144811293, -33.750032506334101 ], [ -70.895590030698699, -33.749732639454699 ], [ -70.896151750542899, -33.749533800338803 ], [ -70.896835034649897, -33.749291925105602 ], [ -70.896850311490198, -33.749284139148202 ], [ -70.897265327314798, -33.749083768797902 ], [ -70.897544951105104, -33.748945664469602 ], [ -70.897530252707398, -33.748937613409403 ], [ -70.897193892909002, -33.748477897095498 ], [ -70.896610986380196, -33.748750130651104 ], [ -70.896511614965306, -33.748789537052403 ], [ -70.896494160973802, -33.748784973753402 ], [ -70.896216590973907, -33.748871882241097 ], [ -70.895845005463798, -33.748988226145798 ], [ -70.895763973501204, -33.749012181186004 ] ] ] } },
{ "type": "Feature", "properties": { "id": "monoparte.4", "Name": null, "description": null, "timestamp": null, "begin": null, "end": null, "altitudeMode": null, "tessellate": -1, "extrude": 0, "visibility": -1, "drawOrder": null, "icon": null, "Shape_Leng": 2155.7418277699999, "Shape_Area": 271254.75849500002, "REG": "Metropolitana", "COM": "Isla de Maipo", "LOC": "Isla de Maipo", "ZONA": "ZE", "NOM": "Zona ZE", "UPERM": "Vivienda, equipamiento regional, áreas verdes, deportes, esparcimiento y turismo.", "UPROH": "Todos los no mencionados como permitidos.", "P_DO": "16/04/1994", "N_DOC": "24", "T_DO": "Resolución", "OBS": null }, "geometry": { "type": "Polygon", "coordinates": [ [ [ -70.905688859390906, -33.773123587172201 ], [ -70.905688448299102, -33.773121309432 ], [ -70.905010236315803, -33.773412654794903 ], [ -70.903855932082493, -33.773901935818202 ], [ -70.903117669179196, -33.774194196770502 ], [ -70.903083299431998, -33.774200776691401 ], [ -70.902197045979705, -33.7743704348172 ], [ -70.902148815225402, -33.774379668290699 ], [ -70.901764789764997, -33.774395619633196 ], [ -70.901727957244603, -33.774399678023002 ], [ -70.900492030963804, -33.774525988485799 ], [ -70.900494629944703, -33.774535566344603 ], [ -70.900501020089493, -33.774559370170401 ], [ -70.900480207637301, -33.774547855525398 ], [ -70.900191653128502, -33.774600690098502 ], [ -70.900194712034207, -33.774612710891802 ], [ -70.900368621534398, -33.775824461383898 ], [ -70.901281038748607, -33.779668277774498 ], [ -70.901455400087798, -33.779651553925 ], [ -70.901628995391704, -33.779629978591302 ], [ -70.901801630783197, -33.779603575506201 ], [ -70.901867489524705, -33.779591593283698 ], [ -70.901973113604797, -33.7795723746964 ], [ -70.902143254558098, -33.779536411548698 ], [ -70.902311863326105, -33.779495724171397 ], [ -70.902478749792607, -33.779450359687999 ], [ -70.902643730379197, -33.779400367827698 ], [ -70.902806620589104, -33.779345805548097 ], [ -70.902815944804203, -33.779342375808199 ], [ -70.902967238126095, -33.7792867315774 ], [ -70.903159348647605, -33.779204059224497 ], [ -70.903347883720699, -33.779115836572302 ], [ -70.903532615667103, -33.779022169948497 ], [ -70.903713316991698, -33.778923173794098 ], [ -70.903889768978203, -33.778818968727897 ], [ -70.904061755232505, -33.778709682547301 ], [ -70.9041954786357, -33.778619107083003 ], [ -70.904325928733897, -33.778525261827603 ], [ -70.904452990717502, -33.778428228817802 ], [ -70.904576552017502, -33.778328093663298 ], [ -70.904696505543995, -33.778224945496 ], [ -70.904886528108406, -33.777980721257201 ], [ -70.905066747871203, -33.777731370278403 ], [ -70.905236966841898, -33.777477165277197 ], [ -70.905396996932595, -33.777218386932098 ], [ -70.905546663095805, -33.776955319325403 ], [ -70.905685800126307, -33.776688251796102 ], [ -70.905814255898306, -33.776417478889499 ], [ -70.9059318880674, -33.776143297702703 ], [ -70.906038568427206, -33.7758660096206 ], [ -70.9061341796709, -33.775585920366098 ], [ -70.9062186164103, -33.775303337278402 ], [ -70.906291785214805, -33.775018571116398 ], [ -70.906353606770097, -33.7747319360248 ], [ -70.906404012558994, -33.774443745978402 ], [ -70.906442948199398, -33.774154319239301 ], [ -70.906470370085202, -33.7738639729982 ], [ -70.906486248723994, -33.773573027831297 ], [ -70.906177716430093, -33.772954461463797 ], [ -70.906167252610103, -33.772930344873103 ], [ -70.905688859390906, -33.773123587172201 ] ] ] } },
{ "type": "Feature", "properties": { "id": "monoparte.5", "Name": null, "description": null, "timestamp": null, "begin": null, "end": null, "altitudeMode": null, "tessellate": -1, "extrude": 0, "visibility": -1, "drawOrder": null, "icon": null, "Shape_Leng": 1664.0748125800001, "Shape_Area": 170818.86870799999, "REG": "Metropolitana", "COM": "Isla de Maipo", "LOC": "Islita", "ZONA": "Z5", "NOM": "Zona Z5", "UPERM": "Industria molesta e inofensiva, talleres, almacenamiento molesto e inofensivo, vivienda (exlusivo del cuidador), equipamiento y comercio minorista incorporado a los establecimientos industriales. Más detalle revisar Ordenanza.", "UPROH": "Todos los no mencionados como permitidos.", "P_DO": "16/04/1994", "N_DOC": "24", "T_DO": "Resolución", "OBS": null }, "geometry": { "type": "Polygon", "coordinates": [ [ [ -70.854083521639694, -33.738706301458201 ], [ -70.855187751669504, -33.738231516678702 ], [ -70.8552319710669, -33.738212107435402 ], [ -70.8588014060809, -33.736645335648198 ], [ -70.857402034159193, -33.735328160714502 ], [ -70.857369626952902, -33.735299773474303 ], [ -70.855729298819497, -33.733862899610202 ], [ -70.855612522511194, -33.733916104318197 ], [ -70.852331956872007, -33.735760372600801 ], [ -70.853461545490703, -33.737743810405703 ], [ -70.853999118644097, -33.738687693802603 ], [ -70.854027445190496, -33.738735998794503 ], [ -70.854085203727607, -33.7387099841796 ], [ -70.854085497033196, -33.738709519882498 ], [ -70.854083521639694, -33.738706301458201 ] ] ] } },
{ "type": "Feature", "properties": { "id": "monoparte.6", "Name": null, "description": null, "timestamp": null, "begin": null, "end": null, "altitudeMode": null, "tessellate": -1, "extrude": 0, "visibility": -1, "drawOrder": null, "icon": null, "Shape_Leng": 8000.3057484800001, "Shape_Area": 1240345.15815, "REG": "Metropolitana", "COM": "Isla de Maipo", "LOC": "Islita", "ZONA": "Z4", "NOM": "Zona Z4", "UPERM": "Vivienda, equipamiento comunal del tipo: educación, organización comunitaria, áreas verdes, deportes, esparcimiento y turismo, comercio, servicio, industria y almacenamiento inofensivo, servicio artesanal. Más detalle revisar Ordenanza.", "UPROH": "Todos los no mencionados como permitidos.", "P_DO": "16/04/1994", "N_DOC": "24", "T_DO": "Resolución", "OBS": null }, "geometry": { "type": "Polygon", "coordinates": [ [ [ -70.867140050531205, -33.749482764266602 ], [ -70.867886110490502, -33.750674722125503 ], [ -70.866093617741598, -33.751218476168098 ], [ -70.863184052089593, -33.7463426855387 ], [ -70.863123188707505, -33.746240685442601 ], [ -70.859650299749106, -33.740160333373098 ], [ -70.857117609954599, -33.741246461664097 ], [ -70.855187751669504, -33.738231516678702 ], [ -70.855180944379896, -33.738219893562302 ], [ -70.854083521639694, -33.738706301458201 ], [ -70.854085497033196, -33.738709519882498 ], [ -70.854085203727607, -33.7387099841796 ], [ -70.854027445190496, -33.738735998794503 ], [ -70.854950945795196, -33.7403107925333 ], [ -70.855164334554203, -33.740716618198697 ], [ -70.861082362067293, -33.7524067427101 ], [ -70.862298178852598, -33.752104290690902 ], [ -70.865224093962098, -33.757134706507202 ], [ -70.866102472913994, -33.756857247353302 ], [ -70.8668646862412, -33.756612891286601 ], [ -70.867292638200198, -33.756563067755799 ], [ -70.867884046022695, -33.756472478886003 ], [ -70.868398493675599, -33.756536022313902 ], [ -70.868830081158606, -33.756480373582697 ], [ -70.869187490268999, -33.756454085034498 ], [ -70.869282985869106, -33.756447031477698 ], [ -70.869840758560798, -33.756405396103901 ], [ -70.870307696157198, -33.7563667581 ], [ -70.870897579501502, -33.7563264176354 ], [ -70.871299640754501, -33.756309243439297 ], [ -70.871617703383194, -33.756283152266001 ], [ -70.868217424114505, -33.7508770369462 ], [ -70.873897567516707, -33.749504280193101 ], [ -70.873864980034, -33.749417554829499 ], [ -70.873592960109306, -33.748693632934703 ], [ -70.873261980469707, -33.747812781233897 ], [ -70.872969386466806, -33.747034071564201 ], [ -70.872422924617993, -33.745579676906999 ], [ -70.871829190084796, -33.7457723213031 ], [ -70.8718265633577, -33.745766736965798 ], [ -70.871813543193994, -33.745766934431501 ], [ -70.869929316861203, -33.746568026721903 ], [ -70.869188995411207, -33.746811135393401 ], [ -70.869127467836094, -33.746830429428499 ], [ -70.866728307301898, -33.747312849501498 ], [ -70.866106845226398, -33.747485458921197 ], [ -70.866111624431497, -33.747494696268802 ], [ -70.866991159600104, -33.749223879779002 ], [ -70.867140050531205, -33.749482764266602 ] ] ] } },
{ "type": "Feature", "properties": { "id": "monoparte.7", "Name": null, "description": null, "timestamp": null, "begin": null, "end": null, "altitudeMode": null, "tessellate": -1, "extrude": 0, "visibility": -1, "drawOrder": null, "icon": null, "Shape_Leng": 1764.5583591, "Shape_Area": 171530.35068500001, "REG": "Metropolitana", "COM": "Isla de Maipo", "LOC": "Isla de Maipo", "ZONA": "Z5", "NOM": "Zona Z5", "UPERM": "Industria molesta e inofensiva, talleres, almacenamiento molesto e inofensivo, vivienda (exlusivo del cuidador), equipamiento y comercio minorista incorporado a los establecimientos industriales. Más detalle revisar Ordenanza.", "UPROH": "Todos los no mencionados como permitidos.", "P_DO": "16/04/1994", "N_DOC": "24", "T_DO": "Resolución", "OBS": null }, "geometry": { "type": "Polygon", "coordinates": [ [ [ -70.892662042945602, -33.748865327342401 ], [ -70.8935864510985, -33.7484012436434 ], [ -70.8950016675537, -33.747618050133802 ], [ -70.895042990125901, -33.747598135563102 ], [ -70.896071201500604, -33.747035011392398 ], [ -70.896083198652207, -33.747029038818901 ], [ -70.895665311652806, -33.746542208909702 ], [ -70.894620967083796, -33.745495778496199 ], [ -70.894605305280706, -33.745477602701698 ], [ -70.894531979916096, -33.745392507599099 ], [ -70.894521326608597, -33.745397835389198 ], [ -70.894520288985703, -33.745394288545597 ], [ -70.894465818765198, -33.745344952795101 ], [ -70.894396014317394, -33.745364669510998 ], [ -70.892202023398994, -33.746097964776602 ], [ -70.890894138532403, -33.7465198384037 ], [ -70.889538559614394, -33.746957076446201 ], [ -70.8887417224568, -33.747214196026299 ], [ -70.890583892616206, -33.749964776282198 ], [ -70.890604338883904, -33.749959308717898 ], [ -70.892662042945602, -33.748865327342401 ] ] ] } },
{ "type": "Feature", "properties": { "id": "monoparte.8", "Name": null, "description": null, "timestamp": null, "begin": null, "end": null, "altitudeMode": null, "tessellate": -1, "extrude": 0, "visibility": -1, "drawOrder": null, "icon": null, "Shape_Leng": 7555.4360003700003, "Shape_Area": 1090957.6283100001, "REG": "Metropolitana", "COM": "Isla de Maipo", "LOC": "Islita", "ZONA": "Z3", "NOM": "Zona Z3", "UPERM": "Vivienda, equipamiento comunal en todos sus tipos, almacenamiento inofensivo, establecimientos de impacto similar al industrial inofensivo y servicios artesanales.", "UPROH": "Todos los no mencionados como permitidos.", "P_DO": "16/04/1994", "N_DOC": "24", "T_DO": "Resolución", "OBS": null }, "geometry": { "type": "Polygon", "coordinates": [ [ [ -70.855796758760505, -33.733832833833397 ], [ -70.855729298819497, -33.733862899610202 ], [ -70.857369626952902, -33.735299773474303 ], [ -70.857402034159193, -33.735328160714502 ], [ -70.8588014060809, -33.736645335648198 ], [ -70.859265335449507, -33.737085974167499 ], [ -70.859774319576999, -33.737569398016802 ], [ -70.861680874976201, -33.7365780999476 ], [ -70.861733913171605, -33.7365435990341 ], [ -70.862971673316096, -33.738524521010198 ], [ -70.864727042121203, -33.737625787686 ], [ -70.864756369162805, -33.737610349507598 ], [ -70.866685101230104, -33.736594996331903 ], [ -70.867757417101302, -33.738184278400098 ], [ -70.868068142784907, -33.738801834597901 ], [ -70.867354076128706, -33.738976015791998 ], [ -70.865840924387797, -33.739779120035301 ], [ -70.865287098557801, -33.7400903247703 ], [ -70.866474192646095, -33.742123733905103 ], [ -70.866493295539499, -33.7421589972326 ], [ -70.866497980721107, -33.742167644454199 ], [ -70.866233995665496, -33.742272740779597 ], [ -70.867651406620297, -33.744799087149801 ], [ -70.866337418025395, -33.745316584246098 ], [ -70.865228528296598, -33.745724734501898 ], [ -70.864722566987496, -33.7458497961183 ], [ -70.863184052089593, -33.7463426855387 ], [ -70.866093617741598, -33.751218476168098 ], [ -70.867895654740494, -33.750689970435303 ], [ -70.867886110490502, -33.750674722125503 ], [ -70.867140050531205, -33.749482764266602 ], [ -70.866991159600104, -33.749223879779002 ], [ -70.866111624431497, -33.747494696268802 ], [ -70.866793646331104, -33.747322742567903 ], [ -70.869127467836094, -33.746830429428499 ], [ -70.869188995411207, -33.746811135393401 ], [ -70.869929316861203, -33.746568026721903 ], [ -70.871813543193994, -33.745766934431501 ], [ -70.8718265633577, -33.745766736965798 ], [ -70.871829190084796, -33.7457723213031 ], [ -70.872422924617993, -33.745579676906999 ], [ -70.872328588482006, -33.7453285991147 ], [ -70.871198797369004, -33.742306290500402 ], [ -70.870589297542097, -33.740599651210601 ], [ -70.868336948277999, -33.735929111193997 ], [ -70.866531855454497, -33.732758159477399 ], [ -70.866364846054793, -33.732444334852303 ], [ -70.866105605704902, -33.731957196262201 ], [ -70.865817002894801, -33.731414873888099 ], [ -70.865542321377703, -33.730898703818099 ], [ -70.865475340505796, -33.730918873626699 ], [ -70.863269793263399, -33.731582987616903 ], [ -70.855796758760505, -33.733832833833397 ] ] ] } },
{ "type": "Feature", "properties": { "id": "monoparte.9", "Name": null, "description": null, "timestamp": null, "begin": null, "end": null, "altitudeMode": null, "tessellate": -1, "extrude": 0, "visibility": -1, "drawOrder": null, "icon": null, "Shape_Leng": 6114.7179257199996, "Shape_Area": 565274.05056300003, "REG": "Metropolitana", "COM": "Isla de Maipo", "LOC": "Islita", "ZONA": "Z2", "NOM": "Zona Z2", "UPERM": "Vivienda, equipamiento comunal en todos sus tipos, almacenamiento inofensivo, establecimientos de impacto similar al industrial inofensivo y servicios artesanales.", "UPROH": "Todos los no mencionados como permitidos.", "P_DO": "16/04/1994", "N_DOC": "24", "T_DO": "Resolución", "OBS": null }, "geometry": { "type": "Polygon", "coordinates": [ [ [ -70.861733913171605, -33.7365435990341 ], [ -70.861680874976201, -33.7365780999476 ], [ -70.859774319576999, -33.737569398016802 ], [ -70.859265335449507, -33.737085974167499 ], [ -70.8588014060809, -33.736645335648198 ], [ -70.8552319710669, -33.738212107435402 ], [ -70.855187751669504, -33.738231516678702 ], [ -70.857117609954599, -33.741246461664097 ], [ -70.859650299749106, -33.740160333373098 ], [ -70.863123188707505, -33.746240685442601 ], [ -70.863184052089593, -33.7463426855387 ], [ -70.864722566987496, -33.7458497961183 ], [ -70.865228528296598, -33.745724734501898 ], [ -70.866337418025395, -33.745316584246098 ], [ -70.867651406620297, -33.744799087149801 ], [ -70.866233995665496, -33.742272740779597 ], [ -70.866497980721107, -33.742167644454199 ], [ -70.866493295539499, -33.7421589972326 ], [ -70.866474192646095, -33.742123733905103 ], [ -70.865287098557801, -33.7400903247703 ], [ -70.867354076128706, -33.738976015791998 ], [ -70.868068142784907, -33.738801834597901 ], [ -70.867757417101302, -33.738184278400098 ], [ -70.866685101230104, -33.736594996331903 ], [ -70.864756369162805, -33.737610349507598 ], [ -70.864727042121203, -33.737625787686 ], [ -70.862971673316096, -33.738524521010198 ], [ -70.861733913171605, -33.7365435990341 ] ], [ [ -70.861016277571693, -33.738081053637202 ], [ -70.862278479446999, -33.738884931968997 ], [ -70.863146670995803, -33.740748348535398 ], [ -70.863193838550501, -33.7412648816128 ], [ -70.863843480373703, -33.7427502308432 ], [ -70.864069882336096, -33.743113624715903 ], [ -70.863493689256103, -33.7433597496589 ], [ -70.863330467935796, -33.743077815043698 ], [ -70.862712752791396, -33.743273090669 ], [ -70.861714470983699, -33.7412852365267 ], [ -70.861714086791494, -33.741283691318102 ], [ -70.861713129854806, -33.741282514545098 ], [ -70.860909612222798, -33.739638111628302 ], [ -70.860382162677197, -33.739031316547504 ], [ -70.859280016388297, -33.739529214305598 ], [ -70.858983550082797, -33.7390882797743 ], [ -70.860587660234302, -33.738387712928599 ], [ -70.861016277571693, -33.738081053637202 ] ] ] } },
{ "type": "Feature", "properties": { "id": "monoparte.10", "Name": null, "description": null, "timestamp": null, "begin": null, "end": null, "altitudeMode": null, "tessellate": -1, "extrude": 0, "visibility": -1, "drawOrder": null, "icon": null, "Shape_Leng": 4946.6510519599997, "Shape_Area": 655647.13437600003, "REG": "Metropolitana", "COM": "Isla de Maipo", "LOC": "Isla de Maipo", "ZONA": "Z3", "NOM": "Zona Z3", "UPERM": "Vivienda, equipamiento comunal en todos sus tipos, almacenamiento inofensivo, establecimientos de impacto similar al industrial inofensivo y servicios artesanales.", "UPROH": "Todos los no mencionados como permitidos.", "P_DO": "16/04/1994", "N_DOC": "24", "T_DO": "Resolución", "OBS": null }, "geometry": { "type": "Polygon", "coordinates": [ [ [ -70.913295297343396, -33.745042364918 ], [ -70.913265433699706, -33.7449935038454 ], [ -70.913215441966898, -33.744915958580698 ], [ -70.913174323382805, -33.744852227398802 ], [ -70.913128385990206, -33.744781384065803 ], [ -70.913065450237895, -33.7446846917397 ], [ -70.913011664900694, -33.744602147349497 ], [ -70.912959663315405, -33.744521422040101 ], [ -70.9129063254248, -33.744437338614297 ], [ -70.912845962934597, -33.744343780387801 ], [ -70.912794178795195, -33.744264569250497 ], [ -70.912755370840799, -33.744205361275696 ], [ -70.912727019658305, -33.744161683237003 ], [ -70.912712986714098, -33.744139681044402 ], [ -70.912655519651096, -33.744164977093298 ], [ -70.912177812658697, -33.744375254348299 ], [ -70.911401916655507, -33.744716783421602 ], [ -70.909333827118701, -33.745627068179203 ], [ -70.908280541984794, -33.746090653771397 ], [ -70.908103180441003, -33.746225063004502 ], [ -70.907971790712907, -33.746325429522201 ], [ -70.907809403147297, -33.746438199636899 ], [ -70.907504512029107, -33.746567622438299 ], [ -70.907357079863999, -33.746608731584303 ], [ -70.906998487499493, -33.746677114934201 ], [ -70.906997442475401, -33.746685738155797 ], [ -70.907090743091601, -33.746927654392003 ], [ -70.907321609329799, -33.747424578341999 ], [ -70.907613350840407, -33.7480329072514 ], [ -70.908498026204697, -33.749655360026097 ], [ -70.909735750004501, -33.751393106572799 ], [ -70.907673404293405, -33.752175933148699 ], [ -70.907610189938396, -33.752199928020502 ], [ -70.906560237915599, -33.752578850538697 ], [ -70.904698516110599, -33.753265885146199 ], [ -70.904024069462906, -33.753507446732698 ], [ -70.904064036646005, -33.753545865328697 ], [ -70.904233774848194, -33.753712771750202 ], [ -70.904246949666003, -33.753745830790798 ], [ -70.904304367055602, -33.753889900651799 ], [ -70.904308495406497, -33.753900259210802 ], [ -70.904567464549899, -33.753864092355897 ], [ -70.905983487614606, -33.753666324889899 ], [ -70.906005727469903, -33.753747060962397 ], [ -70.906238230320696, -33.754526117613601 ], [ -70.909150360758801, -33.754114558235202 ], [ -70.910547258251, -33.757446242108699 ], [ -70.910569840923102, -33.757487551687902 ], [ -70.911614716079299, -33.7572941661386 ], [ -70.911625425196405, -33.757290218366201 ], [ -70.911636423368805, -33.757290148080401 ], [ -70.912255716192305, -33.757192406416003 ], [ -70.912255031684495, -33.757187591844797 ], [ -70.912348249873105, -33.757200261189801 ], [ -70.913702891237307, -33.756917915481097 ], [ -70.913584370947007, -33.756683304438504 ], [ -70.913550525249804, -33.756614850256902 ], [ -70.9134996999625, -33.756514177103298 ], [ -70.913420283298805, -33.756356843160297 ], [ -70.9133806644966, -33.756278434928298 ], [ -70.913300001000195, -33.756120159880098 ], [ -70.913242366401903, -33.756007094145801 ], [ -70.913180732336997, -33.755886940537899 ], [ -70.913123587540497, -33.755775643560497 ], [ -70.913076478779203, -33.755680640397202 ], [ -70.913045941738801, -33.755617631728803 ], [ -70.913021991002196, -33.755567787259402 ], [ -70.912999367216301, -33.755520719392997 ], [ -70.912986110288799, -33.755482525460202 ], [ -70.912960229891198, -33.7554024811567 ], [ -70.912941342787207, -33.755337448715601 ], [ -70.912915469290198, -33.7552395869278 ], [ -70.912894140317604, -33.755157206894999 ], [ -70.912874191290598, -33.755081689304497 ], [ -70.912854023967, -33.755006111070003 ], [ -70.912841118389096, -33.754958991715398 ], [ -70.912833843879994, -33.7549324347859 ], [ -70.912816762103006, -33.754870080437897 ], [ -70.912809202162506, -33.754842482820798 ], [ -70.912799546872193, -33.754807646097198 ], [ -70.912776054299002, -33.7547281129821 ], [ -70.912742251848101, -33.754616199681898 ], [ -70.9127121219896, -33.7545164804067 ], [ -70.912691071171693, -33.754446797840501 ], [ -70.912662770585598, -33.754353123376198 ], [ -70.912639199514899, -33.754277965754703 ], [ -70.912602735511598, -33.754161686877801 ], [ -70.912564190897001, -33.754049129227603 ], [ -70.9125265029883, -33.7539452951887 ], [ -70.912490741705099, -33.753851940089099 ], [ -70.912450875854802, -33.7537613420673 ], [ -70.912401296114993, -33.753661344296397 ], [ -70.912350925601601, -33.7535614615539 ], [ -70.912293480384506, -33.753449977591401 ], [ -70.912240124350106, -33.7533486928738 ], [ -70.912177557717001, -33.753229847094097 ], [ -70.912118549537198, -33.753115579252899 ], [ -70.912065716147097, -33.753012337700298 ], [ -70.912017736179095, -33.7529164277719 ], [ -70.911977913506306, -33.752827487187801 ], [ -70.911938348081407, -33.752736418115802 ], [ -70.911882762073404, -33.752604913665401 ], [ -70.911855073216998, -33.7525362886918 ], [ -70.911808627977294, -33.752424343687899 ], [ -70.911757281382407, -33.752302942353502 ], [ -70.911710128838706, -33.752189175935797 ], [ -70.911641212006003, -33.752020243056002 ], [ -70.911574297886204, -33.751858699482597 ], [ -70.911493568238498, -33.751665724372202 ], [ -70.911425279815305, -33.7515013777519 ], [ -70.911364882130798, -33.751357185285002 ], [ -70.911323537794004, -33.7512619720966 ], [ -70.911284674682605, -33.751171643035001 ], [ -70.911217980461501, -33.751017949929 ], [ -70.911301966589804, -33.750986463647699 ], [ -70.911511495651894, -33.750908945196898 ], [ -70.911795278674902, -33.750803838154098 ], [ -70.912108262116007, -33.750687449110401 ], [ -70.912387726679896, -33.750581607799397 ], [ -70.912595139799194, -33.750504998618602 ], [ -70.912793178904906, -33.7504288049076 ], [ -70.913010486824106, -33.750345340885701 ], [ -70.913177908892905, -33.750280806281502 ], [ -70.913323190498701, -33.750227297565203 ], [ -70.913452990278401, -33.750178415662099 ], [ -70.913607302984005, -33.7501203643235 ], [ -70.9137399004195, -33.7500704612631 ], [ -70.913859577953502, -33.7500252932481 ], [ -70.913997226213795, -33.7499735072169 ], [ -70.914104493397701, -33.749933517131403 ], [ -70.914243567152397, -33.749881770940497 ], [ -70.914272091729799, -33.749871158728901 ], [ -70.914391505651096, -33.749826734619901 ], [ -70.914552351811693, -33.749767985626399 ], [ -70.914669287926202, -33.749725595231197 ], [ -70.914871723249405, -33.749652410362302 ], [ -70.915099378653906, -33.749568870542703 ], [ -70.915236458676603, -33.749518782722703 ], [ -70.915385072846306, -33.749463509311802 ], [ -70.915526434652307, -33.749410843390599 ], [ -70.915699962767803, -33.749346261146897 ], [ -70.915910516088104, -33.749268420078998 ], [ -70.916090466874095, -33.749202498604099 ], [ -70.916300926017698, -33.7491231740891 ], [ -70.916444035589393, -33.749068575533499 ], [ -70.916624264565002, -33.748999913112002 ], [ -70.915735943475894, -33.748228985738102 ], [ -70.914545888342502, -33.747144232773202 ], [ -70.914497792939002, -33.747100391680902 ], [ -70.914283707785202, -33.746849081484697 ], [ -70.914226291834794, -33.746782854998798 ], [ -70.914156466408798, -33.746702284081302 ], [ -70.914118776053201, -33.746657030744402 ], [ -70.9140916863266, -33.746626130021099 ], [ -70.914047182808403, -33.746577920935898 ], [ -70.913991176090406, -33.7465140350212 ], [ -70.913922282774607, -33.746434877852401 ], [ -70.913867417794194, -33.746371795651598 ], [ -70.913794482822993, -33.746289069792802 ], [ -70.913728628869706, -33.746215468758102 ], [ -70.913672874574999, -33.746154031491898 ], [ -70.913618495634793, -33.746094881315301 ], [ -70.913582010025607, -33.746058498425398 ], [ -70.913558206277997, -33.746027297747403 ], [ -70.913543564928503, -33.746008106789603 ], [ -70.913535244438904, -33.745993810736501 ], [ -70.913533326469206, -33.745989202849401 ], [ -70.913518845227202, -33.745954431028601 ], [ -70.913494612685994, -33.745885464198402 ], [ -70.913465624742301, -33.745779447551101 ], [ -70.913439812405798, -33.7456492277799 ], [ -70.913429098037099, -33.745588588078 ], [ -70.913416524697098, -33.745490913169299 ], [ -70.913405202914603, -33.745403074820999 ], [ -70.913396063204402, -33.745335328471498 ], [ -70.913381486330394, -33.745236963227001 ], [ -70.913370139126897, -33.745189522106401 ], [ -70.913347668990397, -33.745132139556901 ], [ -70.913312415158501, -33.745070374365703 ], [ -70.913295297343396, -33.745042364918 ] ] ] } },
{ "type": "Feature", "properties": { "id": "monoparte.11", "Name": null, "description": null, "timestamp": null, "begin": null, "end": null, "altitudeMode": null, "tessellate": -1, "extrude": 0, "visibility": -1, "drawOrder": null, "icon": null, "Shape_Leng": 780.56213058900005, "Shape_Area": 37973.53702090001, "REG": "Metropolitana", "COM": "Isla de Maipo", "LOC": "Isla de Maipo", "ZONA": "AV", "NOM": "AV Área verde", "UPERM": "Áreas verdes", "UPROH": "Todos los no mencionados como permitidos.", "P_DO": "16/04/1994", "N_DOC": "24", "T_DO": "Resolución", "OBS": null }, "geometry": { "type": "Polygon", "coordinates": [ [ [ -70.907069554511395, -33.751069511506302 ], [ -70.906223755158905, -33.749519718678997 ], [ -70.906225725153803, -33.749512255238997 ], [ -70.906184374376096, -33.749446249314403 ], [ -70.905927296459495, -33.749546021133703 ], [ -70.905621753912101, -33.749709019387197 ], [ -70.905226303430396, -33.749865075587799 ], [ -70.905009283664498, -33.749972557350802 ], [ -70.904298222640094, -33.750287596930697 ], [ -70.904301512954206, -33.750289844685902 ], [ -70.904297590825095, -33.750291439060099 ], [ -70.905102938124003, -33.751805382081599 ], [ -70.907069554511395, -33.751069511506302 ] ] ] } },
{ "type": "Feature", "properties": { "id": "monoparte.12", "Name": null, "description": null, "timestamp": null, "begin": null, "end": null, "altitudeMode": null, "tessellate": -1, "extrude": 0, "visibility": -1, "drawOrder": null, "icon": null, "Shape_Leng": 4024.5770750900001, "Shape_Area": 455800.87535799999, "REG": "Metropolitana", "COM": "Isla de Maipo", "LOC": "Isla de Maipo", "ZONA": "ZE", "NOM": "Zona ZE", "UPERM": "Vivienda, equipamiento regional, áreas verdes, deportes, esparcimiento y turismo.", "UPROH": "Todos los no mencionados como permitidos.", "P_DO": "16/04/1994", "N_DOC": "24", "T_DO": "Resolución", "OBS": null }, "geometry": { "type": "Polygon", "coordinates": [ [ [ -70.911614716079299, -33.7572941661386 ], [ -70.912214834037101, -33.7598667547066 ], [ -70.907279980577002, -33.759394718027899 ], [ -70.904891481777696, -33.759573086424297 ], [ -70.901326501641904, -33.760174946335503 ], [ -70.903627536378707, -33.765417419831898 ], [ -70.9038526792677, -33.765930327052402 ], [ -70.903871583001106, -33.765944903159301 ], [ -70.903905455938201, -33.765944714120103 ], [ -70.904021079500595, -33.765944157165897 ], [ -70.904090779214599, -33.765943908451 ], [ -70.904101787844894, -33.765943869313801 ], [ -70.904144250044595, -33.765945065275403 ], [ -70.904185911825707, -33.765948147379397 ], [ -70.904248636659801, -33.7659592129747 ], [ -70.904300480399598, -33.765971494292401 ], [ -70.904385796591697, -33.765994177156699 ], [ -70.904494458612106, -33.7660245133209 ], [ -70.904584427260204, -33.766049392094097 ], [ -70.904666992753107, -33.766071985567898 ], [ -70.904773189569596, -33.766099909525302 ], [ -70.904853439187207, -33.766119573721802 ], [ -70.904900181863496, -33.766130939824798 ], [ -70.904975245198798, -33.7661433078244 ], [ -70.905055275740295, -33.766142145208001 ], [ -70.905100144672602, -33.766127977801801 ], [ -70.905163939405895, -33.766092499623198 ], [ -70.905227927875401, -33.766046559205101 ], [ -70.905289478953605, -33.766000011652899 ], [ -70.905359810845098, -33.7659443372808 ], [ -70.905420425388897, -33.765891484774201 ], [ -70.905492161055903, -33.765828219493201 ], [ -70.905543735103606, -33.765778186499901 ], [ -70.905575887023105, -33.765746840710797 ], [ -70.905606232472394, -33.765706808453999 ], [ -70.905635810116706, -33.765662625643401 ], [ -70.905649764894306, -33.765635366203199 ], [ -70.905671823486799, -33.765578986333701 ], [ -70.905676815091795, -33.765553691338397 ], [ -70.905679966652002, -33.7655130240434 ], [ -70.905677267024103, -33.765482723283498 ], [ -70.905652462337699, -33.765413859511298 ], [ -70.905625211360004, -33.765358804800499 ], [ -70.905593048934705, -33.765301260502603 ], [ -70.905552452461095, -33.765235488275202 ], [ -70.9055147316773, -33.7651779297045 ], [ -70.905496336950904, -33.765151627049903 ], [ -70.905458347775394, -33.765099498340199 ], [ -70.905432353752005, -33.765063950324397 ], [ -70.905407248151803, -33.765022006107003 ], [ -70.905398886541207, -33.765006418904697 ], [ -70.905381260742303, -33.7649640769298 ], [ -70.905370936481404, -33.764927672836201 ], [ -70.905365815694907, -33.764904656692401 ], [ -70.905365120809606, -33.764885606561499 ], [ -70.905373483763796, -33.764827271363899 ], [ -70.905381078613601, -33.764769988628501 ], [ -70.905393353322594, -33.764693420368197 ], [ -70.905407165345196, -33.764623284784598 ], [ -70.905418646229293, -33.764564994312302 ], [ -70.905429865026406, -33.764503936856201 ], [ -70.905443572948599, -33.764406131350597 ], [ -70.905438998027805, -33.764327400329201 ], [ -70.905433510919195, -33.764232970670299 ], [ -70.9054295003194, -33.764167390844399 ], [ -70.905422844415199, -33.764073468873697 ], [ -70.9054153561313, -33.763967745229699 ], [ -70.905407295158597, -33.763853805706503 ], [ -70.905398282893202, -33.763739127922399 ], [ -70.905389286158993, -33.763630417574703 ], [ -70.905384344071805, -33.763567478877498 ], [ -70.905379283989305, -33.763502379642098 ], [ -70.905387810047202, -33.763465267846101 ], [ -70.905402239526296, -33.763437418579599 ], [ -70.905416101862599, -33.763411652059098 ], [ -70.905449981394796, -33.763364646257401 ], [ -70.905508561350899, -33.763283370007301 ], [ -70.9055504525532, -33.763221965093202 ], [ -70.905600632253197, -33.763146521099699 ], [ -70.905646958120798, -33.763075979822801 ], [ -70.905694658375594, -33.763003345116203 ], [ -70.905751158917596, -33.762917309955597 ], [ -70.905799485314503, -33.762844144336803 ], [ -70.905896964951907, -33.762703716553702 ], [ -70.905993542413498, -33.762564588506102 ], [ -70.906040120932502, -33.762497488712697 ], [ -70.906055355442007, -33.7624767569528 ], [ -70.906091138625996, -33.762525450618199 ], [ -70.906121086354602, -33.762567462391999 ], [ -70.906173250595302, -33.762637493205602 ], [ -70.906222626352204, -33.762701338793399 ], [ -70.906269741928199, -33.762762233634596 ], [ -70.906316253308802, -33.762821193651099 ], [ -70.906367689847599, -33.762879363380698 ], [ -70.906418870214694, -33.762937321530501 ], [ -70.906507496001097, -33.7630135635657 ], [ -70.906785679952804, -33.762970920518697 ], [ -70.906949869257602, -33.762945753189697 ], [ -70.907381239011798, -33.762847777895999 ], [ -70.907549065185705, -33.7628097002369 ], [ -70.908060100302094, -33.762649882714101 ], [ -70.908370337251299, -33.762552970960698 ], [ -70.908488276632397, -33.7625056859032 ], [ -70.908694149457006, -33.762423028933704 ], [ -70.908730392292895, -33.7624084977286 ], [ -70.909100645558098, -33.762289782413802 ], [ -70.909609394773298, -33.762126770238901 ], [ -70.909721659053503, -33.762090661374501 ], [ -70.910214870234199, -33.761945756881502 ], [ -70.910804203768294, -33.761772720227 ], [ -70.911343896584199, -33.761614153393197 ], [ -70.911405073532507, -33.761661901156003 ], [ -70.911478521077598, -33.761724358144299 ], [ -70.911534752662604, -33.761770123791202 ], [ -70.911622271065397, -33.7618313121868 ], [ -70.911710822124107, -33.761880268734402 ], [ -70.911802055312805, -33.761926562320198 ], [ -70.911890713050596, -33.761969327582797 ], [ -70.911975270000198, -33.762002351775202 ], [ -70.912061440743798, -33.7620324942094 ], [ -70.912155097709501, -33.762057194030398 ], [ -70.912257241126099, -33.762078466423901 ], [ -70.912332321242701, -33.762092728787898 ], [ -70.912473121474903, -33.762116165693598 ], [ -70.912620543017894, -33.762139742368802 ], [ -70.912727274458902, -33.7621544769219 ], [ -70.912784559374003, -33.762160683744703 ], [ -70.912863696024004, -33.762153968096897 ], [ -70.912961680316897, -33.762114097432502 ], [ -70.913044484577895, -33.762069838858203 ], [ -70.913151043385099, -33.762012931215899 ], [ -70.913305213207906, -33.761930164747902 ], [ -70.913466350974204, -33.761842459452801 ], [ -70.913583983060093, -33.761775747413601 ], [ -70.913650300867999, -33.761737902054499 ], [ -70.913709080649497, -33.761701657823401 ], [ -70.913772458897498, -33.761673929448001 ], [ -70.913868525371399, -33.761631899317301 ], [ -70.913913648721504, -33.761616820382002 ], [ -70.913996378002693, -33.761589140709297 ], [ -70.914047343109303, -33.761572118049003 ], [ -70.914109816800107, -33.761551252197698 ], [ -70.914208669815494, -33.761518121968898 ], [ -70.914325913955906, -33.761472266029202 ], [ -70.914386332592102, -33.761436479385999 ], [ -70.914422182515096, -33.7614019179235 ], [ -70.914450075077298, -33.761350342476 ], [ -70.914464477232499, -33.761302869113401 ], [ -70.914463053162606, -33.761273547012401 ], [ -70.914461411750906, -33.761228336140398 ], [ -70.914455911649796, -33.761163847471899 ], [ -70.914454294601498, -33.761117644314702 ], [ -70.914449670188006, -33.761017966353201 ], [ -70.914443536429999, -33.760913334241003 ], [ -70.914438523698294, -33.7608422138753 ], [ -70.914432506365699, -33.760771116308703 ], [ -70.914426552921299, -33.760700609286602 ], [ -70.914422016205904, -33.760647056310503 ], [ -70.914417669168301, -33.760595623972499 ], [ -70.914413063420398, -33.760545374212803 ], [ -70.914408569144101, -33.760500185052898 ], [ -70.914402603473704, -33.760440242921298 ], [ -70.914396916694798, -33.760382937638298 ], [ -70.914391109696496, -33.760325129248997 ], [ -70.914384948494103, -33.760268432780698 ], [ -70.9143770583959, -33.760243028026999 ], [ -70.914359365186002, -33.760185569058898 ], [ -70.914337816213504, -33.760122309542098 ], [ -70.914300911069901, -33.7600538102241 ], [ -70.914248295993403, -33.759982852113303 ], [ -70.914185770081602, -33.759912662704998 ], [ -70.914120239502395, -33.759843482020997 ], [ -70.914056439451102, -33.759785315278499 ], [ -70.913847829180696, -33.759602525222 ], [ -70.913756640573197, -33.759520923242803 ], [ -70.913667511340904, -33.759441039518698 ], [ -70.913583129532995, -33.7593634509577 ], [ -70.913518108476097, -33.759296024016201 ], [ -70.913462722572504, -33.759232759717399 ], [ -70.913392308856203, -33.759144627762801 ], [ -70.913339513076906, -33.759073348309101 ], [ -70.913296576403297, -33.759008100951903 ], [ -70.913249283580797, -33.758931094884304 ], [ -70.913186962527604, -33.758827690903402 ], [ -70.913114669200894, -33.758707076811199 ], [ -70.913051841945503, -33.758602400138699 ], [ -70.912958080686806, -33.758448567057997 ], [ -70.912907093994903, -33.758365528697503 ], [ -70.912849449192706, -33.758272559031496 ], [ -70.912791522486302, -33.758175836180101 ], [ -70.912725431983205, -33.758078669043897 ], [ -70.912681585895299, -33.758006264052 ], [ -70.912631496547803, -33.757914463932998 ], [ -70.912581797317699, -33.757822530599398 ], [ -70.9124886191683, -33.757635821676899 ], [ -70.912449707137199, -33.757548349694297 ], [ -70.912418793416606, -33.757478845227602 ], [ -70.912376807878204, -33.7573514181286 ], [ -70.912353516676305, -33.757278685430002 ], [ -70.912337313742299, -33.757202540727398 ], [ -70.912348249873105, -33.757200261189801 ], [ -70.912255031684495, -33.757187591844797 ], [ -70.912255716192305, -33.757192406416003 ], [ -70.911636423368805, -33.757290148080401 ], [ -70.911614716079299, -33.7572941661386 ] ] ] } },
{ "type": "Feature", "properties": { "id": "monoparte.13", "Name": null, "description": null, "timestamp": null, "begin": null, "end": null, "altitudeMode": null, "tessellate": -1, "extrude": 0, "visibility": -1, "drawOrder": null, "icon": null, "Shape_Leng": 3232.9677814500001, "Shape_Area": 537074.83667600004, "REG": "Metropolitana", "COM": "Isla de Maipo", "LOC": "Isla de Maipo", "ZONA": "Z4", "NOM": "Zona Z4", "UPERM": "Vivienda, equipamiento comunal del tipo: educación, organización comunitaria, áreas verdes, deportes, esparcimiento y turismo, comercio, servicio, industria y almacenamiento inofensivo, servicio artesanal. Más detalle revisar Ordenanza.", "UPROH": "Todos los no mencionados como permitidos.", "P_DO": "16/04/1994", "N_DOC": "24", "T_DO": "Resolución", "OBS": null }, "geometry": { "type": "Polygon", "coordinates": [ [ [ -70.9001785826824, -33.757810123620999 ], [ -70.900646042252006, -33.758674519216498 ], [ -70.900651824948696, -33.758673755648402 ], [ -70.900680934654901, -33.7587065019855 ], [ -70.900681091866105, -33.7587073147334 ], [ -70.900682376141305, -33.758707294951698 ], [ -70.901326501641904, -33.760174946335503 ], [ -70.904891481777696, -33.759573086424297 ], [ -70.907279980577002, -33.759394718027899 ], [ -70.912214834037101, -33.7598667547066 ], [ -70.911636423368805, -33.757290148080401 ], [ -70.911614716079299, -33.7572941661386 ], [ -70.910569840923102, -33.757487551687902 ], [ -70.910547258251, -33.757446242108699 ], [ -70.909150360758801, -33.754114558235202 ], [ -70.906238230320696, -33.754526117613601 ], [ -70.902608773966705, -33.755063232373402 ], [ -70.901351374473194, -33.7553605167166 ], [ -70.899410779249607, -33.756198385700301 ], [ -70.899306535628497, -33.756243391682297 ], [ -70.899333613222694, -33.756294974469299 ], [ -70.899336054166696, -33.756300506927097 ], [ -70.899407045328104, -33.756461370660197 ], [ -70.899659801449204, -33.756850803012803 ], [ -70.9001785826824, -33.757810123620999 ] ] ] } },
{ "type": "Feature", "properties": { "id": "monoparte.14", "Name": null, "description": null, "timestamp": null, "begin": null, "end": null, "altitudeMode": null, "tessellate": -1, "extrude": 0, "visibility": -1, "drawOrder": null, "icon": null, "Shape_Leng": 2663.5066142400001, "Shape_Area": 125963.758883, "REG": "Metropolitana", "COM": "Isla de Maipo", "LOC": "Isla de Maipo", "ZONA": "ZCH", "NOM": "ZCH Zona de Conservación Histórica, Av. Santelice", "UPERM": "Residencial: vivienda, hospedaje, hogares de acogida; Equipamiento: comercio, culto y cultura, deporte, educación, esparcimientos, salud, seguridad, Servicios y social; Áreas Verdes y Espacio Público. Y los no mencionados como prohibidos.", "UPROH": "Infraestructura Sanitaria; Equipamiento; Actividades Productivas e Infraestructura señaladas en la Modificación del Plan Regulador de Isla dee Maipo del Diario Oficial del 08 de a*", "P_DO": "16/04/1994", "N_DOC": "24", "T_DO": "Resolución", "OBS": null }, "geometry": { "type": "Polygon", "coordinates": [ [ [ -70.902817428714897, -33.753509906167899 ], [ -70.9024551931617, -33.753676705263402 ], [ -70.902345998531601, -33.753514116553902 ], [ -70.902261702508895, -33.753403718780802 ], [ -70.901862463290897, -33.753582341118197 ], [ -70.901743880880801, -33.7533976903621 ], [ -70.901069906061096, -33.7535481172091 ], [ -70.901170768022595, -33.753711114102799 ], [ -70.899969910144407, -33.754210985455202 ], [ -70.899840682473098, -33.754004080441902 ], [ -70.899833505892005, -33.753992589179099 ], [ -70.899169452747003, -33.754265831023801 ], [ -70.899097825553596, -33.754141311440499 ], [ -70.899087197153506, -33.7541568090409 ], [ -70.898885603191104, -33.754234943865299 ], [ -70.898986991265502, -33.754405250290802 ], [ -70.898756580184795, -33.754490809607297 ], [ -70.898765444548602, -33.754505214627599 ], [ -70.898875676178506, -33.754666458769101 ], [ -70.898648682430306, -33.754760942104397 ], [ -70.898804373093895, -33.755061423832302 ], [ -70.898337359385593, -33.755256419978899 ], [ -70.898236889916802, -33.755048544258997 ], [ -70.8978644811408, -33.755178652449899 ], [ -70.897729034945101, -33.755272993090202 ], [ -70.897512904601797, -33.755373530207201 ], [ -70.897576786310907, -33.755485183900198 ], [ -70.897567036135499, -33.755484904602604 ], [ -70.897196796931595, -33.755648151473302 ], [ -70.897018837308806, -33.755758552938303 ], [ -70.896984794200904, -33.755705516680202 ], [ -70.896612099346598, -33.755835597609497 ], [ -70.896102533292193, -33.7558753055959 ], [ -70.896014430657402, -33.755920499054099 ], [ -70.895984922331095, -33.755961690225597 ], [ -70.8960430161018, -33.756200259420702 ], [ -70.896046359978797, -33.756278568120102 ], [ -70.896227867448602, -33.756637998911501 ], [ -70.896753114717299, -33.756561999645598 ], [ -70.896863197071198, -33.756773201388803 ], [ -70.897059348084198, -33.7567020733579 ], [ -70.897098924964197, -33.756773603897301 ], [ -70.897155346399003, -33.756766845438499 ], [ -70.897557625668398, -33.756666748738503 ], [ -70.897694967003304, -33.756602741503002 ], [ -70.897975216994695, -33.756527889424099 ], [ -70.898486643165498, -33.756428475292203 ], [ -70.898511124733105, -33.756515977414097 ], [ -70.898523451520603, -33.756512076217597 ], [ -70.898530824910097, -33.756517019717798 ], [ -70.8987947815083, -33.756437242302198 ], [ -70.898731919657394, -33.756245839330298 ], [ -70.899239557539602, -33.7560653980414 ], [ -70.899234298135298, -33.756052780730201 ], [ -70.899362232928894, -33.756021792867202 ], [ -70.900276717760093, -33.7556967293676 ], [ -70.900369879461806, -33.755629018891597 ], [ -70.900391733110098, -33.755613136408499 ], [ -70.900392318548398, -33.755612710790501 ], [ -70.900768786260201, -33.755434625028599 ], [ -70.900657023493295, -33.755260563735099 ], [ -70.902396933334998, -33.754417916361298 ], [ -70.902829312439195, -33.755025747221403 ], [ -70.904090803975706, -33.754502110425499 ], [ -70.904110763250799, -33.754525968982101 ], [ -70.904738439521694, -33.7544298960999 ], [ -70.904658978291195, -33.754205462243497 ], [ -70.905597740989094, -33.754059143889897 ], [ -70.905594539582907, -33.7540558974814 ], [ -70.905538441062504, -33.753804649228798 ], [ -70.905531559283006, -33.753773829561403 ], [ -70.905527430034098, -33.753755339206201 ], [ -70.905461289996794, -33.753739259051997 ], [ -70.904567464549899, -33.753864092355897 ], [ -70.904426366692704, -33.753883797848999 ], [ -70.904308495406497, -33.753900259210802 ], [ -70.904304367055602, -33.753889900651799 ], [ -70.904246949666003, -33.753745830790798 ], [ -70.904233774848194, -33.753712771750202 ], [ -70.904064036646005, -33.753545865328697 ], [ -70.904024069462906, -33.753507446732698 ], [ -70.904249786913198, -33.753426603995401 ], [ -70.904418765718404, -33.753366082402799 ], [ -70.904483117986302, -33.753342206837502 ], [ -70.904570513581703, -33.753309834732001 ], [ -70.904678351829801, -33.7532698907807 ], [ -70.904696778316094, -33.753263065187397 ], [ -70.904309442056402, -33.752634704852397 ], [ -70.904301978256001, -33.752622596992701 ], [ -70.904154838257895, -33.752687413656297 ], [ -70.903478482423907, -33.752981413298798 ], [ -70.902812236040205, -33.753261494733998 ], [ -70.902779952969098, -33.753293590251701 ], [ -70.902783988734896, -33.753298694072697 ], [ -70.902800853571804, -33.753320017997503 ], [ -70.902918784635006, -33.753469140310699 ], [ -70.902817428714897, -33.753509906167899 ] ] ] } },
{ "type": "Feature", "properties": { "id": "monoparte.15", "Name": null, "description": null, "timestamp": null, "begin": null, "end": null, "altitudeMode": null, "tessellate": -1, "extrude": 0, "visibility": -1, "drawOrder": null, "icon": null, "Shape_Leng": 11192.354285, "Shape_Area": 1812490.1476499999, "REG": "Metropolitana", "COM": "Isla de Maipo", "LOC": "Isla de Maipo", "ZONA": "Z2", "NOM": "Zona Z2", "UPERM": "Vivienda, equipamiento comunal en todos sus tipos, almacenamiento inofensivo, establecimientos de impacto similar al industrial inofensivo y servicios artesanales.", "UPROH": "Todos los no mencionados como permitidos.", "P_DO": "16/04/1994", "N_DOC": "24", "T_DO": "Resolución", "OBS": null }, "geometry": { "type": "Polygon", "coordinates": [ [ [ -70.899169452747003, -33.754265831023801 ], [ -70.900728487018995, -33.753624317746102 ], [ -70.901769687055904, -33.753391930948297 ], [ -70.900291819332196, -33.751388477676898 ], [ -70.900249908974601, -33.751410592476397 ], [ -70.900191211435498, -33.751449345798598 ], [ -70.900120732171601, -33.751486924283398 ], [ -70.899916443886994, -33.751611466792603 ], [ -70.899857586313402, -33.751655407413203 ], [ -70.899832714002301, -33.751669912421299 ], [ -70.899690065531104, -33.751753104196403 ], [ -70.899591988003706, -33.751715308984799 ], [ -70.899585302604905, -33.7517049328018 ], [ -70.899283051162598, -33.751219583485103 ], [ -70.8992869464591, -33.7512181366642 ], [ -70.899278954184595, -33.751205376543297 ], [ -70.899321085761599, -33.751182467842199 ], [ -70.899784338517605, -33.750921572247002 ], [ -70.899905700385503, -33.750866280512 ], [ -70.900096323509203, -33.750809921394399 ], [ -70.900666422110803, -33.750560733087902 ], [ -70.900611375698105, -33.750481444366102 ], [ -70.9012235039838, -33.750204894995498 ], [ -70.901325388298503, -33.750170059386299 ], [ -70.901712900446597, -33.7500375649986 ], [ -70.901836435008804, -33.750564967428303 ], [ -70.901615314516306, -33.750865636034099 ], [ -70.901671567326005, -33.750940841562503 ], [ -70.903164422115793, -33.752810095685 ], [ -70.903218681478506, -33.752786296175501 ], [ -70.903221029153102, -33.752783109302001 ], [ -70.904095705408594, -33.752310861058703 ], [ -70.904144457021104, -33.752380226956603 ], [ -70.904150849406903, -33.752377423115 ], [ -70.904698516110599, -33.753265885146199 ], [ -70.906560237915599, -33.752578850538697 ], [ -70.907610189938396, -33.752199928020502 ], [ -70.907673404293405, -33.752175933148699 ], [ -70.909735750004501, -33.751393106572799 ], [ -70.908498026204697, -33.749655360026097 ], [ -70.907613350840407, -33.7480329072514 ], [ -70.907321609329799, -33.747424578341999 ], [ -70.907090743091601, -33.746927654392003 ], [ -70.906997442475401, -33.746685738155797 ], [ -70.906998487499493, -33.746677114934201 ], [ -70.906994925279193, -33.746677793977803 ], [ -70.9069934676033, -33.7466753367259 ], [ -70.906697446587899, -33.746176067775103 ], [ -70.906572689069407, -33.745965649652902 ], [ -70.906567519913693, -33.745956931261603 ], [ -70.906366008904897, -33.745617057660397 ], [ -70.906037671469903, -33.745063267496498 ], [ -70.905777528618202, -33.744624492219899 ], [ -70.9054546179526, -33.744079840350899 ], [ -70.905146756106006, -33.743560562756997 ], [ -70.904734673735106, -33.742865485794297 ], [ -70.904322088026404, -33.742169543943596 ], [ -70.904261495613198, -33.7420673362546 ], [ -70.904102528604597, -33.7417991908167 ], [ -70.904040578984606, -33.741694692787597 ], [ -70.902652391859505, -33.742290414021902 ], [ -70.901087450298405, -33.742911625902003 ], [ -70.899923107349196, -33.743373799568602 ], [ -70.898494111501606, -33.743952061107002 ], [ -70.897925784320805, -33.744180551912699 ], [ -70.897774497965003, -33.744249103708498 ], [ -70.897145734724006, -33.7445460018671 ], [ -70.896880159677494, -33.744671403725398 ], [ -70.896778719390397, -33.744709385761297 ], [ -70.896606614766597, -33.744756570177898 ], [ -70.896101087405199, -33.7448947388908 ], [ -70.895820608556093, -33.7449695887532 ], [ -70.895294120922003, -33.7451118445289 ], [ -70.8950037001011, -33.745193017633198 ], [ -70.894465818765198, -33.745344952795101 ], [ -70.894520288985703, -33.745394288545597 ], [ -70.894521326608597, -33.745397835389198 ], [ -70.894531979916096, -33.745392507599099 ], [ -70.894605305280706, -33.745477602701698 ], [ -70.894620967083796, -33.745495778496199 ], [ -70.895665311652806, -33.746542208909702 ], [ -70.896083198652207, -33.747029038818901 ], [ -70.896071201500604, -33.747035011392398 ], [ -70.895042990125901, -33.747598135563102 ], [ -70.8950016675537, -33.747618050133802 ], [ -70.893538289866598, -33.748401982582202 ], [ -70.893420348452906, -33.748462158034798 ], [ -70.890604338883904, -33.749959308717898 ], [ -70.890583892616206, -33.749964776282198 ], [ -70.891357375392701, -33.751119615466898 ], [ -70.891231610029394, -33.751162246447599 ], [ -70.890785383009302, -33.751296440168502 ], [ -70.890364656945906, -33.751417958192299 ], [ -70.890024901815707, -33.751513545135801 ], [ -70.889849941449597, -33.751560664948599 ], [ -70.889579755091901, -33.751629795041303 ], [ -70.8893053483188, -33.751696063016702 ], [ -70.889260455444102, -33.751704597219401 ], [ -70.889128043685901, -33.751728672651197 ], [ -70.889054744661294, -33.751736074388901 ], [ -70.888975880975195, -33.751745306124903 ], [ -70.888874352400705, -33.751752687176896 ], [ -70.888736041582206, -33.751759713118801 ], [ -70.888632379877393, -33.751764240150898 ], [ -70.888521114780801, -33.751765991571602 ], [ -70.888367887041198, -33.751770446372902 ], [ -70.888155239904094, -33.751777356593401 ], [ -70.887955471280605, -33.751783087434703 ], [ -70.887830668691194, -33.751786591816199 ], [ -70.887611973617496, -33.751786932467198 ], [ -70.887419832985103, -33.751786569036497 ], [ -70.887210788607106, -33.751773016159099 ], [ -70.887092928697598, -33.751758608772803 ], [ -70.887042002479603, -33.751750456659501 ], [ -70.886890108737902, -33.751726132744103 ], [ -70.886598386158198, -33.751676504573197 ], [ -70.886619688358195, -33.751735695553897 ], [ -70.886812895839199, -33.7522725430306 ], [ -70.886815715370304, -33.752276575786098 ], [ -70.886861285368596, -33.752341778191003 ], [ -70.886906781586205, -33.7524068617738 ], [ -70.886956144087904, -33.752477484221203 ], [ -70.887002910124906, -33.752544397816699 ], [ -70.887048658411899, -33.752609840887899 ], [ -70.887091864970799, -33.752670083699698 ], [ -70.887145990048893, -33.752744620728201 ], [ -70.887186500690007, -33.752800407753497 ], [ -70.887237661690193, -33.752870861900902 ], [ -70.887284142125196, -33.752934870733299 ], [ -70.887330973156494, -33.752999357516899 ], [ -70.887376019029105, -33.753061395406 ], [ -70.887422849161396, -33.753125883968004 ], [ -70.887463268812596, -33.753181541531802 ], [ -70.887513003534096, -33.753250043458998 ], [ -70.887561679268998, -33.753317065575899 ], [ -70.887730753873498, -33.753549896500701 ], [ -70.8878315828224, -33.753688744995102 ], [ -70.887901221926896, -33.753784643688803 ], [ -70.888003462935302, -33.753925437118603 ], [ -70.888161611932006, -33.754139416858301 ], [ -70.888642600583196, -33.754788549682402 ], [ -70.888770637078196, -33.754965193018101 ], [ -70.888853375181796, -33.755079339305297 ], [ -70.889778156493904, -33.754603872911296 ], [ -70.889906246379198, -33.754538025823301 ], [ -70.890064511848806, -33.754456661008597 ], [ -70.890354638397397, -33.754308183259802 ], [ -70.890526970555001, -33.754219989034297 ], [ -70.890627970478405, -33.754170266313302 ], [ -70.890635340510102, -33.754167023465399 ], [ -70.890714243422906, -33.7543136104821 ], [ -70.891131998591305, -33.755089710939799 ], [ -70.891986392627402, -33.756676944785497 ], [ -70.892250117572999, -33.756641816340696 ], [ -70.892290792044406, -33.756636398082399 ], [ -70.892360224622806, -33.756626784870498 ], [ -70.892510660505295, -33.756607607214903 ], [ -70.892668931021205, -33.756586773553103 ], [ -70.892775779275397, -33.756571718655501 ], [ -70.892892027495506, -33.756555496003998 ], [ -70.893055142280005, -33.7565331122982 ], [ -70.893253604424103, -33.756508535892998 ], [ -70.893464025501302, -33.756482470858202 ], [ -70.893654971406406, -33.756451363331998 ], [ -70.893796084093395, -33.7564235235212 ], [ -70.895391040492399, -33.759616481475597 ], [ -70.896510679609605, -33.761857732986499 ], [ -70.896514931573506, -33.761872156737297 ], [ -70.896688292667093, -33.761846896353397 ], [ -70.896685853494603, -33.761842963500698 ], [ -70.898620532000095, -33.761461609324002 ], [ -70.897683700150907, -33.759153622628098 ], [ -70.897687358869604, -33.759153033434998 ], [ -70.897684467386497, -33.7591462111778 ], [ -70.898511009865203, -33.758910620355401 ], [ -70.898576433996098, -33.758916726655002 ], [ -70.898732769915398, -33.7589261763015 ], [ -70.898937724028698, -33.758951521828003 ], [ -70.899222633748195, -33.758905603964301 ], [ -70.899271309991505, -33.758889435976499 ], [ -70.899485825474898, -33.758833971304099 ], [ -70.899793986059393, -33.758777065455398 ], [ -70.9001305755869, -33.758722090844898 ], [ -70.900326325680894, -33.758716705755603 ], [ -70.900593671708506, -33.758681429706797 ], [ -70.900646042252006, -33.758674519216498 ], [ -70.9001785826824, -33.757810123620999 ], [ -70.899659801449204, -33.756850803012803 ], [ -70.899407045328104, -33.756461370660197 ], [ -70.899336054166696, -33.756300506927097 ], [ -70.899333685194705, -33.756300928430903 ], [ -70.898836358486705, -33.756446387287099 ], [ -70.8985502768668, -33.756530059839299 ], [ -70.898523451520603, -33.756512076217597 ], [ -70.897753572591299, -33.756755711731003 ], [ -70.897693710059102, -33.756837575852401 ], [ -70.897043932990599, -33.757134548999701 ], [ -70.896952029621303, -33.757161716325299 ], [ -70.897028390904396, -33.7573367229284 ], [ -70.896081717755393, -33.757549936125201 ], [ -70.896041622269394, -33.7574800823419 ], [ -70.895365552955695, -33.756178604503297 ], [ -70.895213389925203, -33.755783699975403 ], [ -70.898478897033797, -33.7545431877342 ], [ -70.897976429722405, -33.7535682341517 ], [ -70.897966170461601, -33.753548326478601 ], [ -70.897956571521306, -33.7535302148288 ], [ -70.898366333825294, -33.753368205507897 ], [ -70.898583193204004, -33.753279117747297 ], [ -70.898857752721696, -33.753723959415602 ], [ -70.899169452747003, -33.754265831023801 ] ], [ [ -70.906223755158905, -33.749519718678997 ], [ -70.907069554511395, -33.751069511506302 ], [ -70.905102938124003, -33.751805382081599 ], [ -70.904297590825095, -33.750291439060099 ], [ -70.904301512954206, -33.750289844685902 ], [ -70.904298222640094, -33.750287596930697 ], [ -70.905009283664498, -33.749972557350802 ], [ -70.905226303430396, -33.749865075587799 ], [ -70.905621753912101, -33.749709019387197 ], [ -70.905927296459495, -33.749546021133703 ], [ -70.906184374376096, -33.749446249314403 ], [ -70.906225725153803, -33.749512255238997 ], [ -70.906223755158905, -33.749519718678997 ] ], [ [ -70.896151750542899, -33.749533800338803 ], [ -70.895590030698699, -33.749732639454699 ], [ -70.894549144811293, -33.750032506334101 ], [ -70.894207370598593, -33.749384082246898 ], [ -70.894184170432794, -33.749343440783498 ], [ -70.894168806770196, -33.749308715278197 ], [ -70.894722537208295, -33.749237399294202 ], [ -70.895275417261999, -33.749127438174398 ], [ -70.8954484647996, -33.7491054526879 ], [ -70.895763973501204, -33.749012181186004 ], [ -70.895845005463798, -33.748988226145798 ], [ -70.896216590973907, -33.748871882241097 ], [ -70.896494160973802, -33.748784973753402 ], [ -70.896610986380196, -33.748750130651104 ], [ -70.897193892909002, -33.748477897095498 ], [ -70.897530252707398, -33.748937613409403 ], [ -70.897544951105104, -33.748945664469602 ], [ -70.897265327314798, -33.749083768797902 ], [ -70.896850311490198, -33.749284139148202 ], [ -70.896835034649897, -33.749291925105602 ], [ -70.896151750542899, -33.749533800338803 ] ] ] } },
{ "type": "Feature", "properties": { "id": "monoparte.16", "Name": null, "description": null, "timestamp": null, "begin": null, "end": null, "altitudeMode": null, "tessellate": -1, "extrude": 0, "visibility": -1, "drawOrder": null, "icon": null, "Shape_Leng": 6255.8879073999997, "Shape_Area": 683513.36859099998, "REG": "Metropolitana", "COM": "Isla de Maipo", "LOC": "Isla de Maipo", "ZONA": "Z3", "NOM": "Zona Z3", "UPERM": "Vivienda, equipamiento comunal en todos sus tipos, almacenamiento inofensivo, establecimientos de impacto similar al industrial inofensivo y servicios artesanales.", "UPROH": "Todos los no mencionados como permitidos.", "P_DO": "16/04/1994", "N_DOC": "24", "T_DO": "Resolución", "OBS": null }, "geometry": { "type": "Polygon", "coordinates": [ [ [ -70.899222633748195, -33.758905603964301 ], [ -70.898937724028698, -33.758951521828003 ], [ -70.898732769915398, -33.7589261763015 ], [ -70.898576433996098, -33.758916726655002 ], [ -70.898511009865203, -33.758910620355401 ], [ -70.897684467386497, -33.7591462111778 ], [ -70.897687358869604, -33.759153033434998 ], [ -70.897683700150907, -33.759153622628098 ], [ -70.898620532000095, -33.761461609324002 ], [ -70.896685853494603, -33.761842963500698 ], [ -70.896688292667093, -33.761846896353397 ], [ -70.896514931573506, -33.761872156737297 ], [ -70.899714032589401, -33.772723684192997 ], [ -70.900191653128502, -33.774600690098502 ], [ -70.900480207637301, -33.774547855525398 ], [ -70.900501020089493, -33.774559370170401 ], [ -70.900494629944703, -33.774535566344603 ], [ -70.901727957244603, -33.774399678023002 ], [ -70.901764789764997, -33.774395619633196 ], [ -70.901670734239303, -33.773843498634498 ], [ -70.901394723738207, -33.772988849344401 ], [ -70.900915371830294, -33.771464524081203 ], [ -70.900419851382196, -33.769983391361301 ], [ -70.900218727375901, -33.769413886689001 ], [ -70.899609685541805, -33.7674477847726 ], [ -70.899578969023395, -33.766832709752897 ], [ -70.899578279230596, -33.766801458111601 ], [ -70.8995752709165, -33.766800270853203 ], [ -70.899570962930895, -33.766605092544701 ], [ -70.899860389735494, -33.766478608030198 ], [ -70.900447353648104, -33.766262120728904 ], [ -70.9006431872006, -33.766198090083002 ], [ -70.900854568738794, -33.766176529381497 ], [ -70.901379439180701, -33.766125732292203 ], [ -70.901648570859805, -33.766072773677799 ], [ -70.901672231885598, -33.766151727412002 ], [ -70.901663148880502, -33.766168797479402 ], [ -70.901711904033704, -33.7663990308412 ], [ -70.9016287626646, -33.766514832615101 ], [ -70.9022339934032, -33.769082215208101 ], [ -70.902468012230997, -33.769846848527401 ], [ -70.902761577513203, -33.770720312059098 ], [ -70.903424023137205, -33.772771460960698 ], [ -70.903652470574997, -33.773283277874597 ], [ -70.903851624372507, -33.773888836985797 ], [ -70.903855932082493, -33.773901935818202 ], [ -70.905010236315803, -33.773412654794903 ], [ -70.905688448299102, -33.773121309432 ], [ -70.905688859390906, -33.773123587172201 ], [ -70.906167252610103, -33.772930344873103 ], [ -70.906144639912, -33.772878232316899 ], [ -70.906023815417996, -33.772599825033097 ], [ -70.905905665407502, -33.772327470201901 ], [ -70.905777608001898, -33.772032333588598 ], [ -70.905607009475105, -33.771639256564299 ], [ -70.905461139342194, -33.771302960929198 ], [ -70.905383457891205, -33.771079285442902 ], [ -70.905175710635504, -33.7704690514974 ], [ -70.905136898721196, -33.770355043177403 ], [ -70.904988614730996, -33.769919467156001 ], [ -70.904751392513703, -33.769161564958601 ], [ -70.904641689987301, -33.768811069187002 ], [ -70.904586937718705, -33.768630911133997 ], [ -70.904268711959205, -33.767583807730098 ], [ -70.903881049769495, -33.766248974359698 ], [ -70.903873722239098, -33.766173483300697 ], [ -70.9038724077963, -33.766033044903502 ], [ -70.903871583001106, -33.765944903159301 ], [ -70.9038526792677, -33.765930327052402 ], [ -70.903627536378707, -33.765417419831898 ], [ -70.901326501641904, -33.760174946335503 ], [ -70.900682376141305, -33.758707294951698 ], [ -70.900681091866105, -33.7587073147334 ], [ -70.900680934654901, -33.7587065019855 ], [ -70.900651824948696, -33.758673755648402 ], [ -70.900646042252006, -33.758674519216498 ], [ -70.900593671708506, -33.758681429706797 ], [ -70.900326325680894, -33.758716705755603 ], [ -70.9001305755869, -33.758722090844898 ], [ -70.899793986059393, -33.758777065455398 ], [ -70.899485825474898, -33.758833971304099 ], [ -70.899271309991505, -33.758889435976499 ], [ -70.899222633748195, -33.758905603964301 ] ] ] } },
{ "type": "Feature", "properties": { "id": "monoparte.17", "Name": null, "description": null, "timestamp": null, "begin": null, "end": null, "altitudeMode": null, "tessellate": -1, "extrude": 0, "visibility": -1, "drawOrder": null, "icon": null, "Shape_Leng": 2196.33438054, "Shape_Area": 174640.32705200001, "REG": "Metropolitana", "COM": "Isla de Maipo", "LOC": "Isla de Maipo", "ZONA": "Z1", "NOM": "Zona Z1", "UPERM": "Vivienda, equipamiento comunal en todos sus tipos, almacenamiento inofensivo, establecimientos de impacto similar al industrial inofensivo y servicios artesanales.", "UPROH": "Todos los no mencionados como permitidos.", "P_DO": "16/04/1994", "N_DOC": "24", "T_DO": "Resolución", "OBS": null }, "geometry": { "type": "Polygon", "coordinates": [ [ [ -70.901670734239303, -33.773843498634498 ], [ -70.901764789764997, -33.774395619633196 ], [ -70.902148815225402, -33.774379668290699 ], [ -70.902197045979705, -33.7743704348172 ], [ -70.903083299431998, -33.774200776691401 ], [ -70.903117669179196, -33.774194196770502 ], [ -70.903855932082493, -33.773901935818202 ], [ -70.903851624372507, -33.773888836985797 ], [ -70.903652470574997, -33.773283277874597 ], [ -70.903424023137205, -33.772771460960698 ], [ -70.902761577513203, -33.770720312059098 ], [ -70.902468012230997, -33.769846848527401 ], [ -70.9022339934032, -33.769082215208101 ], [ -70.9016287626646, -33.766514832615101 ], [ -70.901711904033704, -33.7663990308412 ], [ -70.901663148880502, -33.766168797479402 ], [ -70.901672231885598, -33.766151727412002 ], [ -70.901648570859805, -33.766072773677799 ], [ -70.901379439180701, -33.766125732292203 ], [ -70.900854568738794, -33.766176529381497 ], [ -70.9006431872006, -33.766198090083002 ], [ -70.900447353648104, -33.766262120728904 ], [ -70.899860389735494, -33.766478608030198 ], [ -70.899570962930895, -33.766605092544701 ], [ -70.8995752709165, -33.766800270853203 ], [ -70.899578279230596, -33.766801458111601 ], [ -70.899578969023395, -33.766832709752897 ], [ -70.899609685541805, -33.7674477847726 ], [ -70.900218727375901, -33.769413886689001 ], [ -70.900419851382196, -33.769983391361301 ], [ -70.900915371830294, -33.771464524081203 ], [ -70.901271613108094, -33.772847595458103 ], [ -70.901394723738207, -33.772988849344401 ], [ -70.901670734239303, -33.773843498634498 ] ] ] } },
{ "type": "Feature", "properties": { "id": "monoparte.18", "Name": null, "description": null, "timestamp": null, "begin": null, "end": null, "altitudeMode": null, "tessellate": -1, "extrude": 0, "visibility": -1, "drawOrder": null, "icon": null, "Shape_Leng": 56.731028084899997, "Shape_Area": 4.9908441363799998, "REG": "Metropolitana", "COM": "Isla de Maipo", "LOC": "Isla de Maipo", "ZONA": "Z1", "NOM": "Zona Z1", "UPERM": "Vivienda, equipamiento comunal en todos sus tipos, almacenamiento inofensivo, establecimientos de impacto similar al industrial inofensivo y servicios artesanales.", "UPROH": "Todos los no mencionados como permitidos.", "P_DO": "16/04/1994", "N_DOC": "24", "T_DO": "Resolución", "OBS": null }, "geometry": { "type": "Polygon", "coordinates": [ [ [ -70.904418765718404, -33.753366082402799 ], [ -70.904698516110599, -33.753265885146199 ], [ -70.904696778316094, -33.753263065187397 ], [ -70.904678351829801, -33.7532698907807 ], [ -70.904570513581703, -33.753309834732001 ], [ -70.904483117986302, -33.753342206837502 ], [ -70.904418765718404, -33.753366082402799 ] ] ] } },
{ "type": "Feature", "properties": { "id": "monoparte.19", "Name": null, "description": null, "timestamp": null, "begin": null, "end": null, "altitudeMode": null, "tessellate": -1, "extrude": 0, "visibility": -1, "drawOrder": null, "icon": null, "Shape_Leng": 297.156378958, "Shape_Area": 3259.3404517399999, "REG": "Metropolitana", "COM": "Isla de Maipo", "LOC": "Isla de Maipo", "ZONA": "Z1", "NOM": "Zona Z1", "UPERM": "Vivienda, equipamiento comunal en todos sus tipos, almacenamiento inofensivo, establecimientos de impacto similar al industrial inofensivo y servicios artesanales.", "UPROH": "Todos los no mencionados como permitidos.", "P_DO": "16/04/1994", "N_DOC": "24", "T_DO": "Resolución", "OBS": null }, "geometry": { "type": "Polygon", "coordinates": [ [ [ -70.899833505892005, -33.753992589179099 ], [ -70.899840682473098, -33.754004080441902 ], [ -70.899969910144407, -33.754210985455202 ], [ -70.901170768022595, -33.753711114102799 ], [ -70.901069906061096, -33.7535481172091 ], [ -70.900728487018995, -33.753624317746102 ], [ -70.899833505892005, -33.753992589179099 ] ] ] } },
{ "type": "Feature", "properties": { "id": "monoparte.20", "Name": null, "description": null, "timestamp": null, "begin": null, "end": null, "altitudeMode": null, "tessellate": -1, "extrude": 0, "visibility": -1, "drawOrder": null, "icon": null, "Shape_Leng": 1803.4922086, "Shape_Area": 28456.609510099999, "REG": "Metropolitana", "COM": "Isla de Maipo", "LOC": "Isla de Maipo", "ZONA": "Z1", "NOM": "Zona Z1", "UPERM": "Vivienda, equipamiento comunal en todos sus tipos, almacenamiento inofensivo, establecimientos de impacto similar al industrial inofensivo y servicios artesanales.", "UPROH": "Todos los no mencionados como permitidos.", "P_DO": "16/04/1994", "N_DOC": "24", "T_DO": "Resolución", "OBS": null }, "geometry": { "type": "Polygon", "coordinates": [ [ [ -70.905461289996794, -33.753739259051997 ], [ -70.905527430034098, -33.753755339206201 ], [ -70.905531559283006, -33.753773829561403 ], [ -70.905538441062504, -33.753804649228798 ], [ -70.905594539582907, -33.7540558974814 ], [ -70.905597740989094, -33.754059143889897 ], [ -70.904658978291195, -33.754205462243497 ], [ -70.904738439521694, -33.7544298960999 ], [ -70.904110763250799, -33.754525968982101 ], [ -70.904090803975706, -33.754502110425499 ], [ -70.902829312439195, -33.755025747221403 ], [ -70.902396933334998, -33.754417916361298 ], [ -70.900657023493295, -33.755260563735099 ], [ -70.900768786260201, -33.755434625028599 ], [ -70.900392318548398, -33.755612710790501 ], [ -70.900391733110098, -33.755613136408499 ], [ -70.900369879461806, -33.755629018891597 ], [ -70.900276717760093, -33.7556967293676 ], [ -70.899362232928894, -33.756021792867202 ], [ -70.899234298135298, -33.756052780730201 ], [ -70.899239557539602, -33.7560653980414 ], [ -70.898731919657394, -33.756245839330298 ], [ -70.8987947815083, -33.756437242302198 ], [ -70.898530824910097, -33.756517019717798 ], [ -70.8985502768668, -33.756530059839299 ], [ -70.898836358486705, -33.756446387287099 ], [ -70.899333685194705, -33.756300928430903 ], [ -70.899336054166696, -33.756300506927097 ], [ -70.899333613222694, -33.756294974469299 ], [ -70.899306535628497, -33.756243391682297 ], [ -70.899410779249607, -33.756198385700301 ], [ -70.901351374473194, -33.7553605167166 ], [ -70.902608773966705, -33.755063232373402 ], [ -70.906238230320696, -33.754526117613601 ], [ -70.906005727469903, -33.753747060962397 ], [ -70.905983487614606, -33.753666324889899 ], [ -70.905461289996794, -33.753739259051997 ] ] ] } },
{ "type": "Feature", "properties": { "id": "monoparte.21", "Name": null, "description": null, "timestamp": null, "begin": null, "end": null, "altitudeMode": null, "tessellate": -1, "extrude": 0, "visibility": -1, "drawOrder": null, "icon": null, "Shape_Leng": 1919.3156239699999, "Shape_Area": 43678.039864899998, "REG": "Metropolitana", "COM": "Isla de Maipo", "LOC": "Isla de Maipo", "ZONA": "Z1", "NOM": "Zona Z1", "UPERM": "Vivienda, equipamiento comunal en todos sus tipos, almacenamiento inofensivo, establecimientos de impacto similar al industrial inofensivo y servicios artesanales.", "UPROH": "Todos los no mencionados como permitidos.", "P_DO": "16/04/1994", "N_DOC": "24", "T_DO": "Resolución", "OBS": null }, "geometry": { "type": "Polygon", "coordinates": [ [ [ -70.898511124733105, -33.756515977414097 ], [ -70.898486643165498, -33.756428475292203 ], [ -70.897975216994695, -33.756527889424099 ], [ -70.897694967003304, -33.756602741503002 ], [ -70.897557625668398, -33.756666748738503 ], [ -70.897155346399003, -33.756766845438499 ], [ -70.897098924964197, -33.756773603897301 ], [ -70.897059348084198, -33.7567020733579 ], [ -70.896863197071198, -33.756773201388803 ], [ -70.896753114717299, -33.756561999645598 ], [ -70.896227867448602, -33.756637998911501 ], [ -70.896046359978797, -33.756278568120102 ], [ -70.8960430161018, -33.756200259420702 ], [ -70.895984922331095, -33.755961690225597 ], [ -70.896014430657402, -33.755920499054099 ], [ -70.896102533292193, -33.7558753055959 ], [ -70.896612099346598, -33.755835597609497 ], [ -70.896984794200904, -33.755705516680202 ], [ -70.897018837308806, -33.755758552938303 ], [ -70.897196796931595, -33.755648151473302 ], [ -70.897567036135499, -33.755484904602604 ], [ -70.897576786310907, -33.755485183900198 ], [ -70.897512904601797, -33.755373530207201 ], [ -70.897729034945101, -33.755272993090202 ], [ -70.8978644811408, -33.755178652449899 ], [ -70.898236889916802, -33.755048544258997 ], [ -70.898337359385593, -33.755256419978899 ], [ -70.898804373093895, -33.755061423832302 ], [ -70.898648682430306, -33.754760942104397 ], [ -70.898875676178506, -33.754666458769101 ], [ -70.898765444548602, -33.754505214627599 ], [ -70.898756580184795, -33.754490809607297 ], [ -70.898986991265502, -33.754405250290802 ], [ -70.898885603191104, -33.754234943865299 ], [ -70.899087197153506, -33.7541568090409 ], [ -70.899097825553596, -33.754141311440499 ], [ -70.898857752721696, -33.753723959415602 ], [ -70.898583193204004, -33.753279117747297 ], [ -70.898366333825294, -33.753368205507897 ], [ -70.897956571521306, -33.7535302148288 ], [ -70.897966170461601, -33.753548326478601 ], [ -70.897976429722405, -33.7535682341517 ], [ -70.898478897033797, -33.7545431877342 ], [ -70.895213389925203, -33.755783699975403 ], [ -70.895365552955695, -33.756178604503297 ], [ -70.896041622269394, -33.7574800823419 ], [ -70.896081717755393, -33.757549936125201 ], [ -70.897028390904396, -33.7573367229284 ], [ -70.896952029621303, -33.757161716325299 ], [ -70.897043932990599, -33.757134548999701 ], [ -70.897693710059102, -33.756837575852401 ], [ -70.897753572591299, -33.756755711731003 ], [ -70.898511124733105, -33.756515977414097 ] ] ] } },
{ "type": "Feature", "properties": { "id": "monoparte.22", "Name": null, "description": null, "timestamp": null, "begin": null, "end": null, "altitudeMode": null, "tessellate": -1, "extrude": 0, "visibility": -1, "drawOrder": null, "icon": null, "Shape_Leng": 1510.5132390700001, "Shape_Area": 62979.7515604, "REG": "Metropolitana", "COM": "Isla de Maipo", "LOC": "Isla de Maipo", "ZONA": "Z1", "NOM": "Zona Z1", "UPERM": "Vivienda, equipamiento comunal en todos sus tipos, almacenamiento inofensivo, establecimientos de impacto similar al industrial inofensivo y servicios artesanales.", "UPROH": "Todos los no mencionados como permitidos.", "P_DO": "16/04/1994", "N_DOC": "24", "T_DO": "Resolución", "OBS": null }, "geometry": { "type": "Polygon", "coordinates": [ [ [ -70.901743880880801, -33.7533976903621 ], [ -70.901862463290897, -33.753582341118197 ], [ -70.902261702508895, -33.753403718780802 ], [ -70.902345998531601, -33.753514116553902 ], [ -70.9024551931617, -33.753676705263402 ], [ -70.902817428714897, -33.753509906167899 ], [ -70.902918784635006, -33.753469140310699 ], [ -70.902800853571804, -33.753320017997503 ], [ -70.902783988734896, -33.753298694072697 ], [ -70.902779952969098, -33.753293590251701 ], [ -70.902812236040205, -33.753261494733998 ], [ -70.903478482423907, -33.752981413298798 ], [ -70.904154838257895, -33.752687413656297 ], [ -70.904301978256001, -33.752622596992701 ], [ -70.904150849406903, -33.752377423115 ], [ -70.904144457021104, -33.752380226956603 ], [ -70.904095705408594, -33.752310861058703 ], [ -70.903221029153102, -33.752783109302001 ], [ -70.903218681478506, -33.752786296175501 ], [ -70.903164422115793, -33.752810095685 ], [ -70.901671567326005, -33.750940841562503 ], [ -70.901615314516306, -33.750865636034099 ], [ -70.901836435008804, -33.750564967428303 ], [ -70.901712900446597, -33.7500375649986 ], [ -70.901325388298503, -33.750170059386299 ], [ -70.9012235039838, -33.750204894995498 ], [ -70.900611375698105, -33.750481444366102 ], [ -70.900666422110803, -33.750560733087902 ], [ -70.900096323509203, -33.750809921394399 ], [ -70.899905700385503, -33.750866280512 ], [ -70.899784338517605, -33.750921572247002 ], [ -70.899321085761599, -33.751182467842199 ], [ -70.899278954184595, -33.751205376543297 ], [ -70.8992869464591, -33.7512181366642 ], [ -70.899283051162598, -33.751219583485103 ], [ -70.899585302604905, -33.7517049328018 ], [ -70.899591988003706, -33.751715308984799 ], [ -70.899690065531104, -33.751753104196403 ], [ -70.899832714002301, -33.751669912421299 ], [ -70.899857586313402, -33.751655407413203 ], [ -70.899916443886994, -33.751611466792603 ], [ -70.900120732171601, -33.751486924283398 ], [ -70.900191211435498, -33.751449345798598 ], [ -70.900249908974601, -33.751410592476397 ], [ -70.900291819332196, -33.751388477676898 ], [ -70.901769687055904, -33.753391930948297 ], [ -70.901743880880801, -33.7533976903621 ] ] ] } }
]
}
