{
"type": "FeatureCollection",
"name": "IPT_13_PRC_Penaflor",
"crs": { "type": "name", "properties": { "name": "urn:ogc:def:crs:OGC:1.3:CRS84" } },
"features": [
{ "type": "Feature", "properties": { "id": "ipt_13_prc_penaflor_mono.1", "Name": null, "description": null, "timestamp": null, "begin": null, "end": null, "altitudeMode": null, "tessellate": -1, "extrude": 0, "visibility": -1, "drawOrder": null, "icon": null, "REG": "Metropolitana", "COM": "Peñaflor", "LOC": "Peñaflor", "ZONA": "Revisar PRMS", "NOM": "Revisar PRMS", "UPERM": "Según PRMS", "UPROH": "Según PRMS", "P_DO": "09/02/1970", "N_DOC": "108", "T_DO": "Decreto", "OBS": null }, "geometry": { "type": "MultiPolygon", "coordinates": [ [ [ [ -70.866127305722799, -33.631085641696203 ], [ -70.867073119638704, -33.632361253970103 ], [ -70.867194602114793, -33.632535188294 ], [ -70.874265728357798, -33.631279156961099 ], [ -70.878903310056998, -33.631839667192203 ], [ -70.879044683427495, -33.631856751113503 ], [ -70.876908166829594, -33.629370822609701 ], [ -70.874097604190894, -33.626081527323102 ], [ -70.873226303489702, -33.626002754159103 ], [ -70.871903897205499, -33.6258831846459 ], [ -70.869662020912202, -33.625680446223598 ], [ -70.869523175679205, -33.625495560524698 ], [ -70.869523131582696, -33.625495515201699 ], [ -70.869523080222194, -33.625495433016503 ], [ -70.869278230030403, -33.625169992873502 ], [ -70.869278085615903, -33.625169844463102 ], [ -70.869277915982096, -33.6251695764998 ], [ -70.868701066915193, -33.624407475783798 ], [ -70.868644759517494, -33.624332693497003 ], [ -70.868597134262998, -33.624269814855097 ], [ -70.868234644334095, -33.6244646750635 ], [ -70.863608055131294, -33.6259894009685 ], [ -70.863607505717297, -33.625991017991403 ], [ -70.863155011046004, -33.626235955919 ], [ -70.862702513764702, -33.626480892268198 ], [ -70.862966332757296, -33.626835023618902 ], [ -70.863426233006606, -33.627454991447202 ], [ -70.863911826984705, -33.628106138848302 ], [ -70.864415544801901, -33.628784394577998 ], [ -70.864803586264699, -33.629311126170897 ], [ -70.866127305722799, -33.631085641696203 ] ] ] ] } },
{ "type": "Feature", "properties": { "id": "ipt_13_prc_penaflor_mono.2", "Name": null, "description": null, "timestamp": null, "begin": null, "end": null, "altitudeMode": null, "tessellate": -1, "extrude": 0, "visibility": -1, "drawOrder": null, "icon": null, "REG": "Metropolitana", "COM": "Peñaflor", "LOC": "Peñaflor", "ZONA": "Revisar PRMS", "NOM": "Revisar PRMS", "UPERM": "Según PRMS", "UPROH": "Según PRMS", "P_DO": "09/02/1970", "N_DOC": "108", "T_DO": "Decreto", "OBS": null }, "geometry": { "type": "MultiPolygon", "coordinates": [ [ [ [ -70.888097250647505, -33.593789885980797 ], [ -70.886730442543396, -33.595108170545203 ], [ -70.886528780042497, -33.5950407062941 ], [ -70.886122386218204, -33.594764741359597 ], [ -70.885973628837803, -33.594733494808303 ], [ -70.885764650925097, -33.594787831595902 ], [ -70.8854082583414, -33.594872623138201 ], [ -70.885208133053794, -33.594875674391403 ], [ -70.884618163942605, -33.594682005036802 ], [ -70.884281412203194, -33.594413646795999 ], [ -70.884038964292003, -33.594408523444898 ], [ -70.883872546589899, -33.594508051584597 ], [ -70.8835471772625, -33.594565912112699 ], [ -70.883124903028204, -33.594528254640302 ], [ -70.8829017958289, -33.594443476024097 ], [ -70.882656281598798, -33.594297314297499 ], [ -70.882367296752605, -33.594090090765 ], [ -70.882225760077105, -33.5938990007811 ], [ -70.882109337762699, -33.593855942167103 ], [ -70.879629708283204, -33.594175813386698 ], [ -70.877135705226706, -33.594319501977097 ], [ -70.875103041309899, -33.594359153049602 ], [ -70.872745378559799, -33.594474233101899 ], [ -70.871608579368299, -33.594526711135103 ], [ -70.872102376944, -33.595436268427299 ], [ -70.872532413485203, -33.596320336417101 ], [ -70.8730580227286, -33.597238225092902 ], [ -70.865058392706203, -33.598602403597297 ], [ -70.864754344118097, -33.598183743177302 ], [ -70.857903586249407, -33.599574221970798 ], [ -70.855342055156299, -33.600018287850297 ], [ -70.853210306246993, -33.600358867211803 ], [ -70.852507130982502, -33.599505274635703 ], [ -70.856643037619804, -33.5987731130692 ], [ -70.855840130865403, -33.597691777990299 ], [ -70.855560406810895, -33.597422628695298 ], [ -70.854438850406197, -33.595728829727399 ], [ -70.854309620391703, -33.595598502334099 ], [ -70.853950326698893, -33.595057195671103 ], [ -70.853592894363501, -33.594110247845698 ], [ -70.850675053829207, -33.594145124697299 ], [ -70.850465522042398, -33.594201165309499 ], [ -70.848332012414303, -33.595441085587296 ], [ -70.845886570975594, -33.596879613902203 ], [ -70.845451877717196, -33.597124014797998 ], [ -70.845433015411103, -33.597126731902797 ], [ -70.845392723861394, -33.597150975610298 ], [ -70.844026448984494, -33.597603957072302 ], [ -70.845220237592997, -33.599728840016901 ], [ -70.848263196090201, -33.605053343581503 ], [ -70.848526559956298, -33.605543194041701 ], [ -70.848264516201297, -33.605608834639 ], [ -70.847949986592099, -33.605684076433 ], [ -70.8478690972496, -33.605844002323202 ], [ -70.847893741095902, -33.606011169713497 ], [ -70.847963157181397, -33.606301113621399 ], [ -70.848078474116306, -33.606766725519101 ], [ -70.848106881564306, -33.607110188739597 ], [ -70.848238002151206, -33.607328669617502 ], [ -70.848463182289805, -33.607510473691001 ], [ -70.848782986928299, -33.607682046210797 ], [ -70.849120850907497, -33.607712264732001 ], [ -70.849394377199104, -33.607690538761403 ], [ -70.849708346582801, -33.607588849171101 ], [ -70.850945127051006, -33.609739478682897 ], [ -70.850007327955197, -33.609744695010001 ], [ -70.850033686080494, -33.610484981240603 ], [ -70.851187478859302, -33.611602118475602 ], [ -70.851653325347698, -33.611809834404703 ], [ -70.852215273365204, -33.611968952239302 ], [ -70.853397618055297, -33.6140321933837 ], [ -70.854558761078906, -33.616086921155002 ], [ -70.855853524712899, -33.617980914228902 ], [ -70.858360008355902, -33.621329223230397 ], [ -70.858549916276303, -33.621828971491801 ], [ -70.858841662778502, -33.622653438754902 ], [ -70.858932202886393, -33.6229430581621 ], [ -70.859147478603504, -33.623151443248297 ], [ -70.859370450627694, -33.623227448043401 ], [ -70.859605700498804, -33.6232483847228 ], [ -70.859585917549396, -33.6234446477783 ], [ -70.859967961935695, -33.624056130970501 ], [ -70.860732964886694, -33.6238506323376 ], [ -70.861618525101704, -33.623369969195103 ], [ -70.861590449376905, -33.623226241718598 ], [ -70.861644482406405, -33.623141310027997 ], [ -70.861695078785203, -33.623061780213497 ], [ -70.862068461374804, -33.6224748756579 ], [ -70.8620715598651, -33.622465086361103 ], [ -70.864050938557796, -33.622284025275 ], [ -70.865575104520403, -33.622093500818004 ], [ -70.866352893826104, -33.621993585790399 ], [ -70.866728018576396, -33.621793936004799 ], [ -70.866380209958194, -33.621305402228799 ], [ -70.866243427917496, -33.6213162851815 ], [ -70.866179837595297, -33.621231223297997 ], [ -70.867158636514603, -33.6207469588335 ], [ -70.868969094201702, -33.620733582140602 ], [ -70.869018605632903, -33.620724871185502 ], [ -70.869337124743097, -33.620708735306998 ], [ -70.867055588664897, -33.618004938485299 ], [ -70.867131106791902, -33.617999666297401 ], [ -70.867483310743694, -33.618021849346903 ], [ -70.875334671897406, -33.618516074247999 ], [ -70.8753396825918, -33.618541384585498 ], [ -70.875995125445399, -33.620996187872301 ], [ -70.877952875321697, -33.621204769602201 ], [ -70.877828055817503, -33.6203283442632 ], [ -70.877807557285493, -33.6202540927531 ], [ -70.877262781454505, -33.618280704604203 ], [ -70.877456556857197, -33.618209675176303 ], [ -70.878271444815596, -33.617884098629901 ], [ -70.879852242392403, -33.617226866065998 ], [ -70.879877543819006, -33.617232499743501 ], [ -70.882794755400397, -33.6160278661578 ], [ -70.883716048444995, -33.6157457797717 ], [ -70.883967058912106, -33.615657306696797 ], [ -70.885592811731598, -33.615590200282703 ], [ -70.888423353818794, -33.615483514605501 ], [ -70.890355751112295, -33.615559795583998 ], [ -70.892077596758398, -33.6156463226597 ], [ -70.893418934930395, -33.6156822217594 ], [ -70.895558494011397, -33.6155930058287 ], [ -70.895818824802205, -33.616315579152797 ], [ -70.895979650525405, -33.616729299621198 ], [ -70.897206527598598, -33.616714975652897 ], [ -70.902047466760195, -33.616640598315499 ], [ -70.904264296777995, -33.616724542850498 ], [ -70.907238988333802, -33.6168462240189 ], [ -70.907010992868805, -33.616064983371203 ], [ -70.906840532897903, -33.615503291247997 ], [ -70.906456703666294, -33.614345299108599 ], [ -70.905865538706905, -33.6128642537508 ], [ -70.905743250035201, -33.6125751604595 ], [ -70.905103120019902, -33.610803993475898 ], [ -70.905323053136598, -33.610721140599601 ], [ -70.905678905735698, -33.610609846260502 ], [ -70.906120975295806, -33.610585397324698 ], [ -70.906563045604798, -33.6105609468 ], [ -70.906878698213802, -33.610538445056399 ], [ -70.907172699031904, -33.610489822580398 ], [ -70.907381838750993, -33.6104160563089 ], [ -70.907773027822401, -33.609995598275098 ], [ -70.9080102724201, -33.609762682362501 ], [ -70.908430338446095, -33.609218332063499 ], [ -70.908666607580898, -33.608941342340103 ], [ -70.9089015159132, -33.608602650833902 ], [ -70.909184623115195, -33.608060412127898 ], [ -70.9092620946832, -33.607750602484103 ], [ -70.909276748695206, -33.607459398246597 ], [ -70.9091812383503, -33.6064733113272 ], [ -70.909642251245899, -33.605875419952298 ], [ -70.909182285923706, -33.605565091539802 ], [ -70.908915395913695, -33.605886642500003 ], [ -70.908474364844494, -33.605479026426998 ], [ -70.907389645812998, -33.604552287531398 ], [ -70.906476401884802, -33.603755158415098 ], [ -70.906218154994306, -33.603512249394001 ], [ -70.905878995241196, -33.602944337969099 ], [ -70.905653770296297, -33.602286493611999 ], [ -70.9055625176333, -33.601970469077997 ], [ -70.905658370469794, -33.601824871800297 ], [ -70.905343892581001, -33.601612319058503 ], [ -70.905115704435204, -33.601298403646197 ], [ -70.904516712582904, -33.600893206363899 ], [ -70.903577817025806, -33.599884827685202 ], [ -70.902595262063997, -33.598806573008602 ], [ -70.902099695222503, -33.598311596701201 ], [ -70.900715757396895, -33.597186593886697 ], [ -70.899792314027806, -33.596398385904997 ], [ -70.898793611437398, -33.595540785965902 ], [ -70.8984421608818, -33.5953698293782 ], [ -70.897954169602698, -33.595218603579397 ], [ -70.897571510055499, -33.595065759015903 ], [ -70.897251082589094, -33.594867871728901 ], [ -70.897044394431404, -33.594571245179303 ], [ -70.896713630351499, -33.594382331448898 ], [ -70.896127958901602, -33.594100332449898 ], [ -70.895924941829705, -33.5939711817215 ], [ -70.895848126283994, -33.593831278090001 ], [ -70.895823394966001, -33.593664123931298 ], [ -70.895550046929301, -33.593209800508902 ], [ -70.8954018175953, -33.593176801500398 ], [ -70.892936866013798, -33.590789722078902 ], [ -70.892690384769907, -33.590599507210399 ], [ -70.892111661051501, -33.589943574559598 ], [ -70.890547789812302, -33.591390586800898 ], [ -70.888514782626004, -33.5933438758438 ], [ -70.888097250647505, -33.593789885980797 ] ] ] ] } }
]
}
