{
"type": "FeatureCollection",
"name": "IPT_13_PRC_Quilicura",
"crs": { "type": "name", "properties": { "name": "urn:ogc:def:crs:OGC:1.3:CRS84" } },
"features": [
{ "type": "Feature", "properties": { "id": "ipt_13_prc_quilicura_mono.1", "Name": null, "description": null, "timestamp": null, "begin": null, "end": null, "altitudeMode": null, "tessellate": -1, "extrude": 0, "visibility": -1, "drawOrder": null, "icon": null, "REG": "Metropolitana", "COM": "Quilicura", "LOC": "Quilicura", "ZONA": "I2", "NOM": "Zona I2", "UPERM": "Vivienda; comercio; oficinas; equipamiento; áreas verdes; talleres artesanales inofensivos, vialidad.", "UPROH": "Talleres artesanales molestos y peligrosos. Industrias inofensivas, molestas y peligrosas.", "P_DO": "08/05/1985", "N_DOC": "37", "T_DO": "Decreto", "OBS": null }, "geometry": { "type": "MultiPolygon", "coordinates": [ [ [ [ -70.714251843450896, -33.370377323325599 ], [ -70.713850103820505, -33.369066711664097 ], [ -70.713740072937497, -33.369063729140699 ], [ -70.713462859542204, -33.369015792876603 ], [ -70.711799805350395, -33.368739410191402 ], [ -70.710577889714102, -33.368527501613301 ], [ -70.710500098858105, -33.368513324802997 ], [ -70.710514462125403, -33.369024694807599 ], [ -70.710695462201599, -33.370995050375001 ], [ -70.711077049339707, -33.370928613833698 ], [ -70.7128260110741, -33.370611689642701 ], [ -70.713159790754304, -33.370550908952303 ], [ -70.713589999663796, -33.370458299916301 ], [ -70.713855621436295, -33.370427978718503 ], [ -70.714215335769694, -33.370380566424799 ], [ -70.714251843450896, -33.370377323325599 ] ] ] ] } },
{ "type": "Feature", "properties": { "id": "ipt_13_prc_quilicura_mono.2", "Name": null, "description": null, "timestamp": null, "begin": null, "end": null, "altitudeMode": null, "tessellate": -1, "extrude": 0, "visibility": -1, "drawOrder": null, "icon": null, "REG": "Metropolitana", "COM": "Quilicura", "LOC": "Quilicura", "ZONA": "I1", "NOM": "Zona I1", "UPERM": "Talleres artesanales inofensivos y molestos; industrias y/o bodegas inofensivas y molestas; área verde; vialidad.", "UPROH": "Talleres artesanales peligrosos; industrias y/o bodegas peligrosas; comercio; oficinas y equipamiento.", "P_DO": "08/05/1985", "N_DOC": "37", "T_DO": "Decreto", "OBS": null }, "geometry": { "type": "MultiPolygon", "coordinates": [ [ [ [ -70.702579254891702, -33.365550220777401 ], [ -70.702529720750405, -33.365557939909202 ], [ -70.702219231263101, -33.365606323102398 ], [ -70.702182385706905, -33.3656120644239 ], [ -70.702078453294007, -33.365626692482202 ], [ -70.701962450098094, -33.365643019080899 ], [ -70.7019426805237, -33.365645800855603 ], [ -70.701949224665398, -33.365664949780502 ], [ -70.701978064076897, -33.365764646216398 ], [ -70.7020086072921, -33.365880248236401 ], [ -70.702015363454294, -33.3659554761199 ], [ -70.702019119579703, -33.366000166918703 ], [ -70.702021657723805, -33.366130485687599 ], [ -70.702013744977606, -33.366248941755899 ], [ -70.702275032414093, -33.366428317303999 ], [ -70.703945023664801, -33.367637510350399 ], [ -70.704133171870595, -33.367818523497697 ], [ -70.706464005247398, -33.369391604233797 ], [ -70.708769760806305, -33.370855179329098 ], [ -70.710691894703899, -33.372029469941602 ], [ -70.711384792445898, -33.372480590108601 ], [ -70.711849479985304, -33.372768709583497 ], [ -70.712321394175405, -33.372966103303597 ], [ -70.713128177472399, -33.373257049141202 ], [ -70.713941890577004, -33.373442165080696 ], [ -70.714528421241496, -33.3735171346828 ], [ -70.715294181971601, -33.373551864136402 ], [ -70.715950626711603, -33.373520131836997 ], [ -70.717995182866403, -33.373182163707 ], [ -70.7180952439317, -33.373142267964703 ], [ -70.717320453628901, -33.3714787185991 ], [ -70.715823838841402, -33.371960026080302 ], [ -70.715660537123995, -33.372014243150701 ], [ -70.715248531537199, -33.372140134033302 ], [ -70.7148002250254, -33.3722767265794 ], [ -70.714251843450896, -33.370377323325599 ], [ -70.714215335769694, -33.370380566424799 ], [ -70.713855621436295, -33.370427978718503 ], [ -70.713589999663796, -33.370458299916301 ], [ -70.713159790754304, -33.370550908952303 ], [ -70.7128260110741, -33.370611689642701 ], [ -70.711077049339707, -33.370928613833698 ], [ -70.710695462201599, -33.370995050375001 ], [ -70.710514462125403, -33.369024694807599 ], [ -70.710500098858105, -33.368513324802997 ], [ -70.710577889714102, -33.368527501613301 ], [ -70.710732199768501, -33.3680521000121 ], [ -70.710759544840201, -33.367929050626799 ], [ -70.710842564418499, -33.3676377586931 ], [ -70.711056862921794, -33.3667315290337 ], [ -70.711178346600406, -33.366197280827102 ], [ -70.711157840688401, -33.366195654377499 ], [ -70.710924892483604, -33.366149235661602 ], [ -70.711204364878498, -33.364906050358499 ], [ -70.711537336828002, -33.363672004316598 ], [ -70.707674030964398, -33.363638828125403 ], [ -70.706549724721, -33.363641337648701 ], [ -70.704993076021594, -33.3653959280485 ], [ -70.704821223430301, -33.365391425766603 ], [ -70.704583819737394, -33.365380960625103 ], [ -70.704076571395106, -33.365374200170798 ], [ -70.703660341375993, -33.365421094212103 ], [ -70.703130032662301, -33.365490142793099 ], [ -70.702579254891702, -33.365550220777401 ] ] ] ] } },
{ "type": "Feature", "properties": { "id": "ipt_13_prc_quilicura_mono.3", "Name": null, "description": null, "timestamp": null, "begin": null, "end": null, "altitudeMode": null, "tessellate": -1, "extrude": 0, "visibility": -1, "drawOrder": null, "icon": null, "REG": "Metropolitana", "COM": "Quilicura", "LOC": "Quilicura", "ZONA": "I1", "NOM": "Zona I1", "UPERM": "Talleres artesanales inofensivos y molestos; industrias y/o bodegas inofensivas y molestas; área verde; vialidad.", "UPROH": "Talleres artesanales peligrosos; industrias y/o bodegas peligrosas; comercio; oficinas y equipamiento.", "P_DO": "08/05/1985", "N_DOC": "37", "T_DO": "Decreto", "OBS": null }, "geometry": { "type": "MultiPolygon", "coordinates": [ [ [ [ -70.702349072607902, -33.367292952042703 ], [ -70.701770679794194, -33.366886199023902 ], [ -70.701765937827901, -33.366889008299303 ], [ -70.701399245515006, -33.367267697348701 ], [ -70.701317375847495, -33.367303459668399 ], [ -70.700940020189407, -33.367468295613001 ], [ -70.700572190273903, -33.367542192313202 ], [ -70.700527859904199, -33.367558856727101 ], [ -70.700333534336494, -33.3675903892753 ], [ -70.699904082653902, -33.367620329976297 ], [ -70.699670596925699, -33.367592332587002 ], [ -70.699633448870003, -33.367587878554197 ], [ -70.699245032123898, -33.3685052457176 ], [ -70.698908649403705, -33.369246336363297 ], [ -70.698504426104094, -33.370117803635701 ], [ -70.698412396162396, -33.370316209548697 ], [ -70.698393858706694, -33.370356174252898 ], [ -70.698299224349299, -33.370559242093996 ], [ -70.698235295332907, -33.3706964198227 ], [ -70.697985434882398, -33.371232564516298 ], [ -70.697830996033304, -33.371579294097899 ], [ -70.697662823316605, -33.371956853614201 ], [ -70.697455766047199, -33.3724217094666 ], [ -70.697336561769703, -33.372689325382296 ], [ -70.696563746644301, -33.374418163803298 ], [ -70.696547172718994, -33.374455211944003 ], [ -70.696501326173504, -33.374557689133901 ], [ -70.696500298096396, -33.374559987513699 ], [ -70.696294761306902, -33.3750165148668 ], [ -70.696224599343495, -33.375171401168799 ], [ -70.696091691535599, -33.375464797944801 ], [ -70.696059423506696, -33.375536029600198 ], [ -70.695970873012001, -33.375731505758601 ], [ -70.6959121579916, -33.375861120494697 ], [ -70.695826424843403, -33.376050376934799 ], [ -70.695735909831896, -33.3762501868963 ], [ -70.695648982077799, -33.376442173134997 ], [ -70.695588477185197, -33.376576421411002 ], [ -70.695553367854302, -33.376654319279403 ], [ -70.695463155130398, -33.3768544802357 ], [ -70.695386303626293, -33.377024993227103 ], [ -70.695351379452703, -33.377102479982803 ], [ -70.695243135859002, -33.3773426450146 ], [ -70.695012827286206, -33.377873067032098 ], [ -70.694800576916407, -33.378355859165097 ], [ -70.694594216603306, -33.378821289720001 ], [ -70.694410237147807, -33.379236236748199 ], [ -70.694314263407705, -33.379452701202702 ], [ -70.694274918601707, -33.379541447795901 ], [ -70.694145453614695, -33.379833490584801 ], [ -70.693947535212502, -33.380279945850802 ], [ -70.693908685179395, -33.380367580839597 ], [ -70.6938183348731, -33.3805713867823 ], [ -70.693743801744404, -33.380742704027 ], [ -70.693621997947503, -33.3810226753831 ], [ -70.693521523123394, -33.381253619963204 ], [ -70.693612208729107, -33.381290935332999 ], [ -70.693678974148298, -33.381318408136103 ], [ -70.693830521036006, -33.381384265098099 ], [ -70.693893444017704, -33.381406657040799 ], [ -70.694096603882301, -33.381478953367903 ], [ -70.694110206632104, -33.381483794433599 ], [ -70.694640951725603, -33.381672661899998 ], [ -70.694780600369896, -33.381724343844503 ], [ -70.694781434071999, -33.381724652605897 ], [ -70.694773984887405, -33.381738290747499 ], [ -70.694484171323097, -33.382268911162399 ], [ -70.694363259633406, -33.382498430995199 ], [ -70.694290533504699, -33.382698082660397 ], [ -70.694231033358193, -33.382862489823196 ], [ -70.695414778268102, -33.383248273242799 ], [ -70.695583370102, -33.383303216555298 ], [ -70.695832429276294, -33.382735446282702 ], [ -70.695881302886704, -33.382717536339399 ], [ -70.696810161421098, -33.382700107154299 ], [ -70.696814139525898, -33.382677848921801 ], [ -70.696864530445595, -33.382602661877897 ], [ -70.696947488849801, -33.382489279043803 ], [ -70.696950794662598, -33.382491176365903 ], [ -70.6969953895195, -33.3824617017831 ], [ -70.696996736369201, -33.382461808717302 ], [ -70.697206191540403, -33.382478388286501 ], [ -70.697404140190201, -33.382414536922902 ], [ -70.697296632292094, -33.382275683536797 ], [ -70.697415794266703, -33.382151404442503 ], [ -70.697570850637305, -33.382120695434402 ], [ -70.6977025695778, -33.382067308993499 ], [ -70.697840822031296, -33.381985064804297 ], [ -70.697965209278806, -33.381902919107901 ], [ -70.6981741663637, -33.381808253860697 ], [ -70.698425114323001, -33.381766852475501 ], [ -70.698582767798399, -33.381759192484601 ], [ -70.698722369940796, -33.381757461811098 ], [ -70.698918297432002, -33.381739219375703 ], [ -70.698936743807494, -33.381741609165701 ], [ -70.698936893918997, -33.3817414790513 ], [ -70.698840000497398, -33.381619638005603 ], [ -70.698449841188705, -33.381531867317101 ], [ -70.698423229078898, -33.381515079760099 ], [ -70.698415339885599, -33.3814098239327 ], [ -70.698414958795297, -33.381390227082797 ], [ -70.698461439210803, -33.381377339596902 ], [ -70.698586376417097, -33.3813437751907 ], [ -70.698644250279997, -33.3813160292259 ], [ -70.698916433588906, -33.3811946879133 ], [ -70.699031310162098, -33.381244571382702 ], [ -70.699047273359398, -33.381246023892899 ], [ -70.699047541975204, -33.381244746838398 ], [ -70.699047780030597, -33.381244827448597 ], [ -70.699143481908493, -33.381086238793301 ], [ -70.699200803759894, -33.380955050006001 ], [ -70.699237302716796, -33.380814406629099 ], [ -70.699268724365794, -33.380639383060299 ], [ -70.699338338713801, -33.380427311651196 ], [ -70.699391337125803, -33.380311513005601 ], [ -70.699441966381599, -33.380189975104997 ], [ -70.699498912510705, -33.380039582457101 ], [ -70.699553564191703, -33.379887237193302 ], [ -70.699625355556094, -33.379665576462401 ], [ -70.699682450192398, -33.379522847208101 ], [ -70.699721658571605, -33.379411024969997 ], [ -70.699783677987895, -33.3792893309164 ], [ -70.699847421428004, -33.379129195474697 ], [ -70.6999188042344, -33.379024687229702 ], [ -70.699922814922303, -33.379025083200403 ], [ -70.699922499514102, -33.379023678870603 ], [ -70.700097705965206, -33.379041059245502 ], [ -70.700247115972601, -33.379060446770502 ], [ -70.700413089428196, -33.378987625524999 ], [ -70.700562700521203, -33.378866783369503 ], [ -70.700613575318997, -33.378855368885198 ], [ -70.7007929224809, -33.378881490639998 ], [ -70.700984971030707, -33.378903865001398 ], [ -70.701040173001701, -33.378895963155998 ], [ -70.701132781127896, -33.378841107238301 ], [ -70.701127968076904, -33.3788125934907 ], [ -70.701093270380099, -33.378679710002103 ], [ -70.701079903118398, -33.378531032635301 ], [ -70.701198689570603, -33.378431935923999 ], [ -70.701283871182696, -33.378397916465303 ], [ -70.701400597413993, -33.378359673184796 ], [ -70.701500445110796, -33.378228160037501 ], [ -70.701495075908497, -33.378203822162703 ], [ -70.701480078946503, -33.378089710680896 ], [ -70.7014744161133, -33.378051622199202 ], [ -70.7012894003486, -33.377985928583399 ], [ -70.701157542583601, -33.377926229981803 ], [ -70.701079388172005, -33.3778487082091 ], [ -70.700964883327302, -33.377653795387097 ], [ -70.700814586170196, -33.377370062576603 ], [ -70.7006844461459, -33.377246811739298 ], [ -70.700251077550007, -33.376953745514697 ], [ -70.700098089512096, -33.376868076798303 ], [ -70.699642253426404, -33.376542094716903 ], [ -70.699586165753502, -33.376450540321898 ], [ -70.6995242551845, -33.376369739648602 ], [ -70.699435760071395, -33.376142541742098 ], [ -70.699376219563902, -33.3759630921137 ], [ -70.6992146900281, -33.375823107732899 ], [ -70.699171585584907, -33.375672974934702 ], [ -70.6992031510039, -33.375425722105199 ], [ -70.699226363580806, -33.3751391846776 ], [ -70.699224771281294, -33.374886679983298 ], [ -70.698900201517006, -33.3744465759316 ], [ -70.698731209742505, -33.374186310962202 ], [ -70.698579061146603, -33.374025845726301 ], [ -70.698579846356196, -33.374022336796699 ], [ -70.698569135450796, -33.374016311300501 ], [ -70.698499104684402, -33.374003330264401 ], [ -70.698551585663196, -33.373838043189103 ], [ -70.698713401527499, -33.373233915486701 ], [ -70.698798013084996, -33.372916344459099 ], [ -70.698813511083003, -33.372977308577703 ], [ -70.698825846965605, -33.372922140056502 ], [ -70.699095303728299, -33.3722182420072 ], [ -70.699316248589696, -33.3717987220992 ], [ -70.699353993334498, -33.371727053907797 ], [ -70.699497383414297, -33.371437504417301 ], [ -70.699642232684397, -33.371222957689 ], [ -70.700131041855499, -33.370371319170303 ], [ -70.700716729557598, -33.369640729062397 ], [ -70.701598753911497, -33.368692290513799 ], [ -70.7026456368732, -33.367501507512102 ], [ -70.702349072607902, -33.367292952042703 ] ] ] ] } },
{ "type": "Feature", "properties": { "id": "ipt_13_prc_quilicura_mono.4", "Name": null, "description": null, "timestamp": null, "begin": null, "end": null, "altitudeMode": null, "tessellate": -1, "extrude": 0, "visibility": -1, "drawOrder": null, "icon": null, "REG": "Metropolitana", "COM": "Quilicura", "LOC": "Quilicura", "ZONA": "H2", "NOM": "Zona H2", "UPERM": "Vivienda; comercio, oficina y equipamiento; taller artesanal inofensivo; área verde; vialidad.", "UPROH": "Talleres artesanales molestos y peligrosos. Industrias y/o bodegas molestas, inofensivas y peligrosas.", "P_DO": "08/05/1985", "N_DOC": "37", "T_DO": "Decreto", "OBS": null }, "geometry": { "type": "MultiPolygon", "coordinates": [ [ [ [ -70.743757150161997, -33.3715394824222 ], [ -70.743774563581695, -33.3715533953849 ], [ -70.743790214514803, -33.371546908743298 ], [ -70.743757150161997, -33.3715394824222 ] ] ] ] } },
{ "type": "Feature", "properties": { "id": "ipt_13_prc_quilicura_mono.5", "Name": null, "description": null, "timestamp": null, "begin": null, "end": null, "altitudeMode": null, "tessellate": -1, "extrude": 0, "visibility": -1, "drawOrder": null, "icon": null, "REG": "Metropolitana", "COM": "Quilicura", "LOC": "Quilicura", "ZONA": "AV", "NOM": "AV Zona de Áreas Verdes", "UPERM": "Espacio público y áreas verdes.", "UPROH": "Residencial; equipamiento; actividad productiva; infraestructura.", "P_DO": "08/05/1985", "N_DOC": "37", "T_DO": "Decreto", "OBS": null }, "geometry": { "type": "MultiPolygon", "coordinates": [ [ [ [ -70.731405582674796, -33.368291689701003 ], [ -70.731472143725398, -33.368377724569697 ], [ -70.731648015680804, -33.368304393175002 ], [ -70.732186625491906, -33.368046759018597 ], [ -70.732147416050793, -33.367990445573703 ], [ -70.731756960957298, -33.367339001069503 ], [ -70.731406215140197, -33.367489255424204 ], [ -70.731022111198797, -33.367665259310797 ], [ -70.731299459822495, -33.368130008251299 ], [ -70.731322352687897, -33.3681683688852 ], [ -70.731343451310494, -33.368203722623498 ], [ -70.731345245574005, -33.368206729514 ], [ -70.731405582674796, -33.368291689701003 ] ] ] ] } },
{ "type": "Feature", "properties": { "id": "ipt_13_prc_quilicura_mono.6", "Name": null, "description": null, "timestamp": null, "begin": null, "end": null, "altitudeMode": null, "tessellate": -1, "extrude": 0, "visibility": -1, "drawOrder": null, "icon": null, "REG": "Metropolitana", "COM": "Quilicura", "LOC": "Quilicura", "ZONA": "AV", "NOM": "AV Zona de Áreas Verdes", "UPERM": "Espacio público y áreas verdes.", "UPROH": "Residencial; equipamiento; actividad productiva; infraestructura.", "P_DO": "08/05/1985", "N_DOC": "37", "T_DO": "Decreto", "OBS": null }, "geometry": { "type": "MultiPolygon", "coordinates": [ [ [ [ -70.743160714736106, -33.371846468549698 ], [ -70.743179262862597, -33.371856220001803 ], [ -70.743179622446405, -33.371855980478401 ], [ -70.743194627511798, -33.371845992205898 ], [ -70.743216217746294, -33.371845688941498 ], [ -70.743852350455398, -33.371597686358399 ], [ -70.743923778309096, -33.371541473391098 ], [ -70.743880111105, -33.371558072618903 ], [ -70.743875292435305, -33.371557519878998 ], [ -70.743810969411399, -33.371538305962503 ], [ -70.743790214514803, -33.371546908743298 ], [ -70.743774563581695, -33.3715533953849 ], [ -70.743757150161997, -33.3715394824222 ], [ -70.743480789306901, -33.371318667382802 ], [ -70.743288406249206, -33.371225926938202 ], [ -70.743033288366405, -33.371124523363903 ], [ -70.742732778112497, -33.371028529098297 ], [ -70.742329683023598, -33.370922044183203 ], [ -70.742158790004197, -33.370919237958503 ], [ -70.7417357491167, -33.3708761745836 ], [ -70.741136397089704, -33.370842950388898 ], [ -70.740554741859597, -33.370878827634399 ], [ -70.740119463457702, -33.370899196525897 ], [ -70.739752410052304, -33.370925006815 ], [ -70.739263003087501, -33.370943876039902 ], [ -70.738886100232094, -33.370942929572998 ], [ -70.738492950469094, -33.370939114509 ], [ -70.738337633365106, -33.371309533384 ], [ -70.738462537692001, -33.3712911416225 ], [ -70.738663736112301, -33.371284028608699 ], [ -70.739057446565297, -33.371302273361103 ], [ -70.7392302290001, -33.371284680779198 ], [ -70.7394484270569, -33.371274464080301 ], [ -70.739605273803306, -33.371267971164002 ], [ -70.7396893502072, -33.371262974318398 ], [ -70.739828608629395, -33.371258635918103 ], [ -70.740171021867098, -33.371245484309 ], [ -70.740506398345403, -33.371236008858297 ], [ -70.740729619283996, -33.371235264310897 ], [ -70.740999892628906, -33.371241017029199 ], [ -70.741253265146398, -33.371257744235201 ], [ -70.741386772649705, -33.371278777166701 ], [ -70.741530457856598, -33.371296803859799 ], [ -70.741682843758696, -33.3713232980976 ], [ -70.741783827947401, -33.371339060480302 ], [ -70.741914209457093, -33.371374453073102 ], [ -70.741976017215094, -33.371393628438497 ], [ -70.742102844622906, -33.371421912986797 ], [ -70.742241812920795, -33.371460047965599 ], [ -70.742331056107901, -33.371485996626198 ], [ -70.742454729061507, -33.371527209368502 ], [ -70.742618149629294, -33.371593633318199 ], [ -70.742703905954897, -33.371628506357801 ], [ -70.743109400184295, -33.3718471893038 ], [ -70.743160714736106, -33.371846468549698 ] ] ] ] } },
{ "type": "Feature", "properties": { "id": "ipt_13_prc_quilicura_mono.7", "Name": null, "description": null, "timestamp": null, "begin": null, "end": null, "altitudeMode": null, "tessellate": -1, "extrude": 0, "visibility": -1, "drawOrder": null, "icon": null, "REG": "Metropolitana", "COM": "Quilicura", "LOC": "Quilicura", "ZONA": "H2", "NOM": "Zona H2", "UPERM": "Vivienda; comercio, oficina y equipamiento; taller artesanal inofensivo; área verde; vialidad.", "UPROH": "Talleres artesanales molestos y peligrosos. Industrias y/o bodegas molestas, inofensivas y peligrosas.", "P_DO": "08/05/1985", "N_DOC": "37", "T_DO": "Decreto", "OBS": null }, "geometry": { "type": "MultiPolygon", "coordinates": [ [ [ [ -70.733156598068902, -33.371857196374798 ], [ -70.733982750690302, -33.371747514704303 ], [ -70.734725059221006, -33.371665559044501 ], [ -70.735128538813996, -33.371619832699999 ], [ -70.735484311461306, -33.371577635472001 ], [ -70.735659496801006, -33.371558005890002 ], [ -70.735753115908494, -33.371546675532699 ], [ -70.735964208830794, -33.371522247941201 ], [ -70.736200774203098, -33.371491737088597 ], [ -70.736517567964697, -33.371462967405797 ], [ -70.736796892044595, -33.371437583670101 ], [ -70.737062710825199, -33.371419546977997 ], [ -70.737350790661196, -33.371405493449302 ], [ -70.7376504413227, -33.371381255331798 ], [ -70.738020113985399, -33.371351740529597 ], [ -70.738099958581898, -33.3713368867217 ], [ -70.738258384342302, -33.371321202796302 ], [ -70.738337633365106, -33.371309533384 ], [ -70.738492950469094, -33.370939114509 ], [ -70.738886100232094, -33.370942929572998 ], [ -70.739263003087501, -33.370943876039902 ], [ -70.739752410052304, -33.370925006815 ], [ -70.740119463457702, -33.370899196525897 ], [ -70.740554741859597, -33.370878827634399 ], [ -70.741136397089704, -33.370842950388898 ], [ -70.7417357491167, -33.3708761745836 ], [ -70.742158790004197, -33.370919237958503 ], [ -70.742329683023598, -33.370922044183203 ], [ -70.742732778112497, -33.371028529098297 ], [ -70.743033288366405, -33.371124523363903 ], [ -70.743288406249206, -33.371225926938202 ], [ -70.743480789306901, -33.371318667382802 ], [ -70.743757150161997, -33.3715394824222 ], [ -70.743790214514803, -33.371546908743298 ], [ -70.743810969411399, -33.371538305962503 ], [ -70.743875292435305, -33.371557519878998 ], [ -70.743880111105, -33.371558072618903 ], [ -70.743923778309096, -33.371541473391098 ], [ -70.744225652798605, -33.371426716915302 ], [ -70.747998945630499, -33.370583519791197 ], [ -70.747991521165702, -33.370553393653402 ], [ -70.747640729374893, -33.369129852868902 ], [ -70.747543329119296, -33.368734585291797 ], [ -70.747476917642501, -33.368465073486099 ], [ -70.747435827982002, -33.368474264381803 ], [ -70.743437525552906, -33.369368549274199 ], [ -70.743370129587007, -33.369188339708501 ], [ -70.742172479329895, -33.365985802534702 ], [ -70.741620270140899, -33.364509099116503 ], [ -70.739457804089895, -33.364804024241202 ], [ -70.738209580991807, -33.364974244484699 ], [ -70.737280099058907, -33.3636402656646 ], [ -70.737275422953303, -33.363632209324997 ], [ -70.737222252310204, -33.363652100074397 ], [ -70.737469580822903, -33.364621830690801 ], [ -70.7376562680913, -33.365287817297897 ], [ -70.737792652506698, -33.3660077783125 ], [ -70.737845084988507, -33.366215626905102 ], [ -70.737879672876701, -33.366353343732399 ], [ -70.738059478215405, -33.367272802766301 ], [ -70.738102239989303, -33.3674783598182 ], [ -70.738160887893997, -33.367789159418798 ], [ -70.738189035438296, -33.367917612634599 ], [ -70.738232256537401, -33.368231968562498 ], [ -70.738264593923006, -33.368685345309899 ], [ -70.737820231097203, -33.368762195976103 ], [ -70.737772717145006, -33.3687752694021 ], [ -70.737094759504899, -33.368918620908502 ], [ -70.736835294468506, -33.3689684289944 ], [ -70.735976998505706, -33.369133186652597 ], [ -70.735510424559294, -33.3692182379271 ], [ -70.735238556744207, -33.369271292246097 ], [ -70.734977077031203, -33.3693452717703 ], [ -70.734122698563695, -33.3695624451558 ], [ -70.733961446417496, -33.369604784062801 ], [ -70.733386652232596, -33.369735337350299 ], [ -70.732969691052503, -33.3698564155439 ], [ -70.732728361535294, -33.369935080752597 ], [ -70.732469233024503, -33.370035377919898 ], [ -70.732066653929294, -33.370201661700101 ], [ -70.731965323010897, -33.370240810713099 ], [ -70.731767149793797, -33.370174673478402 ], [ -70.731540002589597, -33.370077628069197 ], [ -70.731442177623904, -33.370048928899102 ], [ -70.731247900917197, -33.370064569429601 ], [ -70.730850160809297, -33.370051460244497 ], [ -70.730728937260096, -33.370047424255702 ], [ -70.7306485965523, -33.370039954774199 ], [ -70.730545626765405, -33.370009894542797 ], [ -70.730447905452493, -33.369953848136802 ], [ -70.730373651412094, -33.369880438170902 ], [ -70.730187962309898, -33.3696940496189 ], [ -70.730006292296494, -33.369480881096898 ], [ -70.729983398441703, -33.369473565409898 ], [ -70.729866990177698, -33.369454190011098 ], [ -70.729819002265799, -33.369443405751603 ], [ -70.729478310742806, -33.369402120385999 ], [ -70.729375890213802, -33.369354138640801 ], [ -70.729051203972205, -33.369156323687299 ], [ -70.728765221302098, -33.368959876994602 ], [ -70.727173620153906, -33.367939465574501 ], [ -70.726368638583807, -33.368517416796102 ], [ -70.726059915493394, -33.368733462004002 ], [ -70.725975721093505, -33.368773875666697 ], [ -70.725691215897797, -33.3688715302494 ], [ -70.725170318738606, -33.3690190007326 ], [ -70.724899391203806, -33.369097463409801 ], [ -70.724871497009005, -33.369105508452897 ], [ -70.725637742240394, -33.370801842255702 ], [ -70.726483029785101, -33.370531395086999 ], [ -70.727926839484795, -33.370069434499001 ], [ -70.728786683413801, -33.369794309685602 ], [ -70.729841928322699, -33.370415967488 ], [ -70.732431237599698, -33.371941286917 ], [ -70.733122231948599, -33.371889496109503 ], [ -70.733156598068902, -33.371857196374798 ] ] ] ] } },
{ "type": "Feature", "properties": { "id": "ipt_13_prc_quilicura_mono.8", "Name": null, "description": null, "timestamp": null, "begin": null, "end": null, "altitudeMode": null, "tessellate": -1, "extrude": 0, "visibility": -1, "drawOrder": null, "icon": null, "REG": "Metropolitana", "COM": "Quilicura", "LOC": "Quilicura", "ZONA": "H2", "NOM": "Zona H2", "UPERM": "Vivienda; comercio, oficina y equipamiento; taller artesanal inofensivo; área verde; vialidad.", "UPROH": "Talleres artesanales molestos y peligrosos. Industrias y/o bodegas molestas, inofensivas y peligrosas.", "P_DO": "08/05/1985", "N_DOC": "37", "T_DO": "Decreto", "OBS": null }, "geometry": { "type": "MultiPolygon", "coordinates": [ [ [ [ -70.721207178932403, -33.364891547637697 ], [ -70.721207246652696, -33.364893294431198 ], [ -70.7212123188162, -33.365024282394799 ], [ -70.721252233430207, -33.365751482691401 ], [ -70.721312894858698, -33.366521344455798 ], [ -70.721350141492593, -33.366516865277298 ], [ -70.721426009923803, -33.366503789030297 ], [ -70.721601561865597, -33.366465562526599 ], [ -70.721740439573296, -33.366442161868299 ], [ -70.721885095090201, -33.366423452441197 ], [ -70.722094995806899, -33.366396679819204 ], [ -70.722313754526297, -33.366386485674902 ], [ -70.722552271118104, -33.366368859169 ], [ -70.722822341899303, -33.366365110639101 ], [ -70.723132211675306, -33.366360808982897 ], [ -70.723373760219701, -33.3663526827917 ], [ -70.723604698580402, -33.366359914511698 ], [ -70.723897526233301, -33.366322832803903 ], [ -70.724241552744701, -33.366249968190097 ], [ -70.724969589333398, -33.366089774342299 ], [ -70.725261446794704, -33.366004337312198 ], [ -70.725522974562196, -33.365942481858198 ], [ -70.725944121942106, -33.365842136828199 ], [ -70.726512509952002, -33.365710156213602 ], [ -70.726687618152198, -33.365671213602504 ], [ -70.726774197591496, -33.3656492500537 ], [ -70.726931408218604, -33.365618429907499 ], [ -70.727075755635695, -33.365584209226299 ], [ -70.727220018077603, -33.3655456950871 ], [ -70.727282007067799, -33.365531231148601 ], [ -70.727424704548497, -33.365499896311 ], [ -70.727507161681999, -33.365485148289302 ], [ -70.727581203010303, -33.365476243920597 ], [ -70.727657831937194, -33.3654687346801 ], [ -70.727698848847396, -33.365465062366397 ], [ -70.727812797532195, -33.365475406342703 ], [ -70.727955350801906, -33.3654942998539 ], [ -70.728173117281202, -33.365541971905103 ], [ -70.728572879794399, -33.365625882835502 ], [ -70.728790646892406, -33.365673553780503 ], [ -70.729022275183397, -33.365703135501697 ], [ -70.729456276154707, -33.365720950074099 ], [ -70.729946543496894, -33.365708152055198 ], [ -70.730173673342307, -33.365690072653599 ], [ -70.730379423811598, -33.365669309483501 ], [ -70.730627284242601, -33.365621114309398 ], [ -70.730783166239107, -33.365595080267703 ], [ -70.730952789470294, -33.365544993114099 ], [ -70.731153567457, -33.365452715083002 ], [ -70.731417421495806, -33.3653148184099 ], [ -70.731709998709107, -33.365191432945601 ], [ -70.731840059762106, -33.3651180362018 ], [ -70.731953606257804, -33.365065031780901 ], [ -70.732207376446794, -33.364956503087399 ], [ -70.732762155099707, -33.364683905306997 ], [ -70.733015687684997, -33.364563448123803 ], [ -70.733178580857796, -33.364460957871302 ], [ -70.733601116214203, -33.364259399689097 ], [ -70.734043309101594, -33.3640660001927 ], [ -70.734527140532293, -33.3638817226607 ], [ -70.734792733530497, -33.363823983625203 ], [ -70.735188285587398, -33.363826173095397 ], [ -70.735482536224197, -33.363822059105203 ], [ -70.735574183002498, -33.363805341169503 ], [ -70.735729124481793, -33.363733710895502 ], [ -70.736183831749003, -33.363472652890898 ], [ -70.736775238391004, -33.363147934718398 ], [ -70.736950935423593, -33.363073261069403 ], [ -70.736400132510994, -33.362124450388499 ], [ -70.736229729523998, -33.361830908980203 ], [ -70.734378607504496, -33.362203736302902 ], [ -70.721204095253796, -33.364856283135197 ], [ -70.721207178932403, -33.364891547637697 ] ] ] ] } },
{ "type": "Feature", "properties": { "id": "ipt_13_prc_quilicura_mono.9", "Name": null, "description": null, "timestamp": null, "begin": null, "end": null, "altitudeMode": null, "tessellate": -1, "extrude": 0, "visibility": -1, "drawOrder": null, "icon": null, "REG": "Metropolitana", "COM": "Quilicura", "LOC": "Quilicura", "ZONA": "I3", "NOM": "Zona I3", "UPERM": "Regirán las disposiciones del Decreto Supremo N°255 (Vivienda y Urbanismo), de 1° de septiembre de 1980.", "UPROH": "Uso de suelo según PRMS.", "P_DO": "08/05/1985", "N_DOC": "37", "T_DO": "Decreto", "OBS": null }, "geometry": { "type": "MultiPolygon", "coordinates": [ [ [ [ -70.719137753321903, -33.3652999869255 ], [ -70.7193620359525, -33.366073118984303 ], [ -70.719571569918102, -33.366750248353 ], [ -70.719612933922804, -33.366901686520102 ], [ -70.719865894344395, -33.366849611991398 ], [ -70.7200078220785, -33.366820413753999 ], [ -70.720866341930005, -33.3666295996644 ], [ -70.721312894858698, -33.366521344455798 ], [ -70.721252233430207, -33.365751482691401 ], [ -70.7212123188162, -33.365024282394799 ], [ -70.721207246652696, -33.364893294431198 ], [ -70.721207178932403, -33.364891547637697 ], [ -70.721204095253796, -33.364856283135197 ], [ -70.719133437052506, -33.365273047026299 ], [ -70.719137960759497, -33.3652933222846 ], [ -70.7191439445279, -33.365298765775798 ], [ -70.719137753321903, -33.3652999869255 ] ] ] ] } },
{ "type": "Feature", "properties": { "id": "ipt_13_prc_quilicura_mono.10", "Name": null, "description": null, "timestamp": null, "begin": null, "end": null, "altitudeMode": null, "tessellate": -1, "extrude": 0, "visibility": -1, "drawOrder": null, "icon": null, "REG": "Metropolitana", "COM": "Quilicura", "LOC": "Quilicura", "ZONA": "H1", "NOM": "Zona H1", "UPERM": "Vivienda; comercio, oficina y equipamiento; taller artesanal inofensivo; área verde; vialidad.", "UPROH": "Talleres artesanales molestos y peligrosos. Industrias y/o bodegas molestas, inofensivas y peligrosas.", "P_DO": "08/05/1985", "N_DOC": "37", "T_DO": "Decreto", "OBS": null }, "geometry": { "type": "MultiPolygon", "coordinates": [ [ [ [ -70.711537336828002, -33.363672004316598 ], [ -70.711204364878498, -33.364906050358499 ], [ -70.710924892483604, -33.366149235661602 ], [ -70.711157840688401, -33.366195654377499 ], [ -70.711178346600406, -33.366197280827102 ], [ -70.711056862921794, -33.3667315290337 ], [ -70.710842564418499, -33.3676377586931 ], [ -70.710759544840201, -33.367929050626799 ], [ -70.710732199768501, -33.3680521000121 ], [ -70.710577889714102, -33.368527501613301 ], [ -70.711799805350395, -33.368739410191402 ], [ -70.713462859542204, -33.369015792876603 ], [ -70.713740072937497, -33.369063729140699 ], [ -70.713850103820505, -33.369066711664097 ], [ -70.714251843450896, -33.370377323325599 ], [ -70.7148002250254, -33.3722767265794 ], [ -70.715248531537199, -33.372140134033302 ], [ -70.715660537123995, -33.372014243150701 ], [ -70.715823838841402, -33.371960026080302 ], [ -70.717320453628901, -33.3714787185991 ], [ -70.717311260740502, -33.371458979554198 ], [ -70.722686821600206, -33.369767976672897 ], [ -70.724550864410404, -33.369178205027303 ], [ -70.724863436372402, -33.369087663407903 ], [ -70.724871497009005, -33.369105508452897 ], [ -70.724899391203806, -33.369097463409801 ], [ -70.725170318738606, -33.3690190007326 ], [ -70.725691215897797, -33.3688715302494 ], [ -70.725975721093505, -33.368773875666697 ], [ -70.726059915493394, -33.368733462004002 ], [ -70.726368638583807, -33.368517416796102 ], [ -70.727173620153906, -33.367939465574501 ], [ -70.728765221302098, -33.368959876994602 ], [ -70.729051203972205, -33.369156323687299 ], [ -70.729375890213802, -33.369354138640801 ], [ -70.729478310742806, -33.369402120385999 ], [ -70.729819002265799, -33.369443405751603 ], [ -70.729866990177698, -33.369454190011098 ], [ -70.729983398441703, -33.369473565409898 ], [ -70.730006292296494, -33.369480881096898 ], [ -70.730187962309898, -33.3696940496189 ], [ -70.730373651412094, -33.369880438170902 ], [ -70.730447905452493, -33.369953848136802 ], [ -70.730545626765405, -33.370009894542797 ], [ -70.7306485965523, -33.370039954774199 ], [ -70.730728937260096, -33.370047424255702 ], [ -70.730850160809297, -33.370051460244497 ], [ -70.731247900917197, -33.370064569429601 ], [ -70.731442177623904, -33.370048928899102 ], [ -70.731540002589597, -33.370077628069197 ], [ -70.731767149793797, -33.370174673478402 ], [ -70.731965323010897, -33.370240810713099 ], [ -70.732066653929294, -33.370201661700101 ], [ -70.732469233024503, -33.370035377919898 ], [ -70.732728361535294, -33.369935080752597 ], [ -70.732969691052503, -33.3698564155439 ], [ -70.733386652232596, -33.369735337350299 ], [ -70.733961446417496, -33.369604784062801 ], [ -70.734122698563695, -33.3695624451558 ], [ -70.734977077031203, -33.3693452717703 ], [ -70.735238556744207, -33.369271292246097 ], [ -70.735510424559294, -33.3692182379271 ], [ -70.735976998505706, -33.369133186652597 ], [ -70.736835294468506, -33.3689684289944 ], [ -70.737094759504899, -33.368918620908502 ], [ -70.737772717145006, -33.3687752694021 ], [ -70.737820231097203, -33.368762195976103 ], [ -70.738264593923006, -33.368685345309899 ], [ -70.738232256537401, -33.368231968562498 ], [ -70.738189035438296, -33.367917612634599 ], [ -70.738160887893997, -33.367789159418798 ], [ -70.738102239989303, -33.3674783598182 ], [ -70.738059478215405, -33.367272802766301 ], [ -70.737879672876701, -33.366353343732399 ], [ -70.737845084988507, -33.366215626905102 ], [ -70.737792652506698, -33.3660077783125 ], [ -70.7376562680913, -33.365287817297897 ], [ -70.737469580822903, -33.364621830690801 ], [ -70.737222252310204, -33.363652100074397 ], [ -70.737275422953303, -33.363632209324997 ], [ -70.736950935423593, -33.363073261069403 ], [ -70.736775238391004, -33.363147934718398 ], [ -70.736183831749003, -33.363472652890898 ], [ -70.735729124481793, -33.363733710895502 ], [ -70.735574183002498, -33.363805341169503 ], [ -70.735482536224197, -33.363822059105203 ], [ -70.735188285587398, -33.363826173095397 ], [ -70.734792733530497, -33.363823983625203 ], [ -70.734527140532293, -33.3638817226607 ], [ -70.734043309101594, -33.3640660001927 ], [ -70.733601116214203, -33.364259399689097 ], [ -70.733178580857796, -33.364460957871302 ], [ -70.733015687684997, -33.364563448123803 ], [ -70.732762155099707, -33.364683905306997 ], [ -70.732207376446794, -33.364956503087399 ], [ -70.731953606257804, -33.365065031780901 ], [ -70.731840059762106, -33.3651180362018 ], [ -70.731709998709107, -33.365191432945601 ], [ -70.731417421495806, -33.3653148184099 ], [ -70.731153567457, -33.365452715083002 ], [ -70.730952789470294, -33.365544993114099 ], [ -70.730783166239107, -33.365595080267703 ], [ -70.730627284242601, -33.365621114309398 ], [ -70.730379423811598, -33.365669309483501 ], [ -70.730173673342307, -33.365690072653599 ], [ -70.729946543496894, -33.365708152055198 ], [ -70.729456276154707, -33.365720950074099 ], [ -70.729022275183397, -33.365703135501697 ], [ -70.728790646892406, -33.365673553780503 ], [ -70.728572879794399, -33.365625882835502 ], [ -70.728173117281202, -33.365541971905103 ], [ -70.727955350801906, -33.3654942998539 ], [ -70.727812797532195, -33.365475406342703 ], [ -70.727698848847396, -33.365465062366397 ], [ -70.727657831937194, -33.3654687346801 ], [ -70.727581203010303, -33.365476243920597 ], [ -70.727507161681999, -33.365485148289302 ], [ -70.727424704548497, -33.365499896311 ], [ -70.727282007067799, -33.365531231148601 ], [ -70.727220018077603, -33.3655456950871 ], [ -70.727075755635695, -33.365584209226299 ], [ -70.726931408218604, -33.365618429907499 ], [ -70.726774197591496, -33.3656492500537 ], [ -70.726687618152198, -33.365671213602504 ], [ -70.726512509952002, -33.365710156213602 ], [ -70.725944121942106, -33.365842136828199 ], [ -70.725522974562196, -33.365942481858198 ], [ -70.725261446794704, -33.366004337312198 ], [ -70.724969589333398, -33.366089774342299 ], [ -70.724241552744701, -33.366249968190097 ], [ -70.723897526233301, -33.366322832803903 ], [ -70.723604698580402, -33.366359914511698 ], [ -70.723373760219701, -33.3663526827917 ], [ -70.723132211675306, -33.366360808982897 ], [ -70.722822341899303, -33.366365110639101 ], [ -70.722552271118104, -33.366368859169 ], [ -70.722313754526297, -33.366386485674902 ], [ -70.722094995806899, -33.366396679819204 ], [ -70.721885095090201, -33.366423452441197 ], [ -70.721740439573296, -33.366442161868299 ], [ -70.721601561865597, -33.366465562526599 ], [ -70.721426009923803, -33.366503789030297 ], [ -70.721350141492593, -33.366516865277298 ], [ -70.721312894858698, -33.366521344455798 ], [ -70.720866341930005, -33.3666295996644 ], [ -70.7200078220785, -33.366820413753999 ], [ -70.719865894344395, -33.366849611991398 ], [ -70.719612933922804, -33.366901686520102 ], [ -70.719571569918102, -33.366750248353 ], [ -70.7193620359525, -33.366073118984303 ], [ -70.719137753321903, -33.3652999869255 ], [ -70.7191439445279, -33.365298765775798 ], [ -70.719137960759497, -33.3652933222846 ], [ -70.719133437052506, -33.365273047026299 ], [ -70.715653477294694, -33.365973377108503 ], [ -70.715651329824794, -33.365973809006299 ], [ -70.715394717433696, -33.363705008512198 ], [ -70.711537336828002, -33.363672004316598 ] ], [ [ -70.731405582674796, -33.368291689701003 ], [ -70.731345245574005, -33.368206729514 ], [ -70.731343451310494, -33.368203722623498 ], [ -70.731322352687897, -33.3681683688852 ], [ -70.731299459822495, -33.368130008251299 ], [ -70.731022111198797, -33.367665259310797 ], [ -70.731406215140197, -33.367489255424204 ], [ -70.731756960957298, -33.367339001069503 ], [ -70.732147416050793, -33.367990445573703 ], [ -70.732186625491906, -33.368046759018597 ], [ -70.731648015680804, -33.368304393175002 ], [ -70.731472143725398, -33.368377724569697 ], [ -70.731405582674796, -33.368291689701003 ] ] ] ] } }
]
}
