{
"type": "FeatureCollection",
"name": "IPT_13_PRC_San_Ramon",
"crs": { "type": "name", "properties": { "name": "urn:ogc:def:crs:OGC:1.3:CRS84" } },
"features": [
{ "type": "Feature", "properties": { "id": "ipt_13_prc_san_ramon_mono.1", "Name": null, "description": null, "timestamp": null, "begin": null, "end": null, "altitudeMode": null, "tessellate": -1, "extrude": 0, "visibility": -1, "drawOrder": null, "icon": null, "REG": "Metropolitana", "COM": "San Ramón", "LOC": "San Ramón", "ZONA": "Zona 4", "NOM": "Zona 4 Residencial Económica. 200 m2", "UPERM": "Residencial, además de instalaciones de artesanías", "UPROH": "Todo uso no mencionado como permitido.", "P_DO": "22/06/1952", "N_DOC": "1469", "T_DO": "Decreto", "OBS": null }, "geometry": { "type": "MultiPolygon", "coordinates": [ [ [ [ -70.637134777959105, -33.5188075554737 ], [ -70.636590481347298, -33.525344513305697 ], [ -70.635422713685202, -33.532923755400297 ], [ -70.636133019404895, -33.532818928290702 ], [ -70.636065208614497, -33.536780682861902 ], [ -70.636639235340297, -33.541457305399902 ], [ -70.636779410788805, -33.541428931595597 ], [ -70.651103387809002, -33.539392336480901 ], [ -70.651172167823702, -33.539371161745599 ], [ -70.650740000217894, -33.537770000388598 ], [ -70.650419999351101, -33.536589999758903 ], [ -70.650310000334002, -33.536239999797203 ], [ -70.649900000347102, -33.5348300000094 ], [ -70.649469999519496, -33.533369999518001 ], [ -70.649181995320205, -33.532393985798102 ], [ -70.649122811975204, -33.532193419832602 ], [ -70.649122070772904, -33.532190906430003 ], [ -70.649109999197606, -33.532150000420103 ], [ -70.649096770116103, -33.532106999581302 ], [ -70.649030000160394, -33.531889999846399 ], [ -70.648619999923298, -33.530500000045002 ], [ -70.648090000255394, -33.528730000135297 ], [ -70.648010000321506, -33.528469999577602 ], [ -70.647690000054297, -33.528070000048899 ], [ -70.647669999850507, -33.527999999503898 ], [ -70.647480000368702, -33.527149999857102 ], [ -70.647400000352505, -33.526800000379801 ], [ -70.647270000226897, -33.5263100000126 ], [ -70.647049999907495, -33.5255100000916 ], [ -70.646880000226304, -33.524899999992002 ], [ -70.646740000490695, -33.524429999713597 ], [ -70.646469999843802, -33.523460000138698 ], [ -70.646159999886095, -33.522389999774198 ], [ -70.645869999619904, -33.521409999769403 ], [ -70.645820000305605, -33.521229999933297 ], [ -70.645580000159597, -33.520399999911902 ], [ -70.645470000368206, -33.519989999917698 ], [ -70.645289999446604, -33.519379999786899 ], [ -70.645100000498402, -33.518749999966097 ], [ -70.644990000779401, -33.518360000753901 ], [ -70.644690000215306, -33.517379999913999 ], [ -70.643910000350999, -33.517540000212698 ], [ -70.643239999337098, -33.517690000418298 ], [ -70.6420300002152, -33.517950000482003 ], [ -70.641300000163994, -33.518109999678501 ], [ -70.640960000105196, -33.518169999586803 ], [ -70.639310000237799, -33.518450000120403 ], [ -70.6387999998298, -33.518530000266601 ], [ -70.638239999868205, -33.518619999892699 ], [ -70.637134777959105, -33.5188075554737 ] ] ] ] } },
{ "type": "Feature", "properties": { "id": "ipt_13_prc_san_ramon_mono.2", "Name": null, "description": null, "timestamp": null, "begin": null, "end": null, "altitudeMode": null, "tessellate": -1, "extrude": 0, "visibility": -1, "drawOrder": null, "icon": null, "REG": "Metropolitana", "COM": "San Ramón", "LOC": "San Ramón", "ZONA": "Zona 6", "NOM": "Zona 6 Quintas Residenciales 800 m2", "UPERM": "Residencial, además de establecimientos comerciales, o industriales agropecuarios con autorización especial de la Municipalidad.", "UPROH": "Todo uso no mencionado como permitido, en especial la instalación de industrias y artesanías.", "P_DO": "22/06/1952", "N_DOC": "1469", "T_DO": "Decreto", "OBS": null }, "geometry": { "type": "MultiPolygon", "coordinates": [ [ [ [ -70.638978786745795, -33.5461940459735 ], [ -70.634290954974702, -33.547040288400602 ], [ -70.63151024874, -33.5581353503771 ], [ -70.642258214967299, -33.556820070121397 ], [ -70.643040000482699, -33.556719999316996 ], [ -70.643820000530397, -33.556629999804599 ], [ -70.643879999682596, -33.556620000841903 ], [ -70.644479999830395, -33.556539999963 ], [ -70.644979999955197, -33.556469999814603 ], [ -70.645619999843206, -33.556369999824803 ], [ -70.646209999736598, -33.556290000018201 ], [ -70.646660000262301, -33.556219999810502 ], [ -70.647400000015395, -33.556120000309598 ], [ -70.648489999689602, -33.555959999285697 ], [ -70.649310000181501, -33.555830000012399 ], [ -70.650639999605403, -33.555639999851302 ], [ -70.651380000032105, -33.5555400001262 ], [ -70.651850000401097, -33.555469999291603 ], [ -70.652300000079705, -33.555410000528802 ], [ -70.654550000282597, -33.555110000315501 ], [ -70.654799999835305, -33.555070000480598 ], [ -70.655060000113593, -33.555039999149699 ], [ -70.654129999706797, -33.551160000069501 ], [ -70.653860000215005, -33.5500299997247 ], [ -70.6535999997798, -33.548919999633398 ], [ -70.6534799996695, -33.548420000151502 ], [ -70.653466242656606, -33.548367867162803 ], [ -70.653290000248504, -33.547699999871298 ], [ -70.653102528782895, -33.546998718570102 ], [ -70.653053142769195, -33.546813978347899 ], [ -70.653001175300105, -33.546623068108303 ], [ -70.652892300301104, -33.546235954936101 ], [ -70.652648714688794, -33.545369091847299 ], [ -70.652500000679296, -33.544830000218802 ], [ -70.652129999995097, -33.544879999667799 ], [ -70.652019999586997, -33.544449999562197 ], [ -70.651984002600798, -33.544313213393501 ], [ -70.646384272585706, -33.5451838207874 ], [ -70.638978786745795, -33.5461940459735 ] ] ] ] } },
{ "type": "Feature", "properties": { "id": "ipt_13_prc_san_ramon_mono.3", "Name": null, "description": null, "timestamp": null, "begin": null, "end": null, "altitudeMode": null, "tessellate": -1, "extrude": 0, "visibility": -1, "drawOrder": null, "icon": null, "REG": "Metropolitana", "COM": "San Ramón", "LOC": "San Ramón", "ZONA": "Zona 5", "NOM": "Zona 5 Huertos Familiares - 500 m2", "UPERM": "Artesanía, industrias agropecuarias y comercio, junto al destino residencial. el emplazamiento de industrias no molestass ni insalubres se admitirá e*", "UPROH": "Todo uso no mencionado como permitido, en especial la instalación de industrias y artesanías.", "P_DO": "22/06/1952", "N_DOC": "1469", "T_DO": "Decreto", "OBS": null }, "geometry": { "type": "MultiPolygon", "coordinates": [ [ [ [ -70.651172167823702, -33.539371161745599 ], [ -70.651103387809002, -33.539392336480901 ], [ -70.636779410788805, -33.541428931595597 ], [ -70.636639235340297, -33.541457305399902 ], [ -70.636065208614497, -33.536780682861902 ], [ -70.636133019404895, -33.532818928290702 ], [ -70.635422713685202, -33.532923755400297 ], [ -70.636590481347298, -33.525344513305697 ], [ -70.637134777959105, -33.5188075554737 ], [ -70.636590000160993, -33.518900000501297 ], [ -70.636560000012807, -33.519559999969999 ], [ -70.636530000218002, -33.520320000117998 ], [ -70.636500000516804, -33.521229999480198 ], [ -70.6364900000777, -33.521490000254303 ], [ -70.636440000515904, -33.521950000791499 ], [ -70.636369999479996, -33.5226399999476 ], [ -70.636370000111597, -33.522720000150798 ], [ -70.636239999900198, -33.523990000338102 ], [ -70.636049999720697, -33.525550000265099 ], [ -70.636040000232995, -33.525659999840002 ], [ -70.635899999968501, -33.526849999564597 ], [ -70.635829999384697, -33.527370000179999 ], [ -70.635740000135797, -33.528120000016699 ], [ -70.635720000058896, -33.528339999970001 ], [ -70.635649999177303, -33.528909999827903 ], [ -70.635639999757899, -33.528950000327498 ], [ -70.635609999493198, -33.5290500004579 ], [ -70.635339999774004, -33.530089999246002 ], [ -70.635265672568096, -33.530392618675101 ], [ -70.635227387654595, -33.530548493745698 ], [ -70.635200000047305, -33.530659999810403 ], [ -70.635189999940295, -33.530719999862001 ], [ -70.635179999986406, -33.530770000570101 ], [ -70.635080000395305, -33.531430000640803 ], [ -70.635000000441593, -33.532150000365696 ], [ -70.634929999418802, -33.532899999432999 ], [ -70.634900000154403, -33.533199999633403 ], [ -70.634860000163499, -33.533619999462204 ], [ -70.634799999801302, -33.534209999550697 ], [ -70.634770000003698, -33.534559999968899 ], [ -70.634739999662202, -33.534869999424998 ], [ -70.634690000609794, -33.535480000363002 ], [ -70.634519999573001, -33.537349999991299 ], [ -70.634480000008594, -33.537819999760103 ], [ -70.634439999727505, -33.538309999965001 ], [ -70.634439999789905, -33.538359999322701 ], [ -70.634399999577994, -33.5388299999208 ], [ -70.634389999955204, -33.538909999415402 ], [ -70.634350000422998, -33.539379999958797 ], [ -70.6343200002283, -33.539669999583303 ], [ -70.634300000562206, -33.5399399992803 ], [ -70.634249999606197, -33.540530000150802 ], [ -70.634209999572903, -33.540969999881099 ], [ -70.634139999951401, -33.541759999550003 ], [ -70.634109999727201, -33.542490000026802 ], [ -70.634109999271203, -33.542610000049102 ], [ -70.633659999193299, -33.545109999523902 ], [ -70.6336599995131, -33.545140000191303 ], [ -70.633639999503004, -33.545240000330601 ], [ -70.633559999569897, -33.545659999490198 ], [ -70.633539999900506, -33.545780000051401 ], [ -70.633189999202003, -33.547629999660003 ], [ -70.633169999272994, -33.547729999704202 ], [ -70.633110000315099, -33.548029999802097 ], [ -70.633039999674693, -33.548540000261397 ], [ -70.632960000237205, -33.549049999994303 ], [ -70.632920000284798, -33.549320000615403 ], [ -70.632889999876298, -33.549440000395698 ], [ -70.632720000533794, -33.550160000434502 ], [ -70.632580000272895, -33.5507800000725 ], [ -70.6324299995036, -33.551380000220703 ], [ -70.632419999643005, -33.551450000150197 ], [ -70.632010000482296, -33.553110000063597 ], [ -70.631999999468704, -33.553169999750303 ], [ -70.631829999920697, -33.553959999918099 ], [ -70.631780000220601, -33.554209999813303 ], [ -70.631660000124597, -33.554789999766797 ], [ -70.631369999901096, -33.5560700007088 ], [ -70.631000000388198, -33.557740000083598 ], [ -70.630900000505406, -33.558210000232499 ], [ -70.63151024874, -33.5581353503771 ], [ -70.634290954974702, -33.547040288400602 ], [ -70.638978786745795, -33.5461940459735 ], [ -70.636775945657305, -33.5435109957943 ], [ -70.651243563514996, -33.541404253407798 ], [ -70.651240000208702, -33.541389999999197 ], [ -70.650920000272905, -33.540099999458398 ], [ -70.651349999901399, -33.540030000434299 ], [ -70.651172167823702, -33.539371161745599 ] ] ] ] } },
{ "type": "Feature", "properties": { "id": "ipt_13_prc_san_ramon_mono.4", "Name": null, "description": null, "timestamp": null, "begin": null, "end": null, "altitudeMode": null, "tessellate": -1, "extrude": 0, "visibility": -1, "drawOrder": null, "icon": null, "REG": "Metropolitana", "COM": "San Ramón", "LOC": "San Ramón", "ZONA": "Zona 4", "NOM": "Zona 4 Residencial Económica. 200 m2", "UPERM": "Residencial, además de instalaciones de artesanías", "UPROH": "Todo uso no mencionado como permitido.", "P_DO": "22/06/1952", "N_DOC": "1469", "T_DO": "Decreto", "OBS": null }, "geometry": { "type": "MultiPolygon", "coordinates": [ [ [ [ -70.638978786745795, -33.5461940459735 ], [ -70.646384272585706, -33.5451838207874 ], [ -70.651984002600798, -33.544313213393501 ], [ -70.651720000069801, -33.543310000458298 ], [ -70.651599999814806, -33.542829999705603 ], [ -70.651420000173601, -33.542120000238697 ], [ -70.651299999597597, -33.541629999765298 ], [ -70.651243563514996, -33.541404253407798 ], [ -70.636775945657305, -33.5435109957943 ], [ -70.638978786745795, -33.5461940459735 ] ] ] ] } }
]
}
