{
"type": "FeatureCollection",
"name": "IPT_13_PRC_Lo_Espejo",
"crs": { "type": "name", "properties": { "name": "urn:ogc:def:crs:OGC:1.3:CRS84" } },
"features": [
{ "type": "Feature", "properties": { "id": "ipt_13_prc_lo_espejo_mono.1", "Name": null, "description": null, "timestamp": null, "begin": null, "end": null, "altitudeMode": null, "tessellate": -1, "extrude": 0, "visibility": -1, "drawOrder": null, "icon": null, "Shape_Leng": 11543.483312, "Shape_Area": 6044544.0848399997, "REG": "Metropolitana", "COM": "Lo Espejo", "LOC": "Lo Espejo", "ZONA": "R", "NOM": "Zona R", "UPERM": "Vivienda, comercio, oficina, equipamiento, areas verdes, talleres artesanales inofensivos", "UPROH": "Todo uso no mencionado como permitido.", "P_DO": "18/10/1983", "N_DOC": "110", "T_DO": "Decreto", "OBS": null }, "geometry": { "type": "MultiPolygon", "coordinates": [ [ [ [ -70.676667383811207, -33.522537520693902 ], [ -70.677285816596395, -33.523767800390097 ], [ -70.677836652681194, -33.524930525231902 ], [ -70.6779290315461, -33.525125518946702 ], [ -70.678184705139003, -33.525063644815603 ], [ -70.679206730603596, -33.524811928963402 ], [ -70.679893410696806, -33.524636444909902 ], [ -70.680526681994195, -33.524483849314002 ], [ -70.681198101956198, -33.524315996111703 ], [ -70.681884779893196, -33.524144326633603 ], [ -70.682416269231993, -33.524009815308098 ], [ -70.682502793775797, -33.523987917021998 ], [ -70.683166583771893, -33.523820060435703 ], [ -70.683860892889996, -33.523648390913799 ], [ -70.685264771895007, -33.523297421556499 ], [ -70.685989601415898, -33.5231219376534 ], [ -70.686645761131103, -33.522954082633298 ], [ -70.687384307315597, -33.5227715049853 ], [ -70.687853202939394, -33.522684705793502 ], [ -70.687909100234606, -33.5229425815143 ], [ -70.687986747794099, -33.523306429753099 ], [ -70.688186502348501, -33.524242433561199 ], [ -70.688431153485496, -33.5254336828025 ], [ -70.688589269531207, -33.526145160325697 ], [ -70.688690576316006, -33.526601005930402 ], [ -70.6887833267009, -33.527053273397897 ], [ -70.688896589583806, -33.527535627517501 ], [ -70.6889881503526, -33.5279806450989 ], [ -70.688989477492299, -33.527987097462002 ], [ -70.689122368836294, -33.528389986822098 ], [ -70.694543694190799, -33.525960796421501 ], [ -70.695433046008802, -33.5255489616004 ], [ -70.696362315545699, -33.524993411022201 ], [ -70.696532277741298, -33.525214573487801 ], [ -70.696891940927102, -33.525686480536102 ], [ -70.697056604329305, -33.525918072067498 ], [ -70.697479932765702, -33.526711978192999 ], [ -70.697518246374102, -33.526761173101697 ], [ -70.697724254068206, -33.527173168483699 ], [ -70.697953151239602, -33.5275851643107 ], [ -70.697987154477204, -33.527649243847698 ], [ -70.698151533560093, -33.527959013348898 ], [ -70.698350292336102, -33.528336219686899 ], [ -70.698555915069903, -33.528706705929899 ], [ -70.698754292751104, -33.529076741079898 ], [ -70.6989526699913, -33.529446774064098 ], [ -70.699257866812403, -33.530022805479398 ], [ -70.699509122704498, -33.530502152654797 ], [ -70.699547803276104, -33.530575947566199 ], [ -70.699761441488704, -33.530968869298299 ], [ -70.699975078468597, -33.531361790621297 ], [ -70.700173456249601, -33.531747083472503 ], [ -70.700379464512807, -33.532117116334298 ], [ -70.700585471780002, -33.532490964350004 ], [ -70.700986303879404, -33.533251864641599 ], [ -70.7010399428939, -33.533359569657499 ], [ -70.701214862505395, -33.533296499212398 ], [ -70.701774740359994, -33.533092622839199 ], [ -70.702340783604498, -33.532885179139001 ], [ -70.702563095554098, -33.532806256178702 ], [ -70.702877872347798, -33.532698629134103 ], [ -70.703168127746196, -33.532591690327799 ], [ -70.703623642876906, -33.532430801845599 ], [ -70.703762532257301, -33.532379826228599 ], [ -70.703896768715396, -33.532328802668303 ], [ -70.704260236935696, -33.532193111570201 ], [ -70.704328954917102, -33.5321674571302 ], [ -70.7044050919082, -33.532139765251102 ], [ -70.704981627915998, -33.531929039561902 ], [ -70.705897357575495, -33.5315944216293 ], [ -70.706198452491094, -33.5314789018298 ], [ -70.706222568808798, -33.531469054564397 ], [ -70.706270757629994, -33.5314489394814 ], [ -70.706126198678405, -33.530661453029701 ], [ -70.706067978210001, -33.530235752637999 ], [ -70.705981029479403, -33.5296165836453 ], [ -70.705954192270994, -33.529265610640302 ], [ -70.7058393235381, -33.527768768387801 ], [ -70.705730980047804, -33.526023688049399 ], [ -70.705644076936807, -33.525080017787097 ], [ -70.705535439636705, -33.524480234210102 ], [ -70.705393284644401, -33.523914317633 ], [ -70.705182685118601, -33.523344571004003 ], [ -70.704844336692304, -33.522531218812297 ], [ -70.704743068503902, -33.522270149873698 ], [ -70.704205165625098, -33.5209890970538 ], [ -70.703854102091796, -33.5201558342266 ], [ -70.703593452317406, -33.519574842887302 ], [ -70.703220340354093, -33.518706090330497 ], [ -70.702772651367098, -33.517665374736303 ], [ -70.702475366767302, -33.517031198866398 ], [ -70.7022537205997, -33.516622654180097 ], [ -70.700761693267907, -33.513524964340597 ], [ -70.7002780385275, -33.512503094429 ], [ -70.699799798120907, -33.511538759022201 ], [ -70.698708960646499, -33.509339134883398 ], [ -70.697610463189704, -33.507056276434398 ], [ -70.696863579306395, -33.505521092535801 ], [ -70.6963691484995, -33.504504782860899 ], [ -70.696150387301998, -33.504055105796603 ], [ -70.695495087846197, -33.502708066722803 ], [ -70.695376305968793, -33.502463893614198 ], [ -70.695368088536299, -33.502447008784401 ], [ -70.695210975459005, -33.502124169538497 ], [ -70.695190238036503, -33.502081557876203 ], [ -70.694567123683001, -33.502276172400798 ], [ -70.694486481258096, -33.502301358435503 ], [ -70.6944491696173, -33.502314275947299 ], [ -70.694088553464795, -33.502440421659202 ], [ -70.692779940495697, -33.502892080156698 ], [ -70.691343751166997, -33.503389291476502 ], [ -70.690795449690398, -33.503579108769301 ], [ -70.690729336367497, -33.503600937727299 ], [ -70.690000780622597, -33.503854172426699 ], [ -70.689445730450501, -33.504044167893603 ], [ -70.689139373737405, -33.5041506438453 ], [ -70.688820088006594, -33.5042616122985 ], [ -70.688171559436299, -33.504490506480202 ], [ -70.687485210531506, -33.504731077896899 ], [ -70.686066702684599, -33.5052235565147 ], [ -70.685529621740102, -33.505403225866402 ], [ -70.684730226654906, -33.5056706415834 ], [ -70.6845497273505, -33.5057421852065 ], [ -70.684412732768394, -33.505781506829003 ], [ -70.684286545168206, -33.505801953438102 ], [ -70.684032243171004, -33.505839750400803 ], [ -70.683978453047203, -33.505849847038398 ], [ -70.683824892577206, -33.505898757647799 ], [ -70.683348324073904, -33.506083829232502 ], [ -70.683295833463205, -33.506100229611398 ], [ -70.683225315804407, -33.506128630060402 ], [ -70.683204916096599, -33.506136845027001 ], [ -70.682850621112294, -33.506279530838498 ], [ -70.682293709760501, -33.506517334924801 ], [ -70.681872329040203, -33.506708659308501 ], [ -70.681485679085796, -33.506875356675302 ], [ -70.6811134372834, -33.5070418672165 ], [ -70.680717276340204, -33.507218122460699 ], [ -70.680335787734506, -33.507385975431298 ], [ -70.679893259624606, -33.507576717967098 ], [ -70.679457243438307, -33.5077647824507 ], [ -70.679065857978799, -33.507937600386903 ], [ -70.678574546145697, -33.5081453386425 ], [ -70.678172999218106, -33.508306729391698 ], [ -70.677882301627307, -33.5083170833095 ], [ -70.677685655963003, -33.5083229719964 ], [ -70.677681669779901, -33.5083230918232 ], [ -70.677237585295103, -33.5083363893647 ], [ -70.6769255908914, -33.508345526113899 ], [ -70.676839667550297, -33.508349264099401 ], [ -70.676778429180501, -33.508359106777299 ], [ -70.676719274219096, -33.508377841043 ], [ -70.676576747599299, -33.5084120553052 ], [ -70.676477529990194, -33.508443016536503 ], [ -70.676331340611696, -33.508506801815898 ], [ -70.675940783320399, -33.508677852898799 ], [ -70.675536663948805, -33.508850881750597 ], [ -70.675132283774701, -33.509030180428297 ], [ -70.674915657229704, -33.509125130118797 ], [ -70.674699031275296, -33.5092200794289 ], [ -70.674308325150506, -33.509398773932197 ], [ -70.674253322105201, -33.509420857055602 ], [ -70.6738504827848, -33.509587147400403 ], [ -70.673476623881299, -33.509747372484703 ], [ -70.673390453314298, -33.5097836984325 ], [ -70.673087508130905, -33.5099114089073 ], [ -70.672703771334994, -33.510090878147899 ], [ -70.672007958842798, -33.510392363399703 ], [ -70.671302144504395, -33.510693449512303 ], [ -70.671241943663304, -33.510713924991499 ], [ -70.671140185328198, -33.510748537073702 ], [ -70.671097789071794, -33.510761994220502 ], [ -70.671039807958095, -33.510780397046901 ], [ -70.672503092569201, -33.513852276841 ], [ -70.672554188008903, -33.513959537306498 ], [ -70.673243398859697, -33.515388155569099 ], [ -70.673514984508998, -33.515971310019303 ], [ -70.673609316178201, -33.516165882563399 ], [ -70.674068135084596, -33.517100816949203 ], [ -70.674158612055393, -33.517285179396502 ], [ -70.674209680780706, -33.517395247654598 ], [ -70.674714756395701, -33.518483805944697 ], [ -70.675444280657999, -33.519938374179297 ], [ -70.675974368773296, -33.521071464764802 ], [ -70.676080050749604, -33.521297360061098 ], [ -70.676102182654603, -33.5213446679737 ], [ -70.676486004880601, -33.522154725844601 ], [ -70.676667383811207, -33.522537520693902 ] ] ] ] } },
{ "type": "Feature", "properties": { "id": "ipt_13_prc_lo_espejo_mono.2", "Name": null, "description": null, "timestamp": null, "begin": null, "end": null, "altitudeMode": null, "tessellate": -1, "extrude": 0, "visibility": -1, "drawOrder": null, "icon": null, "Shape_Leng": 3215.2419889600001, "Shape_Area": 611692.9646, "REG": "Metropolitana", "COM": "Lo Espejo", "LOC": "Lo Espejo", "ZONA": "I2", "NOM": "Zona I2", "UPERM": "Industria molesta e inofensiva, equipamiento de todas las escalas.  Servicios de salud de atencion ambulatoria, establecimientos de formacion tecnico profesional, actividades complementarias al transporte y viviendas de cuidadores", "UPROH": "Todo uso no mencionado como permitido", "P_DO": "18/10/1983", "N_DOC": "110", "T_DO": "Decreto", "OBS": null }, "geometry": { "type": "MultiPolygon", "coordinates": [ [ [ [ -70.685381751137299, -33.539114862585002 ], [ -70.685395992655302, -33.539142575099703 ], [ -70.686574845565801, -33.538707698510798 ], [ -70.686728260985305, -33.538651176271898 ], [ -70.687799447253198, -33.538256513786401 ], [ -70.688469611056107, -33.537998771106402 ], [ -70.689390454044897, -33.537663752789399 ], [ -70.6906940695267, -33.537187411367498 ], [ -70.690812105209901, -33.537144319929503 ], [ -70.690861162236601, -33.537126411019898 ], [ -70.689122368836294, -33.528389986822098 ], [ -70.687732323971204, -33.528988747964199 ], [ -70.683966176451307, -33.530908294013699 ], [ -70.682493101869696, -33.531636973328801 ], [ -70.681559760088504, -33.531989966395102 ], [ -70.682424700249499, -33.533576646012598 ], [ -70.683001479770596, -33.534670559489498 ], [ -70.683082354368196, -33.534800691984699 ], [ -70.683328988014907, -33.535250984030498 ], [ -70.683846291893303, -33.536233558253798 ], [ -70.683917781752299, -33.536367494431602 ], [ -70.684260224449105, -33.537009055712602 ], [ -70.684762922374603, -33.537953648007303 ], [ -70.684777628671796, -33.537977307873703 ], [ -70.685038814912303, -33.538469123627102 ], [ -70.685381751137299, -33.539114862585002 ] ] ] ] } },
{ "type": "Feature", "properties": { "id": "ipt_13_prc_lo_espejo_mono.3", "Name": null, "description": null, "timestamp": null, "begin": null, "end": null, "altitudeMode": null, "tessellate": -1, "extrude": 0, "visibility": -1, "drawOrder": null, "icon": null, "Shape_Leng": 3246.11791481, "Shape_Area": 645115.91599500005, "REG": "Metropolitana", "COM": "Lo Espejo", "LOC": "Lo Espejo", "ZONA": "M", "NOM": "Zona M", "UPERM": "Cementerio.", "UPROH": "Todo uso no mencionado como permitido.", "P_DO": "18/10/1983", "N_DOC": "110", "T_DO": "Decreto", "OBS": null }, "geometry": { "type": "MultiPolygon", "coordinates": [ [ [ [ -70.681501075128494, -33.531882309276199 ], [ -70.681559760088504, -33.531989966395102 ], [ -70.682493101869696, -33.531636973328801 ], [ -70.683966176451307, -33.530908294013699 ], [ -70.687732323971204, -33.528988747964199 ], [ -70.689122368836294, -33.528389986822098 ], [ -70.688989477492299, -33.527987097462002 ], [ -70.6889881503526, -33.5279806450989 ], [ -70.688896589583806, -33.527535627517501 ], [ -70.6887833267009, -33.527053273397897 ], [ -70.688690576316006, -33.526601005930402 ], [ -70.688589269531207, -33.526145160325697 ], [ -70.688431153485496, -33.5254336828025 ], [ -70.688186502348501, -33.524242433561199 ], [ -70.687986747794099, -33.523306429753099 ], [ -70.687909100234606, -33.5229425815143 ], [ -70.687853202939394, -33.522684705793502 ], [ -70.687384307315597, -33.5227715049853 ], [ -70.686645761131103, -33.522954082633298 ], [ -70.685989601415898, -33.5231219376534 ], [ -70.685264771895007, -33.523297421556499 ], [ -70.683860892889996, -33.523648390913799 ], [ -70.683166583771893, -33.523820060435703 ], [ -70.682502793775797, -33.523987917021998 ], [ -70.682416269231993, -33.524009815308098 ], [ -70.681884779893196, -33.524144326633603 ], [ -70.681198101956198, -33.524315996111703 ], [ -70.680526681994195, -33.524483849314002 ], [ -70.679893410696806, -33.524636444909902 ], [ -70.679206730603596, -33.524811928963402 ], [ -70.678184705139003, -33.525063644815603 ], [ -70.6779290315461, -33.525125518946702 ], [ -70.677957755059097, -33.525186147051997 ], [ -70.677987387658504, -33.525245396588801 ], [ -70.679052671508103, -33.5273457644156 ], [ -70.679122054440199, -33.527475492062599 ], [ -70.679780537449105, -33.5287066731645 ], [ -70.679828358744203, -33.528781651872599 ], [ -70.679850316727595, -33.528816080819603 ], [ -70.680365009745103, -33.529759933158701 ], [ -70.680539842677604, -33.5300886908379 ], [ -70.680893501940602, -33.530753703768298 ], [ -70.680990566580704, -33.530934009269401 ], [ -70.681031640550003, -33.531010307316599 ], [ -70.681501075128494, -33.531882309276199 ] ] ] ] } },
{ "type": "Feature", "properties": { "id": "ipt_13_prc_lo_espejo_mono.4", "Name": null, "description": null, "timestamp": null, "begin": null, "end": null, "altitudeMode": null, "tessellate": -1, "extrude": 0, "visibility": -1, "drawOrder": null, "icon": null, "Shape_Leng": 4386.8244829699997, "Shape_Area": 814264.81782200001, "REG": "Metropolitana", "COM": "Lo Espejo", "LOC": "Lo Espejo", "ZONA": "H", "NOM": "Zona H", "UPERM": "Vivienda, comercio, oficina, equipamiento, areas verdes, talleres artesanales inofensivos, industria y o bodegas inofensivas", "UPROH": "Todo uso no mencionado como permitido.", "P_DO": "18/10/1983", "N_DOC": "110", "T_DO": "Decreto", "OBS": null }, "geometry": { "type": "MultiPolygon", "coordinates": [ [ [ [ -70.689122368836294, -33.528389986822098 ], [ -70.690861162236601, -33.537126411019898 ], [ -70.691775241684297, -33.5367927021748 ], [ -70.692133781025703, -33.5366512328158 ], [ -70.692870886662305, -33.536383914214902 ], [ -70.693311093121906, -33.536229604914901 ], [ -70.694642909999899, -33.535742081883697 ], [ -70.694887683770304, -33.535653132761702 ], [ -70.694067246019998, -33.534007151130801 ], [ -70.6944053566923, -33.5338833967364 ], [ -70.695162044264094, -33.533603840783002 ], [ -70.694785010053195, -33.532852532024897 ], [ -70.696583821147399, -33.532176509434201 ], [ -70.697804266796794, -33.534563270844799 ], [ -70.698368190461295, -33.5343527249969 ], [ -70.698784765641605, -33.534194001545899 ], [ -70.699936630290694, -33.533765173966898 ], [ -70.700179741106197, -33.533673918834197 ], [ -70.700596221945403, -33.533522485372799 ], [ -70.700867699037701, -33.533422810515098 ], [ -70.7010399428939, -33.533359569657499 ], [ -70.700986303879404, -33.533251864641599 ], [ -70.700585471780002, -33.532490964350004 ], [ -70.700379464512807, -33.532117116334298 ], [ -70.700173456249601, -33.531747083472503 ], [ -70.699975078468597, -33.531361790621297 ], [ -70.699761441488704, -33.530968869298299 ], [ -70.699547803276104, -33.530575947566199 ], [ -70.699509122704498, -33.530502152654797 ], [ -70.699257866812403, -33.530022805479398 ], [ -70.6989526699913, -33.529446774064098 ], [ -70.698754292751104, -33.529076741079898 ], [ -70.698555915069903, -33.528706705929899 ], [ -70.698350292336102, -33.528336219686899 ], [ -70.698151533560093, -33.527959013348898 ], [ -70.697987154477204, -33.527649243847698 ], [ -70.697953151239602, -33.5275851643107 ], [ -70.697724254068206, -33.527173168483699 ], [ -70.697518246374102, -33.526761173101697 ], [ -70.697479932765702, -33.526711978192999 ], [ -70.697056604329305, -33.525918072067498 ], [ -70.696891940927102, -33.525686480536102 ], [ -70.696532277741298, -33.525214573487801 ], [ -70.696362315545699, -33.524993411022201 ], [ -70.695433046008802, -33.5255489616004 ], [ -70.694543694190799, -33.525960796421501 ], [ -70.689122368836294, -33.528389986822098 ] ] ] ] } },
{ "type": "Feature", "properties": { "id": "ipt_13_prc_lo_espejo_mono.5", "Name": null, "description": null, "timestamp": null, "begin": null, "end": null, "altitudeMode": null, "tessellate": -1, "extrude": 0, "visibility": -1, "drawOrder": null, "icon": null, "Shape_Leng": 1166.9783329700001, "Shape_Area": 74978.7370544, "REG": "Metropolitana", "COM": "Lo Espejo", "LOC": "Lo Espejo", "ZONA": "I3", "NOM": "Zona I3", "UPERM": "Industria molesta e inofensiva, equipamiento de todas las escalas.  Servicios de salud de atencion ambulatoria, establecimientos de formacion tecnico profesional, actividades complementarias al transporte y viviendas de cuidadores", "UPROH": "Todo uso no mencionado como permitido.", "P_DO": "18/10/1983", "N_DOC": "110", "T_DO": "Decreto", "OBS": null }, "geometry": { "type": "MultiPolygon", "coordinates": [ [ [ [ -70.694067246019998, -33.534007151130801 ], [ -70.694887683770304, -33.535653132761702 ], [ -70.695267393910598, -33.535515145908498 ], [ -70.696481961470695, -33.535057957466798 ], [ -70.696808331006693, -33.534935102286397 ], [ -70.697804266796794, -33.534563270844799 ], [ -70.696583821147399, -33.532176509434201 ], [ -70.694785010053195, -33.532852532024897 ], [ -70.695162044264094, -33.533603840783002 ], [ -70.6944053566923, -33.5338833967364 ], [ -70.694067246019998, -33.534007151130801 ] ] ] ] } }
]
}
