{
"type": "FeatureCollection",
"name": "IPT_13_PRC_Pirque",
"crs": { "type": "name", "properties": { "name": "urn:ogc:def:crs:OGC:1.3:CRS84" } },
"features": [
{ "type": "Feature", "properties": { "id": "ipt_13_prc_pirque_mono.1", "Name": null, "description": null, "timestamp": null, "begin": null, "end": null, "altitudeMode": null, "tessellate": -1, "extrude": 0, "visibility": -1, "drawOrder": null, "icon": null, "REG": "Metropolitana", "COM": "Pirque", "LOC": "Pirque", "ZONA": "ZE -2", "NOM": "Equipamiento recreacional deportivo", "UPERM": "Equipamiento: comercio, culto y cultura, deporte, esparcimiento, social; Espacio Público; Área verde", "UPROH": "Para mayor detalle revisar ordenanza local", "P_DO": "23/12/2015", "N_DOC": "1297", "T_DO": "Decreto", "OBS": null }, "geometry": { "type": "MultiPolygon", "coordinates": [ [ [ [ -70.583616074198304, -33.635920274030198 ], [ -70.583997292486899, -33.636193378494198 ], [ -70.584635107104802, -33.636753083841597 ], [ -70.585489481341, -33.637610650302904 ], [ -70.586015880317404, -33.6380047537737 ], [ -70.586677602255406, -33.638311220548701 ], [ -70.587106269673797, -33.638353438919196 ], [ -70.587586360092402, -33.638399767521399 ], [ -70.5882104501257, -33.638520597770302 ], [ -70.588249668163101, -33.638274331404602 ], [ -70.585636311399497, -33.637009869726 ], [ -70.585279177472202, -33.636823566122899 ], [ -70.585034896848597, -33.636569005329001 ], [ -70.584654426490999, -33.6363543664947 ], [ -70.583677098474197, -33.635946945656102 ], [ -70.583616074198304, -33.635920274030198 ] ] ] ] } },
{ "type": "Feature", "properties": { "id": "ipt_13_prc_pirque_mono.2", "Name": null, "description": null, "timestamp": null, "begin": null, "end": null, "altitudeMode": null, "tessellate": -1, "extrude": 0, "visibility": -1, "drawOrder": null, "icon": null, "REG": "Metropolitana", "COM": "Pirque", "LOC": "Pirque", "ZONA": "ZH -1", "NOM": "Zona residencial baja densidad", "UPERM": "Residencial: vivienda, hospedaje; Equipamiento: científico, comercio, culto y cultura, deporte, educación, salud, seguridad, servicios, social; Espacio Público; Área Verde", "UPROH": "Para mayor detalle revisar ordenanza local", "P_DO": "23/12/2015", "N_DOC": "1297", "T_DO": "Decreto", "OBS": null }, "geometry": { "type": "MultiPolygon", "coordinates": [ [ [ [ -70.588189180075602, -33.638915761279797 ], [ -70.588165271662206, -33.638778870909398 ], [ -70.588064248550594, -33.6387145524779 ], [ -70.587734959600297, -33.638647200730297 ], [ -70.587534994250404, -33.638631873436601 ], [ -70.587256271835798, -33.638599661699701 ], [ -70.587034807555497, -33.638578644512101 ], [ -70.586791844294297, -33.6385519377679 ], [ -70.586433162196798, -33.638437238901801 ], [ -70.586188558929194, -33.638321075324498 ], [ -70.585778001374507, -33.638099668076897 ], [ -70.5853087676022, -33.637789535164302 ], [ -70.584858413282902, -33.6373419607391 ], [ -70.584430108380801, -33.6369298926721 ], [ -70.583878199741406, -33.6363881740916 ], [ -70.583661906070702, -33.6362597123982 ], [ -70.583135761485707, -33.635956264978503 ], [ -70.582697686194294, -33.635788885544898 ], [ -70.582318940753495, -33.635746012684002 ], [ -70.582048340467395, -33.635767371117403 ], [ -70.581977589075294, -33.635798102074702 ], [ -70.581922078573797, -33.635882324048403 ], [ -70.581755382399194, -33.637685922715796 ], [ -70.588031408842497, -33.6400332634555 ], [ -70.588189180075602, -33.638915761279797 ] ] ] ] } },
{ "type": "Feature", "properties": { "id": "ipt_13_prc_pirque_mono.3", "Name": null, "description": null, "timestamp": null, "begin": null, "end": null, "altitudeMode": null, "tessellate": -1, "extrude": 0, "visibility": -1, "drawOrder": null, "icon": null, "REG": "Metropolitana", "COM": "Pirque", "LOC": "Pirque", "ZONA": "ZM -2", "NOM": "Zona mixta residencial equipamiento", "UPERM": "Residencial: vivienda, hospedaje; Equipamiento: científico, comercio, culto y cultura, deporte, educación, salud, seguridad, servicios, social; Act. productivas: taller; Espacio público; Área verde", "UPROH": "Para mayor detalle revisar ordenanza local", "P_DO": "23/12/2015", "N_DOC": "1297", "T_DO": "Decreto", "OBS": null }, "geometry": { "type": "MultiPolygon", "coordinates": [ [ [ [ -70.581755382399194, -33.637685922715796 ], [ -70.581619723721204, -33.638457158506299 ], [ -70.5816438398287, -33.638605977897001 ], [ -70.581787964935003, -33.638687645523802 ], [ -70.587891301481093, -33.640947724752699 ], [ -70.587976205419494, -33.640910843492598 ], [ -70.588031408842497, -33.6400332634555 ], [ -70.581755382399194, -33.637685922715796 ] ] ] ] } },
{ "type": "Feature", "properties": { "id": "ipt_13_prc_pirque_mono.4", "Name": null, "description": null, "timestamp": null, "begin": null, "end": null, "altitudeMode": null, "tessellate": -1, "extrude": 0, "visibility": -1, "drawOrder": null, "icon": null, "REG": "Metropolitana", "COM": "Pirque", "LOC": "Pirque", "ZONA": "ZM -2", "NOM": "Zona mixta residencial equipamiento", "UPERM": "Residencial: vivienda, hospedaje; Equipamiento: científico, comercio, culto y cultura, deporte, educación, salud, seguridad, servicios, social; Act. productivas: taller; Espacio público; Área verde", "UPROH": "Para mayor detalle revisar ordenanza local", "P_DO": "23/12/2015", "N_DOC": "1297", "T_DO": "Decreto", "OBS": null }, "geometry": { "type": "MultiPolygon", "coordinates": [ [ [ [ -70.587752312984307, -33.641146358533597 ], [ -70.584054420841994, -33.639780066605503 ], [ -70.5816990931947, -33.638897561702002 ], [ -70.581608039910094, -33.638988203393602 ], [ -70.581546009985004, -33.6394960318774 ], [ -70.586536676319099, -33.641358814584798 ], [ -70.587844540564404, -33.641896777484497 ], [ -70.587892055268298, -33.641377202826902 ], [ -70.587897214392399, -33.641269764621399 ], [ -70.587846099193897, -33.641204805001898 ], [ -70.587752312984307, -33.641146358533597 ] ] ] ] } },
{ "type": "Feature", "properties": { "id": "ipt_13_prc_pirque_mono.5", "Name": null, "description": null, "timestamp": null, "begin": null, "end": null, "altitudeMode": null, "tessellate": -1, "extrude": 0, "visibility": -1, "drawOrder": null, "icon": null, "REG": "Metropolitana", "COM": "Pirque", "LOC": "Pirque", "ZONA": "ZH -1", "NOM": "Zona residencial baja densidad", "UPERM": "Residencial: vivienda, hospedaje; Equipamiento: científico, comercio, culto y cultura, deporte, educación, salud, seguridad, servicios, social; Espacio Público; Área Verde", "UPROH": "Para mayor detalle revisar ordenanza local", "P_DO": "23/12/2015", "N_DOC": "1297", "T_DO": "Decreto", "OBS": null }, "geometry": { "type": "MultiPolygon", "coordinates": [ [ [ [ -70.581546009985004, -33.6394960318774 ], [ -70.581034833180894, -33.644719261979603 ], [ -70.587285098804799, -33.647034748131297 ], [ -70.587844540564404, -33.641896777484497 ], [ -70.586536676319099, -33.641358814584798 ], [ -70.581546009985004, -33.6394960318774 ] ] ] ] } },
{ "type": "Feature", "properties": { "id": "ipt_13_prc_pirque_mono.6", "Name": null, "description": null, "timestamp": null, "begin": null, "end": null, "altitudeMode": null, "tessellate": -1, "extrude": 0, "visibility": -1, "drawOrder": null, "icon": null, "REG": "Metropolitana", "COM": "Pirque", "LOC": "Pirque", "ZONA": "ZH -1", "NOM": "Zona residencial baja densidad", "UPERM": "Residencial: vivienda, hospedaje; Equipamiento: científico, comercio, culto y cultura, deporte, educación, salud, seguridad, servicios, social; Espacio Público; Área Verde", "UPROH": "Para mayor detalle revisar ordenanza local", "P_DO": "23/12/2015", "N_DOC": "1297", "T_DO": "Decreto", "OBS": null }, "geometry": { "type": "MultiPolygon", "coordinates": [ [ [ [ -70.580720848160496, -33.641900585615701 ], [ -70.574825769176201, -33.639635111609003 ], [ -70.574689915234202, -33.639694107356597 ], [ -70.574418549547602, -33.642181440886397 ], [ -70.574506587906896, -33.642316324364899 ], [ -70.580667226767304, -33.644585572549097 ], [ -70.580776629512201, -33.644483959661201 ], [ -70.581007259204597, -33.642118825195702 ], [ -70.580945141445895, -33.641997931289801 ], [ -70.580720848160496, -33.641900585615701 ] ] ] ] } },
{ "type": "Feature", "properties": { "id": "ipt_13_prc_pirque_mono.7", "Name": null, "description": null, "timestamp": null, "begin": null, "end": null, "altitudeMode": null, "tessellate": -1, "extrude": 0, "visibility": -1, "drawOrder": null, "icon": null, "REG": "Metropolitana", "COM": "Pirque", "LOC": "Pirque", "ZONA": "ZH -1", "NOM": "Zona residencial baja densidad", "UPERM": "Residencial: vivienda, hospedaje; Equipamiento: científico, comercio, culto y cultura, deporte, educación, salud, seguridad, servicios, social; Espacio Público; Área Verde", "UPROH": "Para mayor detalle revisar ordenanza local", "P_DO": "23/12/2015", "N_DOC": "1297", "T_DO": "Decreto", "OBS": null }, "geometry": { "type": "MultiPolygon", "coordinates": [ [ [ [ -70.572700390730404, -33.638803786683198 ], [ -70.572558659064796, -33.638853310667301 ], [ -70.572559960249507, -33.638924875638402 ], [ -70.572562671065597, -33.639073969325402 ], [ -70.572621662762501, -33.639180591185998 ], [ -70.574142975886602, -33.642048349013997 ], [ -70.574213735271201, -33.642017622343303 ], [ -70.574395939567097, -33.640273486075401 ], [ -70.574461450772304, -33.639562801996298 ], [ -70.574388305116003, -33.6394623264421 ], [ -70.572700390730404, -33.638803786683198 ] ] ] ] } },
{ "type": "Feature", "properties": { "id": "ipt_13_prc_pirque_mono.8", "Name": null, "description": null, "timestamp": null, "begin": null, "end": null, "altitudeMode": null, "tessellate": -1, "extrude": 0, "visibility": -1, "drawOrder": null, "icon": null, "REG": "Metropolitana", "COM": "Pirque", "LOC": "Pirque", "ZONA": "ZM -2", "NOM": "Zona mixta residencial equipamiento", "UPERM": "Residencial: vivienda, hospedaje; Equipamiento: científico, comercio, culto y cultura, deporte, educación, salud, seguridad, servicios, social; Act. productivas: taller; Espacio público; Área verde", "UPROH": "Para mayor detalle revisar ordenanza local", "P_DO": "23/12/2015", "N_DOC": "1297", "T_DO": "Decreto", "OBS": null }, "geometry": { "type": "MultiPolygon", "coordinates": [ [ [ [ -70.576837875426506, -33.637067724405497 ], [ -70.576356640262702, -33.637897048597701 ], [ -70.581242859042206, -33.6397530295827 ], [ -70.581341002314403, -33.6390359602064 ], [ -70.581337469499104, -33.638842735603802 ], [ -70.581284694769394, -33.6387646711119 ], [ -70.576837875426506, -33.637067724405497 ] ] ] ] } },
{ "type": "Feature", "properties": { "id": "ipt_13_prc_pirque_mono.9", "Name": null, "description": null, "timestamp": null, "begin": null, "end": null, "altitudeMode": null, "tessellate": -1, "extrude": 0, "visibility": -1, "drawOrder": null, "icon": null, "REG": "Metropolitana", "COM": "Pirque", "LOC": "Pirque", "ZONA": "ZH -1", "NOM": "Zona residencial baja densidad", "UPERM": "Residencial: vivienda, hospedaje; Equipamiento: científico, comercio, culto y cultura, deporte, educación, salud, seguridad, servicios, social; Espacio Público; Área Verde", "UPROH": "Para mayor detalle revisar ordenanza local", "P_DO": "23/12/2015", "N_DOC": "1297", "T_DO": "Decreto", "OBS": null }, "geometry": { "type": "MultiPolygon", "coordinates": [ [ [ [ -70.576356640262702, -33.637897048597701 ], [ -70.575444696892404, -33.6395120987086 ], [ -70.580917388464101, -33.641611150254903 ], [ -70.581003342858807, -33.641631525403199 ], [ -70.581062320355997, -33.641580664142701 ], [ -70.581236448520997, -33.639750594792297 ], [ -70.576356640262702, -33.637897048597701 ] ] ] ] } },
{ "type": "Feature", "properties": { "id": "ipt_13_prc_pirque_mono.10", "Name": null, "description": null, "timestamp": null, "begin": null, "end": null, "altitudeMode": null, "tessellate": -1, "extrude": 0, "visibility": -1, "drawOrder": null, "icon": null, "REG": "Metropolitana", "COM": "Pirque", "LOC": "Pirque", "ZONA": "ZM - 1", "NOM": "Centro cívico", "UPERM": "Residencial: vivienda, hospedaje; Equipamiento: deporte, educación, salud, seguridad, servicios, social; Espacio Público; Área verde", "UPROH": "Para mayor detalle revisar ordenanza local", "P_DO": "23/12/2015", "N_DOC": "1297", "T_DO": "Decreto", "OBS": null }, "geometry": { "type": "MultiPolygon", "coordinates": [ [ [ [ -70.576837875426506, -33.637067724405497 ], [ -70.575106177763402, -33.636431249716203 ], [ -70.574970589581, -33.636504558633703 ], [ -70.574744624001298, -33.639134478354698 ], [ -70.574789749335295, -33.639262750213298 ], [ -70.575444696892404, -33.6395120987086 ], [ -70.576356640262702, -33.637897048597701 ], [ -70.576837875426506, -33.637067724405497 ] ] ] ] } },
{ "type": "Feature", "properties": { "id": "ipt_13_prc_pirque_mono.11", "Name": null, "description": null, "timestamp": null, "begin": null, "end": null, "altitudeMode": null, "tessellate": -1, "extrude": 0, "visibility": -1, "drawOrder": null, "icon": null, "REG": "Metropolitana", "COM": "Pirque", "LOC": "Pirque", "ZONA": "ZM - 1", "NOM": "Centro cívico", "UPERM": "Residencial: vivienda, hospedaje; Equipamiento: deporte, educación, salud, seguridad, servicios, social; Espacio Público; Área verde", "UPROH": "Para mayor detalle revisar ordenanza local", "P_DO": "23/12/2015", "N_DOC": "1297", "T_DO": "Decreto", "OBS": null }, "geometry": { "type": "MultiPolygon", "coordinates": [ [ [ [ -70.573319689885594, -33.6357608498055 ], [ -70.573217542792804, -33.635790782308398 ], [ -70.573184101135595, -33.635834156784199 ], [ -70.572688218326903, -33.638369680287397 ], [ -70.572771109881302, -33.6385356493209 ], [ -70.574425309610703, -33.639144510550402 ], [ -70.574482262579707, -33.639139013107702 ], [ -70.574555024637604, -33.639061732791198 ], [ -70.574716617896996, -33.636969494634997 ], [ -70.574756486945901, -33.636339069441597 ], [ -70.574669019220707, -33.636235197320403 ], [ -70.573319689885594, -33.6357608498055 ] ] ] ] } },
{ "type": "Feature", "properties": { "id": "ipt_13_prc_pirque_mono.12", "Name": null, "description": null, "timestamp": null, "begin": null, "end": null, "altitudeMode": null, "tessellate": -1, "extrude": 0, "visibility": -1, "drawOrder": null, "icon": null, "REG": "Metropolitana", "COM": "Pirque", "LOC": "Pirque", "ZONA": "ZM - 1", "NOM": "Centro cívico", "UPERM": "Residencial: vivienda, hospedaje; Equipamiento: deporte, educación, salud, seguridad, servicios, social; Espacio Público; Área verde", "UPROH": "Para mayor detalle revisar ordenanza local", "P_DO": "23/12/2015", "N_DOC": "1297", "T_DO": "Decreto", "OBS": null }, "geometry": { "type": "MultiPolygon", "coordinates": [ [ [ [ -70.571574216733296, -33.635148360468698 ], [ -70.5709892802697, -33.637809084847603 ], [ -70.572276233962498, -33.638303339083897 ], [ -70.572349864692995, -33.638273770010002 ], [ -70.572416577145106, -33.638177479458101 ], [ -70.572870914413897, -33.635866774289902 ], [ -70.572861306796895, -33.635652151864697 ], [ -70.572768572003099, -33.635572205866801 ], [ -70.571574216733296, -33.635148360468698 ] ] ] ] } },
{ "type": "Feature", "properties": { "id": "ipt_13_prc_pirque_mono.13", "Name": null, "description": null, "timestamp": null, "begin": null, "end": null, "altitudeMode": null, "tessellate": -1, "extrude": 0, "visibility": -1, "drawOrder": null, "icon": null, "REG": "Metropolitana", "COM": "Pirque", "LOC": "Pirque", "ZONA": "ZH -1", "NOM": "Zona residencial baja densidad", "UPERM": "Residencial: vivienda, hospedaje; Equipamiento: científico, comercio, culto y cultura, deporte, educación, salud, seguridad, servicios, social; Espacio Público; Área Verde", "UPROH": "Para mayor detalle revisar ordenanza local", "P_DO": "23/12/2015", "N_DOC": "1297", "T_DO": "Decreto", "OBS": null }, "geometry": { "type": "MultiPolygon", "coordinates": [ [ [ [ -70.5676336692093, -33.636860037030701 ], [ -70.567500839164794, -33.636928530776203 ], [ -70.567263193967605, -33.6395562023624 ], [ -70.5674022954788, -33.639676127488102 ], [ -70.573700643597903, -33.642008407276002 ], [ -70.573750678832397, -33.641936188830499 ], [ -70.572261056109596, -33.639084725200298 ], [ -70.572237179365203, -33.638712804923898 ], [ -70.572141372948394, -33.638620967344401 ], [ -70.5676336692093, -33.636860037030701 ] ] ] ] } },
{ "type": "Feature", "properties": { "id": "ipt_13_prc_pirque_mono.14", "Name": null, "description": null, "timestamp": null, "begin": null, "end": null, "altitudeMode": null, "tessellate": -1, "extrude": 0, "visibility": -1, "drawOrder": null, "icon": null, "REG": "Metropolitana", "COM": "Pirque", "LOC": "Pirque", "ZONA": "ZH -1", "NOM": "Zona residencial baja densidad", "UPERM": "Residencial: vivienda, hospedaje; Equipamiento: científico, comercio, culto y cultura, deporte, educación, salud, seguridad, servicios, social; Espacio Público; Área Verde", "UPROH": "Para mayor detalle revisar ordenanza local", "P_DO": "23/12/2015", "N_DOC": "1297", "T_DO": "Decreto", "OBS": null }, "geometry": { "type": "MultiPolygon", "coordinates": [ [ [ [ -70.565555447520296, -33.636065569018903 ], [ -70.565430827271001, -33.636114868151303 ], [ -70.565153537706294, -33.638762127406103 ], [ -70.565224748402997, -33.638913933281501 ], [ -70.566993073488007, -33.639526221833698 ], [ -70.567049940876998, -33.639515956785203 ], [ -70.567105338656106, -33.639424584539 ], [ -70.567355262681204, -33.637159437634303 ], [ -70.567343334270006, -33.636815997121403 ], [ -70.567255961173601, -33.636716890531098 ], [ -70.565555447520296, -33.636065569018903 ] ] ] ] } },
{ "type": "Feature", "properties": { "id": "ipt_13_prc_pirque_mono.15", "Name": null, "description": null, "timestamp": null, "begin": null, "end": null, "altitudeMode": null, "tessellate": -1, "extrude": 0, "visibility": -1, "drawOrder": null, "icon": null, "REG": "Metropolitana", "COM": "Pirque", "LOC": "Pirque", "ZONA": "ZH -1", "NOM": "Zona residencial baja densidad", "UPERM": "Residencial: vivienda, hospedaje; Equipamiento: científico, comercio, culto y cultura, deporte, educación, salud, seguridad, servicios, social; Espacio Público; Área Verde", "UPROH": "Para mayor detalle revisar ordenanza local", "P_DO": "23/12/2015", "N_DOC": "1297", "T_DO": "Decreto", "OBS": null }, "geometry": { "type": "MultiPolygon", "coordinates": [ [ [ [ -70.559689067203706, -33.633766186151597 ], [ -70.559492777915295, -33.635140645681503 ], [ -70.559351479045802, -33.636401073397103 ], [ -70.559410452752502, -33.636507702127297 ], [ -70.562681557428704, -33.637963648424602 ], [ -70.564885439719703, -33.638764924853099 ], [ -70.564998440279894, -33.638703843050102 ], [ -70.565132637007906, -33.637449465619298 ], [ -70.565273420755503, -33.636165178784303 ], [ -70.565262945542997, -33.635980392147502 ], [ -70.5651688559728, -33.6359040365762 ], [ -70.564328312620503, -33.635562731878302 ], [ -70.560888638856397, -33.634246154284597 ], [ -70.560027168992207, -33.633928944485298 ], [ -70.559817722326301, -33.633782458492099 ], [ -70.559689067203706, -33.633766186151597 ] ] ] ] } },
{ "type": "Feature", "properties": { "id": "ipt_13_prc_pirque_mono.16", "Name": null, "description": null, "timestamp": null, "begin": null, "end": null, "altitudeMode": null, "tessellate": -1, "extrude": 0, "visibility": -1, "drawOrder": null, "icon": null, "REG": "Metropolitana", "COM": "Pirque", "LOC": "Pirque", "ZONA": "ZH -1", "NOM": "Zona residencial baja densidad", "UPERM": "Residencial: vivienda, hospedaje; Equipamiento: científico, comercio, culto y cultura, deporte, educación, salud, seguridad, servicios, social; Espacio Público; Área Verde", "UPROH": "Para mayor detalle revisar ordenanza local", "P_DO": "23/12/2015", "N_DOC": "1297", "T_DO": "Decreto", "OBS": null }, "geometry": { "type": "MultiPolygon", "coordinates": [ [ [ [ -70.571375096413902, -33.6360541242328 ], [ -70.570502786486301, -33.635728424574701 ], [ -70.569593886072695, -33.635315249711802 ], [ -70.568324102875906, -33.634820748532299 ], [ -70.567708191106206, -33.635148291375799 ], [ -70.567575372869101, -33.636319142015303 ], [ -70.567611325046798, -33.636414128303798 ], [ -70.567670524956895, -33.636532680327598 ], [ -70.5709892802697, -33.637809084847603 ], [ -70.571375096413902, -33.6360541242328 ] ] ] ] } },
{ "type": "Feature", "properties": { "id": "ipt_13_prc_pirque_mono.17", "Name": null, "description": null, "timestamp": null, "begin": null, "end": null, "altitudeMode": null, "tessellate": -1, "extrude": 0, "visibility": -1, "drawOrder": null, "icon": null, "REG": "Metropolitana", "COM": "Pirque", "LOC": "Pirque", "ZONA": "ZM -2", "NOM": "Zona mixta residencial equipamiento", "UPERM": "Residencial: vivienda, hospedaje; Equipamiento: científico, comercio, culto y cultura, deporte, educación, salud, seguridad, servicios, social; Act. productivas: taller; Espacio público; Área verde", "UPROH": "Para mayor detalle revisar ordenanza local", "P_DO": "23/12/2015", "N_DOC": "1297", "T_DO": "Decreto", "OBS": null }, "geometry": { "type": "MultiPolygon", "coordinates": [ [ [ [ -70.571574216733296, -33.635148360468698 ], [ -70.570297788754502, -33.634623502226297 ], [ -70.569561484013093, -33.634328630260697 ], [ -70.568524065864395, -33.633945114769702 ], [ -70.5684360815833, -33.634008864910903 ], [ -70.5683891479907, -33.6341735015449 ], [ -70.568371709096098, -33.634588299693199 ], [ -70.568374952884596, -33.634767212602497 ], [ -70.568324102875906, -33.634820748532299 ], [ -70.569593886072695, -33.635315249711802 ], [ -70.570502786486301, -33.635728424574701 ], [ -70.571375096413902, -33.6360541242328 ], [ -70.571574216733296, -33.635148360468698 ] ] ] ] } },
{ "type": "Feature", "properties": { "id": "ipt_13_prc_pirque_mono.18", "Name": null, "description": null, "timestamp": null, "begin": null, "end": null, "altitudeMode": null, "tessellate": -1, "extrude": 0, "visibility": -1, "drawOrder": null, "icon": null, "REG": "Metropolitana", "COM": "Pirque", "LOC": "Pirque", "ZONA": "ZM -2", "NOM": "Zona mixta residencial equipamiento", "UPERM": "Residencial: vivienda, hospedaje; Equipamiento: científico, comercio, culto y cultura, deporte, educación, salud, seguridad, servicios, social; Act. productivas: taller; Espacio público; Área verde", "UPROH": "Para mayor detalle revisar ordenanza local", "P_DO": "23/12/2015", "N_DOC": "1297", "T_DO": "Decreto", "OBS": null }, "geometry": { "type": "MultiPolygon", "coordinates": [ [ [ [ -70.565981908000197, -33.632993092737301 ], [ -70.565871076908607, -33.632976601069998 ], [ -70.565815174319596, -33.633039943042803 ], [ -70.565788113513094, -33.633120815143897 ], [ -70.565760294349701, -33.633356790469101 ], [ -70.565713949585202, -33.633554226987897 ], [ -70.565708277202901, -33.633634828202901 ], [ -70.565709083944995, -33.633876406119398 ], [ -70.565981681069303, -33.633965413274296 ], [ -70.566121841538703, -33.634026271832496 ], [ -70.566710625716397, -33.634248469832997 ], [ -70.568135850911204, -33.634782175847697 ], [ -70.568238365747305, -33.634733154434997 ], [ -70.568239335755393, -33.634589978879298 ], [ -70.568246624507694, -33.634401984651703 ], [ -70.568247432347107, -33.634249863442399 ], [ -70.568255207604096, -33.634088706146201 ], [ -70.568281671702593, -33.6339750328696 ], [ -70.568233599659905, -33.633880200472198 ], [ -70.568172133481795, -33.633833259035498 ], [ -70.565981908000197, -33.632993092737301 ] ] ] ] } },
{ "type": "Feature", "properties": { "id": "ipt_13_prc_pirque_mono.19", "Name": null, "description": null, "timestamp": null, "begin": null, "end": null, "altitudeMode": null, "tessellate": -1, "extrude": 0, "visibility": -1, "drawOrder": null, "icon": null, "REG": "Metropolitana", "COM": "Pirque", "LOC": "Pirque", "ZONA": "ZH -1", "NOM": "Zona residencial baja densidad", "UPERM": "Residencial: vivienda, hospedaje; Equipamiento: científico, comercio, culto y cultura, deporte, educación, salud, seguridad, servicios, social; Espacio Público; Área Verde", "UPROH": "Para mayor detalle revisar ordenanza local", "P_DO": "23/12/2015", "N_DOC": "1297", "T_DO": "Decreto", "OBS": null }, "geometry": { "type": "MultiPolygon", "coordinates": [ [ [ [ -70.565709083944995, -33.633876406119398 ], [ -70.565582247537506, -33.634945772138799 ], [ -70.565503973770404, -33.635546259682201 ], [ -70.565537946327794, -33.635650219400702 ], [ -70.565639165653096, -33.635726484402902 ], [ -70.565739845409794, -33.635772930465698 ], [ -70.567305579872396, -33.636385395353798 ], [ -70.567358620929497, -33.636360862376499 ], [ -70.567432510925997, -33.636306239371102 ], [ -70.567584872362602, -33.635072507129898 ], [ -70.568135850911204, -33.634782175847697 ], [ -70.566710625716397, -33.634248469832997 ], [ -70.566121841538703, -33.634026271832496 ], [ -70.565981681069303, -33.633965413274296 ], [ -70.565709083944995, -33.633876406119398 ] ] ] ] } },
{ "type": "Feature", "properties": { "id": "ipt_13_prc_pirque_mono.20", "Name": null, "description": null, "timestamp": null, "begin": null, "end": null, "altitudeMode": null, "tessellate": -1, "extrude": 0, "visibility": -1, "drawOrder": null, "icon": null, "REG": "Metropolitana", "COM": "Pirque", "LOC": "Pirque", "ZONA": "ZH -1", "NOM": "Zona residencial baja densidad", "UPERM": "Residencial: vivienda, hospedaje; Equipamiento: científico, comercio, culto y cultura, deporte, educación, salud, seguridad, servicios, social; Espacio Público; Área Verde", "UPROH": "Para mayor detalle revisar ordenanza local", "P_DO": "23/12/2015", "N_DOC": "1297", "T_DO": "Decreto", "OBS": null }, "geometry": { "type": "MultiPolygon", "coordinates": [ [ [ [ -70.565529979022699, -33.633830833773501 ], [ -70.562559728054296, -33.6326801527835 ], [ -70.559860457992301, -33.631683460320701 ], [ -70.559849739102603, -33.631721772496903 ], [ -70.559728714463901, -33.633236060557699 ], [ -70.559758350906094, -33.633297724193 ], [ -70.559938690938296, -33.633491105705403 ], [ -70.560209946173003, -33.633664251195803 ], [ -70.563059131117299, -33.634744937453704 ], [ -70.565242083808997, -33.635576299465697 ], [ -70.565315628497999, -33.635541963550203 ], [ -70.565359963590794, -33.6354698205514 ], [ -70.565529979022699, -33.633830833773501 ] ] ] ] } },
{ "type": "Feature", "properties": { "id": "ipt_13_prc_pirque_mono.21", "Name": null, "description": null, "timestamp": null, "begin": null, "end": null, "altitudeMode": null, "tessellate": -1, "extrude": 0, "visibility": -1, "drawOrder": null, "icon": null, "REG": "Metropolitana", "COM": "Pirque", "LOC": "Pirque", "ZONA": "ZM -2", "NOM": "Zona mixta residencial equipamiento", "UPERM": "Residencial: vivienda, hospedaje; Equipamiento: científico, comercio, culto y cultura, deporte, educación, salud, seguridad, servicios, social; Act. productivas: taller; Espacio público; Área verde", "UPROH": "Para mayor detalle revisar ordenanza local", "P_DO": "23/12/2015", "N_DOC": "1297", "T_DO": "Decreto", "OBS": null }, "geometry": { "type": "MultiPolygon", "coordinates": [ [ [ [ -70.565529979022699, -33.633830833773501 ], [ -70.565628418666194, -33.633280794408599 ], [ -70.565639399006699, -33.632941835423097 ], [ -70.565540797405404, -33.6328524138818 ], [ -70.563909074263094, -33.6322145131696 ], [ -70.562151380243407, -33.6315495494526 ], [ -70.559538304192799, -33.630585164909597 ], [ -70.559476168126096, -33.630619353483397 ], [ -70.559747790143902, -33.631446275821197 ], [ -70.559860457992301, -33.631683460320701 ], [ -70.562559728054296, -33.6326801527835 ], [ -70.565529979022699, -33.633830833773501 ] ] ] ] } },
{ "type": "Feature", "properties": { "id": "ipt_13_prc_pirque_mono.22", "Name": null, "description": null, "timestamp": null, "begin": null, "end": null, "altitudeMode": null, "tessellate": -1, "extrude": 0, "visibility": -1, "drawOrder": null, "icon": null, "REG": "Metropolitana", "COM": "Pirque", "LOC": "Pirque", "ZONA": "ZH -1", "NOM": "Zona residencial baja densidad", "UPERM": "Residencial: vivienda, hospedaje; Equipamiento: científico, comercio, culto y cultura, deporte, educación, salud, seguridad, servicios, social; Espacio Público; Área Verde", "UPROH": "Para mayor detalle revisar ordenanza local", "P_DO": "23/12/2015", "N_DOC": "1297", "T_DO": "Decreto", "OBS": null }, "geometry": { "type": "MultiPolygon", "coordinates": [ [ [ [ -70.559524264345697, -33.631546923912602 ], [ -70.555854055644701, -33.6301662995144 ], [ -70.555891107635006, -33.630323313300501 ], [ -70.556045060656402, -33.6306363359244 ], [ -70.556265311201301, -33.630829220804699 ], [ -70.556444436620396, -33.630955813284999 ], [ -70.556814096036902, -33.631208853782297 ], [ -70.557270684497794, -33.6315371521831 ], [ -70.558143603069595, -33.6321751625958 ], [ -70.559386209248103, -33.6330661987014 ], [ -70.5594882724115, -33.633031506539098 ], [ -70.5594788705762, -33.632826424082502 ], [ -70.559577402168998, -33.6316464681246 ], [ -70.559524264345697, -33.631546923912602 ] ] ] ] } },
{ "type": "Feature", "properties": { "id": "ipt_13_prc_pirque_mono.23", "Name": null, "description": null, "timestamp": null, "begin": null, "end": null, "altitudeMode": null, "tessellate": -1, "extrude": 0, "visibility": -1, "drawOrder": null, "icon": null, "REG": "Metropolitana", "COM": "Pirque", "LOC": "Pirque", "ZONA": "ZM -2", "NOM": "Zona mixta residencial equipamiento", "UPERM": "Residencial: vivienda, hospedaje; Equipamiento: científico, comercio, culto y cultura, deporte, educación, salud, seguridad, servicios, social; Act. productivas: taller; Espacio público; Área verde", "UPROH": "Para mayor detalle revisar ordenanza local", "P_DO": "23/12/2015", "N_DOC": "1297", "T_DO": "Decreto", "OBS": null }, "geometry": { "type": "MultiPolygon", "coordinates": [ [ [ [ -70.559524264345697, -33.631546923912602 ], [ -70.559227336688494, -33.6305819287426 ], [ -70.559098851413395, -33.6304165248267 ], [ -70.557587935417502, -33.629829508809799 ], [ -70.555882438062497, -33.6292067456599 ], [ -70.555769914694693, -33.629294059789302 ], [ -70.555749846365003, -33.629447020246602 ], [ -70.555732866334793, -33.6297717382675 ], [ -70.555854055644701, -33.6301662995144 ], [ -70.559524264345697, -33.631546923912602 ] ] ] ] } },
{ "type": "Feature", "properties": { "id": "ipt_13_prc_pirque_mono.24", "Name": null, "description": null, "timestamp": null, "begin": null, "end": null, "altitudeMode": null, "tessellate": -1, "extrude": 0, "visibility": -1, "drawOrder": null, "icon": null, "REG": "Metropolitana", "COM": "Pirque", "LOC": "Pirque", "ZONA": "ZH -1", "NOM": "Zona residencial baja densidad", "UPERM": "Residencial: vivienda, hospedaje; Equipamiento: científico, comercio, culto y cultura, deporte, educación, salud, seguridad, servicios, social; Espacio Público; Área Verde", "UPROH": "Para mayor detalle revisar ordenanza local", "P_DO": "23/12/2015", "N_DOC": "1297", "T_DO": "Decreto", "OBS": null }, "geometry": { "type": "MultiPolygon", "coordinates": [ [ [ [ -70.5553477014967, -33.629424827950999 ], [ -70.555197148399103, -33.630055062146901 ], [ -70.5549674216021, -33.631016710802399 ], [ -70.5544401503861, -33.633103986359203 ], [ -70.554127394734394, -33.634465134788599 ], [ -70.557090080883199, -33.635607459448003 ], [ -70.558977061850399, -33.636320971040902 ], [ -70.559104753242707, -33.636283569914802 ], [ -70.5593752592264, -33.6337246901371 ], [ -70.559388500122694, -33.633509777868298 ], [ -70.557628156722501, -33.632222021638 ], [ -70.557029593696697, -33.631771437579403 ], [ -70.555937079628706, -33.630976316674499 ], [ -70.555683315538403, -33.630664549835203 ], [ -70.555496708101401, -33.630280355723201 ], [ -70.555425050232202, -33.6301023026057 ], [ -70.555422219759706, -33.6299448581535 ], [ -70.5553477014967, -33.629424827950999 ] ] ] ] } },
{ "type": "Feature", "properties": { "id": "ipt_13_prc_pirque_mono.25", "Name": null, "description": null, "timestamp": null, "begin": null, "end": null, "altitudeMode": null, "tessellate": -1, "extrude": 0, "visibility": -1, "drawOrder": null, "icon": null, "REG": "Metropolitana", "COM": "Pirque", "LOC": "Pirque", "ZONA": "ZP -E", "NOM": "Actividades productivas con equipamiento", "UPERM": "Residencial: hospedaje, científico, comercio, culto y cultura; Equipamiento: deporte, seguridad, servicios, social; Act. prod: inofensivas; Espacio Público; Áreas verdes.", "UPROH": "Para mayor detalle revisar ordenanza local", "P_DO": "23/12/2015", "N_DOC": "1297", "T_DO": "Decreto", "OBS": null }, "geometry": { "type": "MultiPolygon", "coordinates": [ [ [ [ -70.581518081380594, -33.637105411037901 ], [ -70.578959387758701, -33.6361717672252 ], [ -70.578313918767194, -33.637378998897901 ], [ -70.578973727017001, -33.637660478415803 ], [ -70.581244207729597, -33.6385083310197 ], [ -70.581342273265506, -33.638489181305097 ], [ -70.581404741339895, -33.638395326399902 ], [ -70.581518081380594, -33.637105411037901 ] ] ] ] } },
{ "type": "Feature", "properties": { "id": "ipt_13_prc_pirque_mono.26", "Name": null, "description": null, "timestamp": null, "begin": null, "end": null, "altitudeMode": null, "tessellate": -1, "extrude": 0, "visibility": -1, "drawOrder": null, "icon": null, "REG": "Metropolitana", "COM": "Pirque", "LOC": "Pirque", "ZONA": "ZH -1", "NOM": "Zona residencial baja densidad", "UPERM": "Residencial: vivienda, hospedaje; Equipamiento: científico, comercio, culto y cultura, deporte, educación, salud, seguridad, servicios, social; Espacio Público; Área Verde", "UPROH": "Para mayor detalle revisar ordenanza local", "P_DO": "23/12/2015", "N_DOC": "1297", "T_DO": "Decreto", "OBS": null }, "geometry": { "type": "MultiPolygon", "coordinates": [ [ [ [ -70.581555089386299, -33.635697169499402 ], [ -70.581268376324104, -33.635617325308203 ], [ -70.580859260682303, -33.635473429336898 ], [ -70.580468484337203, -33.635162274143802 ], [ -70.5798729626556, -33.6345733734858 ], [ -70.579747947915905, -33.634366191666601 ], [ -70.579565135128206, -33.6341179922984 ], [ -70.579113305504904, -33.633586902998204 ], [ -70.578614404734296, -33.633211506201597 ], [ -70.577392205673405, -33.633841513693397 ], [ -70.577024995066097, -33.6344307806147 ], [ -70.577287314426101, -33.6347376207775 ], [ -70.577232669807998, -33.634869550675802 ], [ -70.578670129130998, -33.635483506975802 ], [ -70.578893216864898, -33.635593995440402 ], [ -70.579134919417697, -33.635942850616203 ], [ -70.578959387758701, -33.6361717672252 ], [ -70.581518081380594, -33.637105411037901 ], [ -70.581556380884294, -33.636937897762103 ], [ -70.581603168669602, -33.6363765780346 ], [ -70.581642499182806, -33.635797458297503 ], [ -70.581555089386299, -33.635697169499402 ] ] ] ] } },
{ "type": "Feature", "properties": { "id": "ipt_13_prc_pirque_mono.27", "Name": null, "description": null, "timestamp": null, "begin": null, "end": null, "altitudeMode": null, "tessellate": -1, "extrude": 0, "visibility": -1, "drawOrder": null, "icon": null, "REG": "Metropolitana", "COM": "Pirque", "LOC": "Pirque", "ZONA": "ZP -1", "NOM": "Actividades productivas", "UPERM": "Equipamiento: científico, comercio; Act. prod:  inofensivas; Espacio público; Área verde", "UPROH": "Para mayor detalle revisar ordenanza local", "P_DO": "23/12/2015", "N_DOC": "1297", "T_DO": "Decreto", "OBS": null }, "geometry": { "type": "MultiPolygon", "coordinates": [ [ [ [ -70.577024995066097, -33.6344307806147 ], [ -70.576159690889099, -33.634141172800398 ], [ -70.575349057880999, -33.635678577264002 ], [ -70.575199630893906, -33.635618443917501 ], [ -70.574900228081205, -33.6360946963675 ], [ -70.5760322174538, -33.636538392537702 ], [ -70.578313918767194, -33.637378998897901 ], [ -70.578959387758701, -33.6361717672252 ], [ -70.579134919417697, -33.635942850616203 ], [ -70.578893216864898, -33.635593995440402 ], [ -70.578670129130998, -33.635483506975802 ], [ -70.577232669807998, -33.634869550675802 ], [ -70.577287314426101, -33.6347376207775 ], [ -70.577024995066097, -33.6344307806147 ] ] ] ] } },
{ "type": "Feature", "properties": { "id": "ipt_13_prc_pirque_mono.28", "Name": null, "description": null, "timestamp": null, "begin": null, "end": null, "altitudeMode": null, "tessellate": -1, "extrude": 0, "visibility": -1, "drawOrder": null, "icon": null, "REG": "Metropolitana", "COM": "Pirque", "LOC": "Pirque", "ZONA": "ZM - 1", "NOM": "Centro cívico", "UPERM": "Residencial: vivienda, hospedaje; Equipamiento: deporte, educación, salud, seguridad, servicios, social; Espacio Público; Área verde", "UPROH": "Para mayor detalle revisar ordenanza local", "P_DO": "23/12/2015", "N_DOC": "1297", "T_DO": "Decreto", "OBS": null }, "geometry": { "type": "MultiPolygon", "coordinates": [ [ [ [ -70.575482860107002, -33.635424818893199 ], [ -70.574157913110696, -33.634922458513302 ], [ -70.573790257538207, -33.635684710545299 ], [ -70.574900228081205, -33.6360946963675 ], [ -70.575199630893906, -33.635618443917501 ], [ -70.575349057880999, -33.635678577264002 ], [ -70.575482860107002, -33.635424818893199 ] ] ] ] } },
{ "type": "Feature", "properties": { "id": "ipt_13_prc_pirque_mono.29", "Name": null, "description": null, "timestamp": null, "begin": null, "end": null, "altitudeMode": null, "tessellate": -1, "extrude": 0, "visibility": -1, "drawOrder": null, "icon": null, "REG": "Metropolitana", "COM": "Pirque", "LOC": "Pirque", "ZONA": "P", "NOM": "Plaza", "UPERM": "Espacio público con declaratoria de utilidad pública", "UPROH": "Para mayor detalle revisar ordenanza local", "P_DO": "23/12/2015", "N_DOC": "1297", "T_DO": "Decreto", "OBS": null }, "geometry": { "type": "MultiPolygon", "coordinates": [ [ [ [ -70.574157913110696, -33.634922458513302 ], [ -70.573558683388299, -33.634715342184997 ], [ -70.573273867743893, -33.635327410137897 ], [ -70.573250595119802, -33.635420165796802 ], [ -70.573337995234695, -33.635520460758897 ], [ -70.573790257538207, -33.635684710545299 ], [ -70.574157913110696, -33.634922458513302 ] ] ] ] } },
{ "type": "Feature", "properties": { "id": "ipt_13_prc_pirque_mono.30", "Name": null, "description": null, "timestamp": null, "begin": null, "end": null, "altitudeMode": null, "tessellate": -1, "extrude": 0, "visibility": -1, "drawOrder": null, "icon": null, "REG": "Metropolitana", "COM": "Pirque", "LOC": "Pirque", "ZONA": "ZE -1", "NOM": "Equipamiento metropolitano", "UPERM": "Equipamiento: científico, comercio, culto y cultura, esparcimiento, social; Espacio público; Área verde", "UPROH": "Para mayor detalle revisar ordenanza local", "P_DO": "23/12/2015", "N_DOC": "1297", "T_DO": "Decreto", "OBS": null }, "geometry": { "type": "MultiPolygon", "coordinates": [ [ [ [ -70.578614404734296, -33.633211506201597 ], [ -70.577329903390805, -33.632536542340603 ], [ -70.576908579027702, -33.632191167308797 ], [ -70.576603731943706, -33.631897991676901 ], [ -70.576227707072803, -33.631455401437002 ], [ -70.575943992147799, -33.631147638343997 ], [ -70.575327583219305, -33.630661580964201 ], [ -70.574671185443506, -33.630093710836199 ], [ -70.574551023634996, -33.630073766670897 ], [ -70.574495480757903, -33.630078053072999 ], [ -70.574457243376798, -33.630092856318903 ], [ -70.574410776473499, -33.6301256597446 ], [ -70.574307093454607, -33.630305933962099 ], [ -70.573956019059693, -33.631233806221303 ], [ -70.573465618140006, -33.6325392539975 ], [ -70.573561663552596, -33.632722950700398 ], [ -70.574199581672701, -33.633293447644398 ], [ -70.573954529944501, -33.633934836484499 ], [ -70.573558683388299, -33.634715342184997 ], [ -70.574157913110696, -33.634922458513302 ], [ -70.575482860107002, -33.635424818893199 ], [ -70.575736006758902, -33.634944717326903 ], [ -70.576159690889099, -33.634141172800398 ], [ -70.577024995066097, -33.6344307806147 ], [ -70.577392205673405, -33.633841513693397 ], [ -70.578614404734296, -33.633211506201597 ] ] ] ] } },
{ "type": "Feature", "properties": { "id": "ipt_13_prc_pirque_mono.31", "Name": null, "description": null, "timestamp": null, "begin": null, "end": null, "altitudeMode": null, "tessellate": -1, "extrude": 0, "visibility": -1, "drawOrder": null, "icon": null, "REG": "Metropolitana", "COM": "Pirque", "LOC": "Pirque", "ZONA": "ZM - 1", "NOM": "Centro cívico", "UPERM": "Residencial: vivienda, hospedaje; Equipamiento: deporte, educación, salud, seguridad, servicios, social; Espacio Público; Área verde", "UPROH": "Para mayor detalle revisar ordenanza local", "P_DO": "23/12/2015", "N_DOC": "1297", "T_DO": "Decreto", "OBS": null }, "geometry": { "type": "MultiPolygon", "coordinates": [ [ [ [ -70.573170049123803, -33.632585805114701 ], [ -70.572771540210198, -33.632411921218598 ], [ -70.572652806559006, -33.632470696841096 ], [ -70.572476396822495, -33.632651894629603 ], [ -70.572043257623704, -33.633444800320298 ], [ -70.571892887591702, -33.633410921428599 ], [ -70.571628150298807, -33.633911779085402 ], [ -70.572011794656007, -33.634067960166703 ], [ -70.571565075242802, -33.634914723055203 ], [ -70.572198071504303, -33.635135736017503 ], [ -70.572839301185695, -33.635338745541702 ], [ -70.572999775449205, -33.635222173385799 ], [ -70.5734449200325, -33.634289527719901 ], [ -70.573815465346897, -33.6334902560098 ], [ -70.573795620441103, -33.633340187339897 ], [ -70.573285953737994, -33.632842023949301 ], [ -70.573170049123803, -33.632585805114701 ] ] ] ] } },
{ "type": "Feature", "properties": { "id": "ipt_13_prc_pirque_mono.32", "Name": null, "description": null, "timestamp": null, "begin": null, "end": null, "altitudeMode": null, "tessellate": -1, "extrude": 0, "visibility": -1, "drawOrder": null, "icon": null, "REG": "Metropolitana", "COM": "Pirque", "LOC": "Pirque", "ZONA": "ZM -2", "NOM": "Zona mixta residencial equipamiento", "UPERM": "Residencial: vivienda, hospedaje; Equipamiento: científico, comercio, culto y cultura, deporte, educación, salud, seguridad, servicios, social; Act. productivas: taller; Espacio público; Área verde", "UPROH": "Para mayor detalle revisar ordenanza local", "P_DO": "23/12/2015", "N_DOC": "1297", "T_DO": "Decreto", "OBS": null }, "geometry": { "type": "MultiPolygon", "coordinates": [ [ [ [ -70.573240856570607, -33.629005227588998 ], [ -70.573206831852502, -33.629016397762499 ], [ -70.573149939750706, -33.629181759362403 ], [ -70.572583103837005, -33.631186097241297 ], [ -70.573005756411405, -33.631370411944602 ], [ -70.573435924732294, -33.631497364249299 ], [ -70.573558543625495, -33.6314170639709 ], [ -70.573636824222802, -33.631251430001299 ], [ -70.574094040569406, -33.630043039094502 ], [ -70.574029291622793, -33.6300116516923 ], [ -70.574205237122996, -33.629805404105603 ], [ -70.574079366089805, -33.629706792402096 ], [ -70.573344232017803, -33.629043282072402 ], [ -70.573240856570607, -33.629005227588998 ] ] ] ] } },
{ "type": "Feature", "properties": { "id": "ipt_13_prc_pirque_mono.33", "Name": null, "description": null, "timestamp": null, "begin": null, "end": null, "altitudeMode": null, "tessellate": -1, "extrude": 0, "visibility": -1, "drawOrder": null, "icon": null, "REG": "Metropolitana", "COM": "Pirque", "LOC": "Pirque", "ZONA": "ZM -2", "NOM": "Zona mixta residencial equipamiento", "UPERM": "Residencial: vivienda, hospedaje; Equipamiento: científico, comercio, culto y cultura, deporte, educación, salud, seguridad, servicios, social; Act. productivas: taller; Espacio público; Área verde", "UPROH": "Para mayor detalle revisar ordenanza local", "P_DO": "23/12/2015", "N_DOC": "1297", "T_DO": "Decreto", "OBS": null }, "geometry": { "type": "MultiPolygon", "coordinates": [ [ [ [ -70.572601335137804, -33.631482929005401 ], [ -70.572499125981594, -33.631823048583101 ], [ -70.572378731358299, -33.632261227533498 ], [ -70.572680551966201, -33.632388621600199 ], [ -70.572753960758703, -33.632347124900797 ], [ -70.573150411241301, -33.6325019466301 ], [ -70.573357558169107, -33.631971993043699 ], [ -70.573357850303495, -33.631831212205 ], [ -70.573296488547996, -33.631750867254397 ], [ -70.572601335137804, -33.631482929005401 ] ] ] ] } },
{ "type": "Feature", "properties": { "id": "ipt_13_prc_pirque_mono.34", "Name": null, "description": null, "timestamp": null, "begin": null, "end": null, "altitudeMode": null, "tessellate": -1, "extrude": 0, "visibility": -1, "drawOrder": null, "icon": null, "REG": "Metropolitana", "COM": "Pirque", "LOC": "Pirque", "ZONA": "ZH -1", "NOM": "Zona residencial baja densidad", "UPERM": "Residencial: vivienda, hospedaje; Equipamiento: científico, comercio, culto y cultura, deporte, educación, salud, seguridad, servicios, social; Espacio Público; Área Verde", "UPROH": "Para mayor detalle revisar ordenanza local", "P_DO": "23/12/2015", "N_DOC": "1297", "T_DO": "Decreto", "OBS": null }, "geometry": { "type": "MultiPolygon", "coordinates": [ [ [ [ -70.572601335137804, -33.631482929005401 ], [ -70.571292946885904, -33.6309448064507 ], [ -70.570290513052797, -33.630718936584998 ], [ -70.568537648302396, -33.630321240780198 ], [ -70.568385126330398, -33.630404301521303 ], [ -70.567409243825495, -33.632273028207798 ], [ -70.568788130802901, -33.632809104301103 ], [ -70.569190237180706, -33.632961480987703 ], [ -70.570752527662805, -33.633542927887703 ], [ -70.571628150298807, -33.633911779085402 ], [ -70.571892887591702, -33.633410921428599 ], [ -70.572043257623704, -33.633444800320298 ], [ -70.572476396822495, -33.632651894629603 ], [ -70.572652806559006, -33.632470696841096 ], [ -70.572709997890001, -33.632442385968702 ], [ -70.572680551966201, -33.632388621600199 ], [ -70.572378731358299, -33.632261227533498 ], [ -70.572499125981594, -33.631823048583101 ], [ -70.572601335137804, -33.631482929005401 ] ] ] ] } },
{ "type": "Feature", "properties": { "id": "ipt_13_prc_pirque_mono.35", "Name": null, "description": null, "timestamp": null, "begin": null, "end": null, "altitudeMode": null, "tessellate": -1, "extrude": 0, "visibility": -1, "drawOrder": null, "icon": null, "REG": "Metropolitana", "COM": "Pirque", "LOC": "Pirque", "ZONA": "ZM -2", "NOM": "Zona mixta residencial equipamiento", "UPERM": "Residencial: vivienda, hospedaje; Equipamiento: científico, comercio, culto y cultura, deporte, educación, salud, seguridad, servicios, social; Act. productivas: taller; Espacio público; Área verde", "UPROH": "Para mayor detalle revisar ordenanza local", "P_DO": "23/12/2015", "N_DOC": "1297", "T_DO": "Decreto", "OBS": null }, "geometry": { "type": "MultiPolygon", "coordinates": [ [ [ [ -70.567409243825495, -33.632273028207798 ], [ -70.567021005273403, -33.633011900168498 ], [ -70.567063696014102, -33.633164066612999 ], [ -70.567161262354901, -33.633196234701998 ], [ -70.569005099884706, -33.6338886652714 ], [ -70.570705853973493, -33.634554253044101 ], [ -70.571565075242802, -33.634914723055203 ], [ -70.572011794656007, -33.634067960166703 ], [ -70.571628150298807, -33.633911779085402 ], [ -70.570752527662805, -33.633542927887703 ], [ -70.569190237180706, -33.632961480987703 ], [ -70.568788130802901, -33.632809104301103 ], [ -70.567409243825495, -33.632273028207798 ] ] ] ] } },
{ "type": "Feature", "properties": { "id": "ipt_13_prc_pirque_mono.36", "Name": null, "description": null, "timestamp": null, "begin": null, "end": null, "altitudeMode": null, "tessellate": -1, "extrude": 0, "visibility": -1, "drawOrder": null, "icon": null, "REG": "Metropolitana", "COM": "Pirque", "LOC": "Pirque", "ZONA": "ZE -2", "NOM": "Equipamiento recreacional deportivo", "UPERM": "Equipamiento: comercio, culto y cultura, deporte, esparcimiento, social; Espacio Público; Área verde", "UPROH": "Para mayor detalle revisar ordenanza local", "P_DO": "23/12/2015", "N_DOC": "1297", "T_DO": "Decreto", "OBS": null }, "geometry": { "type": "MultiPolygon", "coordinates": [ [ [ [ -70.578307120120698, -33.630080317693398 ], [ -70.578235243642098, -33.630109788280997 ], [ -70.577967010906704, -33.630103667709498 ], [ -70.577440908401698, -33.6300340273622 ], [ -70.577056782154003, -33.629929169179697 ], [ -70.576287750030701, -33.629676510178001 ], [ -70.575805192536293, -33.629491777110502 ], [ -70.575742716442093, -33.629506889667297 ], [ -70.575847288337002, -33.6296105432248 ], [ -70.575906352605898, -33.630034507762801 ], [ -70.575638064316607, -33.630338569660999 ], [ -70.575384595441506, -33.630203408503498 ], [ -70.575017841372102, -33.6301126389206 ], [ -70.575469568700996, -33.630483879967002 ], [ -70.576036759113094, -33.630930001178498 ], [ -70.5763218777454, -33.631236553152299 ], [ -70.576623761059494, -33.631523802226901 ], [ -70.577171020494703, -33.632127651489803 ], [ -70.577500296468898, -33.632352511525802 ], [ -70.578111310388607, -33.632697849434599 ], [ -70.578598625335104, -33.632907565819401 ], [ -70.578923477850793, -33.633124127232499 ], [ -70.579219814048201, -33.633341052009399 ], [ -70.579591802532804, -33.633795614454002 ], [ -70.579899684169803, -33.634068409718303 ], [ -70.5798649652519, -33.634010527155503 ], [ -70.579744445389295, -33.633658931874898 ], [ -70.579697945320106, -33.633611805037702 ], [ -70.579564714067402, -33.633345076717603 ], [ -70.579474695968003, -33.633101656672203 ], [ -70.579396106450403, -33.6327029973056 ], [ -70.579369056629901, -33.632393156355803 ], [ -70.579357136788701, -33.632130843113103 ], [ -70.579315937524896, -33.631827147991999 ], [ -70.579292807578, -33.6317320014358 ], [ -70.579253894910707, -33.631553544707899 ], [ -70.579034681279893, -33.631264053396301 ], [ -70.578629619676093, -33.630559375809298 ], [ -70.578352724106793, -33.630234828869099 ], [ -70.578307120120698, -33.630080317693398 ] ] ] ] } },
{ "type": "Feature", "properties": { "id": "ipt_13_prc_pirque_mono.37", "Name": null, "description": null, "timestamp": null, "begin": null, "end": null, "altitudeMode": null, "tessellate": -1, "extrude": 0, "visibility": -1, "drawOrder": null, "icon": null, "REG": "Metropolitana", "COM": "Pirque", "LOC": "Pirque", "ZONA": "ZH -2", "NOM": "Zona residencial", "UPERM": "Residencial: vivienda; Equipamiento: comercio, culto y cultura, deporte, educación, salud, seguridad, servicios, social; Espacio Público; Área verde.", "UPROH": "Para mayor detalle revisar ordenanza local", "P_DO": "23/12/2015", "N_DOC": "1297", "T_DO": "Decreto", "OBS": null }, "geometry": { "type": "MultiPolygon", "coordinates": [ [ [ [ -70.577778887159198, -33.629394414368797 ], [ -70.577899316236298, -33.629676235388899 ], [ -70.577997859277801, -33.629918355009004 ], [ -70.578031160103393, -33.630105131527799 ], [ -70.578235243642098, -33.630109788280997 ], [ -70.578307120120698, -33.630080317693398 ], [ -70.577996649918006, -33.6297132495434 ], [ -70.577778887159198, -33.629394414368797 ] ] ] ] } },
{ "type": "Feature", "properties": { "id": "ipt_13_prc_pirque_mono.38", "Name": null, "description": null, "timestamp": null, "begin": null, "end": null, "altitudeMode": null, "tessellate": -1, "extrude": 0, "visibility": -1, "drawOrder": null, "icon": null, "REG": "Metropolitana", "COM": "Pirque", "LOC": "Pirque", "ZONA": "ZH -2", "NOM": "Zona residencial", "UPERM": "Residencial: vivienda; Equipamiento: comercio, culto y cultura, deporte, educación, salud, seguridad, servicios, social; Espacio Público; Área verde.", "UPROH": "Para mayor detalle revisar ordenanza local", "P_DO": "23/12/2015", "N_DOC": "1297", "T_DO": "Decreto", "OBS": null }, "geometry": { "type": "MultiPolygon", "coordinates": [ [ [ [ -70.577907341673907, -33.630095769394103 ], [ -70.577842302301903, -33.6298344423952 ], [ -70.577660333992199, -33.629475277609302 ], [ -70.577523686472503, -33.629255118323002 ], [ -70.577210814988206, -33.628990678934599 ], [ -70.576585142960695, -33.628465375830999 ], [ -70.575930188242793, -33.627976233423801 ], [ -70.575963625616794, -33.6279328582795 ], [ -70.575413681556597, -33.6275712213669 ], [ -70.575245473342505, -33.627967063302997 ], [ -70.574945270091305, -33.628633017418302 ], [ -70.575742716442093, -33.629506889667297 ], [ -70.575805192536293, -33.629491777110502 ], [ -70.576287750030701, -33.629676510178001 ], [ -70.577056782154003, -33.629929169179697 ], [ -70.577440908401698, -33.6300340273622 ], [ -70.577907341673907, -33.630095769394103 ] ] ] ] } },
{ "type": "Feature", "properties": { "id": "ipt_13_prc_pirque_mono.39", "Name": null, "description": null, "timestamp": null, "begin": null, "end": null, "altitudeMode": null, "tessellate": -1, "extrude": 0, "visibility": -1, "drawOrder": null, "icon": null, "REG": "Metropolitana", "COM": "Pirque", "LOC": "Pirque", "ZONA": "ZM -2", "NOM": "Zona mixta residencial equipamiento", "UPERM": "Residencial: vivienda, hospedaje; Equipamiento: científico, comercio, culto y cultura, deporte, educación, salud, seguridad, servicios, social; Act. productivas: taller; Espacio público; Área verde", "UPROH": "Para mayor detalle revisar ordenanza local", "P_DO": "23/12/2015", "N_DOC": "1297", "T_DO": "Decreto", "OBS": null }, "geometry": { "type": "MultiPolygon", "coordinates": [ [ [ [ -70.573246463070006, -33.627520672599204 ], [ -70.5723750832869, -33.628304838627002 ], [ -70.573484800359907, -33.628863374339602 ], [ -70.574350472986495, -33.629646910469503 ], [ -70.574564674434299, -33.6296620782053 ], [ -70.575412622714495, -33.629941182107999 ], [ -70.575527399251897, -33.629900349716898 ], [ -70.575580856762301, -33.629781558900703 ], [ -70.575532044714706, -33.629685545778898 ], [ -70.575243669881402, -33.629356365765297 ], [ -70.574615466995297, -33.6286915006811 ], [ -70.574186268551799, -33.628382006772199 ], [ -70.573246463070006, -33.627520672599204 ] ] ] ] } },
{ "type": "Feature", "properties": { "id": "ipt_13_prc_pirque_mono.40", "Name": null, "description": null, "timestamp": null, "begin": null, "end": null, "altitudeMode": null, "tessellate": -1, "extrude": 0, "visibility": -1, "drawOrder": null, "icon": null, "REG": "Metropolitana", "COM": "Pirque", "LOC": "Pirque", "ZONA": "ZH -1", "NOM": "Zona residencial baja densidad", "UPERM": "Residencial: vivienda, hospedaje; Equipamiento: científico, comercio, culto y cultura, deporte, educación, salud, seguridad, servicios, social; Espacio Público; Área Verde", "UPROH": "Para mayor detalle revisar ordenanza local", "P_DO": "23/12/2015", "N_DOC": "1297", "T_DO": "Decreto", "OBS": null }, "geometry": { "type": "MultiPolygon", "coordinates": [ [ [ [ -70.573145717430407, -33.628934498586602 ], [ -70.572572785602404, -33.628641740537397 ], [ -70.572108568847, -33.628406055847996 ], [ -70.571613021852301, -33.628015674024297 ], [ -70.5713073735687, -33.627676563231198 ], [ -70.570953764986001, -33.627248583900702 ], [ -70.570708455713202, -33.627090641622097 ], [ -70.570474814961401, -33.626986236891497 ], [ -70.570360805239503, -33.626990667489899 ], [ -70.570244583805106, -33.627069690321903 ], [ -70.570102605619695, -33.627301151190501 ], [ -70.569485652508106, -33.628472186313502 ], [ -70.568663561445902, -33.6299321479082 ], [ -70.568705151115694, -33.630062853302697 ], [ -70.568773581858693, -33.6301007584632 ], [ -70.571369035874397, -33.630679226024597 ], [ -70.572525956602604, -33.631165588219901 ], [ -70.572736978935197, -33.630417262357298 ], [ -70.573008636875201, -33.629474297816401 ], [ -70.573145717430407, -33.628934498586602 ] ] ] ] } },
{ "type": "Feature", "properties": { "id": "ipt_13_prc_pirque_mono.41", "Name": null, "description": null, "timestamp": null, "begin": null, "end": null, "altitudeMode": null, "tessellate": -1, "extrude": 0, "visibility": -1, "drawOrder": null, "icon": null, "REG": "Metropolitana", "COM": "Pirque", "LOC": "Pirque", "ZONA": "ZE -2", "NOM": "Equipamiento recreacional deportivo", "UPERM": "Equipamiento: comercio, culto y cultura, deporte, esparcimiento, social; Espacio Público; Área verde", "UPROH": "Para mayor detalle revisar ordenanza local", "P_DO": "23/12/2015", "N_DOC": "1297", "T_DO": "Decreto", "OBS": null }, "geometry": { "type": "MultiPolygon", "coordinates": [ [ [ [ -70.566649646757, -33.625596049265901 ], [ -70.566487768853904, -33.625669403553403 ], [ -70.566647087858001, -33.625804583397802 ], [ -70.566907292077005, -33.625998136064602 ], [ -70.567366027415403, -33.626129520281701 ], [ -70.567644487813297, -33.626149850760001 ], [ -70.568393781980205, -33.626182104694003 ], [ -70.568636381818195, -33.626190957509102 ], [ -70.569172349269294, -33.626255738575402 ], [ -70.569858241496803, -33.6263305441909 ], [ -70.570082268435002, -33.626494723623502 ], [ -70.5702849093298, -33.626659174232103 ], [ -70.570587573151101, -33.626834284294397 ], [ -70.571010889625796, -33.6269780349743 ], [ -70.571338300290094, -33.627337748016203 ], [ -70.571645193156996, -33.627745442033401 ], [ -70.572151161411398, -33.628120778416502 ], [ -70.5723750832869, -33.628304838627002 ], [ -70.573246463070006, -33.627520672599204 ], [ -70.574186268551799, -33.628382006772199 ], [ -70.574508877197601, -33.628614639402798 ], [ -70.574578952839701, -33.628304629660903 ], [ -70.574804877928301, -33.627788750804399 ], [ -70.575019790011197, -33.627260166901998 ], [ -70.574537509161004, -33.627089741355 ], [ -70.574043476639602, -33.626900375057403 ], [ -70.5734990720631, -33.626764140981997 ], [ -70.572995285076104, -33.626665564637797 ], [ -70.572451490347504, -33.626562722905803 ], [ -70.572366636527093, -33.626601978871903 ], [ -70.571999640657793, -33.626496886724603 ], [ -70.571729252540905, -33.626371477041999 ], [ -70.571563601298493, -33.6263592662593 ], [ -70.571547265807197, -33.626353303437298 ], [ -70.571500433444996, -33.626336208554299 ], [ -70.571258735475794, -33.626219977400801 ], [ -70.5711101939809, -33.626207548579401 ], [ -70.571011594866405, -33.626118131250003 ], [ -70.5709358950797, -33.6260331950172 ], [ -70.570821572699899, -33.626020331086202 ], [ -70.570691180176198, -33.626064936536601 ], [ -70.569999975937193, -33.626011677477003 ], [ -70.569629185981796, -33.626011612861099 ], [ -70.569504149796899, -33.626037060619304 ], [ -70.568957341090197, -33.626082177156697 ], [ -70.568415197151495, -33.626069966740403 ], [ -70.568043135320096, -33.626113192703301 ], [ -70.567954107490294, -33.626123535741598 ], [ -70.567358388129705, -33.6259879250605 ], [ -70.566927197281601, -33.625802505442898 ], [ -70.566649646757, -33.625596049265901 ] ] ] ] } },
{ "type": "Feature", "properties": { "id": "ipt_13_prc_pirque_mono.42", "Name": null, "description": null, "timestamp": null, "begin": null, "end": null, "altitudeMode": null, "tessellate": -1, "extrude": 0, "visibility": -1, "drawOrder": null, "icon": null, "REG": "Metropolitana", "COM": "Pirque", "LOC": "Pirque", "ZONA": "ZM -2", "NOM": "Zona mixta residencial equipamiento", "UPERM": "Residencial: vivienda, hospedaje; Equipamiento: científico, comercio, culto y cultura, deporte, educación, salud, seguridad, servicios, social; Act. productivas: taller; Espacio público; Área verde", "UPROH": "Para mayor detalle revisar ordenanza local", "P_DO": "23/12/2015", "N_DOC": "1297", "T_DO": "Decreto", "OBS": null }, "geometry": { "type": "MultiPolygon", "coordinates": [ [ [ [ -70.567166666431305, -33.632208617652701 ], [ -70.559793113741407, -33.629438590605297 ], [ -70.559535962665095, -33.630205373528703 ], [ -70.559602383871393, -33.630329803838002 ], [ -70.566581617313503, -33.632979569914198 ], [ -70.566695365244797, -33.632960233147699 ], [ -70.566786428526399, -33.632869602089798 ], [ -70.567166666431305, -33.632208617652701 ] ] ] ] } },
{ "type": "Feature", "properties": { "id": "ipt_13_prc_pirque_mono.43", "Name": null, "description": null, "timestamp": null, "begin": null, "end": null, "altitudeMode": null, "tessellate": -1, "extrude": 0, "visibility": -1, "drawOrder": null, "icon": null, "REG": "Metropolitana", "COM": "Pirque", "LOC": "Pirque", "ZONA": "ZH -1", "NOM": "Zona residencial baja densidad", "UPERM": "Residencial: vivienda, hospedaje; Equipamiento: científico, comercio, culto y cultura, deporte, educación, salud, seguridad, servicios, social; Espacio Público; Área Verde", "UPROH": "Para mayor detalle revisar ordenanza local", "P_DO": "23/12/2015", "N_DOC": "1297", "T_DO": "Decreto", "OBS": null }, "geometry": { "type": "MultiPolygon", "coordinates": [ [ [ [ -70.559793113741407, -33.629438590605297 ], [ -70.564132844939607, -33.631068975948899 ], [ -70.567166666431305, -33.632208617652701 ], [ -70.568162320983902, -33.630328904767801 ], [ -70.568168800701599, -33.630214291905602 ], [ -70.567987586882197, -33.630130692152399 ], [ -70.567245884143205, -33.629810820308798 ], [ -70.565824322587503, -33.629277652341102 ], [ -70.565589969817395, -33.629094507531804 ], [ -70.564931387115195, -33.628165124191298 ], [ -70.563882917887, -33.627441097851801 ], [ -70.563675144025694, -33.627307720274402 ], [ -70.562782491088299, -33.626681928069601 ], [ -70.561267325075505, -33.6256989237638 ], [ -70.561094165418595, -33.625586579159602 ], [ -70.560983341763901, -33.625609452828698 ], [ -70.560890143786693, -33.625660736629598 ], [ -70.559793113741407, -33.629438590605297 ] ] ] ] } },
{ "type": "Feature", "properties": { "id": "ipt_13_prc_pirque_mono.44", "Name": null, "description": null, "timestamp": null, "begin": null, "end": null, "altitudeMode": null, "tessellate": -1, "extrude": 0, "visibility": -1, "drawOrder": null, "icon": null, "REG": "Metropolitana", "COM": "Pirque", "LOC": "Pirque", "ZONA": "ZM -2", "NOM": "Zona mixta residencial equipamiento", "UPERM": "Residencial: vivienda, hospedaje; Equipamiento: científico, comercio, culto y cultura, deporte, educación, salud, seguridad, servicios, social; Act. productivas: taller; Espacio público; Área verde", "UPROH": "Para mayor detalle revisar ordenanza local", "P_DO": "23/12/2015", "N_DOC": "1297", "T_DO": "Decreto", "OBS": null }, "geometry": { "type": "MultiPolygon", "coordinates": [ [ [ [ -70.559512077081706, -33.629339137421297 ], [ -70.5557575470107, -33.627930043568597 ], [ -70.555509143947006, -33.628830002314601 ], [ -70.559099111173595, -33.630165150151299 ], [ -70.559224414713597, -33.630154025781501 ], [ -70.559314035862101, -33.630062225271899 ], [ -70.559512077081706, -33.629339137421297 ] ] ] ] } },
{ "type": "Feature", "properties": { "id": "ipt_13_prc_pirque_mono.45", "Name": null, "description": null, "timestamp": null, "begin": null, "end": null, "altitudeMode": null, "tessellate": -1, "extrude": 0, "visibility": -1, "drawOrder": null, "icon": null, "REG": "Metropolitana", "COM": "Pirque", "LOC": "Pirque", "ZONA": "ZH -1", "NOM": "Zona residencial baja densidad", "UPERM": "Residencial: vivienda, hospedaje; Equipamiento: científico, comercio, culto y cultura, deporte, educación, salud, seguridad, servicios, social; Espacio Público; Área Verde", "UPROH": "Para mayor detalle revisar ordenanza local", "P_DO": "23/12/2015", "N_DOC": "1297", "T_DO": "Decreto", "OBS": null }, "geometry": { "type": "MultiPolygon", "coordinates": [ [ [ [ -70.559512077081706, -33.629339137421297 ], [ -70.559865335794598, -33.6283659408764 ], [ -70.560472639510294, -33.626296721711903 ], [ -70.560714825805604, -33.625491948624301 ], [ -70.560661260535994, -33.625368549556498 ], [ -70.560494321630998, -33.6252847582982 ], [ -70.560235445241304, -33.6251639499501 ], [ -70.560050881779205, -33.625051747730701 ], [ -70.5593051810866, -33.624822547586703 ], [ -70.558880832613497, -33.624699050807997 ], [ -70.558577882308896, -33.624664692783703 ], [ -70.558263697897601, -33.624640019835603 ], [ -70.557833648607598, -33.624516591260999 ], [ -70.556729495349998, -33.624124952775198 ], [ -70.556671339652993, -33.624257030907202 ], [ -70.556436623557403, -33.625161917372999 ], [ -70.556235607116903, -33.626037746458401 ], [ -70.556157793467605, -33.626346910015798 ], [ -70.555777731203904, -33.627856915901603 ], [ -70.5557575470107, -33.627930043568597 ], [ -70.556522592394501, -33.628217182085997 ], [ -70.559512077081706, -33.629339137421297 ] ] ] ] } },
{ "type": "Feature", "properties": { "id": "ipt_13_prc_pirque_mono.46", "Name": null, "description": null, "timestamp": null, "begin": null, "end": null, "altitudeMode": null, "tessellate": -1, "extrude": 0, "visibility": -1, "drawOrder": null, "icon": null, "REG": "Metropolitana", "COM": "Pirque", "LOC": "Pirque", "ZONA": "ZH -1", "NOM": "Zona residencial baja densidad", "UPERM": "Residencial: vivienda, hospedaje; Equipamiento: científico, comercio, culto y cultura, deporte, educación, salud, seguridad, servicios, social; Espacio Público; Área Verde", "UPROH": "Para mayor detalle revisar ordenanza local", "P_DO": "23/12/2015", "N_DOC": "1297", "T_DO": "Decreto", "OBS": null }, "geometry": { "type": "MultiPolygon", "coordinates": [ [ [ [ -70.557865180989793, -33.6215773295446 ], [ -70.557686643151698, -33.622034750567998 ], [ -70.557511877873196, -33.6224664433702 ], [ -70.557393060770707, -33.622520433286802 ], [ -70.557388473964807, -33.622582528702701 ], [ -70.557156982713806, -33.623348984294303 ], [ -70.5571306138837, -33.623468619509502 ], [ -70.556846713237903, -33.623858736509398 ], [ -70.557344688085394, -33.624077988441996 ], [ -70.557757797176393, -33.624211176436198 ], [ -70.558004488250603, -33.624289194505899 ], [ -70.558233984686495, -33.624362656635903 ], [ -70.558502629580801, -33.6243926757911 ], [ -70.558713642544802, -33.624390015996802 ], [ -70.559160543627499, -33.624498912640099 ], [ -70.559607617744703, -33.624617349711201 ], [ -70.559917819296402, -33.624737511940701 ], [ -70.560159068633695, -33.624829910665298 ], [ -70.560481021975406, -33.624969011662103 ], [ -70.560602507599398, -33.625062920876999 ], [ -70.560768757760997, -33.625108543716202 ], [ -70.560865021917095, -33.625069151610397 ], [ -70.561576828712901, -33.623103594271598 ], [ -70.561614338899105, -33.6229695011302 ], [ -70.561458465414901, -33.622866482848799 ], [ -70.5609372599843, -33.622748988153099 ], [ -70.560517848376094, -33.622582485397899 ], [ -70.560148302477998, -33.622334225930402 ], [ -70.559653122964804, -33.622078005734799 ], [ -70.559296706599, -33.621925020534299 ], [ -70.5590495056218, -33.621818378602399 ], [ -70.558859935538905, -33.621744414539499 ], [ -70.558574190182398, -33.621714611557103 ], [ -70.558185879128402, -33.621690872507301 ], [ -70.558070876800002, -33.621639828201801 ], [ -70.557865180989793, -33.6215773295446 ] ] ] ] } },
{ "type": "Feature", "properties": { "id": "ipt_13_prc_pirque_mono.47", "Name": null, "description": null, "timestamp": null, "begin": null, "end": null, "altitudeMode": null, "tessellate": -1, "extrude": 0, "visibility": -1, "drawOrder": null, "icon": null, "REG": "Metropolitana", "COM": "Pirque", "LOC": "Pirque", "ZONA": "ZH -1", "NOM": "Zona residencial baja densidad", "UPERM": "Residencial: vivienda, hospedaje; Equipamiento: científico, comercio, culto y cultura, deporte, educación, salud, seguridad, servicios, social; Espacio Público; Área Verde", "UPROH": "Para mayor detalle revisar ordenanza local", "P_DO": "23/12/2015", "N_DOC": "1297", "T_DO": "Decreto", "OBS": null }, "geometry": { "type": "MultiPolygon", "coordinates": [ [ [ [ -70.570011707289595, -33.626886853286997 ], [ -70.570032810338205, -33.6267923361073 ], [ -70.569962294670205, -33.626678700778498 ], [ -70.569809989758895, -33.626537471144999 ], [ -70.569265789911, -33.62649069279 ], [ -70.568819840326, -33.626435507308202 ], [ -70.568588473145397, -33.6264169681399 ], [ -70.568215758314196, -33.626389484071701 ], [ -70.567839220138794, -33.626387100957103 ], [ -70.567234620324896, -33.626312446783601 ], [ -70.566826197078299, -33.626203092114103 ], [ -70.566427951147304, -33.625946864573301 ], [ -70.566212791177094, -33.625641788612803 ], [ -70.566002363358706, -33.625361705921499 ], [ -70.565876767005193, -33.625277398413303 ], [ -70.564677967020799, -33.624755710714098 ], [ -70.563620460426506, -33.624239382657599 ], [ -70.5629516787981, -33.623689499745304 ], [ -70.562312587821097, -33.623124921538803 ], [ -70.562177281175295, -33.622976309168898 ], [ -70.561988437978201, -33.622942903858899 ], [ -70.5618864952705, -33.6229835615638 ], [ -70.561820965789593, -33.623145448389202 ], [ -70.561760359049799, -33.623343063921403 ], [ -70.561573291487505, -33.623882290226803 ], [ -70.561274839662403, -33.624729531506297 ], [ -70.561165786384393, -33.625087624513498 ], [ -70.561116782441403, -33.625217090493599 ], [ -70.561205040316395, -33.625366297998198 ], [ -70.561723228103503, -33.625631765113901 ], [ -70.562320478767404, -33.6260107619213 ], [ -70.563169701051507, -33.626601315869301 ], [ -70.563872467925606, -33.627136450784398 ], [ -70.564884901672897, -33.627760718946597 ], [ -70.565171484876501, -33.6279933112733 ], [ -70.565925727949903, -33.629007379903904 ], [ -70.566606756402905, -33.629285079667298 ], [ -70.567219089405498, -33.6295493300251 ], [ -70.568329566360006, -33.629914632066601 ], [ -70.568405135093002, -33.629834933644801 ], [ -70.568663076418005, -33.629430803974401 ], [ -70.570011707289595, -33.626886853286997 ] ] ] ] } }
]
}
