{
"type": "FeatureCollection",
"name": "IPT_13_PRC_La_Pintana",
"crs": { "type": "name", "properties": { "name": "urn:ogc:def:crs:OGC:1.3:CRS84" } },
"features": [
{ "type": "Feature", "properties": { "id": "monoparte.1", "Name": null, "description": null, "timestamp": null, "begin": null, "end": null, "altitudeMode": null, "tessellate": -1, "extrude": 0, "visibility": -1, "drawOrder": null, "icon": null, "REG": "Metropolitana", "COM": "La Pintana", "LOC": "La Pintana", "ZONA": "PRMS", "NOM": "PRMS", "UPERM": "PRMS", "UPROH": "PRMS", "P_DO": "22/10/1952", "N_DOC": "1459", "T_DO": "Decreto", "OBS": "Comuna regida por el PRMS" }, "geometry": { "type": "Polygon", "coordinates": [ [ [ -70.654869632604402, -33.5550025303654 ], [ -70.654386290081803, -33.555069597064303 ], [ -70.6538821900931, -33.555135373713803 ], [ -70.650183370435997, -33.555655340380802 ], [ -70.647937137281701, -33.556005427895698 ], [ -70.644546840371305, -33.556521118021699 ], [ -70.643558886037795, -33.556657676588003 ], [ -70.643259794402098, -33.556694638881901 ], [ -70.642632871950397, -33.556772113502497 ], [ -70.640971091256802, -33.556977458370902 ], [ -70.640715172597197, -33.557012808661497 ], [ -70.640433389814504, -33.557047938500098 ], [ -70.640133461866299, -33.557089585666603 ], [ -70.639379999532693, -33.557180000540797 ], [ -70.638880000628404, -33.557240000519201 ], [ -70.638499999382603, -33.557280000374497 ], [ -70.638059999873704, -33.557339999948503 ], [ -70.637730000502401, -33.5573800003095 ], [ -70.637158991141703, -33.5574424543276 ], [ -70.636963025876497, -33.557466210053398 ], [ -70.636620000048097, -33.557510000532901 ], [ -70.636300000478101, -33.557550000140701 ], [ -70.635979999518298, -33.557589999845398 ], [ -70.635890000436305, -33.557600000136901 ], [ -70.635379999442307, -33.557660000105301 ], [ -70.634960000273907, -33.557710000196202 ], [ -70.634410000344502, -33.557779999907403 ], [ -70.633910000531898, -33.557839999754101 ], [ -70.633349999715193, -33.5579099996473 ], [ -70.631420720896898, -33.558146242132999 ], [ -70.630995832274706, -33.558198266452202 ], [ -70.630900000505406, -33.558210000232499 ], [ -70.630820000031207, -33.558600000222697 ], [ -70.630690000775203, -33.559230000201303 ], [ -70.630610000815196, -33.559780000646299 ], [ -70.630606295510802, -33.559820752808498 ], [ -70.630599999886897, -33.559890000326199 ], [ -70.628409999268897, -33.559379999641799 ], [ -70.627520000476693, -33.559169999901499 ], [ -70.625699999186807, -33.558740000292701 ], [ -70.623589999243706, -33.558239999755102 ], [ -70.622398905701104, -33.557958968589602 ], [ -70.621941332729904, -33.557857068103303 ], [ -70.619850356884598, -33.557402288133403 ], [ -70.618325539528399, -33.557035587781897 ], [ -70.6182572446357, -33.5570190576532 ], [ -70.617955629928105, -33.5569460560667 ], [ -70.6161958265469, -33.556515923329201 ], [ -70.614782674229701, -33.556180164321503 ], [ -70.6133898724582, -33.555835462646598 ], [ -70.612414743334796, -33.555594118845903 ], [ -70.612410000779505, -33.555609999401199 ], [ -70.612319999861398, -33.555930000227903 ], [ -70.612210000415701, -33.5562699995495 ], [ -70.612159999901394, -33.556440000340103 ], [ -70.612040000792902, -33.556830000233099 ], [ -70.611960000279495, -33.557100000056501 ], [ -70.611930000283905, -33.5572099994016 ], [ -70.611829999254397, -33.557509999733099 ], [ -70.611800000066495, -33.5576199999363 ], [ -70.611739999954693, -33.557810000501497 ], [ -70.6116999996826, -33.5579499999916 ], [ -70.611659999878199, -33.558080000116398 ], [ -70.611559999390806, -33.558450000140603 ], [ -70.611449999950494, -33.558909999915599 ], [ -70.611369999988298, -33.559219999411702 ], [ -70.611359999705101, -33.559290000568197 ], [ -70.611240000340899, -33.559780000300499 ], [ -70.611210000181501, -33.559899999705202 ], [ -70.611130000140307, -33.560220000177701 ], [ -70.611049999987301, -33.5605499999375 ], [ -70.611020000435403, -33.560670000184999 ], [ -70.610939999970896, -33.561060000432803 ], [ -70.610909999894503, -33.561200000243197 ], [ -70.610880000540902, -33.561459999353403 ], [ -70.610850000702399, -33.561610000286997 ], [ -70.610802259818001, -33.562030108822803 ], [ -70.610799999753297, -33.562049999844497 ], [ -70.611490000386794, -33.562120000190802 ], [ -70.611940000282402, -33.562160000006401 ], [ -70.612484137144307, -33.562215650994901 ], [ -70.612400875396006, -33.5628182291142 ], [ -70.612219059442296, -33.563956885990002 ], [ -70.611969617075701, -33.565696134497401 ], [ -70.611741739161701, -33.5672727727516 ], [ -70.611657288436305, -33.567855539153598 ], [ -70.611530933161106, -33.568628238739002 ], [ -70.611323065357595, -33.570159528046602 ], [ -70.611308241092303, -33.570246343139203 ], [ -70.611297240891105, -33.570310761453698 ], [ -70.610975488289895, -33.572195022452497 ], [ -70.6104880888292, -33.575049215542002 ], [ -70.609742359268594, -33.5794011638244 ], [ -70.609819740803701, -33.579874604259203 ], [ -70.609977243155697, -33.5808382355643 ], [ -70.609983579872903, -33.580877003260198 ], [ -70.609948777964803, -33.581305818693799 ], [ -70.609883688515097, -33.581977329375 ], [ -70.609848961953404, -33.582199370438303 ], [ -70.6097199992778, -33.582999999576899 ], [ -70.609670351603796, -33.583354158341002 ], [ -70.609522557691605, -33.5844084193009 ], [ -70.609464995596596, -33.5848190307224 ], [ -70.609419999807301, -33.585140000685101 ], [ -70.609210000844598, -33.586650000018402 ], [ -70.608740000671204, -33.587029999872897 ], [ -70.608714800737701, -33.587134061357098 ], [ -70.607911408639794, -33.590451520081601 ], [ -70.607504623621196, -33.592144456923499 ], [ -70.607438399511807, -33.5928842657001 ], [ -70.607573789640497, -33.592908569656103 ], [ -70.607373628360804, -33.593855832213499 ], [ -70.607488689149605, -33.594306725146701 ], [ -70.606770000807501, -33.597929999529903 ], [ -70.606335423043106, -33.600065328469199 ], [ -70.606203300377501, -33.600714524566101 ], [ -70.606138500220794, -33.601032926506797 ], [ -70.606112670100501, -33.6011598438551 ], [ -70.606262897982006, -33.601924907587097 ], [ -70.607516085831605, -33.602088290471798 ], [ -70.609922307050297, -33.602401961074499 ], [ -70.615755663484606, -33.603162181553401 ], [ -70.617457197178695, -33.603383429105797 ], [ -70.619354525603399, -33.603629142278102 ], [ -70.622848351092401, -33.6040973784351 ], [ -70.625547241168505, -33.604449707676402 ], [ -70.626332618605602, -33.604556623651398 ], [ -70.626886766218803, -33.604635008532298 ], [ -70.626786743252794, -33.606497420193499 ], [ -70.626821443211298, -33.606538193522603 ], [ -70.626718723431296, -33.608183835691598 ], [ -70.626699999736203, -33.608479999270301 ], [ -70.626684075155097, -33.608994924340799 ], [ -70.626670000822799, -33.609450000039402 ], [ -70.6266599996747, -33.609729999372398 ], [ -70.626650000605096, -33.610039999991301 ], [ -70.626640380722094, -33.610362268303597 ], [ -70.626621020141698, -33.611010818612201 ], [ -70.626609999859497, -33.611380000169703 ], [ -70.626599999917104, -33.611699999962802 ], [ -70.626599999785697, -33.612269999720503 ], [ -70.626599999367997, -33.612941112729096 ], [ -70.626599999545306, -33.613027974766602 ], [ -70.626600000127993, -33.6130407984529 ], [ -70.626599999960504, -33.613043026819902 ], [ -70.626599999324995, -33.613043509294897 ], [ -70.626599999520707, -33.613043749173002 ], [ -70.626599999282405, -33.613044023325401 ], [ -70.626599999531706, -33.613044438153302 ], [ -70.626599999957904, -33.613044632937999 ], [ -70.626599999442107, -33.613044834949498 ], [ -70.626599999772196, -33.613045368814802 ], [ -70.626599999841702, -33.6130458314409 ], [ -70.626599999969599, -33.613046067712602 ], [ -70.626599999921496, -33.613046237252902 ], [ -70.626600000164103, -33.613046594365201 ], [ -70.626600000100098, -33.613055654819803 ], [ -70.626599999882799, -33.613092529706002 ], [ -70.626599999634607, -33.613103817625898 ], [ -70.626600000170598, -33.613119335009799 ], [ -70.626599999571596, -33.613192502216101 ], [ -70.626599999881407, -33.613269044872801 ], [ -70.626590000445901, -33.615219999870398 ], [ -70.626590000230806, -33.615640000048401 ], [ -70.626590000102695, -33.6160600001989 ], [ -70.626590000511996, -33.6170600007 ], [ -70.626590000586503, -33.617300000221199 ], [ -70.626580000151804, -33.617690000657703 ], [ -70.626570000262006, -33.617770000663299 ], [ -70.626560000122694, -33.618170000296502 ], [ -70.626559093427304, -33.618195400772699 ], [ -70.626555187626707, -33.618304754665502 ], [ -70.626551462767097, -33.618409053356501 ], [ -70.626548262625604, -33.618498656525297 ], [ -70.626539999669902, -33.618730000031199 ], [ -70.626606106535107, -33.619010952099103 ], [ -70.626621673091293, -33.619077113047197 ], [ -70.626660000132105, -33.619239999903698 ], [ -70.626699999491095, -33.619389999578097 ], [ -70.626731696925603, -33.619521015411102 ], [ -70.626757643234498, -33.619628257729701 ], [ -70.626788594101299, -33.6197561892658 ], [ -70.626824930407693, -33.619906375948602 ], [ -70.627019865532404, -33.6207094638184 ], [ -70.6270964507911, -33.621015802326198 ], [ -70.627140000457899, -33.6211900001217 ], [ -70.627583663464094, -33.622935077955397 ], [ -70.627595587459396, -33.622983894445397 ], [ -70.628058018016205, -33.624964607905802 ], [ -70.628224497948807, -33.625637670175998 ], [ -70.628251341372007, -33.625742420244599 ], [ -70.628520000246596, -33.626780000354799 ], [ -70.628660382440003, -33.627390101495003 ], [ -70.628979557521305, -33.627381203824498 ], [ -70.630845789801199, -33.627333024691097 ], [ -70.635176069380705, -33.627288497530799 ], [ -70.639743292624701, -33.627221048813396 ], [ -70.643199999921706, -33.627169999509697 ], [ -70.644849999787894, -33.627149999925898 ], [ -70.644309999179995, -33.625199999786801 ], [ -70.643464685311002, -33.621529763791798 ], [ -70.646137148888499, -33.621392322454 ], [ -70.645190333587095, -33.617437076845597 ], [ -70.643370889465899, -33.610264571970099 ], [ -70.643170000511006, -33.609900000329503 ], [ -70.644317854610705, -33.609803315822901 ], [ -70.644407659022704, -33.609795886712803 ], [ -70.645379138013297, -33.609715521678702 ], [ -70.645816246569396, -33.609679361641398 ], [ -70.646016470569606, -33.6096627983571 ], [ -70.646060566629998, -33.609659150738402 ], [ -70.646107949049707, -33.609655230304398 ], [ -70.646196260597407, -33.609647925280498 ], [ -70.646574064008902, -33.609616670493899 ], [ -70.647241899929995, -33.6095614245354 ], [ -70.647354264407696, -33.609552548418897 ], [ -70.647379999688496, -33.609549999807498 ], [ -70.649770000688306, -33.609349999901397 ], [ -70.651480000120003, -33.609219999851497 ], [ -70.652476648811401, -33.609136455654003 ], [ -70.654080000463097, -33.608999999901499 ], [ -70.656610000204907, -33.608780000263998 ], [ -70.657031870915105, -33.6087444205452 ], [ -70.658102284082702, -33.608649502754702 ], [ -70.659520000663207, -33.608519999612497 ], [ -70.661367232687397, -33.608358128830297 ], [ -70.6632399997562, -33.608200000259799 ], [ -70.664300000614205, -33.608109999979199 ], [ -70.665309999673298, -33.608020000205101 ], [ -70.666000000058204, -33.607960000021897 ], [ -70.666354954162102, -33.607923594609197 ], [ -70.666390000482195, -33.607920000373603 ], [ -70.667088527897405, -33.607847987203598 ], [ -70.668329999455295, -33.6077199996571 ], [ -70.6704442021354, -33.607501632366002 ], [ -70.670459999586001, -33.607500000465201 ], [ -70.6687606037829, -33.602382926947001 ], [ -70.668671973450401, -33.602116052469199 ], [ -70.668610000254006, -33.601920000145903 ], [ -70.668539999623604, -33.601700000529704 ], [ -70.668219999692994, -33.600720000084003 ], [ -70.667829999916194, -33.599550000412798 ], [ -70.666859463480094, -33.596603413878299 ], [ -70.666459999537807, -33.5953099999847 ], [ -70.665978650396397, -33.593744163270998 ], [ -70.665264352714701, -33.591408588859501 ], [ -70.665140120444903, -33.590994951100299 ], [ -70.665100000385195, -33.590859999725303 ], [ -70.6648599998706, -33.590070000241603 ], [ -70.664779999499103, -33.5897800000186 ], [ -70.664749999921398, -33.589679999654798 ], [ -70.664669999902401, -33.589410000422802 ], [ -70.6644099998976, -33.588520000048199 ], [ -70.664284237524598, -33.588114765764097 ], [ -70.664229999950294, -33.587939999915598 ], [ -70.664222480010196, -33.587916603681897 ], [ -70.664139999560405, -33.587659999372299 ], [ -70.664115572757197, -33.587591951392398 ], [ -70.664100095077202, -33.587548837841197 ], [ -70.664094239109005, -33.587532523623999 ], [ -70.664090633784497, -33.587522480034998 ], [ -70.664089083292794, -33.587518161411602 ], [ -70.664087307374203, -33.587513213656102 ], [ -70.664083034942095, -33.587501311404701 ], [ -70.6640809835678, -33.587495598115702 ], [ -70.664080194599293, -33.587493397505497 ], [ -70.664079244060403, -33.587490750872298 ], [ -70.664078605405507, -33.587488971186097 ], [ -70.6640770298484, -33.587484581657201 ], [ -70.664074781571401, -33.587478321818203 ], [ -70.664072336287404, -33.587471510019803 ], [ -70.664068226628501, -33.587460060087402 ], [ -70.664056702572495, -33.587427955774899 ], [ -70.664040617030807, -33.587383147785197 ], [ -70.664013498099706, -33.587307600518798 ], [ -70.6640000001468, -33.587269999201702 ], [ -70.663919999400505, -33.5870399997278 ], [ -70.663859999509, -33.586859999541701 ], [ -70.6637499995295, -33.586549999460402 ], [ -70.663400000301706, -33.585559999793603 ], [ -70.663310000416899, -33.585229999725499 ], [ -70.663299999707505, -33.585180000181701 ], [ -70.663190000775501, -33.5847700001747 ], [ -70.663109999784794, -33.584479999373201 ], [ -70.662999999737195, -33.584089999355498 ], [ -70.662900000789307, -33.583719999364902 ], [ -70.662789999511503, -33.583319999892197 ], [ -70.662669999285299, -33.582869999732097 ], [ -70.662500000264203, -33.582259999433496 ], [ -70.662460000058701, -33.582119999679001 ], [ -70.662380000026104, -33.581809999772098 ], [ -70.662210000025397, -33.5812400002796 ], [ -70.661899999797399, -33.580169999497201 ], [ -70.661889999531098, -33.580119999771703 ], [ -70.661710000003794, -33.579500000494697 ], [ -70.661590000372499, -33.579090000212403 ], [ -70.661539999208003, -33.578890000169103 ], [ -70.661370000373694, -33.578330000087703 ], [ -70.661209999990604, -33.577759999697498 ], [ -70.661189999570993, -33.5776800003161 ], [ -70.661030000003294, -33.577150000076202 ], [ -70.660859999436298, -33.576550000366097 ], [ -70.660710000258703, -33.576060000187297 ], [ -70.660619999586402, -33.575769999666697 ], [ -70.660560000277997, -33.5755900000241 ], [ -70.660359999848893, -33.574959999392803 ], [ -70.660227305089407, -33.574525055950097 ], [ -70.660072088834994, -33.574029226915201 ], [ -70.659992128430702, -33.573776721648301 ], [ -70.659990000193602, -33.573769999277701 ], [ -70.659968271254797, -33.5736998759401 ], [ -70.659959329436404, -33.5736913250283 ], [ -70.659778573382695, -33.573107441260298 ], [ -70.659723147246396, -33.5729142377118 ], [ -70.659560870095106, -33.572348564723796 ], [ -70.659553861931101, -33.572322154620501 ], [ -70.659506156589202, -33.5721514502671 ], [ -70.659301845494994, -33.5714327376079 ], [ -70.659271718259205, -33.571330648552703 ], [ -70.658643759830099, -33.569092556100699 ], [ -70.658543442117704, -33.568739861099999 ], [ -70.658459999474303, -33.5684200000819 ], [ -70.658350000206795, -33.5680399998312 ], [ -70.658250000028104, -33.567660000727599 ], [ -70.658100000396203, -33.567099999732399 ], [ -70.657629999796001, -33.565409999619 ], [ -70.657360000638405, -33.564440000596399 ], [ -70.6570900000265, -33.563459999708201 ], [ -70.656779999604893, -33.562339999268502 ], [ -70.656700000090098, -33.561960000248199 ], [ -70.656629999508098, -33.561639999889003 ], [ -70.656559999956897, -33.561300000044497 ], [ -70.6565400008746, -33.561189999995698 ], [ -70.656459999961996, -33.560830000147497 ], [ -70.6563900002064, -33.560469999833202 ], [ -70.656320000628995, -33.560170000390002 ], [ -70.656239999878295, -33.5597800007397 ], [ -70.656140000419001, -33.559350000143603 ], [ -70.656120000191095, -33.559279999726698 ], [ -70.656030000728506, -33.558920000664003 ], [ -70.655939999887195, -33.558559999718497 ], [ -70.655849999672398, -33.558190000309899 ], [ -70.655790000329503, -33.557960000306103 ], [ -70.655700000783895, -33.5576100001471 ], [ -70.655670000327603, -33.557490000026696 ], [ -70.655569999809202, -33.557089999233298 ], [ -70.655559999969398, -33.557039999612698 ], [ -70.655489999495401, -33.556769999953502 ], [ -70.6554200002507, -33.556479999891501 ], [ -70.655380000387794, -33.556340000513799 ], [ -70.655320000107395, -33.556079999692997 ], [ -70.655250000202599, -33.555809999825797 ], [ -70.655139999514205, -33.555390000257802 ], [ -70.655060000113593, -33.555039999149699 ], [ -70.654885965890102, -33.5550600810097 ], [ -70.654869632604402, -33.5550025303654 ] ], [ [ -70.629780006735203, -33.5769991832234 ], [ -70.629694934329507, -33.577004783037097 ], [ -70.629615331472706, -33.577010023078898 ], [ -70.629616244953297, -33.576999355246997 ], [ -70.629616255313906, -33.5769990466911 ], [ -70.629616278511307, -33.576998962517102 ], [ -70.629626170245899, -33.576879765204403 ], [ -70.629638481009096, -33.576731412937697 ], [ -70.629651072912097, -33.576579677877803 ], [ -70.629832003679297, -33.574399387888 ], [ -70.630003680740202, -33.572473585800999 ], [ -70.630003694501795, -33.572473171688102 ], [ -70.630003726781197, -33.572473054929198 ], [ -70.630049691099202, -33.5719361086284 ], [ -70.630153035760699, -33.570861759772598 ], [ -70.630153148192093, -33.570858858064298 ], [ -70.630153341355907, -33.570858130462902 ], [ -70.630284928573303, -33.569029803726103 ], [ -70.6304080705589, -33.5675083283597 ], [ -70.630408147046097, -33.5675058645025 ], [ -70.630408282660397, -33.567505342370097 ], [ -70.630459018140897, -33.566674304926998 ], [ -70.630458819935498, -33.566673388591497 ], [ -70.630459134768699, -33.566672142647803 ], [ -70.630490024732595, -33.566010431167001 ], [ -70.630495967860995, -33.565930438747898 ], [ -70.630867945836599, -33.565889693813197 ], [ -70.630868719165207, -33.565889514982999 ], [ -70.630870547063594, -33.565889390793203 ], [ -70.633604096906893, -33.5655520207481 ], [ -70.633604588086996, -33.5655519042433 ], [ -70.633605571350003, -33.565551833547801 ], [ -70.635126886092294, -33.565352017440397 ], [ -70.637258189012599, -33.565097386811097 ], [ -70.637258522535106, -33.565097307548299 ], [ -70.637259236888696, -33.565097258417801 ], [ -70.637416197891298, -33.5650776243791 ], [ -70.637447361488199, -33.565558072305201 ], [ -70.653760432822494, -33.563400967366398 ], [ -70.656443064377896, -33.573358737517601 ], [ -70.633924513928207, -33.575854578330102 ], [ -70.633924628081104, -33.576639500090998 ], [ -70.633468222328901, -33.5766786893277 ], [ -70.633467487347204, -33.576678849632799 ], [ -70.633464986256001, -33.576678994475301 ], [ -70.632694748, -33.576758287712899 ], [ -70.631002356617401, -33.576918712726403 ], [ -70.629780006735203, -33.5769991832234 ] ] ] } }
]
}
