{
"type": "FeatureCollection",
"name": "IPT_01_PRC_Pica",
"crs": { "type": "name", "properties": { "name": "urn:ogc:def:crs:OGC:1.3:CRS84" } },
"features": [
{ "type": "Feature", "properties": { "id": "monoparte.1", "Name": null, "description": null, "timestamp": null, "begin": null, "end": null, "altitudeMode": null, "tessellate": -1, "extrude": 0, "visibility": -1, "drawOrder": null, "icon": null, "REG": "Tarapacá", "COM": "Pica", "LOCALIDAD": "Pica", "ZONA": "Sector B", "NOMBRE": "Sector B o 18 de Septiembre - Miraflores", "UPERM": "Vivienda, equipamiento, áreas verdes, terminales de transportes, industrias inofensivas, vialidad, cementerio, bodegas, comercio.", "UPROH": "Industria molesta, insalubre, peligrosa y contaminante.", "Capa": "PRC Pica", "CUT": "01405" }, "geometry": { "type": "Polygon", "coordinates": [ [ [ -69.317646035736402, -20.484816006683801 ], [ -69.317625895568, -20.484892548412098 ], [ -69.3173669958923, -20.484840424284101 ], [ -69.317204586845804, -20.484826376087302 ], [ -69.317174494702996, -20.484998568427802 ], [ -69.317129081148096, -20.485122973385199 ], [ -69.317063517193603, -20.485319139019701 ], [ -69.317271566462395, -20.4853187592201 ], [ -69.317515135583704, -20.485318314261601 ], [ -69.3178652080299, -20.485288984577299 ], [ -69.318169611143304, -20.485259737828802 ], [ -69.318392862675097, -20.4852497650567 ], [ -69.3184790977174, -20.485235262221501 ], [ -69.318469363911206, -20.485436107909699 ], [ -69.318484656090305, -20.4854695504321 ], [ -69.318819573800695, -20.485473718060099 ], [ -69.319177446298298, -20.485535221995601 ], [ -69.319527666469, -20.485577612589299 ], [ -69.319832178838197, -20.485600959949501 ], [ -69.320070744064495, -20.485633992067701 ], [ -69.320304274414298, -20.485686159812801 ], [ -69.320487021171303, -20.485719293351401 ], [ -69.320669749086704, -20.485742864750598 ], [ -69.3208473616248, -20.485747317827801 ], [ -69.320938760912995, -20.485775838569602 ], [ -69.321050457078499, -20.4858043217572 ], [ -69.321177415261701, -20.485851903330801 ], [ -69.321304444195505, -20.485932956128501 ], [ -69.321507723458197, -20.4860784187875 ], [ -69.321652563097501, -20.486183346023701 ], [ -69.321906672025193, -20.486369357471901 ], [ -69.322104863696694, -20.4865076569024 ], [ -69.322328466396698, -20.486665034721099 ], [ -69.322567263726498, -20.4868080401613 ], [ -69.322283566037299, -20.487033301181999 ], [ -69.322217748199293, -20.487105147142 ], [ -69.322420865920606, -20.4871717131781 ], [ -69.322639226108606, -20.487247813548599 ], [ -69.322882988315001, -20.487338211205302 ], [ -69.323075947118397, -20.487400012551898 ], [ -69.3232993826865, -20.487476102644301 ], [ -69.323451715692698, -20.4875236352988 ], [ -69.323736205329098, -20.487676116891599 ], [ -69.323975065769702, -20.487847808868899 ], [ -69.323798062099598, -20.488135035206898 ], [ -69.323762661095003, -20.488192480272399 ], [ -69.324006546925901, -20.488340255170598 ], [ -69.324270780673501, -20.488511899386399 ], [ -69.324842308185197, -20.488819244595401 ], [ -69.325279197103896, -20.4890479442771 ], [ -69.325411245072104, -20.4891002941491 ], [ -69.325310168377996, -20.4892965292266 ], [ -69.325193888121703, -20.489502355583301 ], [ -69.325544361967999, -20.489659492469801 ], [ -69.325606524616603, -20.489659375961601 ], [ -69.325641900016805, -20.4895899758566 ], [ -69.3256834765874, -20.489453623076599 ], [ -69.325809846713497, -20.4892202825095 ], [ -69.326005725731306, -20.488861294926199 ], [ -69.326188942186405, -20.488514285621299 ], [ -69.328989161394702, -20.4898777368408 ], [ -69.329928878972197, -20.490312275658699 ], [ -69.3299353248062, -20.4903600795868 ], [ -69.329891089069804, -20.4904378647676 ], [ -69.329480737031801, -20.491353123672301 ], [ -69.329455517826801, -20.4914248953068 ], [ -69.3294999711526, -20.4914487186172 ], [ -69.329645992847801, -20.491508211537699 ], [ -69.329855522510798, -20.491603446090899 ], [ -69.330084108814603, -20.491710597988899 ], [ -69.330331788340104, -20.491847597355001 ], [ -69.330516048837694, -20.491990695312602 ], [ -69.330600408310701, -20.492038170205401 ], [ -69.330674383465805, -20.4918756349863 ], [ -69.330871399970107, -20.4914592618243 ], [ -69.330987570445103, -20.491205615831198 ], [ -69.331378608880598, -20.491343535950101 ], [ -69.331835792409393, -20.491562616383899 ], [ -69.332165927476296, -20.491695870063602 ], [ -69.332257435326994, -20.491772200712301 ], [ -69.332318690697804, -20.491939439615301 ], [ -69.332435920794396, -20.4921782951456 ], [ -69.332578545434401, -20.492426664831498 ], [ -69.3326068160831, -20.4924172863808 ], [ -69.333587555497701, -20.491863131171499 ], [ -69.333936350184104, -20.491238463669401 ], [ -69.3342698709084, -20.490592306360401 ], [ -69.334690986977193, -20.4899746700607 ], [ -69.334926328742299, -20.489687320426601 ], [ -69.333768147554196, -20.4891372750835 ], [ -69.332754766274505, -20.4886658412176 ], [ -69.329439358644194, -20.487126269819498 ], [ -69.328118768516902, -20.486545414502601 ], [ -69.3275500089253, -20.4863456600776 ], [ -69.327236370147205, -20.486805284666001 ], [ -69.326801145175907, -20.487360769845299 ], [ -69.326543286116802, -20.487803552524898 ], [ -69.326118563739101, -20.487628626695798 ], [ -69.325955444138501, -20.487879966750398 ], [ -69.325372667172601, -20.487651542011399 ], [ -69.325083128974399, -20.487512222765201 ], [ -69.324679251242699, -20.487294219157398 ], [ -69.324531916431397, -20.487210816764801 ], [ -69.3244459534057, -20.4873544250473 ], [ -69.324095415595295, -20.487163815415201 ], [ -69.323678821680204, -20.486930293825001 ], [ -69.323226606752698, -20.486649021276101 ], [ -69.322992933846507, -20.4865299157773 ], [ -69.322769369740101, -20.4863916654135 ], [ -69.3225457360452, -20.486219942536099 ], [ -69.322352600034705, -20.486072071341098 ], [ -69.322159423493304, -20.485905074233202 ], [ -69.321890081956894, -20.485714308564901 ], [ -69.321666480129394, -20.485556930142199 ], [ -69.321514000120203, -20.4854376722643 ], [ -69.321356505434295, -20.485347113080699 ], [ -69.321143282955106, -20.485299691104299 ], [ -69.3206915047856, -20.4852240207005 ], [ -69.320285466636903, -20.485181735352899 ], [ -69.319965652649998, -20.485120163607998 ], [ -69.319772807885897, -20.485110954857898 ], [ -69.319521547916196, -20.485073164674201 ], [ -69.319515992944105, -20.484841267445098 ], [ -69.319556082222604, -20.484597331527802 ], [ -69.319038182973102, -20.4844452716737 ], [ -69.318708133751301, -20.484340682934398 ], [ -69.318298114850805, -20.484212330602301 ], [ -69.317866580596103, -20.4841079252319 ], [ -69.317822249357604, -20.484141477792999 ], [ -69.317781979194507, -20.484299344076401 ], [ -69.317726516469904, -20.484471583819001 ], [ -69.317696277275303, -20.484572052600399 ], [ -69.317676265162603, -20.484710756035199 ], [ -69.317646035736402, -20.484816006683801 ] ] ] } },
{ "type": "Feature", "properties": { "id": "monoparte.2", "Name": null, "description": null, "timestamp": null, "begin": null, "end": null, "altitudeMode": null, "tessellate": -1, "extrude": 0, "visibility": -1, "drawOrder": null, "icon": null, "REG": "Tarapacá", "COM": "Pica", "LOCALIDAD": "Pica", "ZONA": "Sector A", "NOMBRE": "Sector A o Centro Histórico", "UPERM": "Vivienda, equipamiento, áreas verdes, industrias inofensivas, vialidad comunal.", "UPROH": "Industrias molestas, insalubre, peligrosa y contaminante, bodegas, cementerios y terminales de transportes.", "Capa": "PRC Pica", "CUT": "01405" }, "geometry": { "type": "Polygon", "coordinates": [ [ [ -69.325641900016805, -20.4895899758566 ], [ -69.325606524616603, -20.489659375961601 ], [ -69.325544361967999, -20.489659492469801 ], [ -69.325499074973493, -20.489841277413099 ], [ -69.325484209694807, -20.4900110524243 ], [ -69.325484482149406, -20.490140154810302 ], [ -69.325449333577694, -20.4903171397495 ], [ -69.325383839630504, -20.4905419977114 ], [ -69.325313299944298, -20.490781209860302 ], [ -69.325262917340694, -20.490953441393302 ], [ -69.325217599408802, -20.491120882441301 ], [ -69.3251520332703, -20.491312269019598 ], [ -69.325126842288995, -20.491398384760998 ], [ -69.327121946430694, -20.491772385480299 ], [ -69.327243056166495, -20.491451789798099 ], [ -69.327616281070405, -20.4915658452441 ], [ -69.328078422099395, -20.491732328208698 ], [ -69.328444056314098, -20.491855959066601 ], [ -69.328571063415893, -20.491922661674302 ], [ -69.328621473175602, -20.4917647730454 ], [ -69.328844927923697, -20.491845637712501 ], [ -69.329073477236903, -20.4919360553085 ], [ -69.329286763219102, -20.492007374889901 ], [ -69.329489950690004, -20.492102620993201 ], [ -69.329662609176097, -20.492159672412999 ], [ -69.329815040743398, -20.492250233471601 ], [ -69.330104691853506, -20.492436165977001 ], [ -69.330313097720904, -20.492598343983499 ], [ -69.330353766779197, -20.492631737133301 ], [ -69.330500130268902, -20.492258495010901 ], [ -69.330600408310701, -20.492038170205401 ], [ -69.330516048837694, -20.491990695312602 ], [ -69.330331788340104, -20.491847597355001 ], [ -69.330084108814603, -20.491710597988899 ], [ -69.329855522510798, -20.491603446090899 ], [ -69.329645992847801, -20.491508211537699 ], [ -69.3294999711526, -20.4914487186172 ], [ -69.329455517826801, -20.4914248953068 ], [ -69.329480737031801, -20.491353123672301 ], [ -69.329891089069804, -20.4904378647676 ], [ -69.3299353248062, -20.4903600795868 ], [ -69.329928878972197, -20.490312275658699 ], [ -69.328989161394702, -20.4898777368408 ], [ -69.326188942186405, -20.488514285621299 ], [ -69.326005725731306, -20.488861294926199 ], [ -69.325809846713497, -20.4892202825095 ], [ -69.3256834765874, -20.489453623076599 ], [ -69.325641900016805, -20.4895899758566 ] ] ] } },
{ "type": "Feature", "properties": { "id": "monoparte.3", "Name": null, "description": null, "timestamp": null, "begin": null, "end": null, "altitudeMode": null, "tessellate": -1, "extrude": 0, "visibility": -1, "drawOrder": null, "icon": null, "REG": "Tarapacá", "COM": "Pica", "LOCALIDAD": "Pica", "ZONA": "Sector C", "NOMBRE": "Sector C o Resbaladero", "UPERM": "Vivienda, equipamiento turístico; artesanal y comercial, áreas verdes, camping  y vialidad regional.", "UPROH": "Todos los no indicados como permitidos.", "Capa": "PRC Pica", "CUT": "01405" }, "geometry": { "type": "Polygon", "coordinates": [ [ [ -69.312067386657802, -20.482614622983601 ], [ -69.311127814369996, -20.483462652489202 ], [ -69.311295238241996, -20.483448007822201 ], [ -69.311538775584495, -20.483433226539901 ], [ -69.3118228982255, -20.483413590187599 ], [ -69.312162809659, -20.4833795083598 ], [ -69.312436744147703, -20.483340763523302 ], [ -69.312710679449694, -20.4833020173511 ], [ -69.312918647544706, -20.483263390466298 ], [ -69.313187556499997, -20.483248561183501 ], [ -69.313420925621202, -20.483224232703499 ], [ -69.313659359549703, -20.483195111966399 ], [ -69.314083063444102, -20.483194346587801 ], [ -69.314301316610297, -20.483222642414599 ], [ -69.314499302570098, -20.4832653185371 ], [ -69.314722718298597, -20.483336637950899 ], [ -69.314925797689, -20.4833888672492 ], [ -69.315067946604003, -20.4834220810224 ], [ -69.315316743754394, -20.4834981355366 ], [ -69.3155705962036, -20.483564616715501 ], [ -69.315821891980406, -20.4836215392775 ], [ -69.316096109994007, -20.483721455037902 ], [ -69.316339795229496, -20.483778390689999 ], [ -69.316649504891004, -20.483863895256999 ], [ -69.316908413477904, -20.483920802361499 ], [ -69.317157202474306, -20.483992072334999 ], [ -69.317314575343005, -20.4840252564662 ], [ -69.317517626953602, -20.484063137976801 ], [ -69.317690222916696, -20.484096293945498 ], [ -69.317822249357604, -20.484141477792999 ], [ -69.317866580596103, -20.4841079252319 ], [ -69.318298114850805, -20.484212330602301 ], [ -69.318708133751301, -20.484340682934398 ], [ -69.318743338212897, -20.484187606732799 ], [ -69.318869060001305, -20.483637491476699 ], [ -69.318984721647297, -20.483130428928199 ], [ -69.319024989329193, -20.4829725623669 ], [ -69.318738010253895, -20.482836813124401 ], [ -69.318412920859402, -20.482674834617701 ], [ -69.318113203141706, -20.482512809044401 ], [ -69.317767788175402, -20.482336521732101 ], [ -69.317508793401899, -20.482236581665902 ], [ -69.317133071822397, -20.482127290490801 ], [ -69.316660861219006, -20.481979921891998 ], [ -69.316153014873905, -20.481775237678299 ], [ -69.315528509759204, -20.481594671514301 ], [ -69.315025856878407, -20.481447353702102 ], [ -69.314533372565194, -20.481309579814301 ], [ -69.313997759342897, -20.481171881553401 ], [ -69.313566245133202, -20.481072247200299 ], [ -69.312741006887194, -20.481991802988698 ], [ -69.312067386657802, -20.482614622983601 ] ] ] } }
]
}
