{
"type": "FeatureCollection",
"name": "IPT_01_PRC_Huara",
"crs": { "type": "name", "properties": { "name": "urn:ogc:def:crs:OGC:1.3:CRS84" } },
"features": [
{ "type": "Feature", "properties": { "id": "monoparte.1", "Name": null, "description": null, "timestamp": null, "begin": null, "end": null, "altitudeMode": null, "tessellate": -1, "extrude": 0, "visibility": -1, "drawOrder": null, "icon": null, "REG": "Tarapacá", "COM": "Huara", "LOCALIDAD": "Pisagua", "ZONA": "ZI", "NOMBRE": "ZI Zona industrial", "UPERM": "Industrias no peligrosa", "UPROH": "No mencionados en ordenanza", "Capa": "PRC Huara", "CUT": "01404" }, "geometry": { "type": "Polygon", "coordinates": [ [ [ -70.205559432167306, -19.588834252029699 ], [ -70.205694308166898, -19.589089903457999 ], [ -70.206045202777702, -19.590172953461799 ], [ -70.206044438472105, -19.590186945590801 ], [ -70.206026052694099, -19.590523716539 ], [ -70.206026984324595, -19.590525661983101 ], [ -70.206433462048594, -19.591374455860201 ], [ -70.207002779503696, -19.5922198063246 ], [ -70.207232305613104, -19.592555351683899 ], [ -70.207224439763493, -19.592560404627601 ], [ -70.206652386121306, -19.5929278736028 ], [ -70.2066652831748, -19.592936402651699 ], [ -70.207017425636195, -19.593169277026998 ], [ -70.207511748633706, -19.593495877085299 ], [ -70.2079225144969, -19.5937800030277 ], [ -70.208434842629202, -19.594084963391001 ], [ -70.209035057881394, -19.594403677501699 ], [ -70.2093541117776, -19.594566491487399 ], [ -70.209672737600499, -19.5946719330604 ], [ -70.210145226223702, -19.594281490669498 ], [ -70.210131236676403, -19.594268419832101 ], [ -70.210060466332394, -19.594249768552999 ], [ -70.210029985238194, -19.594221287194099 ], [ -70.210024759564106, -19.5941974142738 ], [ -70.209938498618797, -19.5941310563522 ], [ -70.209897462896805, -19.594040486818599 ], [ -70.209876639448197, -19.593954563204299 ], [ -70.209876246427797, -19.593901971850201 ], [ -70.209835709081204, -19.593878335938999 ], [ -70.209835101708407, -19.593797058225402 ], [ -70.209890307859695, -19.593758438483199 ], [ -70.209905014300702, -19.593700962368199 ], [ -70.209894497317293, -19.5936436573676 ], [ -70.209954675082301, -19.5935954392288 ], [ -70.209908985571303, -19.5935574967266 ], [ -70.209853029211402, -19.593495715119001 ], [ -70.2098421569019, -19.593390600102801 ], [ -70.209891924834594, -19.5932994210633 ], [ -70.210042588073705, -19.593207566539999 ], [ -70.210138116736104, -19.593163892635499 ], [ -70.210168168800706, -19.593135001275499 ], [ -70.210631392979906, -19.5930123579869 ], [ -70.210732179020596, -19.592997338069001 ], [ -70.210726385072505, -19.592896968808599 ], [ -70.210132426528702, -19.593077865639302 ], [ -70.210087562823006, -19.593149887219401 ], [ -70.209996934364995, -19.593174401800599 ], [ -70.209700472280801, -19.593334175422299 ], [ -70.209539791956601, -19.5934356618998 ], [ -70.209429020616895, -19.5934650929699 ], [ -70.2093183582558, -19.593508864433101 ], [ -70.209171810987002, -19.593476379966202 ], [ -70.209040111417494, -19.593405544778602 ], [ -70.208973922508704, -19.593324706911599 ], [ -70.208852704012003, -19.593306393482798 ], [ -70.208756853617999, -19.593307036267799 ], [ -70.208695676155401, -19.593221383080699 ], [ -70.208609735548293, -19.593198051321401 ], [ -70.208473243093806, -19.5931607172447 ], [ -70.208397107189995, -19.5930990704374 ], [ -70.208270274881897, -19.593004294008701 ], [ -70.208188525150405, -19.592866184501698 ], [ -70.208172926210395, -19.5928041318232 ], [ -70.208137293626095, -19.5927613380215 ], [ -70.208066272511104, -19.592709218176701 ], [ -70.207919585401697, -19.592657608971699 ], [ -70.207919335716397, -19.592624141224601 ], [ -70.207994006781803, -19.5924897631572 ], [ -70.208063632711102, -19.592355420681201 ], [ -70.208128572150002, -19.592268922014998 ], [ -70.208183530412498, -19.592196835037001 ], [ -70.208137520613903, -19.5921158597539 ], [ -70.208092081639805, -19.592111382680098 ], [ -70.208072117490502, -19.592140204292001 ], [ -70.207996874005602, -19.592198085979199 ], [ -70.207936624758005, -19.5922367389377 ], [ -70.207805640016801, -19.592261524640701 ], [ -70.207669538874796, -19.592276781319001 ], [ -70.207527503146395, -19.5921725429547 ], [ -70.2074053249016, -19.592025138827001 ], [ -70.207242040077404, -19.591777605226302 ], [ -70.207145014262096, -19.591620471039199 ], [ -70.207028060014807, -19.591496939658199 ], [ -70.206921087140003, -19.591358998354401 ], [ -70.206875044485699, -19.591273241315299 ], [ -70.206768713287104, -19.591221360906999 ], [ -70.206748000710107, -19.591149777273799 ], [ -70.206717518874996, -19.5911212952958 ], [ -70.2066316528106, -19.591107527043601 ], [ -70.206605857796205, -19.591031197608999 ], [ -70.206595057195003, -19.590935644997 ], [ -70.206564005397098, -19.590830662904398 ], [ -70.2065434673043, -19.590782987911201 ], [ -70.206517676204797, -19.590706658430801 ], [ -70.206512132501501, -19.590639758458501 ], [ -70.206496322629803, -19.590549019157699 ], [ -70.2064809027016, -19.5905108694996 ], [ -70.206440224231102, -19.5904681126909 ], [ -70.206404768812703, -19.590449221726399 ], [ -70.206374251552504, -19.590415958309201 ], [ -70.206364021042603, -19.590396902147901 ], [ -70.206408567090904, -19.590281850900901 ], [ -70.206393075996104, -19.590234142108098 ], [ -70.206352221413994, -19.590167476608801 ], [ -70.206290864569894, -19.5900579174324 ], [ -70.206290401562498, -19.589995763247501 ], [ -70.206239350335395, -19.589914822928002 ], [ -70.206192701172199, -19.589747787813501 ], [ -70.206131419647093, -19.5896477912775 ], [ -70.2060954303291, -19.589557186921301 ], [ -70.205947569793693, -19.589347797937901 ], [ -70.205946679686704, -19.589228270912301 ], [ -70.205920030868896, -19.589037195671999 ], [ -70.205914596230599, -19.588984639751398 ], [ -70.205938926967406, -19.588864942213402 ], [ -70.2059535988965, -19.588802686776098 ], [ -70.206069482088296, -19.588782786967599 ], [ -70.206225509047997, -19.5887339306658 ], [ -70.206199504817107, -19.588628914684399 ], [ -70.2061528917544, -19.588466660884698 ], [ -70.206061590568495, -19.588400334569901 ], [ -70.206015974636301, -19.588371950059901 ], [ -70.205946063666801, -19.588468044451499 ], [ -70.205938303998707, -19.588438174254399 ], [ -70.205559432167306, -19.588834252029699 ] ] ] } },
{ "type": "Feature", "properties": { "id": "monoparte.2", "Name": null, "description": null, "timestamp": null, "begin": null, "end": null, "altitudeMode": null, "tessellate": -1, "extrude": 0, "visibility": -1, "drawOrder": null, "icon": null, "REG": "Tarapacá", "COM": "Huara", "LOCALIDAD": "Pisagua", "ZONA": "Sin información", "NOMBRE": "Sin información", "UPERM": "Sin información", "UPROH": "Sin información", "Capa": "PRC Huara", "CUT": "01404" }, "geometry": { "type": "Polygon", "coordinates": [ [ [ -70.213056990844194, -19.598738875075899 ], [ -70.212456256071803, -19.598520846514798 ], [ -70.212391842761505, -19.598497468575001 ], [ -70.211416806590094, -19.597984058548398 ], [ -70.210949516633505, -19.5976665962155 ], [ -70.210867547284707, -19.597610908086601 ], [ -70.210870278052397, -19.597607621591401 ], [ -70.210848595029503, -19.5975914843632 ], [ -70.210845117797305, -19.5975956703899 ], [ -70.210754514168798, -19.597521463185998 ], [ -70.210381855337303, -19.597216241808201 ], [ -70.210128146231597, -19.597021911743401 ], [ -70.210000237615105, -19.596783705960501 ], [ -70.209944065325402, -19.596468197557702 ], [ -70.209882239887406, -19.596296485870202 ], [ -70.209851867202701, -19.5961703035555 ], [ -70.209787841953798, -19.5960416382731 ], [ -70.209490629509105, -19.5957639265885 ], [ -70.208999050297095, -19.595468392741601 ], [ -70.208660177116599, -19.595278315394001 ], [ -70.208818102368397, -19.5952209785099 ], [ -70.208973866649998, -19.595136260267399 ], [ -70.209120005721104, -19.5951137645696 ], [ -70.209572562278893, -19.5953633405971 ], [ -70.209805841957007, -19.5951872564506 ], [ -70.210067720886698, -19.595354127563301 ], [ -70.210199084131801, -19.595488229984799 ], [ -70.210206052336105, -19.5954962410771 ], [ -70.210364470051204, -19.595678371643199 ], [ -70.210371542258102, -19.595684861351099 ], [ -70.210372091370104, -19.595685492860799 ], [ -70.210634139765702, -19.5959259607876 ], [ -70.210719094187596, -19.595882854501099 ], [ -70.2109766071042, -19.5957521920989 ], [ -70.210978898955204, -19.5957510291889 ], [ -70.211103636442502, -19.5956977091246 ], [ -70.211107744844099, -19.595695953022599 ], [ -70.2109275927846, -19.595468081371699 ], [ -70.210912944608694, -19.595449192538901 ], [ -70.210841575645205, -19.595501889200602 ], [ -70.210821481930395, -19.595513499303799 ], [ -70.210731720105798, -19.5953840513078 ], [ -70.210617944563296, -19.5952815386167 ], [ -70.210502579939103, -19.5952364129964 ], [ -70.210488408341803, -19.595212398686201 ], [ -70.210501485741702, -19.595157529381702 ], [ -70.210571654924706, -19.595095856891898 ], [ -70.210593780193904, -19.595086145992902 ], [ -70.210617937992097, -19.595078333356199 ], [ -70.210855051919296, -19.595381309974201 ], [ -70.211126479555901, -19.595246805074598 ], [ -70.211316464184094, -19.595626706279401 ], [ -70.2114047238924, -19.595588978904399 ], [ -70.211495419316805, -19.595550209584101 ], [ -70.2114817771715, -19.595536070337001 ], [ -70.211487727353401, -19.595533526599201 ], [ -70.211407229325999, -19.595450095143899 ], [ -70.211404194000295, -19.595446948594802 ], [ -70.211377118714395, -19.595368239628499 ], [ -70.211386567164098, -19.5953052120962 ], [ -70.211344539634695, -19.595276297176 ], [ -70.211418976499303, -19.595238526265199 ], [ -70.211383129082407, -19.595162240851401 ], [ -70.211250060990395, -19.595178434997699 ], [ -70.2111397476788, -19.595191843193501 ], [ -70.211127670566299, -19.595193311299401 ], [ -70.211031147229903, -19.5951482338007 ], [ -70.210886458197393, -19.595027282374001 ], [ -70.210803824397104, -19.594916601179602 ], [ -70.210798549815806, -19.594909535594901 ], [ -70.210786850640005, -19.594862996307398 ], [ -70.210786699665604, -19.5948428101558 ], [ -70.210786636091797, -19.5948343099626 ], [ -70.210732646161702, -19.5947764025453 ], [ -70.210728597035995, -19.594772059261601 ], [ -70.210727020845198, -19.594773685400799 ], [ -70.210724590338302, -19.5947761937244 ], [ -70.210574208888204, -19.594931363392298 ], [ -70.210551757119106, -19.594964982669499 ], [ -70.210429303454504, -19.5948354640147 ], [ -70.210416997942602, -19.594822448757199 ], [ -70.2105733659983, -19.594698159474699 ], [ -70.210182418281306, -19.594366092677902 ], [ -70.210171756272601, -19.594289662277799 ], [ -70.210154663693004, -19.5942736919942 ], [ -70.210145226223702, -19.594281490669498 ], [ -70.209672737600499, -19.5946719330604 ], [ -70.2093541117776, -19.594566491487399 ], [ -70.209035057881394, -19.594403677501699 ], [ -70.208434842629202, -19.594084963391001 ], [ -70.2079225144969, -19.5937800030277 ], [ -70.207511748633706, -19.593495877085299 ], [ -70.207017425636195, -19.593169277026998 ], [ -70.2066652831748, -19.592936402651699 ], [ -70.206652386121306, -19.5929278736028 ], [ -70.207224439763493, -19.592560404627601 ], [ -70.207232305613104, -19.592555351683899 ], [ -70.207002779503696, -19.5922198063246 ], [ -70.206433462048594, -19.591374455860201 ], [ -70.206026984324595, -19.590525661983101 ], [ -70.206026052694099, -19.590523716539 ], [ -70.206044438472105, -19.590186945590801 ], [ -70.206045202777702, -19.590172953461799 ], [ -70.205694308166898, -19.589089903457999 ], [ -70.205565166495703, -19.588845120488401 ], [ -70.205559432167306, -19.588834252029699 ], [ -70.205938303998707, -19.588438174254399 ], [ -70.2058795046066, -19.588337005340101 ], [ -70.205879077403495, -19.588279632504701 ], [ -70.205885950223603, -19.588276442167398 ], [ -70.205848418275593, -19.5882272434797 ], [ -70.205832936468795, -19.588180729048201 ], [ -70.205832642782099, -19.588141285448401 ], [ -70.205786628409996, -19.5880591149539 ], [ -70.205782763689797, -19.5880483830835 ], [ -70.205782470017397, -19.5880089394824 ], [ -70.205770639392497, -19.587944470492999 ], [ -70.205747832467694, -19.5879302781909 ], [ -70.205702457006296, -19.5879341687499 ], [ -70.205679142882303, -19.587851846414399 ], [ -70.205693743651906, -19.587780028248101 ], [ -70.205723690754098, -19.587736797110502 ], [ -70.205715349242197, -19.587632859212899 ], [ -70.205711137496095, -19.587575511678601 ], [ -70.205650524490807, -19.587565157481801 ], [ -70.205601204355503, -19.587547558952298 ], [ -70.204478070786195, -19.588631817074699 ], [ -70.204509547475297, -19.588794172507299 ], [ -70.204506033575001, -19.588999792585199 ], [ -70.204512783551905, -19.589229250329399 ], [ -70.204628959120996, -19.5899265476002 ], [ -70.204759415172006, -19.590508996061502 ], [ -70.204832175512706, -19.590795390083901 ], [ -70.204925719022796, -19.591162925264602 ], [ -70.205104631040399, -19.591477295609401 ], [ -70.205492691816602, -19.5921010536346 ], [ -70.205559092116602, -19.5922105793186 ], [ -70.205686846064694, -19.592429666159099 ], [ -70.205748630763296, -19.592596598298002 ], [ -70.205871164111301, -19.592791813667201 ], [ -70.206343317278197, -19.593190284081999 ], [ -70.206592042071307, -19.593394215718899 ], [ -70.206860803310803, -19.593578888214999 ], [ -70.207079296435097, -19.593787803130098 ], [ -70.2072977544682, -19.593991936380299 ], [ -70.207348916491696, -19.594087220350399 ], [ -70.207359931789, -19.594211459233101 ], [ -70.207345511536403, -19.594307182481099 ], [ -70.207341500460203, -19.594445868631301 ], [ -70.207347757850698, -19.594608390401898 ], [ -70.207424393347793, -19.5947369731173 ], [ -70.207480705881594, -19.5948465655283 ], [ -70.2074664977211, -19.594970975171101 ], [ -70.207437477030496, -19.595138514858402 ], [ -70.207474288711694, -19.5953390829361 ], [ -70.207066231404696, -19.595813254107799 ], [ -70.2093300798646, -19.597382604185398 ], [ -70.2099076624106, -19.5977086379912 ], [ -70.210398910523395, -19.597958747745899 ], [ -70.210537668554494, -19.5980080116829 ], [ -70.211054595457895, -19.5981365105877 ], [ -70.211251775401607, -19.598192562782 ], [ -70.211545597902202, -19.598353151153201 ], [ -70.211758341494303, -19.598466471866502 ], [ -70.212102719798096, -19.598641064116201 ], [ -70.212421444837204, -19.598758452739698 ], [ -70.212699883021102, -19.598885675073198 ], [ -70.212943291653204, -19.599051381868001 ], [ -70.213056990844194, -19.598738875075899 ] ], [ [ -70.208033820338599, -19.595227697832701 ], [ -70.208020774314505, -19.595221342938999 ], [ -70.208033208729006, -19.5951973533939 ], [ -70.208095488422103, -19.595092345184401 ], [ -70.208130282705298, -19.595107053117399 ], [ -70.208320199129304, -19.595204394696601 ], [ -70.208399313832402, -19.595242712552601 ], [ -70.208459823563899, -19.595322991420598 ], [ -70.208456635983794, -19.595325240050499 ], [ -70.208365723943402, -19.595389364823099 ], [ -70.208033820338599, -19.595227697832701 ] ], [ [ -70.209996886843697, -19.594782990498 ], [ -70.209982752678499, -19.594772770426701 ], [ -70.210097924692406, -19.594657245158199 ], [ -70.210503867214001, -19.594970085905299 ], [ -70.210497657582295, -19.594976054912902 ], [ -70.210451272761901, -19.595020643205199 ], [ -70.210365010228301, -19.594954283725802 ], [ -70.210329875106893, -19.5949784258538 ], [ -70.210104024055894, -19.594798253272799 ], [ -70.210061375831401, -19.594829618190001 ], [ -70.209996886843697, -19.594782990498 ] ] ] } },
{ "type": "Feature", "properties": { "id": "monoparte.3", "Name": null, "description": null, "timestamp": null, "begin": null, "end": null, "altitudeMode": null, "tessellate": -1, "extrude": 0, "visibility": -1, "drawOrder": null, "icon": null, "REG": "Tarapacá", "COM": "Huara", "LOCALIDAD": "Pisagua", "ZONA": "Sin información", "NOMBRE": "Sin información", "UPERM": "Sin información", "UPROH": "Sin información", "Capa": "PRC Huara", "CUT": "01404" }, "geometry": { "type": "Polygon", "coordinates": [ [ [ -70.212081671940197, -19.596747777840299 ], [ -70.212080131993801, -19.5969771918638 ], [ -70.212080079924604, -19.596978768911899 ], [ -70.212252598854704, -19.597013810281101 ], [ -70.212399465585406, -19.597043641592201 ], [ -70.212713956854799, -19.5971075183861 ], [ -70.212779532755505, -19.597120838210099 ], [ -70.2128282800238, -19.597126768167499 ], [ -70.212828872977099, -19.597125868757601 ], [ -70.212912607061696, -19.596985432753801 ], [ -70.213109812963296, -19.597045067170299 ], [ -70.213098650399999, -19.597070243870501 ], [ -70.213167051023802, -19.5971092297974 ], [ -70.213119414302199, -19.597243467627301 ], [ -70.213118775725903, -19.597245148917199 ], [ -70.213235291082498, -19.597272562624902 ], [ -70.213383070428705, -19.5973073312033 ], [ -70.213477634036494, -19.597329579660801 ], [ -70.213568314265103, -19.597350914523599 ], [ -70.213666685877897, -19.597374059763201 ], [ -70.213666874988505, -19.5973741045708 ], [ -70.213667481468903, -19.5973742468619 ], [ -70.213660052996602, -19.5974100413776 ], [ -70.213652673260896, -19.5974455970272 ], [ -70.213594443292493, -19.597726164152999 ], [ -70.213998213580297, -19.5977849611964 ], [ -70.213999312635295, -19.5977820073124 ], [ -70.214005024641907, -19.5977876178369 ], [ -70.213999416045993, -19.597802023889098 ], [ -70.213963950739796, -19.597893120283398 ], [ -70.213934909676198, -19.597967717020602 ], [ -70.213866181499199, -19.5980926043793 ], [ -70.214214894277902, -19.598129931990901 ], [ -70.214222281520307, -19.5981307225215 ], [ -70.214235234053803, -19.598070285266701 ], [ -70.214561851307593, -19.5978947615693 ], [ -70.214761582448602, -19.597802828982498 ], [ -70.214766104102395, -19.5978007474436 ], [ -70.214898358439001, -19.5978889343125 ], [ -70.214899205496707, -19.597889499646499 ], [ -70.215339021548104, -19.597849181399901 ], [ -70.215736000585295, -19.597812789667 ], [ -70.215708884586604, -19.597964723933899 ], [ -70.215691783982805, -19.598206892398402 ], [ -70.215683543503204, -19.5983341932264 ], [ -70.215677656580795, -19.598425134656601 ], [ -70.215619559431602, -19.5986185999813 ], [ -70.215617262844702, -19.598618244113499 ], [ -70.215618628427904, -19.598619679679601 ], [ -70.215619846972203, -19.598620959923199 ], [ -70.215595091685401, -19.598924500376299 ], [ -70.215722367838595, -19.5989427663519 ], [ -70.2158939101991, -19.598943522741401 ], [ -70.216311613768795, -19.598938790252301 ], [ -70.216525575440102, -19.598944997275101 ], [ -70.216785892373295, -19.598943239791499 ], [ -70.216944014675406, -19.5989354089992 ], [ -70.216964312408507, -19.598758075771499 ], [ -70.216140708630704, -19.5986981309666 ], [ -70.216138485865699, -19.598696053343598 ], [ -70.216128943848602, -19.598687138251002 ], [ -70.216121656275405, -19.598680329481098 ], [ -70.216136051552198, -19.598497945528401 ], [ -70.216144478037705, -19.598360426092999 ], [ -70.2161758290206, -19.598336307479201 ], [ -70.216283077789498, -19.598341560667599 ], [ -70.216307831290393, -19.5982786393064 ], [ -70.216344836570201, -19.598167822066401 ], [ -70.216360912521793, -19.598075906502299 ], [ -70.216356282219706, -19.597926381161301 ], [ -70.216354072337097, -19.597914344519101 ], [ -70.216353352623003, -19.597910426160102 ], [ -70.215742679954602, -19.597817711426998 ], [ -70.215743684541593, -19.597812085468099 ], [ -70.215736056799699, -19.597812784770099 ], [ -70.2157361167625, -19.5978121365197 ], [ -70.215774277294003, -19.597705810364101 ], [ -70.216012517335599, -19.597518927242199 ], [ -70.2161514756136, -19.597547872720799 ], [ -70.216418576812799, -19.597844901373801 ], [ -70.216433537539103, -19.597920489015799 ], [ -70.2165765230163, -19.597948111271201 ], [ -70.2168699366715, -19.597970036452899 ], [ -70.216963057582802, -19.5974019870172 ], [ -70.216917114736304, -19.597330577021498 ], [ -70.216841655727194, -19.597359776063701 ], [ -70.216831663199798, -19.597373235957399 ], [ -70.216816683360705, -19.597393412183401 ], [ -70.216803989873995, -19.5973671810744 ], [ -70.216770560883504, -19.5972980972203 ], [ -70.216790129623206, -19.597216683503401 ], [ -70.216729232059194, -19.597169280559601 ], [ -70.216673055333402, -19.597078816838401 ], [ -70.216617275842594, -19.59704094248 ], [ -70.216530686450596, -19.5969315576478 ], [ -70.216449646284801, -19.596889072151701 ], [ -70.216353650339002, -19.5968705955055 ], [ -70.216308640079902, -19.596923494961398 ], [ -70.216273757915801, -19.5969811040327 ], [ -70.216223776183398, -19.597043598393501 ], [ -70.216137619994001, -19.5969915859074 ], [ -70.216121946664998, -19.5969199714261 ], [ -70.216080903906402, -19.596829403569998 ], [ -70.216035249905801, -19.596796242288299 ], [ -70.216009918301793, -19.596782070240501 ], [ -70.215954387603404, -19.596777663313102 ], [ -70.2159146048118, -19.596854433554 ], [ -70.215890276841193, -19.5969741284175 ], [ -70.215850996748003, -19.597117833911099 ], [ -70.215760186650897, -19.597118446523002 ], [ -70.215730242661493, -19.5971616810283 ], [ -70.215603834837196, -19.597124280961101 ], [ -70.215662792178307, -19.596913507737799 ], [ -70.215617316800305, -19.596904251291399 ], [ -70.215482649854295, -19.5971107553415 ], [ -70.215525350027605, -19.597105805935499 ], [ -70.215469510263105, -19.597228105887101 ], [ -70.215412540536093, -19.597199802355199 ], [ -70.215299973213504, -19.597326071011199 ], [ -70.215254623366604, -19.597333548298199 ], [ -70.215192562521295, -19.597635188959199 ], [ -70.215186888809697, -19.597633159891501 ], [ -70.214828336554305, -19.597504963459102 ], [ -70.214468082388606, -19.597399811981902 ], [ -70.214391762917103, -19.5973142630165 ], [ -70.214161552276096, -19.597394705860498 ], [ -70.2139501024959, -19.597343947484902 ], [ -70.213899996566496, -19.5973319198845 ], [ -70.213498801643993, -19.5972502318198 ], [ -70.213450168139005, -19.597089826518999 ], [ -70.213319649176199, -19.597075247297202 ], [ -70.212927972329595, -19.596816106787202 ], [ -70.212875296556206, -19.596855907639899 ], [ -70.212726821715705, -19.596734983326201 ], [ -70.212605530651999, -19.596707111672899 ], [ -70.212411705374095, -19.596593663691301 ], [ -70.212336140253598, -19.596608516796199 ], [ -70.212181628864698, -19.5966920331879 ], [ -70.212081671940197, -19.596747777840299 ] ], [ [ -70.216286939658104, -19.5973915668079 ], [ -70.216326963766903, -19.5972627991375 ], [ -70.216547312140506, -19.597311015282799 ], [ -70.216495467288297, -19.5974469375853 ], [ -70.216286939658104, -19.5973915668079 ] ] ] } },
{ "type": "Feature", "properties": { "id": "monoparte.4", "Name": null, "description": null, "timestamp": null, "begin": null, "end": null, "altitudeMode": null, "tessellate": -1, "extrude": 0, "visibility": -1, "drawOrder": null, "icon": null, "REG": "Tarapacá", "COM": "Huara", "LOCALIDAD": "Pisagua", "ZONA": "ZRE", "NOMBRE": "ZRE Zona de Reglamentación Especial", "UPERM": "Equipamiento urbano institucional y particular. Mayor detalle en ordenanza.", "UPROH": "No mencionados en ordenanza", "Capa": "PRC Huara", "CUT": "01404" }, "geometry": { "type": "Polygon", "coordinates": [ [ [ -70.216353352623003, -19.597910426160102 ], [ -70.216354072337097, -19.597914344519101 ], [ -70.216356282219706, -19.597926381161301 ], [ -70.216360912521793, -19.598075906502299 ], [ -70.216344836570201, -19.598167822066401 ], [ -70.216307831290393, -19.5982786393064 ], [ -70.216283077789498, -19.598341560667599 ], [ -70.2161758290206, -19.598336307479201 ], [ -70.216144478037705, -19.598360426092999 ], [ -70.216136051552198, -19.598497945528401 ], [ -70.216121656275405, -19.598680329481098 ], [ -70.216128943848602, -19.598687138251002 ], [ -70.216138485865699, -19.598696053343598 ], [ -70.216140708630704, -19.5986981309666 ], [ -70.216964312408507, -19.598758075771499 ], [ -70.217014040637395, -19.598683270236801 ], [ -70.217786203326796, -19.598716902123201 ], [ -70.217790424774705, -19.5982722130796 ], [ -70.217018341552105, -19.5982487400941 ], [ -70.217017066774602, -19.598246956058901 ], [ -70.2168699366715, -19.597970036452899 ], [ -70.2165765230163, -19.597948111271201 ], [ -70.216433537539103, -19.597920489015799 ], [ -70.216355633847797, -19.597905440331601 ], [ -70.216352319747301, -19.597904799493499 ], [ -70.216353352623003, -19.597910426160102 ] ] ] } },
{ "type": "Feature", "properties": { "id": "monoparte.5", "Name": null, "description": null, "timestamp": null, "begin": null, "end": null, "altitudeMode": null, "tessellate": -1, "extrude": 0, "visibility": -1, "drawOrder": null, "icon": null, "REG": "Tarapacá", "COM": "Huara", "LOCALIDAD": "Pisagua", "ZONA": "ZRE", "NOMBRE": "ZRE Zona de Reglamentación Especial", "UPERM": "Equipamiento urbano institucional y particular. Mayor detalle en ordenanza.", "UPROH": "No mencionados en ordenanza", "Capa": "PRC Huara", "CUT": "01404" }, "geometry": { "type": "Polygon", "coordinates": [ [ [ -70.210719094187596, -19.595882854501099 ], [ -70.210965606084002, -19.596197656691199 ], [ -70.211026707351195, -19.596272551792602 ], [ -70.211210692920304, -19.596173427321499 ], [ -70.211251122291799, -19.596228526193499 ], [ -70.211388846494401, -19.5964174214783 ], [ -70.211405504658302, -19.596440268768401 ], [ -70.211424052802201, -19.596465708293501 ], [ -70.2114384520589, -19.5964854571233 ], [ -70.211456994731194, -19.596435129329301 ], [ -70.211526763586605, -19.5963525600006 ], [ -70.211757102645905, -19.5965335488536 ], [ -70.211953253029293, -19.596314160410401 ], [ -70.211826233491294, -19.5962246602165 ], [ -70.211734916625502, -19.596157140042401 ], [ -70.2116315245717, -19.595992879978901 ], [ -70.211577560497801, -19.595860561557899 ], [ -70.211516271302997, -19.595760566328899 ], [ -70.211435983412798, -19.5956499410823 ], [ -70.2114047238924, -19.595588978904399 ], [ -70.211316464184094, -19.595626706279401 ], [ -70.211126479555901, -19.595246805074598 ], [ -70.210855051919296, -19.595381309974201 ], [ -70.210617937992097, -19.595078333356199 ], [ -70.210593780193904, -19.595086145992902 ], [ -70.210571654924706, -19.595095856891898 ], [ -70.210501485741702, -19.595157529381702 ], [ -70.210488408341803, -19.595212398686201 ], [ -70.210502579939103, -19.5952364129964 ], [ -70.210617944563296, -19.5952815386167 ], [ -70.210731720105798, -19.5953840513078 ], [ -70.210821481930395, -19.595513499303799 ], [ -70.210841575645205, -19.595501889200602 ], [ -70.210912944608694, -19.595449192538901 ], [ -70.2109275927846, -19.595468081371699 ], [ -70.211107744844099, -19.595695953022599 ], [ -70.211103636442502, -19.5956977091246 ], [ -70.210978898955204, -19.5957510291889 ], [ -70.2109766071042, -19.5957521920989 ], [ -70.210719094187596, -19.595882854501099 ] ] ] } },
{ "type": "Feature", "properties": { "id": "monoparte.6", "Name": null, "description": null, "timestamp": null, "begin": null, "end": null, "altitudeMode": null, "tessellate": -1, "extrude": 0, "visibility": -1, "drawOrder": null, "icon": null, "REG": "Tarapacá", "COM": "Huara", "LOCALIDAD": "Pisagua", "ZONA": "ZRE", "NOMBRE": "ZRE Zona de Reglamentación Especial", "UPERM": "Equipamiento urbano institucional y particular. Mayor detalle en ordenanza.", "UPROH": "No mencionados en ordenanza", "Capa": "PRC Huara", "CUT": "01404" }, "geometry": { "type": "Polygon", "coordinates": [ [ [ -70.214064758045197, -19.597082061488798 ], [ -70.214012780191993, -19.597234339250999 ], [ -70.213944781760304, -19.597249141162902 ], [ -70.213899996566496, -19.5973319198845 ], [ -70.2139501024959, -19.597343947484902 ], [ -70.214161552276096, -19.597394705860498 ], [ -70.214391762917103, -19.5973142630165 ], [ -70.214468082388606, -19.597399811981902 ], [ -70.214828336554305, -19.597504963459102 ], [ -70.215186888809697, -19.597633159891501 ], [ -70.215192562521295, -19.597635188959199 ], [ -70.215254623366604, -19.597333548298199 ], [ -70.215299973213504, -19.597326071011199 ], [ -70.215412540536093, -19.597199802355199 ], [ -70.215469510263105, -19.597228105887101 ], [ -70.215525350027605, -19.597105805935499 ], [ -70.215482649854295, -19.5971107553415 ], [ -70.215337140290401, -19.597216924423101 ], [ -70.215196169397203, -19.597256125931501 ], [ -70.215074303387198, -19.597151759810199 ], [ -70.215203568715395, -19.5968974783517 ], [ -70.215223064533603, -19.596806503882299 ], [ -70.215021700369306, -19.596865235201701 ], [ -70.2149923672374, -19.596989747117 ], [ -70.214947715330595, -19.5970904561445 ], [ -70.214922704799406, -19.597119310684299 ], [ -70.214831720996401, -19.597096019652799 ], [ -70.214781271248299, -19.597096359710601 ], [ -70.214806028712502, -19.597034035749701 ], [ -70.214851109376099, -19.596990699355299 ], [ -70.214659225267994, -19.596968086539398 ], [ -70.214538579486202, -19.597026275108899 ], [ -70.214524089704696, -19.597112436000501 ], [ -70.214458721591896, -19.5971415660578 ], [ -70.214362582163702, -19.5971039611359 ], [ -70.214201289811101, -19.597124172426799 ], [ -70.2141492392945, -19.597108118216699 ], [ -70.2149043097413, -19.5965362376594 ], [ -70.214854826389001, -19.596497125788598 ], [ -70.214064758045197, -19.597082061488798 ] ] ] } },
{ "type": "Feature", "properties": { "id": "monoparte.7", "Name": null, "description": null, "timestamp": null, "begin": null, "end": null, "altitudeMode": null, "tessellate": -1, "extrude": 0, "visibility": -1, "drawOrder": null, "icon": null, "REG": "Tarapacá", "COM": "Huara", "LOCALIDAD": "Pisagua", "ZONA": "ZRE", "NOMBRE": "ZRE Zona de Reglamentación Especial", "UPERM": "Equipamiento urbano institucional y particular. Mayor detalle en ordenanza.", "UPROH": "No mencionados en ordenanza", "Capa": "PRC Huara", "CUT": "01404" }, "geometry": { "type": "Polygon", "coordinates": [ [ [ -70.212485711047805, -19.5976766561873 ], [ -70.212213112652705, -19.598064737523099 ], [ -70.212603541793399, -19.598267647200899 ], [ -70.212799220456503, -19.597931249280698 ], [ -70.212719005664596, -19.597880277606102 ], [ -70.212697929849298, -19.597833103144399 ], [ -70.212696598551204, -19.597835603194401 ], [ -70.212598361655793, -19.5977705217947 ], [ -70.212485711047805, -19.5976766561873 ] ] ] } },
{ "type": "Feature", "properties": { "id": "monoparte.8", "Name": null, "description": null, "timestamp": null, "begin": null, "end": null, "altitudeMode": null, "tessellate": -1, "extrude": 0, "visibility": -1, "drawOrder": null, "icon": null, "REG": "Tarapacá", "COM": "Huara", "LOCALIDAD": "Pisagua", "ZONA": "ZRE", "NOMBRE": "ZRE Zona de Reglamentación Especial", "UPERM": "Equipamiento urbano institucional y particular. Mayor detalle en ordenanza.", "UPROH": "No mencionados en ordenanza", "Capa": "PRC Huara", "CUT": "01404" }, "geometry": { "type": "Polygon", "coordinates": [ [ [ -70.213594443292493, -19.597726164152999 ], [ -70.213652673260896, -19.5974455970272 ], [ -70.213538975171005, -19.597422142965499 ], [ -70.213513988333901, -19.597457124145102 ], [ -70.213432195534295, -19.597445812148599 ], [ -70.213337123092003, -19.5974158516707 ], [ -70.213383070428705, -19.5973073312033 ], [ -70.213235291082498, -19.597272562624902 ], [ -70.213182985003399, -19.597313613402601 ], [ -70.213089172977803, -19.597451946125901 ], [ -70.2130219599903, -19.597586341001701 ], [ -70.213594443292493, -19.597726164152999 ] ] ] } },
{ "type": "Feature", "properties": { "id": "monoparte.9", "Name": null, "description": null, "timestamp": null, "begin": null, "end": null, "altitudeMode": null, "tessellate": -1, "extrude": 0, "visibility": -1, "drawOrder": null, "icon": null, "REG": "Tarapacá", "COM": "Huara", "LOCALIDAD": "Pisagua", "ZONA": "ZRE", "NOMBRE": "ZRE Zona de Reglamentación Especial", "UPERM": "Equipamiento urbano institucional y particular. Mayor detalle en ordenanza.", "UPROH": "No mencionados en ordenanza", "Capa": "PRC Huara", "CUT": "01404" }, "geometry": { "type": "Polygon", "coordinates": [ [ [ -70.209996886843697, -19.594782990498 ], [ -70.210061375831401, -19.594829618190001 ], [ -70.210104024055894, -19.594798253272799 ], [ -70.210329875106893, -19.5949784258538 ], [ -70.210365010228301, -19.594954283725802 ], [ -70.210451272761901, -19.595020643205199 ], [ -70.210497657582295, -19.594976054912902 ], [ -70.210503867214001, -19.594970085905299 ], [ -70.210097924692406, -19.594657245158199 ], [ -70.209982752678499, -19.594772770426701 ], [ -70.209996886843697, -19.594782990498 ] ] ] } },
{ "type": "Feature", "properties": { "id": "monoparte.10", "Name": null, "description": null, "timestamp": null, "begin": null, "end": null, "altitudeMode": null, "tessellate": -1, "extrude": 0, "visibility": -1, "drawOrder": null, "icon": null, "REG": "Tarapacá", "COM": "Huara", "LOCALIDAD": "Pisagua", "ZONA": "ZRE", "NOMBRE": "ZRE Zona de Reglamentación Especial", "UPERM": "Equipamiento urbano institucional y particular. Mayor detalle en ordenanza.", "UPROH": "No mencionados en ordenanza", "Capa": "PRC Huara", "CUT": "01404" }, "geometry": { "type": "Polygon", "coordinates": [ [ [ -70.2105733659983, -19.594698159474699 ], [ -70.210416997942602, -19.594822448757199 ], [ -70.210429303454504, -19.5948354640147 ], [ -70.210551757119106, -19.594964982669499 ], [ -70.210574208888204, -19.594931363392298 ], [ -70.210724590338302, -19.5947761937244 ], [ -70.210718346063203, -19.594769496975001 ], [ -70.210702492997896, -19.594761841043699 ], [ -70.210626140980295, -19.594671507120299 ], [ -70.210581057824896, -19.594714842507301 ], [ -70.2105733659983, -19.594698159474699 ] ] ] } },
{ "type": "Feature", "properties": { "id": "monoparte.11", "Name": null, "description": null, "timestamp": null, "begin": null, "end": null, "altitudeMode": null, "tessellate": -1, "extrude": 0, "visibility": -1, "drawOrder": null, "icon": null, "REG": "Tarapacá", "COM": "Huara", "LOCALIDAD": "Pisagua", "ZONA": "ZRE", "NOMBRE": "ZRE Zona de Reglamentación Especial", "UPERM": "Equipamiento urbano institucional y particular. Mayor detalle en ordenanza.", "UPROH": "No mencionados en ordenanza", "Capa": "PRC Huara", "CUT": "01404" }, "geometry": { "type": "Polygon", "coordinates": [ [ [ -70.211942354140803, -19.596775064119299 ], [ -70.211940922182293, -19.596956021747399 ], [ -70.211940927764005, -19.596957021941702 ], [ -70.212024770756599, -19.596967534754601 ], [ -70.212080079924604, -19.596978768911899 ], [ -70.212080131993801, -19.5969771918638 ], [ -70.212081671940197, -19.596747777840299 ], [ -70.212038441125102, -19.596771888008199 ], [ -70.211942354140803, -19.596775064119299 ] ] ] } },
{ "type": "Feature", "properties": { "id": "monoparte.12", "Name": null, "description": null, "timestamp": null, "begin": null, "end": null, "altitudeMode": null, "tessellate": -1, "extrude": 0, "visibility": -1, "drawOrder": null, "icon": null, "REG": "Tarapacá", "COM": "Huara", "LOCALIDAD": "Pisagua", "ZONA": "ZRE", "NOMBRE": "ZRE Zona de Reglamentación Especial", "UPERM": "Equipamiento urbano institucional y particular. Mayor detalle en ordenanza.", "UPROH": "No mencionados en ordenanza", "Capa": "PRC Huara", "CUT": "01404" }, "geometry": { "type": "Polygon", "coordinates": [ [ [ -70.212779532755505, -19.597120838210099 ], [ -70.212713956854799, -19.5971075183861 ], [ -70.212646081418299, -19.597269323215599 ], [ -70.212699186265098, -19.597286895965102 ], [ -70.212779532755505, -19.597120838210099 ] ] ] } },
{ "type": "Feature", "properties": { "id": "monoparte.13", "Name": null, "description": null, "timestamp": null, "begin": null, "end": null, "altitudeMode": null, "tessellate": -1, "extrude": 0, "visibility": -1, "drawOrder": null, "icon": null, "REG": "Tarapacá", "COM": "Huara", "LOCALIDAD": "Pisagua", "ZONA": "AV", "NOMBRE": "AV Áreas Verdes", "UPERM": "Jardines, canchas de deportes y juegos infantiles. Mayor detalle en ordenanza.", "UPROH": "No mencionados en ordenanza", "Capa": "PRC Huara", "CUT": "01404" }, "geometry": { "type": "Polygon", "coordinates": [ [ [ -70.213438944587494, -19.5970528085906 ], [ -70.213450168139005, -19.597089826518999 ], [ -70.213498801643993, -19.5972502318198 ], [ -70.213899996566496, -19.5973319198845 ], [ -70.213944781760304, -19.597249141162902 ], [ -70.214012780191993, -19.597234339250999 ], [ -70.214064758045197, -19.597082061488798 ], [ -70.213948080485096, -19.596996784178501 ], [ -70.213836770870699, -19.596954501360798 ], [ -70.213715550241901, -19.5969361931854 ], [ -70.213549573130393, -19.597004249570801 ], [ -70.213438944587494, -19.5970528085906 ] ] ] } },
{ "type": "Feature", "properties": { "id": "monoparte.14", "Name": null, "description": null, "timestamp": null, "begin": null, "end": null, "altitudeMode": null, "tessellate": -1, "extrude": 0, "visibility": -1, "drawOrder": null, "icon": null, "REG": "Tarapacá", "COM": "Huara", "LOCALIDAD": "Pisagua", "ZONA": "AV", "NOMBRE": "AV Áreas Verdes", "UPERM": "Jardines, canchas de deportes y juegos infantiles. Mayor detalle en ordenanza.", "UPROH": "No mencionados en ordenanza", "Capa": "PRC Huara", "CUT": "01404" }, "geometry": { "type": "Polygon", "coordinates": [ [ [ -70.216353352623003, -19.597910426160102 ], [ -70.216352319747301, -19.597904799493499 ], [ -70.216355633847797, -19.597905440331601 ], [ -70.216433537539103, -19.597920489015799 ], [ -70.216418576812799, -19.597844901373801 ], [ -70.2161514756136, -19.597547872720799 ], [ -70.216012517335599, -19.597518927242199 ], [ -70.215774277294003, -19.597705810364101 ], [ -70.2157361167625, -19.5978121365197 ], [ -70.215736056799699, -19.597812784770099 ], [ -70.215743684541593, -19.597812085468099 ], [ -70.215742679954602, -19.597817711426998 ], [ -70.216353352623003, -19.597910426160102 ] ] ] } },
{ "type": "Feature", "properties": { "id": "monoparte.15", "Name": null, "description": null, "timestamp": null, "begin": null, "end": null, "altitudeMode": null, "tessellate": -1, "extrude": 0, "visibility": -1, "drawOrder": null, "icon": null, "REG": "Tarapacá", "COM": "Huara", "LOCALIDAD": "Pisagua", "ZONA": "AV", "NOMBRE": "AV Áreas Verdes", "UPERM": "Jardines, canchas de deportes y juegos infantiles. Mayor detalle en ordenanza.", "UPROH": "No mencionados en ordenanza", "Capa": "PRC Huara", "CUT": "01404" }, "geometry": { "type": "Polygon", "coordinates": [ [ [ -70.211388846494401, -19.5964174214783 ], [ -70.211314734859101, -19.5967609305271 ], [ -70.211338929008207, -19.5967539985039 ], [ -70.211532655764898, -19.596845177578398 ], [ -70.211534734492304, -19.596842543304 ], [ -70.211636731444401, -19.596688524862198 ], [ -70.211757102645905, -19.5965335488536 ], [ -70.211526763586605, -19.5963525600006 ], [ -70.211456994731194, -19.596435129329301 ], [ -70.2114384520589, -19.5964854571233 ], [ -70.211424052802201, -19.596465708293501 ], [ -70.211405504658302, -19.596440268768401 ], [ -70.211388846494401, -19.5964174214783 ] ] ] } },
{ "type": "Feature", "properties": { "id": "monoparte.16", "Name": null, "description": null, "timestamp": null, "begin": null, "end": null, "altitudeMode": null, "tessellate": -1, "extrude": 0, "visibility": -1, "drawOrder": null, "icon": null, "REG": "Tarapacá", "COM": "Huara", "LOCALIDAD": "Pisagua", "ZONA": "AV", "NOMBRE": "AV Áreas Verdes", "UPERM": "Jardines, canchas de deportes y juegos infantiles. Mayor detalle en ordenanza.", "UPROH": "No mencionados en ordenanza", "Capa": "PRC Huara", "CUT": "01404" }, "geometry": { "type": "Polygon", "coordinates": [ [ [ -70.216286939658104, -19.5973915668079 ], [ -70.216495467288297, -19.5974469375853 ], [ -70.216547312140506, -19.597311015282799 ], [ -70.216326963766903, -19.5972627991375 ], [ -70.216286939658104, -19.5973915668079 ] ] ] } },
{ "type": "Feature", "properties": { "id": "monoparte.17", "Name": null, "description": null, "timestamp": null, "begin": null, "end": null, "altitudeMode": null, "tessellate": -1, "extrude": 0, "visibility": -1, "drawOrder": null, "icon": null, "REG": "Tarapacá", "COM": "Huara", "LOCALIDAD": "Pisagua", "ZONA": "ZP", "NOMBRE": "ZP Zona de Playa", "UPERM": "Usos recreativos, deportivos o reposo. Mayor detalle ver en ordenanza.", "UPROH": "No mencionados en ordenanza", "Capa": "PRC Huara", "CUT": "01404" }, "geometry": { "type": "Polygon", "coordinates": [ [ [ -70.211576315422803, -19.595573570179099 ], [ -70.211495419316805, -19.595550209584101 ], [ -70.2114047238924, -19.595588978904399 ], [ -70.211435983412798, -19.5956499410823 ], [ -70.211516271302997, -19.595760566328899 ], [ -70.211577560497801, -19.595860561557899 ], [ -70.2116315245717, -19.595992879978901 ], [ -70.211734916625502, -19.596157140042401 ], [ -70.211826233491294, -19.5962246602165 ], [ -70.211953253029293, -19.596314160410401 ], [ -70.211757102645905, -19.5965335488536 ], [ -70.211636731444401, -19.596688524862198 ], [ -70.211671051817305, -19.596724154297601 ], [ -70.211902257207299, -19.5967763890967 ], [ -70.211942354140803, -19.596775064119299 ], [ -70.212038441125102, -19.596771888008199 ], [ -70.212081671940197, -19.596747777840299 ], [ -70.212181628864698, -19.5966920331879 ], [ -70.212336140253598, -19.596608516796199 ], [ -70.212411705374095, -19.596593663691301 ], [ -70.212605530651999, -19.596707111672899 ], [ -70.212726821715705, -19.596734983326201 ], [ -70.212875296556206, -19.596855907639899 ], [ -70.212927972329595, -19.596816106787202 ], [ -70.213319649176199, -19.597075247297202 ], [ -70.213450168139005, -19.597089826518999 ], [ -70.213438944587494, -19.5970528085906 ], [ -70.213267059129194, -19.597006151663798 ], [ -70.213165804155295, -19.596959019141401 ], [ -70.213094245983996, -19.596835186580101 ], [ -70.213038072289706, -19.596744719794 ], [ -70.212997032232295, -19.596654152939699 ], [ -70.212881252055695, -19.596688401502501 ], [ -70.212860642509199, -19.596631164670999 ], [ -70.212840070709404, -19.596578709177301 ], [ -70.212728545772507, -19.596507739329901 ], [ -70.212633195047999, -19.596575319625099 ], [ -70.212476659662499, -19.596557246393601 ], [ -70.212435549294497, -19.596457116673999 ], [ -70.212349752620199, -19.5964529140347 ], [ -70.2121427338827, -19.596430398488799 ], [ -70.212070226804698, -19.596365474392702 ], [ -70.212020835526204, -19.596321248792499 ], [ -70.211985536570296, -19.5962780515272 ], [ -70.211980980475104, -19.5962724765294 ], [ -70.211873173751897, -19.596140550096301 ], [ -70.211848969472896, -19.596096445124399 ], [ -70.211755533583599, -19.595926183662002 ], [ -70.211709484151996, -19.595840429932402 ], [ -70.211693384402494, -19.5957114404683 ], [ -70.211808664108105, -19.595610260921099 ], [ -70.211737928803799, -19.595596391701601 ], [ -70.211757391628794, -19.595500634328701 ], [ -70.2117671965147, -19.5954623174384 ], [ -70.211636353077196, -19.595506229645 ], [ -70.211596423407997, -19.595563873621298 ], [ -70.211576315422803, -19.595573570179099 ] ] ] } },
{ "type": "Feature", "properties": { "id": "monoparte.18", "Name": null, "description": null, "timestamp": null, "begin": null, "end": null, "altitudeMode": null, "tessellate": -1, "extrude": 0, "visibility": -1, "drawOrder": null, "icon": null, "REG": "Tarapacá", "COM": "Huara", "LOCALIDAD": "Pisagua", "ZONA": "ZP", "NOMBRE": "ZP Zona de Playa", "UPERM": "Usos recreativos, deportivos o reposo. Mayor detalle ver en ordenanza.", "UPROH": "No mencionados en ordenanza", "Capa": "PRC Huara", "CUT": "01404" }, "geometry": { "type": "Polygon", "coordinates": [ [ [ -70.211418976499303, -19.595238526265199 ], [ -70.2114400333124, -19.595227841187501 ], [ -70.211398924925106, -19.5951277129654 ], [ -70.211313090291796, -19.5951187248405 ], [ -70.211197453852293, -19.595172095911401 ], [ -70.211136987860101, -19.5951820654256 ], [ -70.211131513724595, -19.5951803158869 ], [ -70.211073300894498, -19.5950988217201 ], [ -70.211072657076997, -19.595012760889801 ], [ -70.2110924798383, -19.594964815326001 ], [ -70.210905498579507, -19.5949230390314 ], [ -70.211025895837807, -19.594831385181799 ], [ -70.210839200842202, -19.594827859676901 ], [ -70.210732646161702, -19.5947764025453 ], [ -70.210786636091797, -19.5948343099626 ], [ -70.210786699665604, -19.5948428101558 ], [ -70.210786850640005, -19.594862996307398 ], [ -70.210798549815806, -19.594909535594901 ], [ -70.210803824397104, -19.594916601179602 ], [ -70.210886458197393, -19.595027282374001 ], [ -70.211031147229903, -19.5951482338007 ], [ -70.211127670566299, -19.595193311299401 ], [ -70.2111397476788, -19.595191843193501 ], [ -70.211250060990395, -19.595178434997699 ], [ -70.211383129082407, -19.595162240851401 ], [ -70.211418976499303, -19.595238526265199 ] ] ] } },
{ "type": "Feature", "properties": { "id": "monoparte.19", "Name": null, "description": null, "timestamp": null, "begin": null, "end": null, "altitudeMode": null, "tessellate": -1, "extrude": 0, "visibility": -1, "drawOrder": null, "icon": null, "REG": "Tarapacá", "COM": "Huara", "LOCALIDAD": "Pisagua", "ZONA": "ZP", "NOMBRE": "ZP Zona de Playa", "UPERM": "Usos recreativos, deportivos o reposo. Mayor detalle ver en ordenanza.", "UPROH": "No mencionados en ordenanza", "Capa": "PRC Huara", "CUT": "01404" }, "geometry": { "type": "Polygon", "coordinates": [ [ [ -70.211495419316805, -19.595550209584101 ], [ -70.211484792350106, -19.595478558858801 ], [ -70.211448585850903, -19.5953592704121 ], [ -70.211418976499303, -19.595238526265199 ], [ -70.211344539634695, -19.595276297176 ], [ -70.211386567164098, -19.5953052120962 ], [ -70.211377118714395, -19.595368239628499 ], [ -70.211404194000295, -19.595446948594802 ], [ -70.211407229325999, -19.595450095143899 ], [ -70.211487727353401, -19.595533526599201 ], [ -70.2114817771715, -19.595536070337001 ], [ -70.211495419316805, -19.595550209584101 ] ] ] } },
{ "type": "Feature", "properties": { "id": "monoparte.20", "Name": null, "description": null, "timestamp": null, "begin": null, "end": null, "altitudeMode": null, "tessellate": -1, "extrude": 0, "visibility": -1, "drawOrder": null, "icon": null, "REG": "Tarapacá", "COM": "Huara", "LOCALIDAD": "Pisagua", "ZONA": "ZP", "NOMBRE": "ZP Zona de Playa", "UPERM": "Usos recreativos, deportivos o reposo. Mayor detalle ver en ordenanza.", "UPROH": "No mencionados en ordenanza", "Capa": "PRC Huara", "CUT": "01404" }, "geometry": { "type": "Polygon", "coordinates": [ [ [ -70.210724590338302, -19.5947761937244 ], [ -70.210727020845198, -19.594773685400799 ], [ -70.210718346063203, -19.594769496975001 ], [ -70.210724590338302, -19.5947761937244 ] ] ] } },
{ "type": "Feature", "properties": { "id": "monoparte.21", "Name": null, "description": null, "timestamp": null, "begin": null, "end": null, "altitudeMode": null, "tessellate": -1, "extrude": 0, "visibility": -1, "drawOrder": null, "icon": null, "REG": "Tarapacá", "COM": "Huara", "LOCALIDAD": "Pisagua", "ZONA": "ZR", "NOMBRE": "ZR Zona Residenciales", "UPERM": "Todo tipo de vivienda. Mayor detalle en ordenanza", "UPROH": "No mencionados en ordenanza", "Capa": "PRC Huara", "CUT": "01404" }, "geometry": { "type": "Polygon", "coordinates": [ [ [ -70.213056990844194, -19.598738875075899 ], [ -70.213123783277595, -19.598765201304701 ], [ -70.213255181714004, -19.598794918201801 ], [ -70.213360229754599, -19.598809509875402 ], [ -70.213503504700498, -19.598808545149499 ], [ -70.213697215604199, -19.598805328723301 ], [ -70.214242337662398, -19.5988379937864 ], [ -70.214438210308799, -19.5988538865567 ], [ -70.214676588386098, -19.5988867052621 ], [ -70.214874306175901, -19.598879634924501 ], [ -70.214885017654893, -19.598880885512099 ], [ -70.215000886771094, -19.598894414784102 ], [ -70.215106586435297, -19.598906756615101 ], [ -70.215431609042795, -19.598921777428998 ], [ -70.215595091685401, -19.598924500376299 ], [ -70.215619846972203, -19.598620959923199 ], [ -70.215618628427904, -19.598619679679601 ], [ -70.215617262844702, -19.598618244113499 ], [ -70.215619559431602, -19.5986185999813 ], [ -70.215677656580795, -19.598425134656601 ], [ -70.215683543503204, -19.5983341932264 ], [ -70.215691783982805, -19.598206892398402 ], [ -70.215708884586604, -19.597964723933899 ], [ -70.215736000585295, -19.597812789667 ], [ -70.215339021548104, -19.597849181399901 ], [ -70.214899205496707, -19.597889499646499 ], [ -70.214898358439001, -19.5978889343125 ], [ -70.214766104102395, -19.5978007474436 ], [ -70.214761582448602, -19.597802828982498 ], [ -70.214561851307593, -19.5978947615693 ], [ -70.214235234053803, -19.598070285266701 ], [ -70.214222281520307, -19.5981307225215 ], [ -70.214214894277902, -19.598129931990901 ], [ -70.213866181499199, -19.5980926043793 ], [ -70.213934909676198, -19.597967717020602 ], [ -70.213963950739796, -19.597893120283398 ], [ -70.213999416045993, -19.597802023889098 ], [ -70.214005024641907, -19.5977876178369 ], [ -70.213999312635295, -19.5977820073124 ], [ -70.213998213580297, -19.5977849611964 ], [ -70.213594443292493, -19.597726164152999 ], [ -70.2130219599903, -19.597586341001701 ], [ -70.213089172977803, -19.597451946125901 ], [ -70.213182985003399, -19.597313613402601 ], [ -70.213235291082498, -19.597272562624902 ], [ -70.213118775725903, -19.597245148917199 ], [ -70.213015511328393, -19.597220852649901 ], [ -70.213032156672995, -19.5971699393356 ], [ -70.2129657415624, -19.597143491228699 ], [ -70.2128282800238, -19.597126768167499 ], [ -70.212779532755505, -19.597120838210099 ], [ -70.212699186265098, -19.597286895965102 ], [ -70.212646081418299, -19.597269323215599 ], [ -70.212713956854799, -19.5971075183861 ], [ -70.212399465585406, -19.597043641592201 ], [ -70.212346591010203, -19.5971936426076 ], [ -70.212206327494599, -19.5971587259309 ], [ -70.2119603905861, -19.597160379962201 ], [ -70.211691429222498, -19.597119156801199 ], [ -70.211471548183894, -19.597063259433501 ], [ -70.211252288201194, -19.596916168438099 ], [ -70.211338929008207, -19.5967539985039 ], [ -70.211314734859101, -19.5967609305271 ], [ -70.211388846494401, -19.5964174214783 ], [ -70.211251122291799, -19.596228526193499 ], [ -70.211210692920304, -19.596173427321499 ], [ -70.211026707351195, -19.596272551792602 ], [ -70.210965606084002, -19.596197656691199 ], [ -70.210719094187596, -19.595882854501099 ], [ -70.210634139765702, -19.5959259607876 ], [ -70.210372091370104, -19.595685492860799 ], [ -70.210371542258102, -19.595684861351099 ], [ -70.210364470051204, -19.595678371643199 ], [ -70.210237173330398, -19.5957847351692 ], [ -70.210114864728396, -19.5956206011654 ], [ -70.210206052336105, -19.5954962410771 ], [ -70.210199084131801, -19.595488229984799 ], [ -70.210067720886698, -19.595354127563301 ], [ -70.209805841957007, -19.5951872564506 ], [ -70.209572562278893, -19.5953633405971 ], [ -70.209120005721104, -19.5951137645696 ], [ -70.208973866649998, -19.595136260267399 ], [ -70.208818102368397, -19.5952209785099 ], [ -70.208660177116599, -19.595278315394001 ], [ -70.208999050297095, -19.595468392741601 ], [ -70.209490629509105, -19.5957639265885 ], [ -70.209787841953798, -19.5960416382731 ], [ -70.209851867202701, -19.5961703035555 ], [ -70.209882239887406, -19.596296485870202 ], [ -70.209944065325402, -19.596468197557702 ], [ -70.210000237615105, -19.596783705960501 ], [ -70.210128146231597, -19.597021911743401 ], [ -70.210381855337303, -19.597216241808201 ], [ -70.210754514168798, -19.597521463185998 ], [ -70.210845117797305, -19.5975956703899 ], [ -70.210848595029503, -19.5975914843632 ], [ -70.210870278052397, -19.597607621591401 ], [ -70.210867547284707, -19.597610908086601 ], [ -70.210949516633505, -19.5976665962155 ], [ -70.211416806590094, -19.597984058548398 ], [ -70.212391842761505, -19.598497468575001 ], [ -70.212456256071803, -19.598520846514798 ], [ -70.213056990844194, -19.598738875075899 ] ], [ [ -70.212485711047805, -19.5976766561873 ], [ -70.212598361655793, -19.5977705217947 ], [ -70.212696598551204, -19.597835603194401 ], [ -70.212697929849298, -19.597833103144399 ], [ -70.212719005664596, -19.597880277606102 ], [ -70.212799220456503, -19.597931249280698 ], [ -70.212603541793399, -19.598267647200899 ], [ -70.212213112652705, -19.598064737523099 ], [ -70.212485711047805, -19.5976766561873 ] ] ] } },
{ "type": "Feature", "properties": { "id": "monoparte.22", "Name": null, "description": null, "timestamp": null, "begin": null, "end": null, "altitudeMode": null, "tessellate": -1, "extrude": 0, "visibility": -1, "drawOrder": null, "icon": null, "REG": "Tarapacá", "COM": "Huara", "LOCALIDAD": "Pisagua", "ZONA": "ZR", "NOMBRE": "ZR Zona Residenciales", "UPERM": "Todo tipo de vivienda. Mayor detalle en ordenanza", "UPROH": "No mencionados en ordenanza", "Capa": "PRC Huara", "CUT": "01404" }, "geometry": { "type": "Polygon", "coordinates": [ [ [ -70.208033820338599, -19.595227697832701 ], [ -70.208365723943402, -19.595389364823099 ], [ -70.208456635983794, -19.595325240050499 ], [ -70.208459823563899, -19.595322991420598 ], [ -70.208399313832402, -19.595242712552601 ], [ -70.208320199129304, -19.595204394696601 ], [ -70.208130282705298, -19.595107053117399 ], [ -70.208095488422103, -19.595092345184401 ], [ -70.208033208729006, -19.5951973533939 ], [ -70.208020774314505, -19.595221342938999 ], [ -70.208033820338599, -19.595227697832701 ] ] ] } },
{ "type": "Feature", "properties": { "id": "monoparte.23", "Name": null, "description": null, "timestamp": null, "begin": null, "end": null, "altitudeMode": null, "tessellate": -1, "extrude": 0, "visibility": -1, "drawOrder": null, "icon": null, "REG": "Tarapacá", "COM": "Huara", "LOCALIDAD": "Pisagua", "ZONA": "ZR", "NOMBRE": "ZR Zona Residenciales", "UPERM": "Todo tipo de vivienda. Mayor detalle en ordenanza", "UPROH": "No mencionados en ordenanza", "Capa": "PRC Huara", "CUT": "01404" }, "geometry": { "type": "Polygon", "coordinates": [ [ [ -70.213432195534295, -19.597445812148599 ], [ -70.213477634036494, -19.597329579660801 ], [ -70.213383070428705, -19.5973073312033 ], [ -70.213337123092003, -19.5974158516707 ], [ -70.213432195534295, -19.597445812148599 ] ] ] } },
{ "type": "Feature", "properties": { "id": "monoparte.24", "Name": null, "description": null, "timestamp": null, "begin": null, "end": null, "altitudeMode": null, "tessellate": -1, "extrude": 0, "visibility": -1, "drawOrder": null, "icon": null, "REG": "Tarapacá", "COM": "Huara", "LOCALIDAD": "Pisagua", "ZONA": "ZR", "NOMBRE": "ZR Zona Residenciales", "UPERM": "Todo tipo de vivienda. Mayor detalle en ordenanza", "UPROH": "No mencionados en ordenanza", "Capa": "PRC Huara", "CUT": "01404" }, "geometry": { "type": "Polygon", "coordinates": [ [ [ -70.213538975171005, -19.597422142965499 ], [ -70.213652673260896, -19.5974455970272 ], [ -70.213660052996602, -19.5974100413776 ], [ -70.213667481468903, -19.5973742468619 ], [ -70.213666874988505, -19.5973741045708 ], [ -70.213666685877897, -19.597374059763201 ], [ -70.213568314265103, -19.597350914523599 ], [ -70.213538975171005, -19.597422142965499 ] ] ] } },
{ "type": "Feature", "properties": { "id": "monoparte.25", "Name": null, "description": null, "timestamp": null, "begin": null, "end": null, "altitudeMode": null, "tessellate": -1, "extrude": 0, "visibility": -1, "drawOrder": null, "icon": null, "REG": "Tarapacá", "COM": "Huara", "LOCALIDAD": "Pisagua", "ZONA": "ZC", "NOMBRE": "ZC Zona de Comercio", "UPERM": "Comercio y artesanía. Mayor detalle en ordenanza", "UPROH": "No mencionados en ordenanza", "Capa": "PRC Huara", "CUT": "01404" }, "geometry": { "type": "Polygon", "coordinates": [ [ [ -70.211338929008207, -19.5967539985039 ], [ -70.211252288201194, -19.596916168438099 ], [ -70.211471548183894, -19.597063259433501 ], [ -70.211691429222498, -19.597119156801199 ], [ -70.2119603905861, -19.597160379962201 ], [ -70.212206327494599, -19.5971587259309 ], [ -70.212346591010203, -19.5971936426076 ], [ -70.212399465585406, -19.597043641592201 ], [ -70.212252598854704, -19.597013810281101 ], [ -70.212080079924604, -19.596978768911899 ], [ -70.212024770756599, -19.596967534754601 ], [ -70.211940927764005, -19.596957021941702 ], [ -70.211940922182293, -19.596956021747399 ], [ -70.211942354140803, -19.596775064119299 ], [ -70.211902257207299, -19.5967763890967 ], [ -70.211671051817305, -19.596724154297601 ], [ -70.211636731444401, -19.596688524862198 ], [ -70.211534734492304, -19.596842543304 ], [ -70.211532655764898, -19.596845177578398 ], [ -70.211338929008207, -19.5967539985039 ] ] ] } },
{ "type": "Feature", "properties": { "id": "monoparte.26", "Name": null, "description": null, "timestamp": null, "begin": null, "end": null, "altitudeMode": null, "tessellate": -1, "extrude": 0, "visibility": -1, "drawOrder": null, "icon": null, "REG": "Tarapacá", "COM": "Huara", "LOCALIDAD": "Pisagua", "ZONA": "ZC", "NOMBRE": "ZC Zona de Comercio", "UPERM": "Comercio y artesanía. Mayor detalle en ordenanza", "UPROH": "No mencionados en ordenanza", "Capa": "PRC Huara", "CUT": "01404" }, "geometry": { "type": "Polygon", "coordinates": [ [ [ -70.2128282800238, -19.597126768167499 ], [ -70.2129657415624, -19.597143491228699 ], [ -70.213032156672995, -19.5971699393356 ], [ -70.213015511328393, -19.597220852649901 ], [ -70.213118775725903, -19.597245148917199 ], [ -70.213119414302199, -19.597243467627301 ], [ -70.213167051023802, -19.5971092297974 ], [ -70.213098650399999, -19.597070243870501 ], [ -70.213109812963296, -19.597045067170299 ], [ -70.212912607061696, -19.596985432753801 ], [ -70.212828872977099, -19.597125868757601 ], [ -70.2128282800238, -19.597126768167499 ] ] ] } },
{ "type": "Feature", "properties": { "id": "monoparte.27", "Name": null, "description": null, "timestamp": null, "begin": null, "end": null, "altitudeMode": null, "tessellate": -1, "extrude": 0, "visibility": -1, "drawOrder": null, "icon": null, "REG": "Tarapacá", "COM": "Huara", "LOCALIDAD": "Pisagua", "ZONA": "ZC", "NOMBRE": "ZC Zona de Comercio", "UPERM": "Comercio y artesanía. Mayor detalle en ordenanza", "UPROH": "No mencionados en ordenanza", "Capa": "PRC Huara", "CUT": "01404" }, "geometry": { "type": "Polygon", "coordinates": [ [ [ -70.210364470051204, -19.595678371643199 ], [ -70.210206052336105, -19.5954962410771 ], [ -70.210114864728396, -19.5956206011654 ], [ -70.210237173330398, -19.5957847351692 ], [ -70.210364470051204, -19.595678371643199 ] ] ] } },
{ "type": "Feature", "properties": { "id": "monoparte.28", "Name": null, "description": null, "timestamp": null, "begin": null, "end": null, "altitudeMode": null, "tessellate": -1, "extrude": 0, "visibility": -1, "drawOrder": null, "icon": null, "REG": "Tarapacá", "COM": "Huara", "LOCALIDAD": "Pisagua", "ZONA": "ZC", "NOMBRE": "ZC Zona de Comercio", "UPERM": "Comercio y artesanía. Mayor detalle en ordenanza", "UPROH": "No mencionados en ordenanza", "Capa": "PRC Huara", "CUT": "01404" }, "geometry": { "type": "Polygon", "coordinates": [ [ [ -70.213432195534295, -19.597445812148599 ], [ -70.213513988333901, -19.597457124145102 ], [ -70.213538975171005, -19.597422142965499 ], [ -70.213568314265103, -19.597350914523599 ], [ -70.213477634036494, -19.597329579660801 ], [ -70.213432195534295, -19.597445812148599 ] ] ] } }
]
}
