{
"type": "FeatureCollection",
"name": "IPT_01_PRC_Alto_Hospicio",
"crs": { "type": "name", "properties": { "name": "urn:ogc:def:crs:OGC:1.3:CRS84" } },
"features": [
{ "type": "Feature", "properties": { "id": "monoparte.1", "Name": null, "description": null, "timestamp": null, "begin": null, "end": null, "altitudeMode": null, "tessellate": -1, "extrude": 0, "visibility": -1, "drawOrder": null, "icon": null, "REG": "Tarapacá", "COM": "Alto Hospicio", "LOCALIDAD": "Alto Hospicio", "ZONA": "Destinación Armada de Ch", "NOMBRE": "Destinación Armada de Chile", "UPERM": "Destinación Armada de Chile", "UPROH": "Todos los no mencionados como permitidos.", "Capa": "PRC Alto Hospicio", "CUT": "01107" }, "geometry": { "type": "Polygon", "coordinates": [ [ [ -70.108633089677596, -20.262618909791701 ], [ -70.109769846949106, -20.263035903002599 ], [ -70.110856531289997, -20.260405291190299 ], [ -70.110817863661097, -20.259678478109901 ], [ -70.110917898873396, -20.259614621870799 ], [ -70.111273293441698, -20.257778919920401 ], [ -70.110832468807203, -20.2570230448617 ], [ -70.110227549815505, -20.256742375567899 ], [ -70.109981378407397, -20.256628157146402 ], [ -70.109622631958402, -20.256461704082199 ], [ -70.109216877771999, -20.2564589714483 ], [ -70.107358505234203, -20.257628898446001 ], [ -70.105539548224101, -20.2588960879364 ], [ -70.104937590412604, -20.2596313647527 ], [ -70.104022565220902, -20.260909866866101 ], [ -70.104094113205306, -20.260953792335201 ], [ -70.104346063858003, -20.2610462240497 ], [ -70.105733084280203, -20.261555064744002 ], [ -70.108633089677596, -20.262618909791701 ] ] ] } },
{ "type": "Feature", "properties": { "id": "monoparte.2", "Name": null, "description": null, "timestamp": null, "begin": null, "end": null, "altitudeMode": null, "tessellate": -1, "extrude": 0, "visibility": -1, "drawOrder": null, "icon": null, "REG": "Tarapacá", "COM": "Alto Hospicio", "LOCALIDAD": "Alto Hospicio", "ZONA": "Z1", "NOMBRE": "Z1 Zona Centro Cívico, Equipamiento y Vivienda", "UPERM": "Vivienda (altura media en extensión), Equipamiento (regional e interurbano, comunal y vecinal),  Actividad Productiva (servicio artesanal)", "UPROH": "Todos los no mencionados como permitidos.", "Capa": "PRC Alto Hospicio", "CUT": "01107" }, "geometry": { "type": "Polygon", "coordinates": [ [ [ -70.103363283629605, -20.284576515819101 ], [ -70.102854138996406, -20.284700032529599 ], [ -70.102234493546604, -20.2846523718501 ], [ -70.102271893830505, -20.2847896328839 ], [ -70.102469826354707, -20.2857336743498 ], [ -70.103872018217004, -20.2895403608692 ], [ -70.105440658178395, -20.293689721353701 ], [ -70.106945143536706, -20.297770721127598 ], [ -70.107055346027195, -20.297788467517901 ], [ -70.107436442199798, -20.297882688059701 ], [ -70.107875076922895, -20.298072854948199 ], [ -70.109233888054206, -20.298592593274201 ], [ -70.109446826072102, -20.298701679582699 ], [ -70.109960442246702, -20.2989123931027 ], [ -70.108825922523195, -20.295920082254199 ], [ -70.108311592747697, -20.2945565222007 ], [ -70.107818513762098, -20.293283515380899 ], [ -70.105155513591797, -20.286142359953601 ], [ -70.104854902189302, -20.285379873751602 ], [ -70.104658506663696, -20.284791631245302 ], [ -70.104543987834305, -20.284131615744901 ], [ -70.104487042316507, -20.283970772190202 ], [ -70.103834174129403, -20.2841954344246 ], [ -70.103363283629605, -20.284576515819101 ] ] ] } },
{ "type": "Feature", "properties": { "id": "monoparte.3", "Name": null, "description": null, "timestamp": null, "begin": null, "end": null, "altitudeMode": null, "tessellate": -1, "extrude": 0, "visibility": -1, "drawOrder": null, "icon": null, "REG": "Tarapacá", "COM": "Alto Hospicio", "LOCALIDAD": "Alto Hospicio", "ZONA": "Z1", "NOMBRE": "Z1 Zona Centro Cívico, Equipamiento y Vivienda", "UPERM": "Vivienda (altura media en extensión), Equipamiento (regional e interurbano, comunal y vecinal),  Actividad Productiva (servicio artesanal)", "UPROH": "Todos los no mencionados como permitidos.", "Capa": "PRC Alto Hospicio", "CUT": "01107" }, "geometry": { "type": "Polygon", "coordinates": [ [ [ -70.086443059616997, -20.254931874417299 ], [ -70.091621697028998, -20.2551017251795 ], [ -70.091849725121804, -20.252951294227401 ], [ -70.091868833679698, -20.252767401631399 ], [ -70.086517384853394, -20.2524207573762 ], [ -70.086492394724502, -20.252607015355199 ], [ -70.086443059616997, -20.254931874417299 ] ] ] } },
{ "type": "Feature", "properties": { "id": "monoparte.4", "Name": null, "description": null, "timestamp": null, "begin": null, "end": null, "altitudeMode": null, "tessellate": -1, "extrude": 0, "visibility": -1, "drawOrder": null, "icon": null, "REG": "Tarapacá", "COM": "Alto Hospicio", "LOCALIDAD": "Alto Hospicio", "ZONA": "Z1", "NOMBRE": "Z1 Zona Centro Cívico, Equipamiento y Vivienda", "UPERM": "Vivienda (altura media en extensión), Equipamiento (regional e interurbano, comunal y vecinal),  Actividad Productiva (servicio artesanal)", "UPROH": "Todos los no mencionados como permitidos.", "Capa": "PRC Alto Hospicio", "CUT": "01107" }, "geometry": { "type": "Polygon", "coordinates": [ [ [ -70.107076992866794, -20.298461007759499 ], [ -70.108850354787606, -20.302910054215499 ], [ -70.109107542792998, -20.3027379206716 ], [ -70.109495574626195, -20.302664509463899 ], [ -70.111015292228899, -20.302101955674601 ], [ -70.111120708019001, -20.302062933421499 ], [ -70.110068296460497, -20.2992458301878 ], [ -70.109798955872293, -20.299223185911401 ], [ -70.107494751877894, -20.2985316703123 ], [ -70.107076992866794, -20.298461007759499 ] ] ] } },
{ "type": "Feature", "properties": { "id": "monoparte.5", "Name": null, "description": null, "timestamp": null, "begin": null, "end": null, "altitudeMode": null, "tessellate": -1, "extrude": 0, "visibility": -1, "drawOrder": null, "icon": null, "REG": "Tarapacá", "COM": "Alto Hospicio", "LOCALIDAD": "Alto Hospicio", "ZONA": "Z10", "NOMBRE": "Z10 Zona de Enmienda", "UPERM": "Usos de suelos permitidos y normas urbanísticas asimilables al numeral C2 Equipamiento de la zona Z3 del art. 60 de la Ordenanza Local.", "UPROH": "Todos los no mencionados como permitidos.", "Capa": "PRC Alto Hospicio", "CUT": "01107" }, "geometry": { "type": "Polygon", "coordinates": [ [ [ -70.084317201299299, -20.287311946037601 ], [ -70.086557055030298, -20.289200148774899 ], [ -70.086579166775905, -20.2892187884121 ], [ -70.086601908507902, -20.289237959921198 ], [ -70.087146457796393, -20.2883088746825 ], [ -70.087587468722305, -20.2879510710967 ], [ -70.0884329755864, -20.287780966093099 ], [ -70.089024290956601, -20.287777289709599 ], [ -70.089658686824393, -20.287796812047699 ], [ -70.089709857360404, -20.287798386488401 ], [ -70.088002727490206, -20.286231921754599 ], [ -70.086003722780106, -20.284397569377798 ], [ -70.085987964979793, -20.284424799661501 ], [ -70.084317201299299, -20.287311946037601 ] ] ] } },
{ "type": "Feature", "properties": { "id": "monoparte.6", "Name": null, "description": null, "timestamp": null, "begin": null, "end": null, "altitudeMode": null, "tessellate": -1, "extrude": 0, "visibility": -1, "drawOrder": null, "icon": null, "REG": "Tarapacá", "COM": "Alto Hospicio", "LOCALIDAD": "Alto Hospicio", "ZONA": "Z13", "NOMBRE": "Z13 Zona de Riesgo Farellón Costero", "UPERM": "Parques y Jardines, Miradores, Servicios Higiénicos Públicos, Kioskos Venta Menor en áreas especificamente definidas por los correspondientes estudios técnicos y obras de seguridad requeridas.", "UPROH": "Todos los no mencionados como permitidos.", "Capa": "PRC Alto Hospicio", "CUT": "01107" }, "geometry": { "type": "Polygon", "coordinates": [ [ [ -70.110856531289997, -20.260405291190299 ], [ -70.109769846949106, -20.263035903002599 ], [ -70.108633089677596, -20.262618909791701 ], [ -70.105733084280203, -20.261555064744002 ], [ -70.104346063858003, -20.2610462240497 ], [ -70.104094113205306, -20.260953792335201 ], [ -70.104022565220902, -20.260909866866101 ], [ -70.103990981572693, -20.260953996414401 ], [ -70.103658868342606, -20.2612818757136 ], [ -70.103558719338395, -20.261380747063299 ], [ -70.104083625216404, -20.261838972904499 ], [ -70.105395315879093, -20.262589376675201 ], [ -70.1076122989802, -20.2634604958544 ], [ -70.109529639878801, -20.264586372330101 ], [ -70.109957599739701, -20.265761312854 ], [ -70.109730588360193, -20.269433463732302 ], [ -70.1099004238514, -20.271419895528801 ], [ -70.109964573788602, -20.272828121929301 ], [ -70.110010392818296, -20.273308010791901 ], [ -70.109796158484698, -20.274596245935999 ], [ -70.109180022620393, -20.276664052389901 ], [ -70.108850655745499, -20.277456415871001 ], [ -70.108087596140294, -20.2785044126576 ], [ -70.107854772024695, -20.278818943685401 ], [ -70.107338390159001, -20.279230545998502 ], [ -70.106610187845007, -20.279607188392401 ], [ -70.105669585882794, -20.279867204428701 ], [ -70.105218579818597, -20.280006162822801 ], [ -70.104453494567906, -20.279835370163401 ], [ -70.103943126266898, -20.279858249557901 ], [ -70.103847923125599, -20.280236726192101 ], [ -70.105193206657006, -20.280563507634401 ], [ -70.105671524750406, -20.2809241659204 ], [ -70.105987007769698, -20.2812517552426 ], [ -70.106164025712403, -20.2815859015192 ], [ -70.106280742049407, -20.281909064089501 ], [ -70.106356313150997, -20.282374546400401 ], [ -70.106345840835601, -20.28259622845 ], [ -70.106335328187598, -20.2828122276652 ], [ -70.106322327758903, -20.2828653214852 ], [ -70.106292912802303, -20.282881163322099 ], [ -70.106177166087605, -20.2831833083738 ], [ -70.105993399672002, -20.283528707517501 ], [ -70.105498220048901, -20.283904758908498 ], [ -70.105120209132494, -20.284190423303102 ], [ -70.104931572552303, -20.2843852476948 ], [ -70.104875471864702, -20.284513018386701 ], [ -70.1048891297756, -20.285010165134398 ], [ -70.105044323094006, -20.285458608640901 ], [ -70.105341596121903, -20.285934840812601 ], [ -70.105686652018903, -20.286417217245699 ], [ -70.106138442682905, -20.286977746418401 ], [ -70.106398823009101, -20.2876099078557 ], [ -70.106497564529803, -20.288001639713301 ], [ -70.106778771985304, -20.288563245568799 ], [ -70.107402735898603, -20.289344011853299 ], [ -70.108173432406005, -20.290516202465 ], [ -70.108692651410706, -20.291559196865901 ], [ -70.109499222486605, -20.293274415392698 ], [ -70.110501462391397, -20.2955115277767 ], [ -70.111265210640099, -20.297196825759499 ], [ -70.111645124028698, -20.298884557611 ], [ -70.111665768124794, -20.298933660465401 ], [ -70.111763345521993, -20.298974143097801 ], [ -70.111907423113095, -20.2993302337564 ], [ -70.112004214588893, -20.2994266664512 ], [ -70.112138924411198, -20.2997470781206 ], [ -70.112669799644394, -20.3009207678374 ], [ -70.112794224426906, -20.3011735380739 ], [ -70.112876818644494, -20.301249519220502 ], [ -70.113076510520798, -20.301646236286899 ], [ -70.113151086632598, -20.301682296201601 ], [ -70.115216090936599, -20.303869855115199 ], [ -70.115204359831097, -20.3038746163644 ], [ -70.117363835869895, -20.3037366535013 ], [ -70.117539782543105, -20.303781706393401 ], [ -70.117544290865297, -20.3037840438862 ], [ -70.117421312005902, -20.303569201075899 ], [ -70.117273285512894, -20.303310600435701 ], [ -70.117123409078602, -20.303048766056801 ], [ -70.116913143485107, -20.302945164059 ], [ -70.116865776800296, -20.3029218261083 ], [ -70.1155818194229, -20.3022891861159 ], [ -70.115575123915306, -20.3022891330242 ], [ -70.115459942400904, -20.302229133462401 ], [ -70.114361115926002, -20.300845248322499 ], [ -70.113512680618101, -20.299333319307799 ], [ -70.112757547032501, -20.296809238060298 ], [ -70.110565755252196, -20.292492439685599 ], [ -70.109343489472295, -20.2902241903776 ], [ -70.108349698296493, -20.287100983774501 ], [ -70.108711355797993, -20.2837795258833 ], [ -70.108599170107198, -20.282136456831399 ], [ -70.109621240822605, -20.279822372179598 ], [ -70.111516807871297, -20.2755112407695 ], [ -70.111407981109195, -20.274342319505301 ], [ -70.110562655576501, -20.273241288989901 ], [ -70.110958326396798, -20.2723536688416 ], [ -70.111283396370297, -20.270960716512899 ], [ -70.111044639144694, -20.270361618767499 ], [ -70.111328779866099, -20.267925757813099 ], [ -70.1109352430462, -20.2667586392121 ], [ -70.110662998320194, -20.266159752615799 ], [ -70.110620055201693, -20.264832355807499 ], [ -70.111448190141104, -20.2588209812324 ], [ -70.111903384170503, -20.256889811948199 ], [ -70.112784303674601, -20.253596658387899 ], [ -70.113746147853803, -20.252262882331902 ], [ -70.111193017546398, -20.2512042976111 ], [ -70.1111280749504, -20.251332325783601 ], [ -70.1102586144642, -20.253046352235302 ], [ -70.1097993897789, -20.253903818100099 ], [ -70.108691123114099, -20.256049115657099 ], [ -70.108715597174594, -20.256088107415 ], [ -70.109622631958402, -20.256461704082199 ], [ -70.109981378407397, -20.256628157146402 ], [ -70.110227549815505, -20.256742375567899 ], [ -70.110832468807203, -20.2570230448617 ], [ -70.111273293441698, -20.257778919920401 ], [ -70.110917898873396, -20.259614621870799 ], [ -70.110817863661097, -20.259678478109901 ], [ -70.110856531289997, -20.260405291190299 ] ] ] } },
{ "type": "Feature", "properties": { "id": "monoparte.7", "Name": null, "description": null, "timestamp": null, "begin": null, "end": null, "altitudeMode": null, "tessellate": -1, "extrude": 0, "visibility": -1, "drawOrder": null, "icon": null, "REG": "Tarapacá", "COM": "Alto Hospicio", "LOCALIDAD": "Alto Hospicio", "ZONA": "Z2", "NOMBRE": "Z2 Zona Residencial Mixta", "UPERM": "Vivienda (continua, pareada y aislada, altura media), Equipamiento (regional e interurbano, comunal y vecinal), Actividades Productivas (industria inofensiva, almacenamiento inofensivo, talleres inofensivos y servicios artesanales)", "UPROH": "Todos los no mencionados como permitidos.", "Capa": "PRC Alto Hospicio", "CUT": "01107" }, "geometry": { "type": "Polygon", "coordinates": [ [ [ -70.113151086632598, -20.301682296201601 ], [ -70.113064739157807, -20.301723086708002 ], [ -70.113059511939397, -20.301712466694799 ], [ -70.112747377202695, -20.301917499537101 ], [ -70.112153416384004, -20.3022384514151 ], [ -70.112056081151806, -20.302306512273599 ], [ -70.1118252117179, -20.302467946996501 ], [ -70.111590393290797, -20.302539334914901 ], [ -70.111591049137303, -20.302541056449101 ], [ -70.110610983713798, -20.302955981553001 ], [ -70.109367572889198, -20.3033375292909 ], [ -70.109035467122297, -20.303439435791599 ], [ -70.108466335587394, -20.303614072176298 ], [ -70.107318751658198, -20.303904286456799 ], [ -70.106243644902705, -20.304232765932898 ], [ -70.105977632521501, -20.304315992645801 ], [ -70.1045596263682, -20.304849166688001 ], [ -70.104573666589303, -20.304880955677099 ], [ -70.105812738532904, -20.307686455887801 ], [ -70.107048680982899, -20.307184854053101 ], [ -70.107324543443099, -20.307072894907101 ], [ -70.109959237024398, -20.306003573294401 ], [ -70.1099673756881, -20.306026163575702 ], [ -70.109986616379302, -20.306017895498002 ], [ -70.110315249808806, -20.305876681169199 ], [ -70.110322515655099, -20.3058735586213 ], [ -70.110316822543894, -20.3058584384023 ], [ -70.113380829514796, -20.304614797843598 ], [ -70.115204359831097, -20.3038746163644 ], [ -70.115216090936599, -20.303869855115199 ], [ -70.113151086632598, -20.301682296201601 ] ] ] } },
{ "type": "Feature", "properties": { "id": "monoparte.8", "Name": null, "description": null, "timestamp": null, "begin": null, "end": null, "altitudeMode": null, "tessellate": -1, "extrude": 0, "visibility": -1, "drawOrder": null, "icon": null, "REG": "Tarapacá", "COM": "Alto Hospicio", "LOCALIDAD": "Alto Hospicio", "ZONA": "Z2", "NOMBRE": "Z2 Zona Residencial Mixta", "UPERM": "Vivienda (continua, pareada y aislada, altura media), Equipamiento (regional e interurbano, comunal y vecinal), Actividades Productivas (industria inofensiva, almacenamiento inofensivo, talleres inofensivos y servicios artesanales)", "UPROH": "Todos los no mencionados como permitidos.", "Capa": "PRC Alto Hospicio", "CUT": "01107" }, "geometry": { "type": "Polygon", "coordinates": [ [ [ -70.108825922523195, -20.295920082254199 ], [ -70.109960442246702, -20.2989123931027 ], [ -70.110002250604893, -20.2987276848284 ], [ -70.110616705186004, -20.2987695326382 ], [ -70.110999416696103, -20.298860037819299 ], [ -70.111665768124794, -20.298933660465401 ], [ -70.111645124028698, -20.298884557611 ], [ -70.111265210640099, -20.297196825759499 ], [ -70.110501462391397, -20.2955115277767 ], [ -70.109499222486605, -20.293274415392698 ], [ -70.108692651410706, -20.291559196865901 ], [ -70.108173432406005, -20.290516202465 ], [ -70.107402735898603, -20.289344011853299 ], [ -70.106778771985304, -20.288563245568799 ], [ -70.106497564529803, -20.288001639713301 ], [ -70.106398823009101, -20.2876099078557 ], [ -70.106138442682905, -20.286977746418401 ], [ -70.105686652018903, -20.286417217245699 ], [ -70.105341596121903, -20.285934840812601 ], [ -70.105044323094006, -20.285458608640901 ], [ -70.1048891297756, -20.285010165134398 ], [ -70.104875471864702, -20.284513018386701 ], [ -70.104931572552303, -20.2843852476948 ], [ -70.105120209132494, -20.284190423303102 ], [ -70.105498220048901, -20.283904758908498 ], [ -70.104543987834305, -20.284131615744901 ], [ -70.104658506663696, -20.284791631245302 ], [ -70.104854902189302, -20.285379873751602 ], [ -70.105155513591797, -20.286142359953601 ], [ -70.107818513762098, -20.293283515380899 ], [ -70.108311592747697, -20.2945565222007 ], [ -70.108825922523195, -20.295920082254199 ] ] ] } },
{ "type": "Feature", "properties": { "id": "monoparte.9", "Name": null, "description": null, "timestamp": null, "begin": null, "end": null, "altitudeMode": null, "tessellate": -1, "extrude": 0, "visibility": -1, "drawOrder": null, "icon": null, "REG": "Tarapacá", "COM": "Alto Hospicio", "LOCALIDAD": "Alto Hospicio", "ZONA": "Z2", "NOMBRE": "Z2 Zona Residencial Mixta", "UPERM": "Vivienda (continua, pareada y aislada, altura media), Equipamiento (regional e interurbano, comunal y vecinal), Actividades Productivas (industria inofensiva, almacenamiento inofensivo, talleres inofensivos y servicios artesanales)", "UPROH": "Todos los no mencionados como permitidos.", "Capa": "PRC Alto Hospicio", "CUT": "01107" }, "geometry": { "type": "Polygon", "coordinates": [ [ [ -70.110068296460497, -20.2992458301878 ], [ -70.111120708019001, -20.302062933421499 ], [ -70.111377477899794, -20.301981215182899 ], [ -70.111498011896302, -20.301949376265998 ], [ -70.111754451624904, -20.3017809318651 ], [ -70.111820001762396, -20.301737874396299 ], [ -70.112514975240998, -20.301350452031699 ], [ -70.112794224426906, -20.3011735380739 ], [ -70.112669799644394, -20.3009207678374 ], [ -70.112138924411198, -20.2997470781206 ], [ -70.112004214588893, -20.2994266664512 ], [ -70.111117239468896, -20.299334874993001 ], [ -70.110665877058807, -20.2992448057662 ], [ -70.110324001348204, -20.299223779956701 ], [ -70.110288692077205, -20.2992268246946 ], [ -70.110068296460497, -20.2992458301878 ] ] ] } },
{ "type": "Feature", "properties": { "id": "monoparte.10", "Name": null, "description": null, "timestamp": null, "begin": null, "end": null, "altitudeMode": null, "tessellate": -1, "extrude": 0, "visibility": -1, "drawOrder": null, "icon": null, "REG": "Tarapacá", "COM": "Alto Hospicio", "LOCALIDAD": "Alto Hospicio", "ZONA": "Z3", "NOMBRE": "Z3 Zona Residencial en Densidad Alta", "UPERM": "Vivienda (continua, pareada y aislada, altura media), Equipamiento (regional e interurbano, comunal y vecinal), Actividades Productivas (industria inofensiva, almacenamiento inofensivo, talleres inofensivos y  servicios artesanales)", "UPROH": "Todos los no mencionados como permitidos.", "Capa": "PRC Alto Hospicio", "CUT": "01107" }, "geometry": { "type": "Polygon", "coordinates": [ [ [ -70.102169475618396, -20.255208477275001 ], [ -70.101783095275493, -20.255496319531499 ], [ -70.101803524757599, -20.255493149025401 ], [ -70.101642734096998, -20.255600883387299 ], [ -70.101265095562297, -20.255885312181899 ], [ -70.100935918912199, -20.256169435926601 ], [ -70.100130065888393, -20.2570130408814 ], [ -70.098563724198002, -20.258837172186901 ], [ -70.096973649537802, -20.260737671403099 ], [ -70.095720173372897, -20.262262518649699 ], [ -70.094155278203402, -20.264307676831301 ], [ -70.093754921010998, -20.264813303696901 ], [ -70.093212472856095, -20.265792452357701 ], [ -70.091681701701802, -20.268683548108601 ], [ -70.091489923715102, -20.269092846296701 ], [ -70.0902376568569, -20.268691896080998 ], [ -70.090145611874306, -20.268662324666199 ], [ -70.088138442071198, -20.268017457972299 ], [ -70.087774035366905, -20.268875741736501 ], [ -70.085145871555895, -20.275065553528002 ], [ -70.084438041291193, -20.276737088083099 ], [ -70.084077477539495, -20.2772721207077 ], [ -70.083314782928497, -20.277603394052701 ], [ -70.082877301569198, -20.2775545378075 ], [ -70.082529934303494, -20.277367626416002 ], [ -70.082363747698395, -20.277042097774999 ], [ -70.0816593644481, -20.275276172183499 ], [ -70.081110348879903, -20.274901443226501 ], [ -70.080654782432404, -20.274869879396601 ], [ -70.080110054380398, -20.275113858749801 ], [ -70.079802808903906, -20.2754594959891 ], [ -70.078914139516797, -20.278644594848501 ], [ -70.078491156187596, -20.280692470880702 ], [ -70.078305852794898, -20.281552969008199 ], [ -70.078438461039795, -20.282291200112098 ], [ -70.0794339146684, -20.284003781870101 ], [ -70.079824149533096, -20.285118539782601 ], [ -70.079900816097194, -20.2856680558316 ], [ -70.079860516822706, -20.286424537940199 ], [ -70.079288361627604, -20.287974907541798 ], [ -70.078567503023393, -20.289096513248499 ], [ -70.078173909772005, -20.290130165194601 ], [ -70.078103784111093, -20.290525900929602 ], [ -70.078051205674399, -20.292141815477901 ], [ -70.078626104995493, -20.293616366928099 ], [ -70.079526513661804, -20.294745167098799 ], [ -70.080003093335307, -20.295171905444899 ], [ -70.080615577165503, -20.295494680736599 ], [ -70.081474331542793, -20.2958674943362 ], [ -70.082022112548302, -20.296053167215302 ], [ -70.084463002430297, -20.2960380628883 ], [ -70.086084068834595, -20.2960108253016 ], [ -70.088497631424602, -20.295995833369801 ], [ -70.089099826604198, -20.296146772104201 ], [ -70.089737972273994, -20.296228735674202 ], [ -70.090266223781597, -20.296225446405 ], [ -70.090903648241195, -20.2962042876925 ], [ -70.091377253744895, -20.296201335610501 ], [ -70.091888011896103, -20.296301272971501 ], [ -70.092690942932293, -20.2965025077165 ], [ -70.0935594407037, -20.296961134666699 ], [ -70.094438619670299, -20.297643121664098 ], [ -70.096168386834293, -20.297529175553901 ], [ -70.097280148478703, -20.2976081446654 ], [ -70.098865034873299, -20.297615388985498 ], [ -70.100230360819594, -20.2974865037332 ], [ -70.101842932799897, -20.2975451077406 ], [ -70.1037378477549, -20.297601917639199 ], [ -70.104740439227896, -20.297698714982801 ], [ -70.105868468516107, -20.2975025344243 ], [ -70.106945143536706, -20.297770721127598 ], [ -70.105440658178395, -20.293689721353701 ], [ -70.103872018217004, -20.2895403608692 ], [ -70.102469826354707, -20.2857336743498 ], [ -70.102271893830505, -20.2847896328839 ], [ -70.102234493546604, -20.2846523718501 ], [ -70.102854138996406, -20.284700032529599 ], [ -70.103363283629605, -20.284576515819101 ], [ -70.103834174129403, -20.2841954344246 ], [ -70.104487042316507, -20.283970772190202 ], [ -70.104543987834305, -20.284131615744901 ], [ -70.105498220048901, -20.283904758908498 ], [ -70.105993399672002, -20.283528707517501 ], [ -70.106177166087605, -20.2831833083738 ], [ -70.106292912802303, -20.282881163322099 ], [ -70.106322327758903, -20.2828653214852 ], [ -70.106335328187598, -20.2828122276652 ], [ -70.106345840835601, -20.28259622845 ], [ -70.106356313150997, -20.282374546400401 ], [ -70.106280742049407, -20.281909064089501 ], [ -70.106164025712403, -20.2815859015192 ], [ -70.105987007769698, -20.2812517552426 ], [ -70.105671524750406, -20.2809241659204 ], [ -70.105193206657006, -20.280563507634401 ], [ -70.103847923125599, -20.280236726192101 ], [ -70.103943126266898, -20.279858249557901 ], [ -70.104453494567906, -20.279835370163401 ], [ -70.105218579818597, -20.280006162822801 ], [ -70.105669585882794, -20.279867204428701 ], [ -70.106610187845007, -20.279607188392401 ], [ -70.107338390159001, -20.279230545998502 ], [ -70.107854772024695, -20.278818943685401 ], [ -70.108087596140294, -20.2785044126576 ], [ -70.108850655745499, -20.277456415871001 ], [ -70.109180022620393, -20.276664052389901 ], [ -70.109796158484698, -20.274596245935999 ], [ -70.110010392818296, -20.273308010791901 ], [ -70.109964573788602, -20.272828121929301 ], [ -70.1099004238514, -20.271419895528801 ], [ -70.109730588360193, -20.269433463732302 ], [ -70.109957599739701, -20.265761312854 ], [ -70.109529639878801, -20.264586372330101 ], [ -70.1076122989802, -20.2634604958544 ], [ -70.105395315879093, -20.262589376675201 ], [ -70.104083625216404, -20.261838972904499 ], [ -70.103558719338395, -20.261380747063299 ], [ -70.103658868342606, -20.2612818757136 ], [ -70.103990981572693, -20.260953996414401 ], [ -70.104022565220902, -20.260909866866101 ], [ -70.104937590412604, -20.2596313647527 ], [ -70.105539548224101, -20.2588960879364 ], [ -70.107358505234203, -20.257628898446001 ], [ -70.109216877771999, -20.2564589714483 ], [ -70.109622631958402, -20.256461704082199 ], [ -70.108715597174594, -20.256088107415 ], [ -70.108691123114099, -20.256049115657099 ], [ -70.1064185870854, -20.255091521971 ], [ -70.105856107721294, -20.254989039309301 ], [ -70.105350552734194, -20.254992226964699 ], [ -70.1042708340715, -20.254681245950302 ], [ -70.103849488386402, -20.254559887937301 ], [ -70.102729778291206, -20.2550970883796 ], [ -70.102169475618396, -20.255208477275001 ] ], [ [ -70.094945407924897, -20.274430076106299 ], [ -70.095806148605703, -20.276375861782899 ], [ -70.095901539186301, -20.276350670549299 ], [ -70.096495850217394, -20.277470101892799 ], [ -70.096936403670398, -20.278344549072401 ], [ -70.097129956601506, -20.278687660584801 ], [ -70.097300579340498, -20.278858752783201 ], [ -70.097527557407901, -20.279013096566999 ], [ -70.097737217894505, -20.279175746135198 ], [ -70.098103144997097, -20.279321019859299 ], [ -70.098564290499795, -20.279416506603098 ], [ -70.100720221891194, -20.279778906289401 ], [ -70.100835913574997, -20.280113620065102 ], [ -70.1009936952793, -20.281148265135599 ], [ -70.095553128092703, -20.282968972417699 ], [ -70.094703739610793, -20.284799733185199 ], [ -70.094792067173202, -20.285099185479801 ], [ -70.095106444053002, -20.285095829442 ], [ -70.0955867203959, -20.285010327602802 ], [ -70.095950522599097, -20.284939303043199 ], [ -70.097084477443502, -20.284560962449401 ], [ -70.097637123436897, -20.284406253441801 ], [ -70.098306919897098, -20.284333306047198 ], [ -70.099632132806704, -20.284214993234698 ], [ -70.099636496298501, -20.284833700167201 ], [ -70.098209085136105, -20.284925154789399 ], [ -70.097685290159106, -20.2850384358422 ], [ -70.097132738762099, -20.285206894145499 ], [ -70.095882303472195, -20.285599713797801 ], [ -70.094965944363906, -20.285839189941399 ], [ -70.094559198098807, -20.286020478299498 ], [ -70.094063236175501, -20.2869860533172 ], [ -70.090951940246299, -20.2880091901832 ], [ -70.0906104054026, -20.287701424925402 ], [ -70.089723975494394, -20.286902633054002 ], [ -70.089588123656199, -20.286780210989502 ], [ -70.087873058119897, -20.285133648299599 ], [ -70.087018972818299, -20.284313657218799 ], [ -70.086984126136798, -20.2842802012871 ], [ -70.0869183635497, -20.2842531100335 ], [ -70.088961859197298, -20.280569250884302 ], [ -70.089168146290106, -20.279852985080399 ], [ -70.089234663395004, -20.2789450924462 ], [ -70.089103718198103, -20.2789734060024 ], [ -70.089525169073994, -20.278308818423699 ], [ -70.090774735925393, -20.276226900402499 ], [ -70.091869099506496, -20.274318103685601 ], [ -70.0930314439141, -20.272195723065 ], [ -70.093480926127597, -20.271250126855101 ], [ -70.093993530183795, -20.272493051555202 ], [ -70.094945407924897, -20.274430076106299 ] ], [ [ -70.089746833627402, -20.287806971070701 ], [ -70.090677447304202, -20.288648925585001 ], [ -70.091545559313801, -20.288500478276902 ], [ -70.094706701956099, -20.287312023098998 ], [ -70.095171448466104, -20.287089123489501 ], [ -70.097628816968594, -20.286331256655199 ], [ -70.097977661888507, -20.286205322934698 ], [ -70.099700696809407, -20.285672024823299 ], [ -70.099697501996303, -20.2862463741907 ], [ -70.099568404802696, -20.2862847140049 ], [ -70.095351364635803, -20.287548611009001 ], [ -70.093080572787997, -20.288422154589998 ], [ -70.091590461157907, -20.288929875222799 ], [ -70.090822111343599, -20.289447866545199 ], [ -70.090903474091505, -20.289673201097902 ], [ -70.090252308279403, -20.2903303664094 ], [ -70.089780884275896, -20.2906426680015 ], [ -70.088616568722301, -20.290856156083201 ], [ -70.087102210259303, -20.2905046370491 ], [ -70.086058690807405, -20.289754879839101 ], [ -70.086157195835, -20.289513650136499 ], [ -70.086555765220197, -20.289201809307301 ], [ -70.086557055030298, -20.289200148774899 ], [ -70.084317201299299, -20.287311946037601 ], [ -70.085987964979793, -20.284424799661501 ], [ -70.086003722780106, -20.284397569377798 ], [ -70.088002727490206, -20.286231921754599 ], [ -70.089709857360404, -20.287798386488401 ], [ -70.089746833627402, -20.287806971070701 ] ], [ [ -70.099569980576106, -20.2865081363617 ], [ -70.099696247123006, -20.2864720749028 ], [ -70.099694272308398, -20.286827034774198 ], [ -70.0999044815959, -20.287705691082799 ], [ -70.100446236971294, -20.289342237264702 ], [ -70.096499383799895, -20.290651270857499 ], [ -70.094429850471798, -20.291466148996701 ], [ -70.093477566021093, -20.288667169090001 ], [ -70.093500353338399, -20.288539842820299 ], [ -70.099402607746399, -20.286564165016099 ], [ -70.099569980576106, -20.2865081363617 ] ], [ [ -70.104693583041097, -20.268862623640501 ], [ -70.104284854576207, -20.269215706610801 ], [ -70.104272617640603, -20.269213759851301 ], [ -70.104029689487007, -20.269420846862499 ], [ -70.102548509054699, -20.2706421337401 ], [ -70.102055006679706, -20.270388995408499 ], [ -70.102826849161602, -20.268983712327199 ], [ -70.103156435920098, -20.2683944483367 ], [ -70.102714603432005, -20.2681825379765 ], [ -70.102866658573205, -20.267890710410398 ], [ -70.1033628902712, -20.267492833890401 ], [ -70.104693583041097, -20.268862623640501 ] ] ] } },
{ "type": "Feature", "properties": { "id": "monoparte.11", "Name": null, "description": null, "timestamp": null, "begin": null, "end": null, "altitudeMode": null, "tessellate": -1, "extrude": 0, "visibility": -1, "drawOrder": null, "icon": null, "REG": "Tarapacá", "COM": "Alto Hospicio", "LOCALIDAD": "Alto Hospicio", "ZONA": "Z3", "NOMBRE": "Z3 Zona Residencial en Densidad Alta", "UPERM": "Vivienda (continua, pareada y aislada, altura media), Equipamiento (regional e interurbano, comunal y vecinal), Actividades Productivas (industria inofensiva, almacenamiento inofensivo, talleres inofensivos y  servicios artesanales)", "UPROH": "Todos los no mencionados como permitidos.", "Capa": "PRC Alto Hospicio", "CUT": "01107" }, "geometry": { "type": "Polygon", "coordinates": [ [ [ -70.099510237554597, -20.298062675536301 ], [ -70.098565780485501, -20.298209456690799 ], [ -70.096541698648295, -20.2981965167025 ], [ -70.096271663428595, -20.298194788359002 ], [ -70.094858285535906, -20.2981857361134 ], [ -70.095290017393197, -20.3001717661184 ], [ -70.095323954692404, -20.300718144958498 ], [ -70.094990144495, -20.302786051022501 ], [ -70.094282117259993, -20.3047154448032 ], [ -70.093594833805795, -20.306057827669399 ], [ -70.092557711749805, -20.307191115706999 ], [ -70.094199579021307, -20.3071339059615 ], [ -70.098970906450006, -20.306258897029299 ], [ -70.099482434871604, -20.306127329139301 ], [ -70.099731641734095, -20.306063230246 ], [ -70.101777540603095, -20.305536992244001 ], [ -70.103747052058495, -20.3045219469393 ], [ -70.104083192049998, -20.3043487035828 ], [ -70.105194538561605, -20.303966310045698 ], [ -70.105820710141899, -20.303750853708401 ], [ -70.108850354787606, -20.302910054215499 ], [ -70.107076992866794, -20.298461007759499 ], [ -70.105904788411095, -20.298069340379801 ], [ -70.104711869833693, -20.298264674991199 ], [ -70.101898741195001, -20.298047655834299 ], [ -70.100530161767395, -20.298032790883099 ], [ -70.099510237554597, -20.298062675536301 ] ] ] } },
{ "type": "Feature", "properties": { "id": "monoparte.12", "Name": null, "description": null, "timestamp": null, "begin": null, "end": null, "altitudeMode": null, "tessellate": -1, "extrude": 0, "visibility": -1, "drawOrder": null, "icon": null, "REG": "Tarapacá", "COM": "Alto Hospicio", "LOCALIDAD": "Alto Hospicio", "ZONA": "Z4", "NOMBRE": "Z4 Zona Residencial en Densidad Media", "UPERM": "Vivienda (aislada o pareada en altura media aislada); Equipamiento (regional e interurbano, comunal y vecinal), Actividades Productivas (establecimientos similar al industrial, talleres de caracter inofensivo, servicios artesanales)", "UPROH": "Todos los no mencionados como permitidos.", "Capa": "PRC Alto Hospicio", "CUT": "01107" }, "geometry": { "type": "Polygon", "coordinates": [ [ [ -70.109986616379302, -20.306017895498002 ], [ -70.1099673756881, -20.306026163575702 ], [ -70.109959237024398, -20.306003573294401 ], [ -70.107324543443099, -20.307072894907101 ], [ -70.107048680982899, -20.307184854053101 ], [ -70.105812738532904, -20.307686455887801 ], [ -70.104573666589303, -20.304880955677099 ], [ -70.104143637588194, -20.304999812988601 ], [ -70.103305862342097, -20.305390584897602 ], [ -70.102817984178003, -20.305735092078301 ], [ -70.1023522813379, -20.305914249727401 ], [ -70.101059297070094, -20.306318893062599 ], [ -70.099963515406003, -20.3065460632926 ], [ -70.101210605569605, -20.309556038393701 ], [ -70.101495924752598, -20.310281162651499 ], [ -70.102749225963507, -20.313335139146801 ], [ -70.104026084575906, -20.316410983408002 ], [ -70.104899721335102, -20.318597236957299 ], [ -70.105013318147002, -20.318764934014901 ], [ -70.104998200453196, -20.3187274237319 ], [ -70.1072163220867, -20.3178585273137 ], [ -70.108070204217199, -20.3197409216836 ], [ -70.109325468231404, -20.3225080732532 ], [ -70.108656925589599, -20.322774759195902 ], [ -70.106918118384897, -20.323468364337899 ], [ -70.1070142473624, -20.3237053310887 ], [ -70.108162374854999, -20.326458427797402 ], [ -70.109282745265006, -20.326010612653 ], [ -70.113455287919805, -20.324342749971901 ], [ -70.114054270669499, -20.325946696502701 ], [ -70.114127037076699, -20.326153806759901 ], [ -70.114087671320604, -20.326188435064001 ], [ -70.114075528835102, -20.3261991168736 ], [ -70.114107472125795, -20.326193472421 ], [ -70.1141328303178, -20.326157060408399 ], [ -70.114436126598804, -20.325721559859002 ], [ -70.115263152942504, -20.3245340225211 ], [ -70.116024704683895, -20.323273581017901 ], [ -70.116172608286305, -20.322732957335599 ], [ -70.116269679826104, -20.322440975478401 ], [ -70.116264341731394, -20.3215801664381 ], [ -70.116356544629198, -20.320705229082201 ], [ -70.116285231903902, -20.320529461988802 ], [ -70.116870982079405, -20.317551973715801 ], [ -70.117254070316093, -20.314807069906099 ], [ -70.117726193159598, -20.311455832754501 ], [ -70.117774378511996, -20.310849760570399 ], [ -70.117266129148106, -20.308352853888898 ], [ -70.116643602267601, -20.3053830764323 ], [ -70.116460134993005, -20.305031801889999 ], [ -70.1163569944476, -20.3049348423643 ], [ -70.115284805482403, -20.303926892883901 ], [ -70.115204359831097, -20.3038746163644 ], [ -70.113380829514796, -20.304614797843598 ], [ -70.110316822543894, -20.3058584384023 ], [ -70.110322515655099, -20.3058735586213 ], [ -70.110315249808806, -20.305876681169199 ], [ -70.109986616379302, -20.306017895498002 ] ] ] } },
{ "type": "Feature", "properties": { "id": "monoparte.13", "Name": null, "description": null, "timestamp": null, "begin": null, "end": null, "altitudeMode": null, "tessellate": -1, "extrude": 0, "visibility": -1, "drawOrder": null, "icon": null, "REG": "Tarapacá", "COM": "Alto Hospicio", "LOCALIDAD": "Alto Hospicio", "ZONA": "Z8", "NOMBRE": "Z8 Zona Industrial Mixta. Alto Molle", "UPERM": "Vivienda (aislada o pareada en altura media aislada), Equipamiento (regional e interurbano, comunal y vecinal), Actividades Productivas (industria, talleres y almacenamiento inofensivo y molesto, servicios artesanales)", "UPROH": "Todos los no mencionados como permitidos.", "Capa": "PRC Alto Hospicio", "CUT": "01107" }, "geometry": { "type": "Polygon", "coordinates": [ [ [ -70.090774735925393, -20.276226900402499 ], [ -70.089525169073994, -20.278308818423699 ], [ -70.089103718198103, -20.2789734060024 ], [ -70.089234663395004, -20.2789450924462 ], [ -70.089168146290106, -20.279852985080399 ], [ -70.088961859197298, -20.280569250884302 ], [ -70.0869183635497, -20.2842531100335 ], [ -70.086984126136798, -20.2842802012871 ], [ -70.087018972818299, -20.284313657218799 ], [ -70.087873058119897, -20.285133648299599 ], [ -70.089588123656199, -20.286780210989502 ], [ -70.089723975494394, -20.286902633054002 ], [ -70.0906104054026, -20.287701424925402 ], [ -70.090951940246299, -20.2880091901832 ], [ -70.094063236175501, -20.2869860533172 ], [ -70.094559198098807, -20.286020478299498 ], [ -70.094792067173202, -20.285099185479801 ], [ -70.094703739610793, -20.284799733185199 ], [ -70.095553128092703, -20.282968972417699 ], [ -70.1009936952793, -20.281148265135599 ], [ -70.100835913574997, -20.280113620065102 ], [ -70.100720221891194, -20.279778906289401 ], [ -70.098564290499795, -20.279416506603098 ], [ -70.098103144997097, -20.279321019859299 ], [ -70.097737217894505, -20.279175746135198 ], [ -70.097527557407901, -20.279013096566999 ], [ -70.097300579340498, -20.278858752783201 ], [ -70.097129956601506, -20.278687660584801 ], [ -70.096936403670398, -20.278344549072401 ], [ -70.096495850217394, -20.277470101892799 ], [ -70.095901539186301, -20.276350670549299 ], [ -70.095806148605703, -20.276375861782899 ], [ -70.094945407924897, -20.274430076106299 ], [ -70.093993530183795, -20.272493051555202 ], [ -70.093480926127597, -20.271250126855101 ], [ -70.0930314439141, -20.272195723065 ], [ -70.091869099506496, -20.274318103685601 ], [ -70.090774735925393, -20.276226900402499 ] ] ] } },
{ "type": "Feature", "properties": { "id": "monoparte.14", "Name": null, "description": null, "timestamp": null, "begin": null, "end": null, "altitudeMode": null, "tessellate": -1, "extrude": 0, "visibility": -1, "drawOrder": null, "icon": null, "REG": "Tarapacá", "COM": "Alto Hospicio", "LOCALIDAD": "Alto Hospicio", "ZONA": "Z9", "NOMBRE": "Z9 Zona de Tratamiento de Aguas Servidas", "UPERM": "Exclusivo de Planta deTratamiento de Aguas Servidas.", "UPROH": "Todos los no mencionados como permitidos.", "Capa": "PRC Alto Hospicio", "CUT": "01107" }, "geometry": { "type": "Polygon", "coordinates": [ [ [ -70.096804843845803, -20.258094258678501 ], [ -70.096835949568799, -20.258096903832399 ], [ -70.097168684392102, -20.257737601656501 ], [ -70.098908108464798, -20.2559508142871 ], [ -70.099479823621294, -20.255743104450101 ], [ -70.100602844386998, -20.255501313973799 ], [ -70.100710293433593, -20.255498557799001 ], [ -70.1003026399041, -20.2534511830581 ], [ -70.100114402859901, -20.2533109892155 ], [ -70.098297170892394, -20.253181006214898 ], [ -70.096423262821006, -20.253058328344899 ], [ -70.096423104209293, -20.253268392349099 ], [ -70.096708990993093, -20.257041696838002 ], [ -70.096804843845803, -20.258094258678501 ] ] ] } },
{ "type": "Feature", "properties": { "id": "monoparte.15", "Name": null, "description": null, "timestamp": null, "begin": null, "end": null, "altitudeMode": null, "tessellate": -1, "extrude": 0, "visibility": -1, "drawOrder": null, "icon": null, "REG": "Tarapacá", "COM": "Alto Hospicio", "LOCALIDAD": "Alto Hospicio", "ZONA": "Z9", "NOMBRE": "Z9 Zona de Tratamiento de Aguas Servidas", "UPERM": "Exclusivo de Planta deTratamiento de Aguas Servidas.", "UPROH": "Todos los no mencionados como permitidos.", "Capa": "PRC Alto Hospicio", "CUT": "01107" }, "geometry": { "type": "Polygon", "coordinates": [ [ [ -70.118244808201993, -20.317750815358401 ], [ -70.120574472840204, -20.318386209984201 ], [ -70.121487224679299, -20.315338252145999 ], [ -70.119169444824095, -20.314724836346102 ], [ -70.118244808201993, -20.317750815358401 ] ] ] } },
{ "type": "Feature", "properties": { "id": "monoparte.16", "Name": null, "description": null, "timestamp": null, "begin": null, "end": null, "altitudeMode": null, "tessellate": -1, "extrude": 0, "visibility": -1, "drawOrder": null, "icon": null, "REG": "Tarapacá", "COM": "Alto Hospicio", "LOCALIDAD": "Alto Hospicio", "ZONA": "Z1-1", "NOMBRE": "Z1-1 Zona de Equipamiento", "UPERM": "Equipamiento ( comunal y vecinal),  Actividad Productiva (servicio artesanal)", "UPROH": "Todos los no mencionados como permitidos.", "Capa": "PRC Alto Hospicio", "CUT": "01107" }, "geometry": { "type": "Polygon", "coordinates": [ [ [ -70.102826849161602, -20.268983712327199 ], [ -70.102055006679706, -20.270388995408499 ], [ -70.102548509054699, -20.2706421337401 ], [ -70.104029689487007, -20.269420846862499 ], [ -70.104272617640603, -20.269213759851301 ], [ -70.104284854576207, -20.269215706610801 ], [ -70.104693583041097, -20.268862623640501 ], [ -70.1033628902712, -20.267492833890401 ], [ -70.102866658573205, -20.267890710410398 ], [ -70.102714603432005, -20.2681825379765 ], [ -70.103156435920098, -20.2683944483367 ], [ -70.102826849161602, -20.268983712327199 ] ] ] } },
{ "type": "Feature", "properties": { "id": "monoparte.17", "Name": null, "description": null, "timestamp": null, "begin": null, "end": null, "altitudeMode": null, "tessellate": -1, "extrude": 0, "visibility": -1, "drawOrder": null, "icon": null, "REG": "Tarapacá", "COM": "Alto Hospicio", "LOCALIDAD": "Alto Hospicio", "ZONA": "Z1-2", "NOMBRE": "Z1-2 Zona de Equipamiento", "UPERM": "Vivienda (altura media en extensión), Equipamiento (regional e interurbano, comunal y vecinal) y Actividad de Servicios Artesanales", "UPROH": "Todos los no mencionados como permitidos.", "Capa": "PRC Alto Hospicio", "CUT": "01107" }, "geometry": { "type": "Polygon", "coordinates": [ [ [ -70.105013318147002, -20.318764934014901 ], [ -70.106910245489502, -20.3234715041695 ], [ -70.106918118384897, -20.323468364337899 ], [ -70.108656925589599, -20.322774759195902 ], [ -70.109325468231404, -20.3225080732532 ], [ -70.108070204217199, -20.3197409216836 ], [ -70.1072163220867, -20.3178585273137 ], [ -70.104998200453196, -20.3187274237319 ], [ -70.105013318147002, -20.318764934014901 ] ] ] } },
{ "type": "Feature", "properties": { "id": "monoparte.18", "Name": null, "description": null, "timestamp": null, "begin": null, "end": null, "altitudeMode": null, "tessellate": -1, "extrude": 0, "visibility": -1, "drawOrder": null, "icon": null, "REG": "Tarapacá", "COM": "Alto Hospicio", "LOCALIDAD": "Alto Hospicio", "ZONA": "Z11", "NOMBRE": "Z11 Zona Estación Ferroviaria", "UPERM": "Uso exclusivo para el movimiento ferroviario de transporte y transferencia de carga ferroviaria y pasajeros", "UPROH": "Todos los no mencionados como permitidos.", "Capa": "PRC Alto Hospicio", "CUT": "01107" }, "geometry": { "type": "Polygon", "coordinates": [ [ [ -70.104840172769499, -20.330287712852801 ], [ -70.104544626043804, -20.330398962663601 ], [ -70.1042740703177, -20.330400671979302 ], [ -70.103629801525202, -20.330392586676801 ], [ -70.105313815749099, -20.3334810866377 ], [ -70.109885906454394, -20.331410329469499 ], [ -70.109638833021606, -20.3300562784238 ], [ -70.108979013936604, -20.328459851651299 ], [ -70.108667451755295, -20.328574147091398 ], [ -70.106984906068305, -20.329314019163402 ], [ -70.104840172769499, -20.330287712852801 ] ] ] } },
{ "type": "Feature", "properties": { "id": "monoparte.19", "Name": null, "description": null, "timestamp": null, "begin": null, "end": null, "altitudeMode": null, "tessellate": -1, "extrude": 0, "visibility": -1, "drawOrder": null, "icon": null, "REG": "Tarapacá", "COM": "Alto Hospicio", "LOCALIDAD": "Alto Hospicio", "ZONA": "Z12", "NOMBRE": "Z12 Zona Expo- Feria Internacional", "UPERM": "Centro de Exposición y Feria Internacional de Productos y Servicios, Centros de Eventos, Conferencia y Similares, Áreas Verdes.", "UPROH": "Todos los no mencionados como permitidos.", "Capa": "PRC Alto Hospicio", "CUT": "01107" }, "geometry": { "type": "Polygon", "coordinates": [ [ [ -70.108979013936604, -20.328459851651299 ], [ -70.109638833021606, -20.3300562784238 ], [ -70.110454127481503, -20.329587773832301 ], [ -70.1114852253571, -20.328770399236301 ], [ -70.113449123850799, -20.3267501533056 ], [ -70.114075528835102, -20.3261991168736 ], [ -70.114087671320604, -20.326188435064001 ], [ -70.114127037076699, -20.326153806759901 ], [ -70.114054270669499, -20.325946696502701 ], [ -70.113455287919805, -20.324342749971901 ], [ -70.109282745265006, -20.326010612653 ], [ -70.108162374854999, -20.326458427797402 ], [ -70.108153322327396, -20.326462045892601 ], [ -70.108979013936604, -20.328459851651299 ] ] ] } },
{ "type": "Feature", "properties": { "id": "monoparte.20", "Name": null, "description": null, "timestamp": null, "begin": null, "end": null, "altitudeMode": null, "tessellate": -1, "extrude": 0, "visibility": -1, "drawOrder": null, "icon": null, "REG": "Tarapacá", "COM": "Alto Hospicio", "LOCALIDAD": "Alto Hospicio", "ZONA": "Z5", "NOMBRE": "Z5 Zona Deportiva - Industrial", "UPERM": "Residencial (locales de hospedaje, viviendas unifamiliares complementarias al uso); Infraestructura (inofensiva); Equipamiento (cultura, cientifico,comercio, deporte, esparcimiento, seguridad, servicio, social ); Espacio Público.", "UPROH": "Todos los no mencionados como permitidos.", "Capa": "PRC Alto Hospicio", "CUT": "01107" }, "geometry": { "type": "Polygon", "coordinates": [ [ [ -70.092491174935603, -20.252807703991301 ], [ -70.092630283605203, -20.252809954436199 ], [ -70.093264862743197, -20.245825608540901 ], [ -70.093150606802396, -20.245809367905601 ], [ -70.081609971003303, -20.247440902006499 ], [ -70.081624091102995, -20.2521036457896 ], [ -70.086517384853394, -20.2524207573762 ], [ -70.091868833679698, -20.252767401631399 ], [ -70.092491174935603, -20.252807703991301 ] ] ] } },
{ "type": "Feature", "properties": { "id": "monoparte.21", "Name": null, "description": null, "timestamp": null, "begin": null, "end": null, "altitudeMode": null, "tessellate": -1, "extrude": 0, "visibility": -1, "drawOrder": null, "icon": null, "REG": "Tarapacá", "COM": "Alto Hospicio", "LOCALIDAD": "Alto Hospicio", "ZONA": "Z7", "NOMBRE": "Z7 Zona Industrial Exclusiva", "UPERM": "Equipamientos clase: Salud sólo cementerios y crematorios, Científico,comercio, Culto y Cultura, Deporte, Educación: sólo Superior y Técnica, Esparcimiento, Seguridad, Servicios, Social y edificaciones y locales destinados al Hospeda", "UPROH": "Todos los no mencionados como permitidos.", "Capa": "PRC Alto Hospicio", "CUT": "01107" }, "geometry": { "type": "Polygon", "coordinates": [ [ [ -70.063727754684393, -20.2538873999755 ], [ -70.062215488807496, -20.256722571805401 ], [ -70.060363824172398, -20.260156097093699 ], [ -70.062267852191297, -20.262400186199201 ], [ -70.063624761088803, -20.263973480797201 ], [ -70.065722237283097, -20.263351465878301 ], [ -70.067658363145398, -20.262237803714001 ], [ -70.068602599365704, -20.261713518175799 ], [ -70.070083595121304, -20.261341511399401 ], [ -70.071538803177305, -20.261215952569302 ], [ -70.072858786884197, -20.2614023286371 ], [ -70.073383157530401, -20.261749127222298 ], [ -70.073506064005798, -20.262642840121401 ], [ -70.073664649939005, -20.263730783591701 ], [ -70.073858739086404, -20.263988860708899 ], [ -70.074794581523904, -20.264242389941899 ], [ -70.076063491289602, -20.264986473117901 ], [ -70.077888105887496, -20.2656363877004 ], [ -70.083044388576397, -20.267341674602999 ], [ -70.087271032559798, -20.268689605326301 ], [ -70.087774035366905, -20.268875741736501 ], [ -70.088138442071198, -20.268017457972299 ], [ -70.090145611874306, -20.268662324666199 ], [ -70.090399691589795, -20.268203490716399 ], [ -70.090541659506698, -20.267878526954998 ], [ -70.090839059006399, -20.2671896261811 ], [ -70.091054363339495, -20.264582679772499 ], [ -70.091197414408995, -20.264413268107301 ], [ -70.093718850588601, -20.2605993325834 ], [ -70.094330690279094, -20.259701052399599 ], [ -70.095109532401096, -20.2591128447906 ], [ -70.096424601693599, -20.258599059525501 ], [ -70.096805737126402, -20.258104074305699 ], [ -70.096804843845803, -20.258094258678501 ], [ -70.096708990993093, -20.257041696838002 ], [ -70.096423104209293, -20.253268392349099 ], [ -70.096423262821006, -20.253058328344899 ], [ -70.092630283605203, -20.252809954436199 ], [ -70.092491174935603, -20.252807703991301 ], [ -70.091868833679698, -20.252767401631399 ], [ -70.091849725121804, -20.252951294227401 ], [ -70.091621697028998, -20.2551017251795 ], [ -70.086443059616997, -20.254931874417299 ], [ -70.086492394724502, -20.252607015355199 ], [ -70.086517384853394, -20.2524207573762 ], [ -70.081624091102995, -20.2521036457896 ], [ -70.081609971003303, -20.247440902006499 ], [ -70.081546568502901, -20.2474393648539 ], [ -70.079934449064595, -20.247695600409099 ], [ -70.075399771183896, -20.248397553057298 ], [ -70.070562613905295, -20.249062347096899 ], [ -70.066034710121897, -20.249764020139001 ], [ -70.065498546119798, -20.250700637104099 ], [ -70.063727754684393, -20.2538873999755 ] ] ] } },
{ "type": "Feature", "properties": { "id": "monoparte.22", "Name": null, "description": null, "timestamp": null, "begin": null, "end": null, "altitudeMode": null, "tessellate": -1, "extrude": 0, "visibility": -1, "drawOrder": null, "icon": null, "REG": "Tarapacá", "COM": "Alto Hospicio", "LOCALIDAD": "Alto Hospicio", "ZONA": "Z7", "NOMBRE": "Z7 Zona Industrial Exclusiva", "UPERM": "Equipamientos clase: Salud sólo cementerios y crematorios, Científico,comercio, Culto y Cultura, Deporte, Educación: sólo Superior y Técnica, Esparcimiento, Seguridad, Servicios, Social y edificaciones y locales destinados al Hospeda", "UPROH": "Todos los no mencionados como permitidos.", "Capa": "PRC Alto Hospicio", "CUT": "01107" }, "geometry": { "type": "Polygon", "coordinates": [ [ [ -70.080037905608293, -20.323175702689401 ], [ -70.0803802736324, -20.323864699213399 ], [ -70.080597815485206, -20.324161481672299 ], [ -70.080814040324199, -20.3242685541566 ], [ -70.081115982531003, -20.324307341070401 ], [ -70.085958045187496, -20.3244399496479 ], [ -70.089442352915398, -20.3245402352882 ], [ -70.0900627916036, -20.3249293521847 ], [ -70.092026199314105, -20.326312871019301 ], [ -70.096898909797204, -20.329765012548101 ], [ -70.0973312039673, -20.329952015505 ], [ -70.097934734377603, -20.329975328531798 ], [ -70.103258582721807, -20.3301586266846 ], [ -70.103629801525202, -20.330392586676801 ], [ -70.1042740703177, -20.330400671979302 ], [ -70.104544626043804, -20.330398962663601 ], [ -70.104840172769499, -20.330287712852801 ], [ -70.106984906068305, -20.329314019163402 ], [ -70.108667451755295, -20.328574147091398 ], [ -70.108979013936604, -20.328459851651299 ], [ -70.108153322327396, -20.326462045892601 ], [ -70.108162374854999, -20.326458427797402 ], [ -70.1070142473624, -20.3237053310887 ], [ -70.106918118384897, -20.323468364337899 ], [ -70.106910245489502, -20.3234715041695 ], [ -70.105013318147002, -20.318764934014901 ], [ -70.104899721335102, -20.318597236957299 ], [ -70.104026084575906, -20.316410983408002 ], [ -70.102749225963507, -20.313335139146801 ], [ -70.101495924752598, -20.310281162651499 ], [ -70.101210605569605, -20.309556038393701 ], [ -70.099963515406003, -20.3065460632926 ], [ -70.0996731516165, -20.306615764559801 ], [ -70.098297260350805, -20.307044492412299 ], [ -70.096589481403996, -20.307258471841099 ], [ -70.094121877383799, -20.307680455167699 ], [ -70.092987660731893, -20.307755300075499 ], [ -70.092312780659597, -20.307786617187801 ], [ -70.091753090989101, -20.307857866513999 ], [ -70.090460620880705, -20.308922919883099 ], [ -70.088717391064904, -20.310234692003899 ], [ -70.086572234633707, -20.311589597186501 ], [ -70.082790311013099, -20.3140929200828 ], [ -70.081288320735396, -20.314996591860901 ], [ -70.080537129823597, -20.315421321642098 ], [ -70.079965579966995, -20.3158584910774 ], [ -70.079367365987807, -20.316593949444002 ], [ -70.078999723611005, -20.317436393569299 ], [ -70.078408446411103, -20.319174598124501 ], [ -70.078367231273504, -20.319445876590802 ], [ -70.078411451141704, -20.319608218335102 ], [ -70.080037905608293, -20.323175702689401 ] ] ] } },
{ "type": "Feature", "properties": { "id": "monoparte.23", "Name": null, "description": null, "timestamp": null, "begin": null, "end": null, "altitudeMode": null, "tessellate": -1, "extrude": 0, "visibility": -1, "drawOrder": null, "icon": null, "REG": "Tarapacá", "COM": "Alto Hospicio", "LOCALIDAD": "Alto Hospicio", "ZONA": "Z7-1", "NOMBRE": "Z7-1 Zona Industrial Mixta. El Boro", "UPERM": "comercio, Culto y Cultura, Deporte, Educación: sólo Superior y Técnica, Esparcimiento, Seguridad, Servicios, Social y edificaciones y locales destinados al Hospedaje", "UPROH": "Todos los no mencionados como permitidos.", "Capa": "PRC Alto Hospicio", "CUT": "01107" }, "geometry": { "type": "Polygon", "coordinates": [ [ [ -70.1003026399041, -20.2534511830581 ], [ -70.100710293433593, -20.255498557799001 ], [ -70.102169475618396, -20.255208477275001 ], [ -70.102729778291206, -20.2550970883796 ], [ -70.103849488386402, -20.254559887937301 ], [ -70.1042708340715, -20.254681245950302 ], [ -70.105350552734194, -20.254992226964699 ], [ -70.105856107721294, -20.254989039309301 ], [ -70.1064185870854, -20.255091521971 ], [ -70.108691123114099, -20.256049115657099 ], [ -70.1097993897789, -20.253903818100099 ], [ -70.1102586144642, -20.253046352235302 ], [ -70.1111280749504, -20.251332325783601 ], [ -70.109335151328594, -20.250496098413301 ], [ -70.100243367839596, -20.246365145817698 ], [ -70.098590253850006, -20.2455979453913 ], [ -70.098119068613002, -20.2451590995781 ], [ -70.093264862743197, -20.245825608540901 ], [ -70.092630283605203, -20.252809954436199 ], [ -70.096423262821006, -20.253058328344899 ], [ -70.098297170892394, -20.253181006214898 ], [ -70.100114402859901, -20.2533109892155 ], [ -70.1003026399041, -20.2534511830581 ] ] ] } },
{ "type": "Feature", "properties": { "id": "monoparte.24", "Name": null, "description": null, "timestamp": null, "begin": null, "end": null, "altitudeMode": null, "tessellate": -1, "extrude": 0, "visibility": -1, "drawOrder": null, "icon": null, "REG": "Tarapacá", "COM": "Alto Hospicio", "LOCALIDAD": "Alto Hospicio", "ZONA": "Z13", "NOMBRE": "Z13 Zona de Riesgo Farellón Costero", "UPERM": "Parques y Jardines, Miradores, Servicios Higiénicos Públicos, Kioskos Venta Menor en áreas especificamente definidas por los correspondientes estudios técnicos y obras de seguridad requeridas.", "UPROH": "Todos los no mencionados como permitidos.", "Capa": "PRC Alto Hospicio", "CUT": "01107" }, "geometry": { "type": "Polygon", "coordinates": [ [ [ -70.116264341731394, -20.3215801664381 ], [ -70.116269679826104, -20.322440975478401 ], [ -70.116736446317603, -20.321036964765501 ], [ -70.117210251091095, -20.3182011626171 ], [ -70.117755425333897, -20.3147194605511 ], [ -70.118280856793703, -20.313783796070599 ], [ -70.1186927710351, -20.312920571867199 ], [ -70.118751525443002, -20.310517714242799 ], [ -70.118686985067896, -20.306824757940699 ], [ -70.1184251019383, -20.305002071147602 ], [ -70.117811800179794, -20.3042707952157 ], [ -70.117820873588499, -20.304267228039102 ], [ -70.117761749666002, -20.304163940104999 ], [ -70.117544290865297, -20.3037840438862 ], [ -70.117539782543105, -20.303781706393401 ], [ -70.117363835869895, -20.3037366535013 ], [ -70.115204359831097, -20.3038746163644 ], [ -70.115284805482403, -20.303926892883901 ], [ -70.1163569944476, -20.3049348423643 ], [ -70.116460134993005, -20.305031801889999 ], [ -70.116643602267601, -20.3053830764323 ], [ -70.117266129148106, -20.308352853888898 ], [ -70.117774378511996, -20.310849760570399 ], [ -70.117726193159598, -20.311455832754501 ], [ -70.117254070316093, -20.314807069906099 ], [ -70.116870982079405, -20.317551973715801 ], [ -70.116285231903902, -20.320529461988802 ], [ -70.116356544629198, -20.320705229082201 ], [ -70.116264341731394, -20.3215801664381 ] ] ] } },
{ "type": "Feature", "properties": { "id": "monoparte.25", "Name": null, "description": null, "timestamp": null, "begin": null, "end": null, "altitudeMode": null, "tessellate": -1, "extrude": 0, "visibility": -1, "drawOrder": null, "icon": null, "REG": "Tarapacá", "COM": "Alto Hospicio", "LOCALIDAD": "Alto Hospicio", "ZONA": "Z6", "NOMBRE": "Z6 Zona de Equipamiento y Parque", "UPERM": "Vivienda (cuidadores y guardaparques); Equipamiento (educación, cultura, esparcimiento mínimo necesario suficiente, deportes); Áreas Verdes (forestal, jardinería paisajismo y cultivos experimental docente)", "UPROH": "Todos los no mencionados como permitidos.", "Capa": "PRC Alto Hospicio", "CUT": "01107" }, "geometry": { "type": "Polygon", "coordinates": [ [ [ -70.100602844386998, -20.255501313973799 ], [ -70.099479823621294, -20.255743104450101 ], [ -70.098908108464798, -20.2559508142871 ], [ -70.097168684392102, -20.257737601656501 ], [ -70.096835949568799, -20.258096903832399 ], [ -70.096804843845803, -20.258094258678501 ], [ -70.096805737126402, -20.258104074305699 ], [ -70.096424601693599, -20.258599059525501 ], [ -70.095109532401096, -20.2591128447906 ], [ -70.094330690279094, -20.259701052399599 ], [ -70.093718850588601, -20.2605993325834 ], [ -70.091197414408995, -20.264413268107301 ], [ -70.091054363339495, -20.264582679772499 ], [ -70.090839059006399, -20.2671896261811 ], [ -70.090541659506698, -20.267878526954998 ], [ -70.090399691589795, -20.268203490716399 ], [ -70.090145611874306, -20.268662324666199 ], [ -70.0902376568569, -20.268691896080998 ], [ -70.091489923715102, -20.269092846296701 ], [ -70.091681701701802, -20.268683548108601 ], [ -70.093212472856095, -20.265792452357701 ], [ -70.093754921010998, -20.264813303696901 ], [ -70.094155278203402, -20.264307676831301 ], [ -70.095720173372897, -20.262262518649699 ], [ -70.096973649537802, -20.260737671403099 ], [ -70.098563724198002, -20.258837172186901 ], [ -70.100130065888393, -20.2570130408814 ], [ -70.100935918912199, -20.256169435926601 ], [ -70.101265095562297, -20.255885312181899 ], [ -70.101642734096998, -20.255600883387299 ], [ -70.101803524757599, -20.255493149025401 ], [ -70.101783095275493, -20.255496319531499 ], [ -70.102169475618396, -20.255208477275001 ], [ -70.100710293433593, -20.255498557799001 ], [ -70.100602844386998, -20.255501313973799 ] ] ] } },
{ "type": "Feature", "properties": { "id": "monoparte.26", "Name": null, "description": null, "timestamp": null, "begin": null, "end": null, "altitudeMode": null, "tessellate": -1, "extrude": 0, "visibility": -1, "drawOrder": null, "icon": null, "REG": "Tarapacá", "COM": "Alto Hospicio", "LOCALIDAD": "Alto Hospicio", "ZONA": "Z6", "NOMBRE": "Z6 Zona de Equipamiento y Parque", "UPERM": "Vivienda (cuidadores y guardaparques); Equipamiento (educación, cultura, esparcimiento mínimo necesario suficiente, deportes); Áreas Verdes (forestal, jardinería paisajismo y cultivos experimental docente)", "UPROH": "Todos los no mencionados como permitidos.", "Capa": "PRC Alto Hospicio", "CUT": "01107" }, "geometry": { "type": "Polygon", "coordinates": [ [ [ -70.093477566021093, -20.288667169090001 ], [ -70.094429850471798, -20.291466148996701 ], [ -70.096499383799895, -20.290651270857499 ], [ -70.100446236971294, -20.289342237264702 ], [ -70.0999044815959, -20.287705691082799 ], [ -70.099694272308398, -20.286827034774198 ], [ -70.099696247123006, -20.2864720749028 ], [ -70.099569980576106, -20.2865081363617 ], [ -70.099402607746399, -20.286564165016099 ], [ -70.093500353338399, -20.288539842820299 ], [ -70.093477566021093, -20.288667169090001 ] ] ] } },
{ "type": "Feature", "properties": { "id": "monoparte.27", "Name": null, "description": null, "timestamp": null, "begin": null, "end": null, "altitudeMode": null, "tessellate": -1, "extrude": 0, "visibility": -1, "drawOrder": null, "icon": null, "REG": "Tarapacá", "COM": "Alto Hospicio", "LOCALIDAD": "Alto Hospicio", "ZONA": "Z6", "NOMBRE": "Z6 Zona de Equipamiento y Parque", "UPERM": "Vivienda (cuidadores y guardaparques); Equipamiento (educación, cultura, esparcimiento mínimo necesario suficiente, deportes); Áreas Verdes (forestal, jardinería paisajismo y cultivos experimental docente)", "UPROH": "Todos los no mencionados como permitidos.", "Capa": "PRC Alto Hospicio", "CUT": "01107" }, "geometry": { "type": "Polygon", "coordinates": [ [ [ -70.091545559313801, -20.288500478276902 ], [ -70.090677447304202, -20.288648925585001 ], [ -70.089746833627402, -20.287806971070701 ], [ -70.089709857360404, -20.287798386488401 ], [ -70.089658686824393, -20.287796812047699 ], [ -70.089024290956601, -20.287777289709599 ], [ -70.0884329755864, -20.287780966093099 ], [ -70.087587468722305, -20.2879510710967 ], [ -70.087146457796393, -20.2883088746825 ], [ -70.086601908507902, -20.289237959921198 ], [ -70.086579166775905, -20.2892187884121 ], [ -70.086557055030298, -20.289200148774899 ], [ -70.086555765220197, -20.289201809307301 ], [ -70.086157195835, -20.289513650136499 ], [ -70.086058690807405, -20.289754879839101 ], [ -70.087102210259303, -20.2905046370491 ], [ -70.088616568722301, -20.290856156083201 ], [ -70.089780884275896, -20.2906426680015 ], [ -70.090252308279403, -20.2903303664094 ], [ -70.090903474091505, -20.289673201097902 ], [ -70.090822111343599, -20.289447866545199 ], [ -70.091590461157907, -20.288929875222799 ], [ -70.093080572787997, -20.288422154589998 ], [ -70.095351364635803, -20.287548611009001 ], [ -70.099568404802696, -20.2862847140049 ], [ -70.099697501996303, -20.2862463741907 ], [ -70.099700696809407, -20.285672024823299 ], [ -70.097977661888507, -20.286205322934698 ], [ -70.097628816968594, -20.286331256655199 ], [ -70.095171448466104, -20.287089123489501 ], [ -70.094706701956099, -20.287312023098998 ], [ -70.091545559313801, -20.288500478276902 ] ] ] } },
{ "type": "Feature", "properties": { "id": "monoparte.28", "Name": null, "description": null, "timestamp": null, "begin": null, "end": null, "altitudeMode": null, "tessellate": -1, "extrude": 0, "visibility": -1, "drawOrder": null, "icon": null, "REG": "Tarapacá", "COM": "Alto Hospicio", "LOCALIDAD": "Alto Hospicio", "ZONA": "Z6", "NOMBRE": "Z6 Zona de Equipamiento y Parque", "UPERM": "Vivienda (cuidadores y guardaparques); Equipamiento (educación, cultura, esparcimiento mínimo necesario suficiente, deportes); Áreas Verdes (forestal, jardinería paisajismo y cultivos experimental docente)", "UPROH": "Todos los no mencionados como permitidos.", "Capa": "PRC Alto Hospicio", "CUT": "01107" }, "geometry": { "type": "Polygon", "coordinates": [ [ [ -70.112514975240998, -20.301350452031699 ], [ -70.111820001762396, -20.301737874396299 ], [ -70.111754451624904, -20.3017809318651 ], [ -70.111498011896302, -20.301949376265998 ], [ -70.111377477899794, -20.301981215182899 ], [ -70.111120708019001, -20.302062933421499 ], [ -70.111015292228899, -20.302101955674601 ], [ -70.109495574626195, -20.302664509463899 ], [ -70.109107542792998, -20.3027379206716 ], [ -70.108850354787606, -20.302910054215499 ], [ -70.105820710141899, -20.303750853708401 ], [ -70.105194538561605, -20.303966310045698 ], [ -70.104083192049998, -20.3043487035828 ], [ -70.103747052058495, -20.3045219469393 ], [ -70.101777540603095, -20.305536992244001 ], [ -70.099731641734095, -20.306063230246 ], [ -70.099482434871604, -20.306127329139301 ], [ -70.098970906450006, -20.306258897029299 ], [ -70.094199579021307, -20.3071339059615 ], [ -70.092557711749805, -20.307191115706999 ], [ -70.092305492240698, -20.307304745752901 ], [ -70.0918119483743, -20.3077765698864 ], [ -70.091753090989101, -20.307857866513999 ], [ -70.092312780659597, -20.307786617187801 ], [ -70.092987660731893, -20.307755300075499 ], [ -70.094121877383799, -20.307680455167699 ], [ -70.096589481403996, -20.307258471841099 ], [ -70.098297260350805, -20.307044492412299 ], [ -70.0996731516165, -20.306615764559801 ], [ -70.099963515406003, -20.3065460632926 ], [ -70.101059297070094, -20.306318893062599 ], [ -70.1023522813379, -20.305914249727401 ], [ -70.102817984178003, -20.305735092078301 ], [ -70.103305862342097, -20.305390584897602 ], [ -70.104143637588194, -20.304999812988601 ], [ -70.104573666589303, -20.304880955677099 ], [ -70.1045596263682, -20.304849166688001 ], [ -70.105977632521501, -20.304315992645801 ], [ -70.106243644902705, -20.304232765932898 ], [ -70.107318751658198, -20.303904286456799 ], [ -70.108466335587394, -20.303614072176298 ], [ -70.109035467122297, -20.303439435791599 ], [ -70.109367572889198, -20.3033375292909 ], [ -70.110610983713798, -20.302955981553001 ], [ -70.111591049137303, -20.302541056449101 ], [ -70.111590393290797, -20.302539334914901 ], [ -70.1118252117179, -20.302467946996501 ], [ -70.112056081151806, -20.302306512273599 ], [ -70.112153416384004, -20.3022384514151 ], [ -70.112747377202695, -20.301917499537101 ], [ -70.113059511939397, -20.301712466694799 ], [ -70.113064739157807, -20.301723086708002 ], [ -70.113151086632598, -20.301682296201601 ], [ -70.113076510520798, -20.301646236286899 ], [ -70.112876818644494, -20.301249519220502 ], [ -70.112794224426906, -20.3011735380739 ], [ -70.112514975240998, -20.301350452031699 ] ] ] } },
{ "type": "Feature", "properties": { "id": "monoparte.29", "Name": null, "description": null, "timestamp": null, "begin": null, "end": null, "altitudeMode": null, "tessellate": -1, "extrude": 0, "visibility": -1, "drawOrder": null, "icon": null, "REG": "Tarapacá", "COM": "Alto Hospicio", "LOCALIDAD": "Alto Hospicio", "ZONA": "Z6", "NOMBRE": "Z6 Zona de Equipamiento y Parque", "UPERM": "Vivienda (cuidadores y guardaparques); Equipamiento (educación, cultura, esparcimiento mínimo necesario suficiente, deportes); Áreas Verdes (forestal, jardinería paisajismo y cultivos experimental docente)", "UPROH": "Todos los no mencionados como permitidos.", "Capa": "PRC Alto Hospicio", "CUT": "01107" }, "geometry": { "type": "Polygon", "coordinates": [ [ [ -70.100230360819594, -20.2974865037332 ], [ -70.098865034873299, -20.297615388985498 ], [ -70.097280148478703, -20.2976081446654 ], [ -70.096168386834293, -20.297529175553901 ], [ -70.094438619670299, -20.297643121664098 ], [ -70.094409372751898, -20.297759535058798 ], [ -70.094660146292696, -20.298067586154801 ], [ -70.094858285535906, -20.2981857361134 ], [ -70.096271663428595, -20.298194788359002 ], [ -70.096541698648295, -20.2981965167025 ], [ -70.098565780485501, -20.298209456690799 ], [ -70.099510237554597, -20.298062675536301 ], [ -70.100530161767395, -20.298032790883099 ], [ -70.101898741195001, -20.298047655834299 ], [ -70.104711869833693, -20.298264674991199 ], [ -70.105904788411095, -20.298069340379801 ], [ -70.107076992866794, -20.298461007759499 ], [ -70.107494751877894, -20.2985316703123 ], [ -70.109798955872293, -20.299223185911401 ], [ -70.110068296460497, -20.2992458301878 ], [ -70.110288692077205, -20.2992268246946 ], [ -70.110324001348204, -20.299223779956701 ], [ -70.110665877058807, -20.2992448057662 ], [ -70.111117239468896, -20.299334874993001 ], [ -70.112004214588893, -20.2994266664512 ], [ -70.111907423113095, -20.2993302337564 ], [ -70.111763345521993, -20.298974143097801 ], [ -70.111665768124794, -20.298933660465401 ], [ -70.110999416696103, -20.298860037819299 ], [ -70.110616705186004, -20.2987695326382 ], [ -70.110002250604893, -20.2987276848284 ], [ -70.109960442246702, -20.2989123931027 ], [ -70.109446826072102, -20.298701679582699 ], [ -70.109233888054206, -20.298592593274201 ], [ -70.107875076922895, -20.298072854948199 ], [ -70.107436442199798, -20.297882688059701 ], [ -70.107055346027195, -20.297788467517901 ], [ -70.106945143536706, -20.297770721127598 ], [ -70.105868468516107, -20.2975025344243 ], [ -70.104740439227896, -20.297698714982801 ], [ -70.1037378477549, -20.297601917639199 ], [ -70.101842932799897, -20.2975451077406 ], [ -70.100230360819594, -20.2974865037332 ] ] ] } },
{ "type": "Feature", "properties": { "id": "monoparte.30", "Name": null, "description": null, "timestamp": null, "begin": null, "end": null, "altitudeMode": null, "tessellate": -1, "extrude": 0, "visibility": -1, "drawOrder": null, "icon": null, "REG": "Tarapacá", "COM": "Alto Hospicio", "LOCALIDAD": "Alto Hospicio", "ZONA": "Z6", "NOMBRE": "Z6 Zona de Equipamiento y Parque", "UPERM": "Vivienda (cuidadores y guardaparques); Equipamiento (educación, cultura, esparcimiento mínimo necesario suficiente, deportes); Áreas Verdes (forestal, jardinería paisajismo y cultivos experimental docente)", "UPROH": "Todos los no mencionados como permitidos.", "Capa": "PRC Alto Hospicio", "CUT": "01107" }, "geometry": { "type": "Polygon", "coordinates": [ [ [ -70.094792067173202, -20.285099185479801 ], [ -70.094559198098807, -20.286020478299498 ], [ -70.094965944363906, -20.285839189941399 ], [ -70.095882303472195, -20.285599713797801 ], [ -70.097132738762099, -20.285206894145499 ], [ -70.097685290159106, -20.2850384358422 ], [ -70.098209085136105, -20.284925154789399 ], [ -70.099636496298501, -20.284833700167201 ], [ -70.099632132806704, -20.284214993234698 ], [ -70.098306919897098, -20.284333306047198 ], [ -70.097637123436897, -20.284406253441801 ], [ -70.097084477443502, -20.284560962449401 ], [ -70.095950522599097, -20.284939303043199 ], [ -70.0955867203959, -20.285010327602802 ], [ -70.095106444053002, -20.285095829442 ], [ -70.094792067173202, -20.285099185479801 ] ] ] } },
{ "type": "Feature", "properties": { "id": "monoparte.31", "Name": null, "description": null, "timestamp": null, "begin": null, "end": null, "altitudeMode": null, "tessellate": -1, "extrude": 0, "visibility": -1, "drawOrder": null, "icon": null, "REG": "Tarapacá", "COM": "Alto Hospicio", "LOCALIDAD": "Alto Hospicio", "ZONA": "Z14", "NOMBRE": "Z14 Zona de Vertedero Residuos Solidos Domiciliarios y Otros", "UPERM": "Exclusivo instalaciones para vertedero de residuos solidos domiciliarios y otros de conformidad a Normas y Ordenanzas Municipales y Legislación Sectorial Vigente.", "UPROH": "Todos los no mencionados como permitidos.", "Capa": "PRC Alto Hospicio", "CUT": "01107" }, "geometry": { "type": "Polygon", "coordinates": [ [ [ -70.091063266268307, -20.236185309328501 ], [ -70.091828840176603, -20.236180547669299 ], [ -70.093224874438505, -20.236171856121899 ], [ -70.093565212965501, -20.236169735530002 ], [ -70.093646309985402, -20.236169230130798 ], [ -70.093626667519104, -20.233361305788701 ], [ -70.093621625884794, -20.232640518858901 ], [ -70.093617371476896, -20.232652510670299 ], [ -70.093610666179202, -20.231073535508699 ], [ -70.093608484537597, -20.2307615937682 ], [ -70.0934247982849, -20.230762738160799 ], [ -70.091186915604197, -20.230776665063999 ], [ -70.085918401527607, -20.230809339689301 ], [ -70.085941790011802, -20.2341769085428 ], [ -70.085948086000897, -20.235083313881901 ], [ -70.085948248263193, -20.235106673399301 ], [ -70.085954761547796, -20.236044308382901 ], [ -70.085955961120703, -20.236216989901401 ], [ -70.088150979097506, -20.236203392436199 ], [ -70.088967187065293, -20.236194502868798 ], [ -70.089063936822697, -20.2361977288577 ], [ -70.089090316372506, -20.236197565140198 ], [ -70.089239797611398, -20.236196637351 ], [ -70.089354106112694, -20.236195927783399 ], [ -70.089468406426604, -20.236186077285002 ], [ -70.089592902362, -20.236194445220601 ], [ -70.091063266268307, -20.236185309328501 ] ] ] } }
]
}
