{
"type": "FeatureCollection",
"name": "IPT_01_PRC_Pozo_al_Monte",
"crs": { "type": "name", "properties": { "name": "urn:ogc:def:crs:OGC:1.3:CRS84" } },
"features": [
{ "type": "Feature", "properties": { "id": "monoparte.1", "Name": null, "description": null, "timestamp": null, "begin": null, "end": null, "altitudeMode": null, "tessellate": -1, "extrude": 0, "visibility": -1, "drawOrder": null, "icon": null, "REG": "Tarapacá", "COM": "Pozo Almonte", "LOCALIDAD": "Pozo Almonte", "ZONA": "Z1-UC", "NOMBRE": "Z1-UC Zona Urbana Consolidada", "UPERM": "Vivienda, Comercio, Oficinas, Equipamiento, Áreas Verdes, Industrias, Artesanías y  Bodegas Inofensivas, Vialidad.", "UPROH": "Industria, bodega y artesanías molestas, peligrosas y/o contaminantes.", "Capa": "PRC Pozo Almonte", "CUT": "01401" }, "geometry": { "type": "Polygon", "coordinates": [ [ [ -69.784514136571801, -20.2560389289028 ], [ -69.784513615153998, -20.2566915980914 ], [ -69.784513382083404, -20.257401643122702 ], [ -69.784519218014097, -20.257806843562701 ], [ -69.784535912979095, -20.2581044136431 ], [ -69.784532869549807, -20.258255042797099 ], [ -69.784084282245502, -20.258217602846301 ], [ -69.783707965027006, -20.258194182116299 ], [ -69.783457116917901, -20.258184545179301 ], [ -69.783450380257094, -20.2583567077419 ], [ -69.783461022539001, -20.2587104867584 ], [ -69.7834638722086, -20.2596571992981 ], [ -69.783479372629102, -20.2602219373859 ], [ -69.783498160528794, -20.2608105684977 ], [ -69.783496928718193, -20.261196077187499 ], [ -69.783511124853305, -20.261500831063 ], [ -69.783515845299902, -20.261789489384299 ], [ -69.783750782339396, -20.2617824620466 ], [ -69.784437903908596, -20.261770423498898 ], [ -69.785191570051595, -20.261767049517999 ], [ -69.785723629640003, -20.261776619988598 ], [ -69.786277885888794, -20.2617920646431 ], [ -69.786958869050494, -20.261818893031698 ], [ -69.787355204088101, -20.261840591973499 ], [ -69.787348983765, -20.261792667093701 ], [ -69.787332457674196, -20.261655274764699 ], [ -69.787325430732494, -20.261517839770502 ], [ -69.787324903277906, -20.2614132486109 ], [ -69.787330483464601, -20.261263803576401 ], [ -69.787326714297095, -20.261144284522899 ], [ -69.787338868326898, -20.261042624535001 ], [ -69.787354143491996, -20.2609319852392 ], [ -69.787382055840595, -20.260815312024501 ], [ -69.787403770124001, -20.260725562510601 ], [ -69.787425333669901, -20.260605929674298 ], [ -69.787478277195703, -20.260429376925799 ], [ -69.787528039186299, -20.2602498494205 ], [ -69.787627555306599, -20.2598892998856 ], [ -69.787698683255101, -20.2595512910625 ], [ -69.787754326065098, -20.2592820859754 ], [ -69.787853681848404, -20.2588901594135 ], [ -69.788042992099307, -20.258125772561101 ], [ -69.788186225967706, -20.257643996582502 ], [ -69.788378578879303, -20.256855688832399 ], [ -69.7885390824853, -20.256031662917199 ], [ -69.788668501209202, -20.2553228300204 ], [ -69.788794698750806, -20.2547470370349 ], [ -69.788777057081901, -20.254741430178001 ], [ -69.788777459681199, -20.254743039445199 ], [ -69.788437019134605, -20.254799556732699 ], [ -69.787606956047298, -20.254968246650201 ], [ -69.787577339495101, -20.2556258270636 ], [ -69.787149272464305, -20.255637312621701 ], [ -69.787173938792193, -20.256007763487101 ], [ -69.787198353156498, -20.256328009995901 ], [ -69.786690437795301, -20.2563302894755 ], [ -69.785737818642403, -20.2563106539247 ], [ -69.785741045078396, -20.255944858617799 ], [ -69.785731159577594, -20.255490666317701 ], [ -69.785727501597407, -20.255267150249399 ], [ -69.7857216419781, -20.2551093892552 ], [ -69.785734327525205, -20.254609671116601 ], [ -69.785740483393397, -20.254322757603202 ], [ -69.785759185782297, -20.254011880099501 ], [ -69.785762712043507, -20.253705851415599 ], [ -69.785786891827598, -20.253401045788198 ], [ -69.784608914361002, -20.2533477474454 ], [ -69.784525218912407, -20.2544627964763 ], [ -69.784493181874396, -20.2548932696875 ], [ -69.784486788603004, -20.255133565070299 ], [ -69.784495703707506, -20.2553953097643 ], [ -69.784514136571801, -20.2560389289028 ] ] ] } },
{ "type": "Feature", "properties": { "id": "monoparte.2", "Name": null, "description": null, "timestamp": null, "begin": null, "end": null, "altitudeMode": null, "tessellate": -1, "extrude": 0, "visibility": -1, "drawOrder": null, "icon": null, "REG": "Tarapacá", "COM": "Pozo Almonte", "LOCALIDAD": "Pozo Almonte", "ZONA": "Z4-EU", "NOMBRE": "Z4-EU Zona de Extensión Urbana", "UPERM": "Vivienda, comercio, equipamiento, áreas verdes e industrias, artesanías y bodegas inofensivas, vialidad.", "UPROH": "Industria, bodega y artesanías molestas, peligrosas y/o contaminantes.", "Capa": "PRC Pozo Almonte", "CUT": "01401" }, "geometry": { "type": "Polygon", "coordinates": [ [ [ -69.781949127067193, -20.2573681218723 ], [ -69.781976963078705, -20.258373893304299 ], [ -69.782014214041098, -20.259741818175701 ], [ -69.782047954239204, -20.261167134750899 ], [ -69.782059031951107, -20.261848079266201 ], [ -69.782532660972706, -20.261827948407198 ], [ -69.783515845299902, -20.261789489384299 ], [ -69.783511124853305, -20.261500831063 ], [ -69.783496928718193, -20.261196077187499 ], [ -69.783498160528794, -20.2608105684977 ], [ -69.783479372629102, -20.2602219373859 ], [ -69.7834638722086, -20.2596571992981 ], [ -69.783461022539001, -20.2587104867584 ], [ -69.783450380257094, -20.2583567077419 ], [ -69.783457116917901, -20.258184545179301 ], [ -69.783707965027006, -20.258194182116299 ], [ -69.784084282245502, -20.258217602846301 ], [ -69.784532869549807, -20.258255042797099 ], [ -69.784535912979095, -20.2581044136431 ], [ -69.784519218014097, -20.257806843562701 ], [ -69.784513382083404, -20.257401643122702 ], [ -69.784513615153998, -20.2566915980914 ], [ -69.784514136571801, -20.2560389289028 ], [ -69.784495703707506, -20.2553953097643 ], [ -69.784486788603004, -20.255133565070299 ], [ -69.784493181874396, -20.2548932696875 ], [ -69.784525218912407, -20.2544627964763 ], [ -69.784608914361002, -20.2533477474454 ], [ -69.781994920924902, -20.253254837501 ], [ -69.781978953964895, -20.253459158093701 ], [ -69.781905719804797, -20.254770198298498 ], [ -69.781882872526793, -20.255519791265499 ], [ -69.781899966040498, -20.255898046871199 ], [ -69.781926985095396, -20.256740655805 ], [ -69.781949127067193, -20.2573681218723 ] ] ] } },
{ "type": "Feature", "properties": { "id": "monoparte.3", "Name": null, "description": null, "timestamp": null, "begin": null, "end": null, "altitudeMode": null, "tessellate": -1, "extrude": 0, "visibility": -1, "drawOrder": null, "icon": null, "REG": "Tarapacá", "COM": "Pozo Almonte", "LOCALIDAD": "Pozo Almonte", "ZONA": "Z5-EU", "NOMBRE": "Z5-EU Zona de Extensión Urbana", "UPERM": "Equipamiento, áreas verdes, bodegas, artesanías e industrias inofensivas o molestas, vialidad.", "UPROH": "Vivienda, comercio, oficinas, bodegas, artesanías e industrias peligrosas y/o contaminantes", "Capa": "PRC Pozo Almonte", "CUT": "01401" }, "geometry": { "type": "Polygon", "coordinates": [ [ [ -69.784608914361002, -20.2533477474454 ], [ -69.785786891827598, -20.253401045788198 ], [ -69.785795534452902, -20.253230668181999 ], [ -69.785841197087805, -20.25286587894 ], [ -69.785886289150994, -20.252387532369099 ], [ -69.785974975290003, -20.251536277140598 ], [ -69.786018996345206, -20.251021596992501 ], [ -69.786091900176601, -20.2501553506021 ], [ -69.786167200714402, -20.2492620781975 ], [ -69.7862012070117, -20.2487266379073 ], [ -69.785401364802794, -20.2486697112701 ], [ -69.784726741315396, -20.248636870423098 ], [ -69.784198406385002, -20.248603372097001 ], [ -69.783677729843802, -20.248581672125901 ], [ -69.783115251870996, -20.248559081979799 ], [ -69.782824486671998, -20.248542449287701 ], [ -69.782394979101298, -20.248515677022699 ], [ -69.782237202413896, -20.2503954894378 ], [ -69.782161537874401, -20.251220627070801 ], [ -69.782122066200301, -20.251685200952899 ], [ -69.782053945866394, -20.2524995459008 ], [ -69.781994920924902, -20.253254837501 ], [ -69.784608914361002, -20.2533477474454 ] ] ] } },
{ "type": "Feature", "properties": { "id": "monoparte.4", "Name": null, "description": null, "timestamp": null, "begin": null, "end": null, "altitudeMode": null, "tessellate": -1, "extrude": 0, "visibility": -1, "drawOrder": null, "icon": null, "REG": "Tarapacá", "COM": "Pozo Almonte", "LOCALIDAD": "Pozo Almonte", "ZONA": "Z2-UC", "NOMBRE": "Z2-UC Zona Urbana Consolidada", "UPERM": "Vivienda, Comercio, Equipamiento, Áreas Verdes, Oficina y Vialidad.", "UPROH": "Industria, artesanía y bodegas de cualquier tipo.", "Capa": "PRC Pozo Almonte", "CUT": "01401" }, "geometry": { "type": "Polygon", "coordinates": [ [ [ -69.786690437795301, -20.2563302894755 ], [ -69.787198353156498, -20.256328009995901 ], [ -69.787173938792193, -20.256007763487101 ], [ -69.787149272464305, -20.255637312621701 ], [ -69.787577339495101, -20.2556258270636 ], [ -69.787606956047298, -20.254968246650201 ], [ -69.788437019134605, -20.254799556732699 ], [ -69.788777459681199, -20.254743039445199 ], [ -69.788715407042105, -20.2544946830137 ], [ -69.788590836728005, -20.2539059310425 ], [ -69.788489677024799, -20.253437805153201 ], [ -69.788424699897305, -20.253111763984499 ], [ -69.788357183694004, -20.252784538753101 ], [ -69.788297617686794, -20.252526608339 ], [ -69.788318539597995, -20.2521547572026 ], [ -69.788366210944105, -20.251561644232101 ], [ -69.788426058919498, -20.250871652715301 ], [ -69.788481286350105, -20.250270138555301 ], [ -69.787317934969096, -20.250148655892101 ], [ -69.786528548086196, -20.250090038662599 ], [ -69.786099841916197, -20.2500611450001 ], [ -69.786091900176601, -20.2501553506021 ], [ -69.786018996345206, -20.251021596992501 ], [ -69.785974975290003, -20.251536277140598 ], [ -69.785886289150994, -20.252387532369099 ], [ -69.785841197087805, -20.25286587894 ], [ -69.785795534452902, -20.253230668181999 ], [ -69.785786891827598, -20.253401045788198 ], [ -69.785762712043507, -20.253705851415599 ], [ -69.785759185782297, -20.254011880099501 ], [ -69.785740483393397, -20.254322757603202 ], [ -69.785734327525205, -20.254609671116601 ], [ -69.7857216419781, -20.2551093892552 ], [ -69.785727501597407, -20.255267150249399 ], [ -69.785731159577594, -20.255490666317701 ], [ -69.785741045078396, -20.255944858617799 ], [ -69.785737818642403, -20.2563106539247 ], [ -69.786690437795301, -20.2563302894755 ] ] ] } },
{ "type": "Feature", "properties": { "id": "monoparte.5", "Name": null, "description": null, "timestamp": null, "begin": null, "end": null, "altitudeMode": null, "tessellate": -1, "extrude": 0, "visibility": -1, "drawOrder": null, "icon": null, "REG": "Tarapacá", "COM": "Pozo Almonte", "LOCALIDAD": "Pozo Almonte", "ZONA": "Z4-EU", "NOMBRE": "Z4-EU Zona de Extensión Urbana", "UPERM": "Vivienda, Comercio, Equipamiento, Áreas Verdes e Industrias, Artesanías y Bodegas Inofensivas, Vialidad.", "UPROH": "Industria, bodega y artesanías molestas, peligrosas y/o contaminantes.", "Capa": "PRC Pozo Almonte", "CUT": "01401" }, "geometry": { "type": "Polygon", "coordinates": [ [ [ -69.788777057081901, -20.254741430178001 ], [ -69.788794698750806, -20.2547470370349 ], [ -69.788829454807299, -20.254588454694598 ], [ -69.789021129466605, -20.253667165238699 ], [ -69.789383303219907, -20.2520219156 ], [ -69.789528788886301, -20.251360824245999 ], [ -69.789653082794501, -20.250892580217901 ], [ -69.789831163625095, -20.2501028404692 ], [ -69.790060764712507, -20.249150509130299 ], [ -69.789623098311196, -20.2490846728187 ], [ -69.789007114538194, -20.2490013790303 ], [ -69.7885052306262, -20.24893908616 ], [ -69.787855122922096, -20.248870285988801 ], [ -69.787089089447804, -20.248794831026402 ], [ -69.786207203559798, -20.2487270646252 ], [ -69.7862012070117, -20.2487266379073 ], [ -69.786167200714402, -20.2492620781975 ], [ -69.786099841916197, -20.2500611450001 ], [ -69.786528548086196, -20.250090038662599 ], [ -69.787317934969096, -20.250148655892101 ], [ -69.788481286350105, -20.250270138555301 ], [ -69.788426058919498, -20.250871652715301 ], [ -69.788366210944105, -20.251561644232101 ], [ -69.788318539597995, -20.2521547572026 ], [ -69.788297617686794, -20.252526608339 ], [ -69.788357183694004, -20.252784538753101 ], [ -69.788424699897305, -20.253111763984499 ], [ -69.788489677024799, -20.253437805153201 ], [ -69.788590836728005, -20.2539059310425 ], [ -69.788715407042105, -20.2544946830137 ], [ -69.788777057081901, -20.254741430178001 ] ] ] } },
{ "type": "Feature", "properties": { "id": "monoparte.6", "Name": null, "description": null, "timestamp": null, "begin": null, "end": null, "altitudeMode": null, "tessellate": -1, "extrude": 0, "visibility": -1, "drawOrder": null, "icon": null, "REG": "Tarapacá", "COM": "Pozo Almonte", "LOCALIDAD": "Pozo Almonte", "ZONA": "Z3-EU", "NOMBRE": "Z3-EU Zona de Extensión Urbana", "UPERM": "Vivienda, Comercio, Equipamiento, Áreas Verdes, Oficina y Vialidad.", "UPROH": "Industria, artesanía y bodegas de cualquier tipo.", "Capa": "PRC Pozo Almonte", "CUT": "01401" }, "geometry": { "type": "Polygon", "coordinates": [ [ [ -69.782277972324806, -20.267635395816001 ], [ -69.784993487896898, -20.268819211120999 ], [ -69.785407157729594, -20.267953113171998 ], [ -69.785424041437693, -20.2679100046835 ], [ -69.785332903296805, -20.2671680951849 ], [ -69.785622696953993, -20.266607368763399 ], [ -69.786213471426194, -20.265444624239802 ], [ -69.786805149551199, -20.264242874500699 ], [ -69.786868016873399, -20.2641499522144 ], [ -69.787474449763295, -20.2638349420682 ], [ -69.788033463107396, -20.263536578212499 ], [ -69.788057892716097, -20.263523623146298 ], [ -69.787953350351202, -20.263366450626599 ], [ -69.787773351776096, -20.263040209196799 ], [ -69.787640237295903, -20.2627673091758 ], [ -69.787506844472404, -20.2624389460378 ], [ -69.787439023845593, -20.262252774155002 ], [ -69.787401617818503, -20.262069335390301 ], [ -69.787355204088101, -20.261840591973499 ], [ -69.786958869050494, -20.261818893031698 ], [ -69.786277885888794, -20.2617920646431 ], [ -69.785723629640003, -20.261776619988598 ], [ -69.785191570051595, -20.261767049517999 ], [ -69.784437903908596, -20.261770423498898 ], [ -69.783750782339396, -20.2617824620466 ], [ -69.783515845299902, -20.261789489384299 ], [ -69.782532660972706, -20.261827948407198 ], [ -69.782059031951107, -20.261848079266201 ], [ -69.782069917522904, -20.262517195849899 ], [ -69.782138892537006, -20.264907010266 ], [ -69.782207519863604, -20.266468442320399 ], [ -69.782277972324806, -20.267635395816001 ] ] ] } },
{ "type": "Feature", "properties": { "id": "monoparte.7", "Name": null, "description": null, "timestamp": null, "begin": null, "end": null, "altitudeMode": null, "tessellate": -1, "extrude": 0, "visibility": -1, "drawOrder": null, "icon": null, "REG": "Tarapacá", "COM": "Pozo Almonte", "LOCALIDAD": "Pozo Almonte", "ZONA": "ZR", "NOMBRE": "ZR Zona Restricción FF.CC", "UPERM": "Área de Seguridad para Uso de Vía Férrea.", "UPROH": "Todos los no mencionados como permitido.", "Capa": "PRC Pozo Almonte", "CUT": "01401" }, "geometry": { "type": "Polygon", "coordinates": [ [ [ -69.787953350351202, -20.263366450626599 ], [ -69.788057892716097, -20.263523623146298 ], [ -69.788124072847907, -20.263488527080298 ], [ -69.788042954528194, -20.263352898992299 ], [ -69.787931758056502, -20.2631561643549 ], [ -69.787847360821402, -20.262998756633898 ], [ -69.787759146364806, -20.2628377788193 ], [ -69.787689895241797, -20.262669544961 ], [ -69.787593773104703, -20.2624476400714 ], [ -69.787547503721797, -20.262315163134001 ], [ -69.787504781409595, -20.262132464815899 ], [ -69.787466093622598, -20.261996367493801 ], [ -69.787450215369802, -20.261861961304302 ], [ -69.787447928068602, -20.261845668343899 ], [ -69.787426564868994, -20.261693521564201 ], [ -69.7874143693505, -20.2615357892543 ], [ -69.787405955992696, -20.2613744536566 ], [ -69.787416668410799, -20.261238134418999 ], [ -69.787427326557093, -20.261091057437799 ], [ -69.787449385308307, -20.260943929247102 ], [ -69.787486389696596, -20.260746528481601 ], [ -69.787549813539002, -20.260513148775502 ], [ -69.787616974078503, -20.260267200672999 ], [ -69.787699089965301, -20.2599727735114 ], [ -69.787784769569598, -20.259631711152501 ], [ -69.787832830008497, -20.259366125508901 ], [ -69.787877542505498, -20.259190206890999 ], [ -69.787918400459702, -20.259003546692899 ], [ -69.787959250235303, -20.258815093824399 ], [ -69.788052492823596, -20.2584668256459 ], [ -69.788145661662, -20.258104212559701 ], [ -69.788235231003796, -20.257781063064002 ], [ -69.788317289315401, -20.257475877872899 ], [ -69.788425232004201, -20.257028925195499 ], [ -69.788506837889798, -20.256634089934799 ], [ -69.788562477482699, -20.256364883684199 ], [ -69.788599752171294, -20.256221273189599 ], [ -69.788655319044807, -20.255937722946499 ], [ -69.788714658646597, -20.255648776718601 ], [ -69.788773935613506, -20.255347279159299 ], [ -69.788870303494903, -20.254866311578802 ], [ -69.788944234762894, -20.2544571654166 ], [ -69.789051865900205, -20.253949251166802 ], [ -69.789197774330702, -20.253270825816401 ], [ -69.789335379851295, -20.252679219976802 ], [ -69.789491308201704, -20.251954130087299 ], [ -69.789636480758205, -20.251356394393198 ], [ -69.789800296604795, -20.250688645856201 ], [ -69.789909777917003, -20.2501717573933 ], [ -69.790125708482407, -20.249290402124501 ], [ -69.790155471124095, -20.249164754804202 ], [ -69.790060764712507, -20.249150509130299 ], [ -69.789831163625095, -20.2501028404692 ], [ -69.789653082794501, -20.250892580217901 ], [ -69.789528788886301, -20.251360824245999 ], [ -69.789383303219907, -20.2520219156 ], [ -69.789021129466605, -20.253667165238699 ], [ -69.788829454807299, -20.254588454694598 ], [ -69.788668501209202, -20.2553228300204 ], [ -69.7885390824853, -20.256031662917199 ], [ -69.788378578879303, -20.256855688832399 ], [ -69.788186225967706, -20.257643996582502 ], [ -69.788042992099307, -20.258125772561101 ], [ -69.787853681848404, -20.2588901594135 ], [ -69.787754326065098, -20.2592820859754 ], [ -69.787698683255101, -20.2595512910625 ], [ -69.787627555306599, -20.2598892998856 ], [ -69.787528039186299, -20.2602498494205 ], [ -69.787478277195703, -20.260429376925799 ], [ -69.787425333669901, -20.260605929674298 ], [ -69.787403770124001, -20.260725562510601 ], [ -69.787382055840595, -20.260815312024501 ], [ -69.787354143491996, -20.2609319852392 ], [ -69.787338868326898, -20.261042624535001 ], [ -69.787326714297095, -20.261144284522899 ], [ -69.787330483464601, -20.261263803576401 ], [ -69.787324903277906, -20.2614132486109 ], [ -69.787325430732494, -20.261517839770502 ], [ -69.787332457674196, -20.261655274764699 ], [ -69.787348983765, -20.261792667093701 ], [ -69.787355204088101, -20.261840591973499 ], [ -69.787401617818503, -20.262069335390301 ], [ -69.787439023845593, -20.262252774155002 ], [ -69.787506844472404, -20.2624389460378 ], [ -69.787640237295903, -20.2627673091758 ], [ -69.787773351776096, -20.263040209196799 ], [ -69.787953350351202, -20.263366450626599 ] ] ] } }
]
}
