{
"type": "FeatureCollection",
"name": "IPT_03_SCC_Portofino",
"crs": { "type": "name", "properties": { "name": "urn:ogc:def:crs:OGC:1.3:CRS84" } },
"features": [
{ "type": "Feature", "properties": { "id": "prc_chaaral_portofino_mono.1", "Name": null, "description": null, "timestamp": null, "begin": null, "end": null, "altitudeMode": null, "tessellate": -1, "extrude": 0, "visibility": -1, "drawOrder": null, "icon": null, "REG": "Atacama", "COM": "Chañaral", "LOCALIDAD": "Portofino", "ZONA": "ZB", "NOMBRE": "Zona Balneario", "UPERM": "Equipamiento e infraestructura necesarias para el desarrollo de actividades recreativas y de ocio asociadas a bienes de playas marítimas", "UPROH": "Todos los no indicados como permitidos.", "Capa": "Seccional Chañaral - Portofino", "CUT": "03201", "Shape_STAr": 70169.123779300004, "Shape_STLe": 2958.1997161099998 }, "geometry": { "type": "MultiPolygon", "coordinates": [ [ [ [ -70.7029826470568, -26.519859713016199 ], [ -70.702978903210095, -26.519782461303301 ], [ -70.702930849177207, -26.519745636279001 ], [ -70.702929666832503, -26.5196655114352 ], [ -70.702980742434306, -26.519504622642 ], [ -70.703179340923398, -26.518877163404198 ], [ -70.703293996598305, -26.518597977244902 ], [ -70.703439365102895, -26.518387878081398 ], [ -70.703479746020903, -26.518307255844601 ], [ -70.703525828436298, -26.518210538417499 ], [ -70.703590118228206, -26.518140316454499 ], [ -70.703630736516999, -26.518075719316698 ], [ -70.703665731106099, -26.518032560285501 ], [ -70.703707216705695, -26.518026721699101 ], [ -70.703748149315004, -26.517983491706602 ], [ -70.7037654105158, -26.517945887478099 ], [ -70.703759000320602, -26.517913908118398 ], [ -70.703711024723205, -26.517882425350798 ], [ -70.703704772263094, -26.5178611300204 ], [ -70.703815459168894, -26.517715556742498 ], [ -70.703879433071705, -26.517623967503798 ], [ -70.703903025525193, -26.517613000600001 ], [ -70.704003729653806, -26.5175957693417 ], [ -70.704045136202097, -26.5175845886492 ], [ -70.704092243182501, -26.517557312757699 ], [ -70.704061607570495, -26.517493567854899 ], [ -70.703995111191503, -26.5174142225721 ], [ -70.704000496172597, -26.517376760226199 ], [ -70.704029316795797, -26.5173176469143 ], [ -70.704252266025193, -26.5171333329383 ], [ -70.704426845781001, -26.516890828722499 ], [ -70.704532303867495, -26.516793400440701 ], [ -70.7045552649802, -26.5167397000269 ], [ -70.704566588758198, -26.516702166679501 ], [ -70.704696269880202, -26.516636504692801 ], [ -70.704779159042502, -26.516619485871601 ], [ -70.704808690194696, -26.5166084478344 ], [ -70.704873293939301, -26.5165595916102 ], [ -70.704944544764899, -26.516558739799301 ], [ -70.705057596219703, -26.516573416153399 ], [ -70.705227006580898, -26.516785095290899 ], [ -70.705304669072106, -26.516816222562301 ], [ -70.705465063935193, -26.516819647433 ], [ -70.705578431426602, -26.5168556896014 ], [ -70.705696237109294, -26.516790169651099 ], [ -70.705737800072896, -26.516789672523 ], [ -70.705868506896806, -26.516793451132902 ], [ -70.705939443029706, -26.5167712325668 ], [ -70.705998740000794, -26.516765180264901 ], [ -70.706062711629798, -26.5166735901438 ], [ -70.706096758379502, -26.516566330943299 ], [ -70.706060421864095, -26.516518681756502 ], [ -70.706077603140997, -26.5164757352766 ], [ -70.706124235401305, -26.516416408494599 ], [ -70.706158913706503, -26.5163518817584 ], [ -70.706063201564902, -26.516304943817602 ], [ -70.705998124753805, -26.516321749386599 ], [ -70.705826329354593, -26.5163505182927 ], [ -70.705766794734799, -26.516340544489701 ], [ -70.705676073448501, -26.516229434720799 ], [ -70.705549251974503, -26.516086700694601 ], [ -70.705430264003994, -26.516072095707301 ], [ -70.705074639707206, -26.516119088987601 ], [ -70.7049560452582, -26.5161311918813 ], [ -70.704866271708795, -26.516084182112898 ], [ -70.704733198829999, -26.515920151118198 ], [ -70.704678655769797, -26.515846006194501 ], [ -70.704706844565905, -26.515744159354099 ], [ -70.704759099657295, -26.515663395758502 ], [ -70.704836130069907, -26.515651789017301 ], [ -70.704866054463494, -26.515667459260499 ], [ -70.704901285602006, -26.5156403250996 ], [ -70.704942216950002, -26.515597094812801 ], [ -70.705013468182301, -26.515596242984 ], [ -70.705083772500103, -26.515531290557401 ], [ -70.705166109429697, -26.515476880145801 ], [ -70.705184315777998, -26.515503375442499 ], [ -70.705173308959402, -26.5155622759716 ], [ -70.705215188161404, -26.515583146158502 ], [ -70.705256592857396, -26.515571965163701 ], [ -70.705296498106904, -26.515459293115001 ], [ -70.705378913792998, -26.515410223698499 ], [ -70.705402348809798, -26.515388573435299 ], [ -70.705447481455707, -26.515227754929999 ], [ -70.705500603981307, -26.5152057487294 ], [ -70.705529423341801, -26.515146635160299 ], [ -70.705523011874305, -26.515114656798598 ], [ -70.705415110499303, -26.515046492307501 ], [ -70.705360804223204, -26.514988372776799 ], [ -70.705330327528998, -26.514935311239402 ], [ -70.705323521532307, -26.5148766236961 ], [ -70.705340702880704, -26.514833677294199 ], [ -70.705321154016104, -26.5147163731958 ], [ -70.705338335345104, -26.5146734267943 ], [ -70.705384099213404, -26.514555341709901 ], [ -70.705395343621305, -26.5145124662947 ], [ -70.705377215303102, -26.514491312140098 ], [ -70.705335099744801, -26.5144544177416 ], [ -70.705340406288499, -26.514411613331401 ], [ -70.705297817281803, -26.514342668636701 ], [ -70.705208281759695, -26.514311683251599 ], [ -70.705099354571999, -26.514174076795101 ], [ -70.7050260537996, -26.514036045232 ], [ -70.705028755723802, -26.513816965148699 ], [ -70.704991080297205, -26.513678506740298 ], [ -70.705059646715398, -26.513496038148102 ], [ -70.705079451966796, -26.513228669650999 ], [ -70.705113419912294, -26.5131160686248 ], [ -70.705165751521903, -26.513040646048299 ], [ -70.705206998521106, -26.513018781966501 ], [ -70.705296296287699, -26.513033742261801 ], [ -70.705361450298696, -26.513022278203302 ], [ -70.705372536776693, -26.512968719659401 ], [ -70.705276353341404, -26.512889729838101 ], [ -70.705257988606107, -26.5128525514077 ], [ -70.705310005367096, -26.5127557616131 ], [ -70.705362258794395, -26.5126749978497 ], [ -70.705426860186506, -26.512626141466601 ], [ -70.705485997248999, -26.5126094063476 ], [ -70.705520990584006, -26.512566246930898 ], [ -70.705501836644302, -26.512475651084401 ], [ -70.705458223436807, -26.512337264686799 ], [ -70.705492505451502, -26.512246029857099 ], [ -70.705674276259899, -26.512088920267001 ], [ -70.705790103934802, -26.511889857276199 ], [ -70.705886856123001, -26.511605541325199 ], [ -70.705879655485703, -26.5115201455157 ], [ -70.705725459925702, -26.511131977077099 ], [ -70.705888311624804, -26.510900296598901 ], [ -70.705990020721302, -26.5106329124309 ], [ -70.704529429974201, -26.510168804135098 ], [ -70.704709429962904, -26.514268635019999 ], [ -70.704963062472203, -26.5148149222955 ], [ -70.705061605898294, -26.5151958789837 ], [ -70.704561257421105, -26.515470548963901 ], [ -70.704526996502295, -26.515847122971401 ], [ -70.704805765094306, -26.5162975757409 ], [ -70.704322297019203, -26.5168168480444 ], [ -70.703191124362505, -26.517970796687798 ], [ -70.7031061788133, -26.518061374158499 ], [ -70.702213051826604, -26.519606549867099 ], [ -70.702247200453996, -26.5196718211849 ], [ -70.7029826470568, -26.519859713016199 ] ] ] ] } },
{ "type": "Feature", "properties": { "id": "prc_chaaral_portofino_mono.2", "Name": null, "description": null, "timestamp": null, "begin": null, "end": null, "altitudeMode": null, "tessellate": -1, "extrude": 0, "visibility": -1, "drawOrder": null, "icon": null, "REG": "Atacama", "COM": "Chañaral", "LOCALIDAD": "Portofino", "ZONA": "ZU5", "NOMBRE": "ZU5 Zona Urbana Residencial de Baja Densidad", "UPERM": "Residencial y Equipamiento.", "UPROH": "Todos los no indicados como permitidos.", "Capa": "Seccional Chañaral - Portofino", "CUT": "03201", "Shape_STAr": 115729.650635, "Shape_STLe": 5544.6225615399999 }, "geometry": { "type": "MultiPolygon", "coordinates": [ [ [ [ -70.703315317670402, -26.5115446654107 ], [ -70.704058558448196, -26.511989573629101 ], [ -70.704458063884204, -26.511178733029102 ], [ -70.7044179460203, -26.5103614765389 ], [ -70.703601285364797, -26.510058072549199 ], [ -70.703315317670402, -26.5115446654107 ] ] ] ] } },
{ "type": "Feature", "properties": { "id": "prc_chaaral_portofino_mono.3", "Name": null, "description": null, "timestamp": null, "begin": null, "end": null, "altitudeMode": null, "tessellate": -1, "extrude": 0, "visibility": -1, "drawOrder": null, "icon": null, "REG": "Atacama", "COM": "Chañaral", "LOCALIDAD": "Portofino", "ZONA": "ZU5", "NOMBRE": "ZU5 Zona Urbana Residencial de Baja Densidad", "UPERM": "Residencial y Equipamiento.", "UPROH": "Todos los no indicados como permitidos.", "Capa": "Seccional Chañaral - Portofino", "CUT": "03201", "Shape_STAr": 115729.650635, "Shape_STLe": 5544.6225615399999 }, "geometry": { "type": "MultiPolygon", "coordinates": [ [ [ [ -70.7016316077017, -26.517501392096399 ], [ -70.701784937417699, -26.517547329531901 ], [ -70.702611017965296, -26.516216342317399 ], [ -70.701875814803699, -26.515940773721201 ], [ -70.701082889992506, -26.517197453626299 ], [ -70.7016316077017, -26.517501392096399 ] ] ] ] } },
{ "type": "Feature", "properties": { "id": "prc_chaaral_portofino_mono.4", "Name": null, "description": null, "timestamp": null, "begin": null, "end": null, "altitudeMode": null, "tessellate": -1, "extrude": 0, "visibility": -1, "drawOrder": null, "icon": null, "REG": "Atacama", "COM": "Chañaral", "LOCALIDAD": "Portofino", "ZONA": "ZU5", "NOMBRE": "ZU5 Zona Urbana Residencial de Baja Densidad", "UPERM": "Residencial y Equipamiento.", "UPROH": "Todos los no indicados como permitidos.", "Capa": "Seccional Chañaral - Portofino", "CUT": "03201", "Shape_STAr": 115729.650635, "Shape_STLe": 5544.6225615399999 }, "geometry": { "type": "MultiPolygon", "coordinates": [ [ [ [ -70.700133019521701, -26.518685734679099 ], [ -70.700800031056701, -26.519089770295501 ], [ -70.701437948444905, -26.518083526594602 ], [ -70.700787090429003, -26.517671247417098 ], [ -70.700133019521701, -26.518685734679099 ] ] ] ] } },
{ "type": "Feature", "properties": { "id": "prc_chaaral_portofino_mono.5", "Name": null, "description": null, "timestamp": null, "begin": null, "end": null, "altitudeMode": null, "tessellate": -1, "extrude": 0, "visibility": -1, "drawOrder": null, "icon": null, "REG": "Atacama", "COM": "Chañaral", "LOCALIDAD": "Portofino", "ZONA": "ZU5", "NOMBRE": "ZU5 Zona Urbana Residencial de Baja Densidad", "UPERM": "Residencial y Equipamiento.", "UPROH": "Todos los no indicados como permitidos.", "Capa": "Seccional Chañaral - Portofino", "CUT": "03201", "Shape_STAr": 115729.650635, "Shape_STLe": 5544.6225615399999 }, "geometry": { "type": "MultiPolygon", "coordinates": [ [ [ [ -70.702699037311802, -26.511157947094699 ], [ -70.7032348987603, -26.511491888327999 ], [ -70.703494527896297, -26.510018410158001 ], [ -70.7029380100319, -26.509811649354301 ], [ -70.702699037311802, -26.511157947094699 ] ] ] ] } },
{ "type": "Feature", "properties": { "id": "prc_chaaral_portofino_mono.6", "Name": null, "description": null, "timestamp": null, "begin": null, "end": null, "altitudeMode": null, "tessellate": -1, "extrude": 0, "visibility": -1, "drawOrder": null, "icon": null, "REG": "Atacama", "COM": "Chañaral", "LOCALIDAD": "Portofino", "ZONA": "ZU5", "NOMBRE": "ZU5 Zona Urbana Residencial de Baja Densidad", "UPERM": "Residencial y Equipamiento.", "UPROH": "Todos los no indicados como permitidos.", "Capa": "Seccional Chañaral - Portofino", "CUT": "03201", "Shape_STAr": 115729.650635, "Shape_STLe": 5544.6225615399999 }, "geometry": { "type": "MultiPolygon", "coordinates": [ [ [ [ -70.701909992474597, -26.515900864576501 ], [ -70.702640837700201, -26.516178741733199 ], [ -70.703140816837902, -26.515374218707599 ], [ -70.702477283561194, -26.514989507120699 ], [ -70.701909992474597, -26.515900864576501 ] ] ] ] } },
{ "type": "Feature", "properties": { "id": "prc_chaaral_portofino_mono.7", "Name": null, "description": null, "timestamp": null, "begin": null, "end": null, "altitudeMode": null, "tessellate": -1, "extrude": 0, "visibility": -1, "drawOrder": null, "icon": null, "REG": "Atacama", "COM": "Chañaral", "LOCALIDAD": "Portofino", "ZONA": "ZU5", "NOMBRE": "ZU5 Zona Urbana Residencial de Baja Densidad", "UPERM": "Residencial y Equipamiento.", "UPROH": "Todos los no indicados como permitidos.", "Capa": "Seccional Chañaral - Portofino", "CUT": "03201", "Shape_STAr": 115729.650635, "Shape_STLe": 5544.6225615399999 }, "geometry": { "type": "MultiPolygon", "coordinates": [ [ [ [ -70.703112295871804, -26.5126654283271 ], [ -70.703637477980394, -26.512859316249799 ], [ -70.704038771748799, -26.5120304441669 ], [ -70.703307482595704, -26.511587917018499 ], [ -70.703112295871804, -26.5126654283271 ] ] ] ] } },
{ "type": "Feature", "properties": { "id": "prc_chaaral_portofino_mono.8", "Name": null, "description": null, "timestamp": null, "begin": null, "end": null, "altitudeMode": null, "tessellate": -1, "extrude": 0, "visibility": -1, "drawOrder": null, "icon": null, "REG": "Atacama", "COM": "Chañaral", "LOCALIDAD": "Portofino", "ZONA": "ZU5", "NOMBRE": "ZU5 Zona Urbana Residencial de Baja Densidad", "UPERM": "Residencial y Equipamiento.", "UPROH": "Todos los no indicados como permitidos.", "Capa": "Seccional Chañaral - Portofino", "CUT": "03201", "Shape_STAr": 115729.650635, "Shape_STLe": 5544.6225615399999 }, "geometry": { "type": "MultiPolygon", "coordinates": [ [ [ [ -70.702460765915703, -26.5124248904396 ], [ -70.703025641025803, -26.512633436714999 ], [ -70.703226300808893, -26.511538791357001 ], [ -70.702689679989305, -26.511214058380698 ], [ -70.702460765915703, -26.5124248904396 ] ] ] ] } },
{ "type": "Feature", "properties": { "id": "prc_chaaral_portofino_mono.9", "Name": null, "description": null, "timestamp": null, "begin": null, "end": null, "altitudeMode": null, "tessellate": -1, "extrude": 0, "visibility": -1, "drawOrder": null, "icon": null, "REG": "Atacama", "COM": "Chañaral", "LOCALIDAD": "Portofino", "ZONA": "ZU5", "NOMBRE": "ZU5 Zona Urbana Residencial de Baja Densidad", "UPERM": "Residencial y Equipamiento.", "UPROH": "Todos los no indicados como permitidos.", "Capa": "Seccional Chañaral - Portofino", "CUT": "03201", "Shape_STAr": 115729.650635, "Shape_STLe": 5544.6225615399999 }, "geometry": { "type": "MultiPolygon", "coordinates": [ [ [ [ -70.7005977877416, -26.516931565066301 ], [ -70.700999326265503, -26.517156654493501 ], [ -70.701790493418599, -26.515908793517902 ], [ -70.701356846654306, -26.515746250501099 ], [ -70.7005977877416, -26.516931565066301 ] ] ] ] } },
{ "type": "Feature", "properties": { "id": "prc_chaaral_portofino_mono.10", "Name": null, "description": null, "timestamp": null, "begin": null, "end": null, "altitudeMode": null, "tessellate": -1, "extrude": 0, "visibility": -1, "drawOrder": null, "icon": null, "REG": "Atacama", "COM": "Chañaral", "LOCALIDAD": "Portofino", "ZONA": "ZU5", "NOMBRE": "ZU5 Zona Urbana Residencial de Baja Densidad", "UPERM": "Residencial y Equipamiento.", "UPROH": "Todos los no indicados como permitidos.", "Capa": "Seccional Chañaral - Portofino", "CUT": "03201", "Shape_STAr": 115729.650635, "Shape_STLe": 5544.6225615399999 }, "geometry": { "type": "MultiPolygon", "coordinates": [ [ [ [ -70.702184907226396, -26.5140129970241 ], [ -70.702757764915404, -26.5141072254638 ], [ -70.702929260860301, -26.513135509968201 ], [ -70.702389574821694, -26.512837101521701 ], [ -70.702388735984201, -26.5128458079556 ], [ -70.702184907226396, -26.5140129970241 ] ] ] ] } },
{ "type": "Feature", "properties": { "id": "prc_chaaral_portofino_mono.11", "Name": null, "description": null, "timestamp": null, "begin": null, "end": null, "altitudeMode": null, "tessellate": -1, "extrude": 0, "visibility": -1, "drawOrder": null, "icon": null, "REG": "Atacama", "COM": "Chañaral", "LOCALIDAD": "Portofino", "ZONA": "ZU5", "NOMBRE": "ZU5 Zona Urbana Residencial de Baja Densidad", "UPERM": "Residencial y Equipamiento.", "UPROH": "Todos los no indicados como permitidos.", "Capa": "Seccional Chañaral - Portofino", "CUT": "03201", "Shape_STAr": 115729.650635, "Shape_STLe": 5544.6225615399999 }, "geometry": { "type": "MultiPolygon", "coordinates": [ [ [ [ -70.699658973284897, -26.518404783682598 ], [ -70.7000486149621, -26.518633002588501 ], [ -70.700700528163196, -26.517621927377 ], [ -70.700231229952607, -26.5175130797994 ], [ -70.699658973284897, -26.518404783682598 ] ] ] ] } },
{ "type": "Feature", "properties": { "id": "prc_chaaral_portofino_mono.12", "Name": null, "description": null, "timestamp": null, "begin": null, "end": null, "altitudeMode": null, "tessellate": -1, "extrude": 0, "visibility": -1, "drawOrder": null, "icon": null, "REG": "Atacama", "COM": "Chañaral", "LOCALIDAD": "Portofino", "ZONA": "ZU5", "NOMBRE": "ZU5 Zona Urbana Residencial de Baja Densidad", "UPERM": "Residencial y Equipamiento.", "UPROH": "Todos los no indicados como permitidos.", "Capa": "Seccional Chañaral - Portofino", "CUT": "03201", "Shape_STAr": 115729.650635, "Shape_STLe": 5544.6225615399999 }, "geometry": { "type": "MultiPolygon", "coordinates": [ [ [ [ -70.701382729417602, -26.515701160658399 ], [ -70.701813201076305, -26.515863208910101 ], [ -70.7024049508818, -26.5149366746592 ], [ -70.702015236845497, -26.514711406311001 ], [ -70.701382729417602, -26.515701160658399 ] ] ] ] } },
{ "type": "Feature", "properties": { "id": "prc_chaaral_portofino_mono.13", "Name": null, "description": null, "timestamp": null, "begin": null, "end": null, "altitudeMode": null, "tessellate": -1, "extrude": 0, "visibility": -1, "drawOrder": null, "icon": null, "REG": "Atacama", "COM": "Chañaral", "LOCALIDAD": "Portofino", "ZONA": "ZU5", "NOMBRE": "ZU5 Zona Urbana Residencial de Baja Densidad", "UPERM": "Residencial y Equipamiento.", "UPROH": "Todos los no indicados como permitidos.", "Capa": "Seccional Chañaral - Portofino", "CUT": "03201", "Shape_STAr": 115729.650635, "Shape_STLe": 5544.6225615399999 }, "geometry": { "type": "MultiPolygon", "coordinates": [ [ [ [ -70.699671581430806, -26.519422285379701 ], [ -70.700559135586602, -26.519478577781701 ], [ -70.700750845423499, -26.519156253467099 ], [ -70.700093218824506, -26.518767497344498 ], [ -70.699671581430806, -26.519422285379701 ] ] ] ] } },
{ "type": "Feature", "properties": { "id": "prc_chaaral_portofino_mono.14", "Name": null, "description": null, "timestamp": null, "begin": null, "end": null, "altitudeMode": null, "tessellate": -1, "extrude": 0, "visibility": -1, "drawOrder": null, "icon": null, "REG": "Atacama", "COM": "Chañaral", "LOCALIDAD": "Portofino", "ZONA": "ZU5", "NOMBRE": "ZU5 Zona Urbana Residencial de Baja Densidad", "UPERM": "Residencial y Equipamiento.", "UPROH": "Todos los no indicados como permitidos.", "Capa": "Seccional Chañaral - Portofino", "CUT": "03201", "Shape_STAr": 115729.650635, "Shape_STLe": 5544.6225615399999 }, "geometry": { "type": "MultiPolygon", "coordinates": [ [ [ [ -70.699049749083997, -26.519381929561899 ], [ -70.699565264350497, -26.519413999494599 ], [ -70.7000063116446, -26.518716122007 ], [ -70.6996196170698, -26.518494874474499 ], [ -70.699049749083997, -26.519381929561899 ] ] ] ] } },
{ "type": "Feature", "properties": { "id": "prc_chaaral_portofino_mono.15", "Name": null, "description": null, "timestamp": null, "begin": null, "end": null, "altitudeMode": null, "tessellate": -1, "extrude": 0, "visibility": -1, "drawOrder": null, "icon": null, "REG": "Atacama", "COM": "Chañaral", "LOCALIDAD": "Portofino", "ZONA": "ZU5", "NOMBRE": "ZU5 Zona Urbana Residencial de Baja Densidad", "UPERM": "Residencial y Equipamiento.", "UPROH": "Todos los no indicados como permitidos.", "Capa": "Seccional Chañaral - Portofino", "CUT": "03201", "Shape_STAr": 115729.650635, "Shape_STLe": 5544.6225615399999 }, "geometry": { "type": "MultiPolygon", "coordinates": [ [ [ [ -70.702851611189701, -26.5141197137823 ], [ -70.702858837756395, -26.514120348738899 ], [ -70.703436130197503, -26.514022697493001 ], [ -70.703494969471294, -26.513692402844299 ], [ -70.703287890607797, -26.513331848039702 ], [ -70.703030897515504, -26.5131868395734 ], [ -70.702851611189701, -26.5141197137823 ] ] ] ] } },
{ "type": "Feature", "properties": { "id": "prc_chaaral_portofino_mono.16", "Name": null, "description": null, "timestamp": null, "begin": null, "end": null, "altitudeMode": null, "tessellate": -1, "extrude": 0, "visibility": -1, "drawOrder": null, "icon": null, "REG": "Atacama", "COM": "Chañaral", "LOCALIDAD": "Portofino", "ZONA": "ZU5", "NOMBRE": "ZU5 Zona Urbana Residencial de Baja Densidad", "UPERM": "Residencial y Equipamiento.", "UPROH": "Todos los no indicados como permitidos.", "Capa": "Seccional Chañaral - Portofino", "CUT": "03201", "Shape_STAr": 115729.650635, "Shape_STLe": 5544.6225615399999 }, "geometry": { "type": "MultiPolygon", "coordinates": [ [ [ [ -70.702789591089896, -26.514465097484599 ], [ -70.703308679706296, -26.514740723585501 ], [ -70.703431456629701, -26.514065743438799 ], [ -70.702840295857797, -26.514178588977799 ], [ -70.702838590632993, -26.514187464628201 ], [ -70.702789591089896, -26.514465097484599 ] ] ] ] } },
{ "type": "Feature", "properties": { "id": "prc_chaaral_portofino_mono.17", "Name": null, "description": null, "timestamp": null, "begin": null, "end": null, "altitudeMode": null, "tessellate": -1, "extrude": 0, "visibility": -1, "drawOrder": null, "icon": null, "REG": "Atacama", "COM": "Chañaral", "LOCALIDAD": "Portofino", "ZONA": "ZU4", "NOMBRE": "ZU4 Zona Urbana Residencial Preferente de Baja Densidad", "UPERM": "Vivienda, Equipamiento cultural, teatros, cines, quintas de recreo, ferias y mercados ambulantes, estadio, canchas y piscinas, talleres, servicios automotrices, almacenes de acopio, cementerios y cárceles.", "UPROH": "Vertederos de basuras, plantas depuradoras de agua; Industrias peligrosas y contaminantes.", "Capa": "Seccional Chañaral - Portofino", "CUT": "03201", "Shape_STAr": 84880.815917999993, "Shape_STLe": 3783.0594112499998 }, "geometry": { "type": "MultiPolygon", "coordinates": [ [ [ [ -70.703503755651795, -26.5141416636299 ], [ -70.703315832922499, -26.515259265558601 ], [ -70.703661526041003, -26.515298126462302 ], [ -70.704022933589499, -26.5153224687189 ], [ -70.704161238552501, -26.5153399231306 ], [ -70.704568040439696, -26.5154668255799 ], [ -70.705061605898294, -26.5151958789837 ], [ -70.704963062472203, -26.5148149222955 ], [ -70.704709429962904, -26.514268635019999 ], [ -70.704708639017298, -26.514250610745101 ], [ -70.704554252512295, -26.514493334240601 ], [ -70.703503755651795, -26.5141416636299 ] ] ] ] } },
{ "type": "Feature", "properties": { "id": "prc_chaaral_portofino_mono.18", "Name": null, "description": null, "timestamp": null, "begin": null, "end": null, "altitudeMode": null, "tessellate": -1, "extrude": 0, "visibility": -1, "drawOrder": null, "icon": null, "REG": "Atacama", "COM": "Chañaral", "LOCALIDAD": "Portofino", "ZONA": "ZU4", "NOMBRE": "ZU4 Zona Urbana Residencial Preferente de Baja Densidad", "UPERM": "Vivienda, Equipamiento cultural, teatros, cines, quintas de recreo, ferias y mercados ambulantes, estadio, canchas y piscinas, talleres, servicios automotrices, almacenes de acopio, cementerios y cárceles.", "UPROH": "Vertederos de basuras, plantas depuradoras de agua; Industrias peligrosas y contaminantes.", "Capa": "Seccional Chañaral - Portofino", "CUT": "03201", "Shape_STAr": 84880.815917999993, "Shape_STLe": 3783.0594112499998 }, "geometry": { "type": "MultiPolygon", "coordinates": [ [ [ [ -70.701881861296499, -26.517593939966599 ], [ -70.702681822626801, -26.517832180891901 ], [ -70.703459934510505, -26.516589905759801 ], [ -70.703459670185097, -26.516571996145402 ], [ -70.703449276817395, -26.516542265974302 ], [ -70.702725888811301, -26.5162633129532 ], [ -70.701881861296499, -26.517593939966599 ] ] ] ] } },
{ "type": "Feature", "properties": { "id": "prc_chaaral_portofino_mono.19", "Name": null, "description": null, "timestamp": null, "begin": null, "end": null, "altitudeMode": null, "tessellate": -1, "extrude": 0, "visibility": -1, "drawOrder": null, "icon": null, "REG": "Atacama", "COM": "Chañaral", "LOCALIDAD": "Portofino", "ZONA": "ZU4", "NOMBRE": "ZU4 Zona Urbana Residencial Preferente de Baja Densidad", "UPERM": "Vivienda, Equipamiento cultural, teatros, cines, quintas de recreo, ferias y mercados ambulantes, estadio, canchas y piscinas, talleres, servicios automotrices, almacenes de acopio, cementerios y cárceles.", "UPROH": "Vertederos de basuras, plantas depuradoras de agua; Industrias peligrosas y contaminantes.", "Capa": "Seccional Chañaral - Portofino", "CUT": "03201", "Shape_STAr": 84880.815917999993, "Shape_STLe": 3783.0594112499998 }, "geometry": { "type": "MultiPolygon", "coordinates": [ [ [ [ -70.700690371395297, -26.5194851548424 ], [ -70.701539507435598, -26.519546675363799 ], [ -70.702158463150795, -26.518547706621 ], [ -70.701538819568995, -26.518149502282998 ], [ -70.700690371395297, -26.5194851548424 ] ] ] ] } },
{ "type": "Feature", "properties": { "id": "prc_chaaral_portofino_mono.20", "Name": null, "description": null, "timestamp": null, "begin": null, "end": null, "altitudeMode": null, "tessellate": -1, "extrude": 0, "visibility": -1, "drawOrder": null, "icon": null, "REG": "Atacama", "COM": "Chañaral", "LOCALIDAD": "Portofino", "ZONA": "ZU4", "NOMBRE": "ZU4 Zona Urbana Residencial Preferente de Baja Densidad", "UPERM": "Vivienda, Equipamiento cultural, teatros, cines, quintas de recreo, ferias y mercados ambulantes, estadio, canchas y piscinas, talleres, servicios automotrices, almacenes de acopio, cementerios y cárceles.", "UPROH": "Vertederos de basuras, plantas depuradoras de agua; Industrias peligrosas y contaminantes.", "Capa": "Seccional Chañaral - Portofino", "CUT": "03201", "Shape_STAr": 84880.815917999993, "Shape_STLe": 3783.0594112499998 }, "geometry": { "type": "MultiPolygon", "coordinates": [ [ [ [ -70.702801665361903, -26.517857619093199 ], [ -70.703195719970694, -26.517966108346801 ], [ -70.704280270072005, -26.5168597211653 ], [ -70.703622776864407, -26.516605873294498 ], [ -70.703596233964404, -26.516606190375999 ], [ -70.703576502512206, -26.5166183676312 ], [ -70.702801665361903, -26.517857619093199 ] ] ] ] } },
{ "type": "Feature", "properties": { "id": "prc_chaaral_portofino_mono.21", "Name": null, "description": null, "timestamp": null, "begin": null, "end": null, "altitudeMode": null, "tessellate": -1, "extrude": 0, "visibility": -1, "drawOrder": null, "icon": null, "REG": "Atacama", "COM": "Chañaral", "LOCALIDAD": "Portofino", "ZONA": "ZU4", "NOMBRE": "ZU4 Zona Urbana Residencial Preferente de Baja Densidad", "UPERM": "Vivienda, Equipamiento cultural, teatros, cines, quintas de recreo, ferias y mercados ambulantes, estadio, canchas y piscinas, talleres, servicios automotrices, almacenes de acopio, cementerios y cárceles.", "UPROH": "Vertederos de basuras, plantas depuradoras de agua; Industrias peligrosas y contaminantes.", "Capa": "Seccional Chañaral - Portofino", "CUT": "03201", "Shape_STAr": 84880.815917999993, "Shape_STLe": 3783.0594112499998 }, "geometry": { "type": "MultiPolygon", "coordinates": [ [ [ [ -70.704055780077496, -26.5167141459678 ], [ -70.704322435296305, -26.516816699255099 ], [ -70.704805765094306, -26.5162975757409 ], [ -70.704526996502295, -26.515847122971401 ], [ -70.704556325594496, -26.515524752420401 ], [ -70.704133363814194, -26.515369894793 ], [ -70.703696806684803, -26.515326269389199 ], [ -70.703612734897902, -26.515529805212498 ], [ -70.704186022174, -26.515870698539601 ], [ -70.704055780077496, -26.5167141459678 ] ] ] ] } },
{ "type": "Feature", "properties": { "id": "prc_chaaral_portofino_mono.22", "Name": null, "description": null, "timestamp": null, "begin": null, "end": null, "altitudeMode": null, "tessellate": -1, "extrude": 0, "visibility": -1, "drawOrder": null, "icon": null, "REG": "Atacama", "COM": "Chañaral", "LOCALIDAD": "Portofino", "ZONA": "ZU4", "NOMBRE": "ZU4 Zona Urbana Residencial Preferente de Baja Densidad", "UPERM": "Vivienda, Equipamiento cultural, teatros, cines, quintas de recreo, ferias y mercados ambulantes, estadio, canchas y piscinas, talleres, servicios automotrices, almacenes de acopio, cementerios y cárceles.", "UPROH": "Vertederos de basuras, plantas depuradoras de agua; Industrias peligrosas y contaminantes.", "Capa": "Seccional Chañaral - Portofino", "CUT": "03201", "Shape_STAr": 84880.815917999993, "Shape_STLe": 3783.0594112499998 }, "geometry": { "type": "MultiPolygon", "coordinates": [ [ [ [ -70.703866105649595, -26.5141851021835 ], [ -70.704402569748197, -26.5143339339302 ], [ -70.7045902322632, -26.514233171743602 ], [ -70.704545958344198, -26.513257465656199 ], [ -70.703954864028404, -26.513033356237099 ], [ -70.703866105649595, -26.5141851021835 ] ] ] ] } },
{ "type": "Feature", "properties": { "id": "prc_chaaral_portofino_mono.23", "Name": null, "description": null, "timestamp": null, "begin": null, "end": null, "altitudeMode": null, "tessellate": -1, "extrude": 0, "visibility": -1, "drawOrder": null, "icon": null, "REG": "Atacama", "COM": "Chañaral", "LOCALIDAD": "Portofino", "ZONA": "ZU4", "NOMBRE": "ZU4 Zona Urbana Residencial Preferente de Baja Densidad", "UPERM": "Vivienda, Equipamiento cultural, teatros, cines, quintas de recreo, ferias y mercados ambulantes, estadio, canchas y piscinas, talleres, servicios automotrices, almacenes de acopio, cementerios y cárceles.", "UPROH": "Vertederos de basuras, plantas depuradoras de agua; Industrias peligrosas y contaminantes.", "Capa": "Seccional Chañaral - Portofino", "CUT": "03201", "Shape_STAr": 84880.815917999993, "Shape_STLe": 3783.0594112499998 }, "geometry": { "type": "MultiPolygon", "coordinates": [ [ [ [ -70.702747583415203, -26.5162162779638 ], [ -70.703505196605505, -26.516508758530001 ], [ -70.703919615109399, -26.5158462399562 ], [ -70.703243902534894, -26.515443095107599 ], [ -70.702747583415203, -26.5162162779638 ] ] ] ] } },
{ "type": "Feature", "properties": { "id": "prc_chaaral_portofino_mono.24", "Name": null, "description": null, "timestamp": null, "begin": null, "end": null, "altitudeMode": null, "tessellate": -1, "extrude": 0, "visibility": -1, "drawOrder": null, "icon": null, "REG": "Atacama", "COM": "Chañaral", "LOCALIDAD": "Portofino", "ZONA": "ZU4", "NOMBRE": "ZU4 Zona Urbana Residencial Preferente de Baja Densidad", "UPERM": "Vivienda, Equipamiento cultural, teatros, cines, quintas de recreo, ferias y mercados ambulantes, estadio, canchas y piscinas, talleres, servicios automotrices, almacenes de acopio, cementerios y cárceles.", "UPROH": "Vertederos de basuras, plantas depuradoras de agua; Industrias peligrosas y contaminantes.", "Capa": "Seccional Chañaral - Portofino", "CUT": "03201", "Shape_STAr": 84880.815917999993, "Shape_STLe": 3783.0594112499998 }, "geometry": { "type": "MultiPolygon", "coordinates": [ [ [ [ -70.703726157156296, -26.5128908482029 ], [ -70.704544753212502, -26.513194537115801 ], [ -70.704500205510996, -26.512314906327699 ], [ -70.704123136722401, -26.512088398327801 ], [ -70.703726157156296, -26.5128908482029 ] ] ] ] } },
{ "type": "Feature", "properties": { "id": "prc_chaaral_portofino_mono.25", "Name": null, "description": null, "timestamp": null, "begin": null, "end": null, "altitudeMode": null, "tessellate": -1, "extrude": 0, "visibility": -1, "drawOrder": null, "icon": null, "REG": "Atacama", "COM": "Chañaral", "LOCALIDAD": "Portofino", "ZONA": "ZU4", "NOMBRE": "ZU4 Zona Urbana Residencial Preferente de Baja Densidad", "UPERM": "Vivienda, Equipamiento cultural, teatros, cines, quintas de recreo, ferias y mercados ambulantes, estadio, canchas y piscinas, talleres, servicios automotrices, almacenes de acopio, cementerios y cárceles.", "UPROH": "Vertederos de basuras, plantas depuradoras de agua; Industrias peligrosas y contaminantes.", "Capa": "Seccional Chañaral - Portofino", "CUT": "03201", "Shape_STAr": 84880.815917999993, "Shape_STLe": 3783.0594112499998 }, "geometry": { "type": "MultiPolygon", "coordinates": [ [ [ [ -70.703532250956897, -26.514048775120798 ], [ -70.703832486634894, -26.514155649503 ], [ -70.7038903596967, -26.5130115580757 ], [ -70.703715065142205, -26.512944967276901 ], [ -70.703532250956897, -26.514048775120798 ] ] ] ] } },
{ "type": "Feature", "properties": { "id": "prc_chaaral_portofino_mono.26", "Name": null, "description": null, "timestamp": null, "begin": null, "end": null, "altitudeMode": null, "tessellate": -1, "extrude": 0, "visibility": -1, "drawOrder": null, "icon": null, "REG": "Atacama", "COM": "Chañaral", "LOCALIDAD": "Portofino", "ZONA": "ZP1", "NOMBRE": "ZP1 Zona de Protección Natural y Paisajística", "UPERM": "Equipamiento e infraestructura (con condición).", "UPROH": "Todos los no indicados como permitidos.", "Capa": "Seccional Chañaral - Portofino", "CUT": "03201", "Shape_STAr": 72024.670654300004, "Shape_STLe": 4270.6253605600004 }, "geometry": { "type": "MultiPolygon", "coordinates": [ [ [ [ -70.701647010134707, -26.519545392558602 ], [ -70.702153413454795, -26.519589504254899 ], [ -70.702446854983194, -26.5187216188265 ], [ -70.702254297900396, -26.518599525584602 ], [ -70.701647010134707, -26.519545392558602 ] ] ] ] } },
{ "type": "Feature", "properties": { "id": "prc_chaaral_portofino_mono.27", "Name": null, "description": null, "timestamp": null, "begin": null, "end": null, "altitudeMode": null, "tessellate": -1, "extrude": 0, "visibility": -1, "drawOrder": null, "icon": null, "REG": "Atacama", "COM": "Chañaral", "LOCALIDAD": "Portofino", "ZONA": "ZP1", "NOMBRE": "ZP1 Zona de Protección Natural y Paisajística", "UPERM": "Equipamiento e infraestructura (con condición).", "UPROH": "Todos los no indicados como permitidos.", "Capa": "Seccional Chañaral - Portofino", "CUT": "03201", "Shape_STAr": 72024.670654300004, "Shape_STLe": 4270.6253605600004 }, "geometry": { "type": "MultiPolygon", "coordinates": [ [ [ [ -70.702300861410805, -26.518516571344801 ], [ -70.702477793441105, -26.518632682160099 ], [ -70.702715938761301, -26.5179285976619 ], [ -70.702670337645699, -26.5179174632704 ], [ -70.702300861410805, -26.518516571344801 ] ] ] ] } },
{ "type": "Feature", "properties": { "id": "prc_chaaral_portofino_mono.28", "Name": null, "description": null, "timestamp": null, "begin": null, "end": null, "altitudeMode": null, "tessellate": -1, "extrude": 0, "visibility": -1, "drawOrder": null, "icon": null, "REG": "Atacama", "COM": "Chañaral", "LOCALIDAD": "Portofino", "ZONA": "ZP1", "NOMBRE": "ZP1 Zona de Protección Natural y Paisajística", "UPERM": "Equipamiento e infraestructura (con condición).", "UPROH": "Todos los no indicados como permitidos.", "Capa": "Seccional Chañaral - Portofino", "CUT": "03201", "Shape_STAr": 72024.670654300004, "Shape_STLe": 4270.6253605600004 }, "geometry": { "type": "MultiPolygon", "coordinates": [ [ [ [ -70.701589312435999, -26.518062919540501 ], [ -70.702212527108699, -26.518467471115699 ], [ -70.702579118002106, -26.517891223763002 ], [ -70.701830464134005, -26.517673129814401 ], [ -70.701589312435999, -26.518062919540501 ] ] ] ] } },
{ "type": "Feature", "properties": { "id": "prc_chaaral_portofino_mono.29", "Name": null, "description": null, "timestamp": null, "begin": null, "end": null, "altitudeMode": null, "tessellate": -1, "extrude": 0, "visibility": -1, "drawOrder": null, "icon": null, "REG": "Atacama", "COM": "Chañaral", "LOCALIDAD": "Portofino", "ZONA": "ZP1", "NOMBRE": "ZP1 Zona de Protección Natural y Paisajística", "UPERM": "Equipamiento e infraestructura (con condición).", "UPROH": "Todos los no indicados como permitidos.", "Capa": "Seccional Chañaral - Portofino", "CUT": "03201", "Shape_STAr": 72024.670654300004, "Shape_STLe": 4270.6253605600004 }, "geometry": { "type": "MultiPolygon", "coordinates": [ [ [ [ -70.700833601912606, -26.5175847124084 ], [ -70.7014888231664, -26.517999632926202 ], [ -70.701730504073097, -26.517632041163498 ], [ -70.701602354091804, -26.5175970361739 ], [ -70.701553994929, -26.517558205803901 ], [ -70.701032173148704, -26.517277829334098 ], [ -70.700833601912606, -26.5175847124084 ] ] ] ] } },
{ "type": "Feature", "properties": { "id": "prc_chaaral_portofino_mono.30", "Name": null, "description": null, "timestamp": null, "begin": null, "end": null, "altitudeMode": null, "tessellate": -1, "extrude": 0, "visibility": -1, "drawOrder": null, "icon": null, "REG": "Atacama", "COM": "Chañaral", "LOCALIDAD": "Portofino", "ZONA": "ZP1", "NOMBRE": "ZP1 Zona de Protección Natural y Paisajística", "UPERM": "Equipamiento e infraestructura (con condición).", "UPROH": "Todos los no indicados como permitidos.", "Capa": "Seccional Chañaral - Portofino", "CUT": "03201", "Shape_STAr": 72024.670654300004, "Shape_STLe": 4270.6253605600004 }, "geometry": { "type": "MultiPolygon", "coordinates": [ [ [ [ -70.698496678972603, -26.517166226694599 ], [ -70.698249320311007, -26.518051191978799 ], [ -70.698779892707606, -26.5172169644494 ], [ -70.698496678972603, -26.517166226694599 ] ] ] ] } },
{ "type": "Feature", "properties": { "id": "prc_chaaral_portofino_mono.31", "Name": null, "description": null, "timestamp": null, "begin": null, "end": null, "altitudeMode": null, "tessellate": -1, "extrude": 0, "visibility": -1, "drawOrder": null, "icon": null, "REG": "Atacama", "COM": "Chañaral", "LOCALIDAD": "Portofino", "ZONA": "ZP1", "NOMBRE": "ZP1 Zona de Protección Natural y Paisajística", "UPERM": "Equipamiento e infraestructura (con condición).", "UPROH": "Todos los no indicados como permitidos.", "Capa": "Seccional Chañaral - Portofino", "CUT": "03201", "Shape_STAr": 72024.670654300004, "Shape_STLe": 4270.6253605600004 }, "geometry": { "type": "MultiPolygon", "coordinates": [ [ [ [ -70.700253904940098, -26.517430410990698 ], [ -70.700753179666705, -26.517531933213899 ], [ -70.700954522327507, -26.517229946724999 ], [ -70.700522350873797, -26.517000890501699 ], [ -70.700253904940098, -26.517430410990698 ] ] ] ] } },
{ "type": "Feature", "properties": { "id": "prc_chaaral_portofino_mono.32", "Name": null, "description": null, "timestamp": null, "begin": null, "end": null, "altitudeMode": null, "tessellate": -1, "extrude": 0, "visibility": -1, "drawOrder": null, "icon": null, "REG": "Atacama", "COM": "Chañaral", "LOCALIDAD": "Portofino", "ZONA": "ZP1", "NOMBRE": "ZP1 Zona de Protección Natural y Paisajística", "UPERM": "Equipamiento e infraestructura (con condición).", "UPROH": "Todos los no indicados como permitidos.", "Capa": "Seccional Chañaral - Portofino", "CUT": "03201", "Shape_STAr": 72024.670654300004, "Shape_STLe": 4270.6253605600004 }, "geometry": { "type": "MultiPolygon", "coordinates": [ [ [ [ -70.698887792986397, -26.5171457610302 ], [ -70.700078137654103, -26.5173930990921 ], [ -70.700373136211795, -26.5169215783447 ], [ -70.699378179093401, -26.5163732589068 ], [ -70.698887792986397, -26.5171457610302 ] ] ] ] } },
{ "type": "Feature", "properties": { "id": "prc_chaaral_portofino_mono.33", "Name": null, "description": null, "timestamp": null, "begin": null, "end": null, "altitudeMode": null, "tessellate": -1, "extrude": 0, "visibility": -1, "drawOrder": null, "icon": null, "REG": "Atacama", "COM": "Chañaral", "LOCALIDAD": "Portofino", "ZONA": "ZP1", "NOMBRE": "ZP1 Zona de Protección Natural y Paisajística", "UPERM": "Equipamiento e infraestructura (con condición).", "UPROH": "Todos los no indicados como permitidos.", "Capa": "Seccional Chañaral - Portofino", "CUT": "03201", "Shape_STAr": 72024.670654300004, "Shape_STLe": 4270.6253605600004 }, "geometry": { "type": "MultiPolygon", "coordinates": [ [ [ [ -70.698525014889398, -26.517064848527099 ], [ -70.698832956195602, -26.517133530330501 ], [ -70.699334241186193, -26.516345339006399 ], [ -70.698804466523995, -26.516065048703801 ], [ -70.698525014889398, -26.517064848527099 ] ] ] ] } },
{ "type": "Feature", "properties": { "id": "prc_chaaral_portofino_mono.34", "Name": null, "description": null, "timestamp": null, "begin": null, "end": null, "altitudeMode": null, "tessellate": -1, "extrude": 0, "visibility": -1, "drawOrder": null, "icon": null, "REG": "Atacama", "COM": "Chañaral", "LOCALIDAD": "Portofino", "ZONA": "ZP1", "NOMBRE": "ZP1 Zona de Protección Natural y Paisajística", "UPERM": "Equipamiento e infraestructura (con condición).", "UPROH": "Todos los no indicados como permitidos.", "Capa": "Seccional Chañaral - Portofino", "CUT": "03201", "Shape_STAr": 72024.670654300004, "Shape_STLe": 4270.6253605600004 }, "geometry": { "type": "MultiPolygon", "coordinates": [ [ [ [ -70.703617243803293, -26.516545753241001 ], [ -70.704001751606299, -26.516695923749602 ], [ -70.704107316690397, -26.515934213671301 ], [ -70.704105023684804, -26.515922777042999 ], [ -70.704098455914703, -26.515909480522399 ], [ -70.704035320959093, -26.515876768985301 ], [ -70.703617243803293, -26.516545753241001 ] ] ] ] } },
{ "type": "Feature", "properties": { "id": "prc_chaaral_portofino_mono.35", "Name": null, "description": null, "timestamp": null, "begin": null, "end": null, "altitudeMode": null, "tessellate": -1, "extrude": 0, "visibility": -1, "drawOrder": null, "icon": null, "REG": "Atacama", "COM": "Chañaral", "LOCALIDAD": "Portofino", "ZONA": "ZP1", "NOMBRE": "ZP1 Zona de Protección Natural y Paisajística", "UPERM": "Equipamiento e infraestructura (con condición).", "UPROH": "Todos los no indicados como permitidos.", "Capa": "Seccional Chañaral - Portofino", "CUT": "03201", "Shape_STAr": 72024.670654300004, "Shape_STLe": 4270.6253605600004 }, "geometry": { "type": "MultiPolygon", "coordinates": [ [ [ [ -70.703297952060495, -26.515345841190999 ], [ -70.703542222903195, -26.5154919568567 ], [ -70.703608358451106, -26.515313301050298 ], [ -70.703309818771601, -26.515286468329101 ], [ -70.703297952060495, -26.515345841190999 ] ] ] ] } },
{ "type": "Feature", "properties": { "id": "prc_chaaral_portofino_mono.36", "Name": null, "description": null, "timestamp": null, "begin": null, "end": null, "altitudeMode": null, "tessellate": -1, "extrude": 0, "visibility": -1, "drawOrder": null, "icon": null, "REG": "Atacama", "COM": "Chañaral", "LOCALIDAD": "Portofino", "ZONA": "ZP1", "NOMBRE": "ZP1 Zona de Protección Natural y Paisajística", "UPERM": "Equipamiento e infraestructura (con condición).", "UPROH": "Todos los no indicados como permitidos.", "Capa": "Seccional Chañaral - Portofino", "CUT": "03201", "Shape_STAr": 72024.670654300004, "Shape_STLe": 4270.6253605600004 }, "geometry": { "type": "MultiPolygon", "coordinates": [ [ [ [ -70.696281634265503, -26.516596260095099 ], [ -70.6978661463083, -26.516929685392402 ], [ -70.698181147037204, -26.515734891344501 ], [ -70.696808626648803, -26.514971883694901 ], [ -70.696281634265503, -26.516596260095099 ] ] ] ] } },
{ "type": "Feature", "properties": { "id": "prc_chaaral_portofino_mono.37", "Name": null, "description": null, "timestamp": null, "begin": null, "end": null, "altitudeMode": null, "tessellate": -1, "extrude": 0, "visibility": -1, "drawOrder": null, "icon": null, "REG": "Atacama", "COM": "Chañaral", "LOCALIDAD": "Portofino", "ZONA": "ZP1", "NOMBRE": "ZP1 Zona de Protección Natural y Paisajística", "UPERM": "Equipamiento e infraestructura (con condición).", "UPROH": "Todos los no indicados como permitidos.", "Capa": "Seccional Chañaral - Portofino", "CUT": "03201", "Shape_STAr": 72024.670654300004, "Shape_STLe": 4270.6253605600004 }, "geometry": { "type": "MultiPolygon", "coordinates": [ [ [ [ -70.704528082406597, -26.514414019864599 ], [ -70.704475137687098, -26.514424206596601 ], [ -70.704402885730104, -26.514421248144799 ], [ -70.704341122363303, -26.514421986258199 ], [ -70.704554252512295, -26.514493334240601 ], [ -70.704638896921793, -26.514360257843698 ], [ -70.704578705901696, -26.514390486758401 ], [ -70.704528082406597, -26.514414019864599 ] ] ] ] } },
{ "type": "Feature", "properties": { "id": "prc_chaaral_portofino_mono.38", "Name": null, "description": null, "timestamp": null, "begin": null, "end": null, "altitudeMode": null, "tessellate": -1, "extrude": 0, "visibility": -1, "drawOrder": null, "icon": null, "REG": "Atacama", "COM": "Chañaral", "LOCALIDAD": "Portofino", "ZONA": "ZP1", "NOMBRE": "ZP1 Zona de Protección Natural y Paisajística", "UPERM": "Equipamiento e infraestructura (con condición).", "UPROH": "Todos los no indicados como permitidos.", "Capa": "Seccional Chañaral - Portofino", "CUT": "03201", "Shape_STAr": 72024.670654300004, "Shape_STLe": 4270.6253605600004 }, "geometry": { "type": "MultiPolygon", "coordinates": [ [ [ [ -70.701282339945095, -26.514148716406801 ], [ -70.701455688774303, -26.5142488119942 ], [ -70.701472603635494, -26.5140891264411 ], [ -70.701282339945095, -26.514148716406801 ] ] ] ] } },
{ "type": "Feature", "properties": { "id": "prc_chaaral_portofino_mono.39", "Name": null, "description": null, "timestamp": null, "begin": null, "end": null, "altitudeMode": null, "tessellate": -1, "extrude": 0, "visibility": -1, "drawOrder": null, "icon": null, "REG": "Atacama", "COM": "Chañaral", "LOCALIDAD": "Portofino", "ZONA": "ZP1", "NOMBRE": "ZP1 Zona de Protección Natural y Paisajística", "UPERM": "Equipamiento e infraestructura (con condición).", "UPROH": "Todos los no indicados como permitidos.", "Capa": "Seccional Chañaral - Portofino", "CUT": "03201", "Shape_STAr": 72024.670654300004, "Shape_STLe": 4270.6253605600004 }, "geometry": { "type": "MultiPolygon", "coordinates": [ [ [ [ -70.699131924268499, -26.514846517420398 ], [ -70.699267702138798, -26.514901083453601 ], [ -70.700099831576594, -26.5135047009773 ], [ -70.700055751596196, -26.513561429887901 ], [ -70.700006936176706, -26.513614928698601 ], [ -70.699953676557499, -26.513664878220801 ], [ -70.699896290494706, -26.513710980441498 ], [ -70.699832595407798, -26.513755121808899 ], [ -70.699765143016293, -26.5137944871699 ], [ -70.699694374689798, -26.513828818937899 ], [ -70.699620753496902, -26.513857892462799 ], [ -70.699544761175204, -26.513881517501801 ], [ -70.699466894978897, -26.513899539463999 ], [ -70.699387664424904, -26.5139118404221 ], [ -70.699131924268499, -26.514846517420398 ] ] ] ] } },
{ "type": "Feature", "properties": { "id": "prc_chaaral_portofino_mono.40", "Name": null, "description": null, "timestamp": null, "begin": null, "end": null, "altitudeMode": null, "tessellate": -1, "extrude": 0, "visibility": -1, "drawOrder": null, "icon": null, "REG": "Atacama", "COM": "Chañaral", "LOCALIDAD": "Portofino", "ZONA": "ZP1", "NOMBRE": "ZP1 Zona de Protección Natural y Paisajística", "UPERM": "Equipamiento e infraestructura (con condición).", "UPROH": "Todos los no indicados como permitidos.", "Capa": "Seccional Chañaral - Portofino", "CUT": "03201", "Shape_STAr": 72024.670654300004, "Shape_STLe": 4270.6253605600004 }, "geometry": { "type": "MultiPolygon", "coordinates": [ [ [ [ -70.700174434693906, -26.513379508903999 ], [ -70.701029376400001, -26.511944804302502 ], [ -70.700358318690704, -26.5117004706314 ], [ -70.700352146129603, -26.5116982234257 ], [ -70.700107820950294, -26.5125467268617 ], [ -70.700150835013901, -26.512615521776301 ], [ -70.700186953253805, -26.512687455185699 ], [ -70.700215895426396, -26.512761968979301 ], [ -70.700237436963604, -26.5128384850251 ], [ -70.700251410715595, -26.512916409654999 ], [ -70.700257708248103, -26.512995138270899 ], [ -70.700256280684499, -26.513074060035802 ], [ -70.700247139085107, -26.5131525626125 ], [ -70.700230354362105, -26.5132300369152 ], [ -70.700206056729499, -26.513305881835102 ], [ -70.700174434693906, -26.513379508903999 ] ] ] ] } },
{ "type": "Feature", "properties": { "id": "prc_chaaral_portofino_mono.41", "Name": null, "description": null, "timestamp": null, "begin": null, "end": null, "altitudeMode": null, "tessellate": -1, "extrude": 0, "visibility": -1, "drawOrder": null, "icon": null, "REG": "Atacama", "COM": "Chañaral", "LOCALIDAD": "Portofino", "ZONA": "ZP1", "NOMBRE": "ZP1 Zona de Protección Natural y Paisajística", "UPERM": "Equipamiento e infraestructura (con condición).", "UPROH": "Todos los no indicados como permitidos.", "Capa": "Seccional Chañaral - Portofino", "CUT": "03201", "Shape_STAr": 72024.670654300004, "Shape_STLe": 4270.6253605600004 }, "geometry": { "type": "MultiPolygon", "coordinates": [ [ [ [ -70.7041490098227, -26.512042710571802 ], [ -70.704505229370994, -26.512255792982799 ], [ -70.704465359773593, -26.511397598953799 ], [ -70.7041490098227, -26.512042710571802 ] ] ] ] } },
{ "type": "Feature", "properties": { "id": "prc_chaaral_portofino_mono.42", "Name": null, "description": null, "timestamp": null, "begin": null, "end": null, "altitudeMode": null, "tessellate": -1, "extrude": 0, "visibility": -1, "drawOrder": null, "icon": null, "REG": "Atacama", "COM": "Chañaral", "LOCALIDAD": "Portofino", "ZONA": "ZE2", "NOMBRE": "ZE2 Zona Urbanizable Zona de Extensión Preferente de Media Densidad", "UPERM": "Vivienda; Equipamiento comercial; estadios, canchas deportivas, piscinas, quintas de recreo, ferias y mercados ambulantes.", "UPROH": "Cementerios y cárceles; Vertederos de basura, plantas depuradoras de agua; Industrias peligrosas, talleres diversos y almacenes de acopio.", "Capa": "Seccional Chañaral - Portofino", "CUT": "03201", "Shape_STAr": 187954.61230499999, "Shape_STLe": 9034.2819242099995 }, "geometry": { "type": "MultiPolygon", "coordinates": [ [ [ [ -70.695440861452695, -26.5191382810699 ], [ -70.696376262179399, -26.519198806898402 ], [ -70.697029137885906, -26.516854541598502 ], [ -70.6962490918025, -26.516687776480801 ], [ -70.695440861452695, -26.5191382810699 ] ] ] ] } },
{ "type": "Feature", "properties": { "id": "prc_chaaral_portofino_mono.43", "Name": null, "description": null, "timestamp": null, "begin": null, "end": null, "altitudeMode": null, "tessellate": -1, "extrude": 0, "visibility": -1, "drawOrder": null, "icon": null, "REG": "Atacama", "COM": "Chañaral", "LOCALIDAD": "Portofino", "ZONA": "ZE2", "NOMBRE": "ZE2 Zona Urbanizable Zona de Extensión Preferente de Media Densidad", "UPERM": "Vivienda; Equipamiento comercial; estadios, canchas deportivas, piscinas, quintas de recreo, ferias y mercados ambulantes.", "UPROH": "Cementerios y cárceles; Vertederos de basura, plantas depuradoras de agua; Industrias peligrosas, talleres diversos y almacenes de acopio.", "Capa": "Seccional Chañaral - Portofino", "CUT": "03201", "Shape_STAr": 187954.61230499999, "Shape_STLe": 9034.2819242099995 }, "geometry": { "type": "MultiPolygon", "coordinates": [ [ [ [ -70.697100880611202, -26.514084717118099 ], [ -70.697728148239406, -26.514316086588899 ], [ -70.698610091174899, -26.511052625048801 ], [ -70.698155862355307, -26.510907596512499 ], [ -70.697100880611202, -26.514084717118099 ] ] ] ] } },
{ "type": "Feature", "properties": { "id": "prc_chaaral_portofino_mono.44", "Name": null, "description": null, "timestamp": null, "begin": null, "end": null, "altitudeMode": null, "tessellate": -1, "extrude": 0, "visibility": -1, "drawOrder": null, "icon": null, "REG": "Atacama", "COM": "Chañaral", "LOCALIDAD": "Portofino", "ZONA": "ZE2", "NOMBRE": "ZE2 Zona Urbanizable Zona de Extensión Preferente de Media Densidad", "UPERM": "Vivienda; Equipamiento comercial; estadios, canchas deportivas, piscinas, quintas de recreo, ferias y mercados ambulantes.", "UPROH": "Cementerios y cárceles; Vertederos de basura, plantas depuradoras de agua; Industrias peligrosas, talleres diversos y almacenes de acopio.", "Capa": "Seccional Chañaral - Portofino", "CUT": "03201", "Shape_STAr": 187954.61230499999, "Shape_STLe": 9034.2819242099995 }, "geometry": { "type": "MultiPolygon", "coordinates": [ [ [ [ -70.698175337921796, -26.510819043555799 ], [ -70.698647470421605, -26.510981559503399 ], [ -70.6993492305687, -26.508446470278098 ], [ -70.698992297509804, -26.508328148833499 ], [ -70.698175337921796, -26.510819043555799 ] ] ] ] } },
{ "type": "Feature", "properties": { "id": "prc_chaaral_portofino_mono.45", "Name": null, "description": null, "timestamp": null, "begin": null, "end": null, "altitudeMode": null, "tessellate": -1, "extrude": 0, "visibility": -1, "drawOrder": null, "icon": null, "REG": "Atacama", "COM": "Chañaral", "LOCALIDAD": "Portofino", "ZONA": "ZE2", "NOMBRE": "ZE2 Zona Urbanizable Zona de Extensión Preferente de Media Densidad", "UPERM": "Vivienda; Equipamiento comercial; estadios, canchas deportivas, piscinas, quintas de recreo, ferias y mercados ambulantes.", "UPROH": "Cementerios y cárceles; Vertederos de basura, plantas depuradoras de agua; Industrias peligrosas, talleres diversos y almacenes de acopio.", "Capa": "Seccional Chañaral - Portofino", "CUT": "03201", "Shape_STAr": 187954.61230499999, "Shape_STLe": 9034.2819242099995 }, "geometry": { "type": "MultiPolygon", "coordinates": [ [ [ [ -70.700915593696905, -26.513930734431 ], [ -70.701233515457105, -26.5141120388822 ], [ -70.701484571924297, -26.514034408505701 ], [ -70.701810314273104, -26.512238877456198 ], [ -70.701262575811697, -26.5120308448423 ], [ -70.700915593696905, -26.513930734431 ] ] ] ] } },
{ "type": "Feature", "properties": { "id": "prc_chaaral_portofino_mono.46", "Name": null, "description": null, "timestamp": null, "begin": null, "end": null, "altitudeMode": null, "tessellate": -1, "extrude": 0, "visibility": -1, "drawOrder": null, "icon": null, "REG": "Atacama", "COM": "Chañaral", "LOCALIDAD": "Portofino", "ZONA": "ZE2", "NOMBRE": "ZE2 Zona Urbanizable Zona de Extensión Preferente de Media Densidad", "UPERM": "Vivienda; Equipamiento comercial; estadios, canchas deportivas, piscinas, quintas de recreo, ferias y mercados ambulantes.", "UPROH": "Cementerios y cárceles; Vertederos de basura, plantas depuradoras de agua; Industrias peligrosas, talleres diversos y almacenes de acopio.", "Capa": "Seccional Chañaral - Portofino", "CUT": "03201", "Shape_STAr": 187954.61230499999, "Shape_STLe": 9034.2819242099995 }, "geometry": { "type": "MultiPolygon", "coordinates": [ [ [ [ -70.699387748624602, -26.5149307991481 ], [ -70.700065878763795, -26.5151902119946 ], [ -70.700828861802094, -26.514001271582501 ], [ -70.700173175208107, -26.513601643868601 ], [ -70.699387748624602, -26.5149307991481 ] ] ] ] } },
{ "type": "Feature", "properties": { "id": "prc_chaaral_portofino_mono.47", "Name": null, "description": null, "timestamp": null, "begin": null, "end": null, "altitudeMode": null, "tessellate": -1, "extrude": 0, "visibility": -1, "drawOrder": null, "icon": null, "REG": "Atacama", "COM": "Chañaral", "LOCALIDAD": "Portofino", "ZONA": "ZE2", "NOMBRE": "ZE2 Zona Urbanizable Zona de Extensión Preferente de Media Densidad", "UPERM": "Vivienda; Equipamiento comercial; estadios, canchas deportivas, piscinas, quintas de recreo, ferias y mercados ambulantes.", "UPROH": "Cementerios y cárceles; Vertederos de basura, plantas depuradoras de agua; Industrias peligrosas, talleres diversos y almacenes de acopio.", "Capa": "Seccional Chañaral - Portofino", "CUT": "03201", "Shape_STAr": 187954.61230499999, "Shape_STLe": 9034.2819242099995 }, "geometry": { "type": "MultiPolygon", "coordinates": [ [ [ [ -70.700119316726003, -26.515213458090098 ], [ -70.700695882544096, -26.515426312300502 ], [ -70.701391256759905, -26.5143337086655 ], [ -70.700869117172502, -26.5140244516633 ], [ -70.700119316726003, -26.515213458090098 ] ] ] ] } },
{ "type": "Feature", "properties": { "id": "prc_chaaral_portofino_mono.48", "Name": null, "description": null, "timestamp": null, "begin": null, "end": null, "altitudeMode": null, "tessellate": -1, "extrude": 0, "visibility": -1, "drawOrder": null, "icon": null, "REG": "Atacama", "COM": "Chañaral", "LOCALIDAD": "Portofino", "ZONA": "ZE2", "NOMBRE": "ZE2 Zona Urbanizable Zona de Extensión Preferente de Media Densidad", "UPERM": "Vivienda; Equipamiento comercial; estadios, canchas deportivas, piscinas, quintas de recreo, ferias y mercados ambulantes.", "UPROH": "Cementerios y cárceles; Vertederos de basura, plantas depuradoras de agua; Industrias peligrosas, talleres diversos y almacenes de acopio.", "Capa": "Seccional Chañaral - Portofino", "CUT": "03201", "Shape_STAr": 187954.61230499999, "Shape_STLe": 9034.2819242099995 }, "geometry": { "type": "MultiPolygon", "coordinates": [ [ [ [ -70.701179140872497, -26.510250599048 ], [ -70.701792893745306, -26.510602584144301 ], [ -70.702365612423193, -26.509596993223798 ], [ -70.701679545459399, -26.509335715173901 ], [ -70.701179140872497, -26.510250599048 ] ] ] ] } },
{ "type": "Feature", "properties": { "id": "prc_chaaral_portofino_mono.49", "Name": null, "description": null, "timestamp": null, "begin": null, "end": null, "altitudeMode": null, "tessellate": -1, "extrude": 0, "visibility": -1, "drawOrder": null, "icon": null, "REG": "Atacama", "COM": "Chañaral", "LOCALIDAD": "Portofino", "ZONA": "ZE2", "NOMBRE": "ZE2 Zona Urbanizable Zona de Extensión Preferente de Media Densidad", "UPERM": "Vivienda; Equipamiento comercial; estadios, canchas deportivas, piscinas, quintas de recreo, ferias y mercados ambulantes.", "UPROH": "Cementerios y cárceles; Vertederos de basura, plantas depuradoras de agua; Industrias peligrosas, talleres diversos y almacenes de acopio.", "Capa": "Seccional Chañaral - Portofino", "CUT": "03201", "Shape_STAr": 187954.61230499999, "Shape_STLe": 9034.2819242099995 }, "geometry": { "type": "MultiPolygon", "coordinates": [ [ [ [ -70.699429234268294, -26.516305992961598 ], [ -70.699980176063605, -26.516581251530202 ], [ -70.700670043535794, -26.515474386669698 ], [ -70.700091154507902, -26.5152580450195 ], [ -70.699429234268294, -26.516305992961598 ] ] ] ] } },
{ "type": "Feature", "properties": { "id": "prc_chaaral_portofino_mono.50", "Name": null, "description": null, "timestamp": null, "begin": null, "end": null, "altitudeMode": null, "tessellate": -1, "extrude": 0, "visibility": -1, "drawOrder": null, "icon": null, "REG": "Atacama", "COM": "Chañaral", "LOCALIDAD": "Portofino", "ZONA": "ZE2", "NOMBRE": "ZE2 Zona Urbanizable Zona de Extensión Preferente de Media Densidad", "UPERM": "Vivienda; Equipamiento comercial; estadios, canchas deportivas, piscinas, quintas de recreo, ferias y mercados ambulantes.", "UPROH": "Cementerios y cárceles; Vertederos de basura, plantas depuradoras de agua; Industrias peligrosas, talleres diversos y almacenes de acopio.", "Capa": "Seccional Chañaral - Portofino", "CUT": "03201", "Shape_STAr": 187954.61230499999, "Shape_STLe": 9034.2819242099995 }, "geometry": { "type": "MultiPolygon", "coordinates": [ [ [ [ -70.700225875229194, -26.513515027158601 ], [ -70.700868616345204, -26.5138954691027 ], [ -70.701252336193704, -26.511748873860601 ], [ -70.700225875229194, -26.513515027158601 ] ] ] ] } },
{ "type": "Feature", "properties": { "id": "prc_chaaral_portofino_mono.51", "Name": null, "description": null, "timestamp": null, "begin": null, "end": null, "altitudeMode": null, "tessellate": -1, "extrude": 0, "visibility": -1, "drawOrder": null, "icon": null, "REG": "Atacama", "COM": "Chañaral", "LOCALIDAD": "Portofino", "ZONA": "ZE2", "NOMBRE": "ZE2 Zona Urbanizable Zona de Extensión Preferente de Media Densidad", "UPERM": "Vivienda; Equipamiento comercial; estadios, canchas deportivas, piscinas, quintas de recreo, ferias y mercados ambulantes.", "UPROH": "Cementerios y cárceles; Vertederos de basura, plantas depuradoras de agua; Industrias peligrosas, talleres diversos y almacenes de acopio.", "Capa": "Seccional Chañaral - Portofino", "CUT": "03201", "Shape_STAr": 187954.61230499999, "Shape_STLe": 9034.2819242099995 }, "geometry": { "type": "MultiPolygon", "coordinates": [ [ [ [ -70.697905509005807, -26.519293217017399 ], [ -70.698220521892395, -26.5193201561084 ], [ -70.698983268092903, -26.518112120314399 ], [ -70.698474438914005, -26.5178124734249 ], [ -70.698209808111699, -26.518231197603601 ], [ -70.697905509005807, -26.519293217017399 ] ] ] ] } },
{ "type": "Feature", "properties": { "id": "prc_chaaral_portofino_mono.52", "Name": null, "description": null, "timestamp": null, "begin": null, "end": null, "altitudeMode": null, "tessellate": -1, "extrude": 0, "visibility": -1, "drawOrder": null, "icon": null, "REG": "Atacama", "COM": "Chañaral", "LOCALIDAD": "Portofino", "ZONA": "ZE2", "NOMBRE": "ZE2 Zona Urbanizable Zona de Extensión Preferente de Media Densidad", "UPERM": "Vivienda; Equipamiento comercial; estadios, canchas deportivas, piscinas, quintas de recreo, ferias y mercados ambulantes.", "UPROH": "Cementerios y cárceles; Vertederos de basura, plantas depuradoras de agua; Industrias peligrosas, talleres diversos y almacenes de acopio.", "Capa": "Seccional Chañaral - Portofino", "CUT": "03201", "Shape_STAr": 187954.61230499999, "Shape_STLe": 9034.2819242099995 }, "geometry": { "type": "MultiPolygon", "coordinates": [ [ [ [ -70.701859890867496, -26.512256583231601 ], [ -70.7015411021262, -26.5140115832004 ], [ -70.701553850312706, -26.5140067127953 ], [ -70.701696033560694, -26.513972176860602 ], [ -70.701805346365305, -26.5139589309683 ], [ -70.7019248768013, -26.5139634749465 ], [ -70.701981323993706, -26.513965787397101 ], [ -70.702270179913896, -26.512400958652901 ], [ -70.701859890867496, -26.512256583231601 ] ] ] ] } },
{ "type": "Feature", "properties": { "id": "prc_chaaral_portofino_mono.53", "Name": null, "description": null, "timestamp": null, "begin": null, "end": null, "altitudeMode": null, "tessellate": -1, "extrude": 0, "visibility": -1, "drawOrder": null, "icon": null, "REG": "Atacama", "COM": "Chañaral", "LOCALIDAD": "Portofino", "ZONA": "ZE2", "NOMBRE": "ZE2 Zona Urbanizable Zona de Extensión Preferente de Media Densidad", "UPERM": "Vivienda; Equipamiento comercial; estadios, canchas deportivas, piscinas, quintas de recreo, ferias y mercados ambulantes.", "UPROH": "Cementerios y cárceles; Vertederos de basura, plantas depuradoras de agua; Industrias peligrosas, talleres diversos y almacenes de acopio.", "Capa": "Seccional Chañaral - Portofino", "CUT": "03201", "Shape_STAr": 187954.61230499999, "Shape_STLe": 9034.2819242099995 }, "geometry": { "type": "MultiPolygon", "coordinates": [ [ [ [ -70.701271869447694, -26.511985952902901 ], [ -70.701818269663093, -26.512187684499501 ], [ -70.702067683007698, -26.510837656261 ], [ -70.701857004341505, -26.5107101625415 ], [ -70.701342370913196, -26.5115910349645 ], [ -70.701271869447694, -26.511985952902901 ] ] ] ] } },
{ "type": "Feature", "properties": { "id": "prc_chaaral_portofino_mono.54", "Name": null, "description": null, "timestamp": null, "begin": null, "end": null, "altitudeMode": null, "tessellate": -1, "extrude": 0, "visibility": -1, "drawOrder": null, "icon": null, "REG": "Atacama", "COM": "Chañaral", "LOCALIDAD": "Portofino", "ZONA": "ZE2", "NOMBRE": "ZE2 Zona Urbanizable Zona de Extensión Preferente de Media Densidad", "UPERM": "Vivienda; Equipamiento comercial; estadios, canchas deportivas, piscinas, quintas de recreo, ferias y mercados ambulantes.", "UPROH": "Cementerios y cárceles; Vertederos de basura, plantas depuradoras de agua; Industrias peligrosas, talleres diversos y almacenes de acopio.", "Capa": "Seccional Chañaral - Portofino", "CUT": "03201", "Shape_STAr": 187954.61230499999, "Shape_STLe": 9034.2819242099995 }, "geometry": { "type": "MultiPolygon", "coordinates": [ [ [ [ -70.698286725077594, -26.519325210728699 ], [ -70.698815880550399, -26.5193656088463 ], [ -70.699454726362205, -26.518397881499901 ], [ -70.699036706259506, -26.518135367666499 ], [ -70.698286725077594, -26.519325210728699 ] ] ] ] } },
{ "type": "Feature", "properties": { "id": "prc_chaaral_portofino_mono.55", "Name": null, "description": null, "timestamp": null, "begin": null, "end": null, "altitudeMode": null, "tessellate": -1, "extrude": 0, "visibility": -1, "drawOrder": null, "icon": null, "REG": "Atacama", "COM": "Chañaral", "LOCALIDAD": "Portofino", "ZONA": "ZE2", "NOMBRE": "ZE2 Zona Urbanizable Zona de Extensión Preferente de Media Densidad", "UPERM": "Vivienda; Equipamiento comercial; estadios, canchas deportivas, piscinas, quintas de recreo, ferias y mercados ambulantes.", "UPROH": "Cementerios y cárceles; Vertederos de basura, plantas depuradoras de agua; Industrias peligrosas, talleres diversos y almacenes de acopio.", "Capa": "Seccional Chañaral - Portofino", "CUT": "03201", "Shape_STAr": 187954.61230499999, "Shape_STLe": 9034.2819242099995 }, "geometry": { "type": "MultiPolygon", "coordinates": [ [ [ [ -70.700012661087996, -26.516623854444799 ], [ -70.700424524222896, -26.516829118796799 ], [ -70.701158930843604, -26.515672091280798 ], [ -70.700723622488894, -26.5155071848163 ], [ -70.700012661087996, -26.516623854444799 ] ] ] ] } },
{ "type": "Feature", "properties": { "id": "prc_chaaral_portofino_mono.56", "Name": null, "description": null, "timestamp": null, "begin": null, "end": null, "altitudeMode": null, "tessellate": -1, "extrude": 0, "visibility": -1, "drawOrder": null, "icon": null, "REG": "Atacama", "COM": "Chañaral", "LOCALIDAD": "Portofino", "ZONA": "ZE2", "NOMBRE": "ZE2 Zona Urbanizable Zona de Extensión Preferente de Media Densidad", "UPERM": "Vivienda; Equipamiento comercial; estadios, canchas deportivas, piscinas, quintas de recreo, ferias y mercados ambulantes.", "UPROH": "Cementerios y cárceles; Vertederos de basura, plantas depuradoras de agua; Industrias peligrosas, talleres diversos y almacenes de acopio.", "Capa": "Seccional Chañaral - Portofino", "CUT": "03201", "Shape_STAr": 187954.61230499999, "Shape_STLe": 9034.2819242099995 }, "geometry": { "type": "MultiPolygon", "coordinates": [ [ [ [ -70.701895119833097, -26.510648076326099 ], [ -70.702504847011895, -26.511040847794401 ], [ -70.702750201177906, -26.5097310263466 ], [ -70.702484159112601, -26.509637941109101 ], [ -70.701895119833097, -26.510648076326099 ] ] ] ] } },
{ "type": "Feature", "properties": { "id": "prc_chaaral_portofino_mono.57", "Name": null, "description": null, "timestamp": null, "begin": null, "end": null, "altitudeMode": null, "tessellate": -1, "extrude": 0, "visibility": -1, "drawOrder": null, "icon": null, "REG": "Atacama", "COM": "Chañaral", "LOCALIDAD": "Portofino", "ZONA": "ZE2", "NOMBRE": "ZE2 Zona Urbanizable Zona de Extensión Preferente de Media Densidad", "UPERM": "Vivienda; Equipamiento comercial; estadios, canchas deportivas, piscinas, quintas de recreo, ferias y mercados ambulantes.", "UPROH": "Cementerios y cárceles; Vertederos de basura, plantas depuradoras de agua; Industrias peligrosas, talleres diversos y almacenes de acopio.", "Capa": "Seccional Chañaral - Portofino", "CUT": "03201", "Shape_STAr": 187954.61230499999, "Shape_STLe": 9034.2819242099995 }, "geometry": { "type": "MultiPolygon", "coordinates": [ [ [ [ -70.700744152531001, -26.515459172847802 ], [ -70.701191744939393, -26.5156203933143 ], [ -70.701835950804593, -26.514605450790199 ], [ -70.701439596855195, -26.5143713451391 ], [ -70.700744152531001, -26.515459172847802 ] ] ] ] } },
{ "type": "Feature", "properties": { "id": "prc_chaaral_portofino_mono.58", "Name": null, "description": null, "timestamp": null, "begin": null, "end": null, "altitudeMode": null, "tessellate": -1, "extrude": 0, "visibility": -1, "drawOrder": null, "icon": null, "REG": "Atacama", "COM": "Chañaral", "LOCALIDAD": "Portofino", "ZONA": "ZE2", "NOMBRE": "ZE2 Zona Urbanizable Zona de Extensión Preferente de Media Densidad", "UPERM": "Vivienda; Equipamiento comercial; estadios, canchas deportivas, piscinas, quintas de recreo, ferias y mercados ambulantes.", "UPROH": "Cementerios y cárceles; Vertederos de basura, plantas depuradoras de agua; Industrias peligrosas, talleres diversos y almacenes de acopio.", "Capa": "Seccional Chañaral - Portofino", "CUT": "03201", "Shape_STAr": 187954.61230499999, "Shape_STLe": 9034.2819242099995 }, "geometry": { "type": "MultiPolygon", "coordinates": [ [ [ [ -70.701871256898102, -26.5122072470101 ], [ -70.702276255777207, -26.512356770343601 ], [ -70.702505157665897, -26.5111023951543 ], [ -70.7021099989974, -26.510863264024302 ], [ -70.701871256898102, -26.5122072470101 ] ] ] ] } },
{ "type": "Feature", "properties": { "id": "prc_chaaral_portofino_mono.59", "Name": null, "description": null, "timestamp": null, "begin": null, "end": null, "altitudeMode": null, "tessellate": -1, "extrude": 0, "visibility": -1, "drawOrder": null, "icon": null, "REG": "Atacama", "COM": "Chañaral", "LOCALIDAD": "Portofino", "ZONA": "ZE2", "NOMBRE": "ZE2 Zona Urbanizable Zona de Extensión Preferente de Media Densidad", "UPERM": "Vivienda; Equipamiento comercial; estadios, canchas deportivas, piscinas, quintas de recreo, ferias y mercados ambulantes.", "UPROH": "Cementerios y cárceles; Vertederos de basura, plantas depuradoras de agua; Industrias peligrosas, talleres diversos y almacenes de acopio.", "Capa": "Seccional Chañaral - Portofino", "CUT": "03201", "Shape_STAr": 187954.61230499999, "Shape_STLe": 9034.2819242099995 }, "geometry": { "type": "MultiPolygon", "coordinates": [ [ [ [ -70.696834028401298, -26.514893959881501 ], [ -70.697482612239099, -26.515220611025299 ], [ -70.6976915270277, -26.514400183936701 ], [ -70.697075654721203, -26.514174580456 ], [ -70.696834028401298, -26.514893959881501 ] ] ] ] } },
{ "type": "Feature", "properties": { "id": "prc_chaaral_portofino_mono.60", "Name": null, "description": null, "timestamp": null, "begin": null, "end": null, "altitudeMode": null, "tessellate": -1, "extrude": 0, "visibility": -1, "drawOrder": null, "icon": null, "REG": "Atacama", "COM": "Chañaral", "LOCALIDAD": "Portofino", "ZONA": "ZE2", "NOMBRE": "ZE2 Zona Urbanizable Zona de Extensión Preferente de Media Densidad", "UPERM": "Vivienda; Equipamiento comercial; estadios, canchas deportivas, piscinas, quintas de recreo, ferias y mercados ambulantes.", "UPROH": "Cementerios y cárceles; Vertederos de basura, plantas depuradoras de agua; Industrias peligrosas, talleres diversos y almacenes de acopio.", "Capa": "Seccional Chañaral - Portofino", "CUT": "03201", "Shape_STAr": 187954.61230499999, "Shape_STLe": 9034.2819242099995 }, "geometry": { "type": "MultiPolygon", "coordinates": [ [ [ [ -70.6985261041916, -26.517734019903301 ], [ -70.699044204418698, -26.518032362816399 ], [ -70.699471948313899, -26.5173666590007 ], [ -70.698845209204407, -26.517228665925401 ], [ -70.6985261041916, -26.517734019903301 ] ] ] ] } },
{ "type": "Feature", "properties": { "id": "prc_chaaral_portofino_mono.61", "Name": null, "description": null, "timestamp": null, "begin": null, "end": null, "altitudeMode": null, "tessellate": -1, "extrude": 0, "visibility": -1, "drawOrder": null, "icon": null, "REG": "Atacama", "COM": "Chañaral", "LOCALIDAD": "Portofino", "ZONA": "ZE2", "NOMBRE": "ZE2 Zona Urbanizable Zona de Extensión Preferente de Media Densidad", "UPERM": "Vivienda; Equipamiento comercial; estadios, canchas deportivas, piscinas, quintas de recreo, ferias y mercados ambulantes.", "UPROH": "Cementerios y cárceles; Vertederos de basura, plantas depuradoras de agua; Industrias peligrosas, talleres diversos y almacenes de acopio.", "Capa": "Seccional Chañaral - Portofino", "CUT": "03201", "Shape_STAr": 187954.61230499999, "Shape_STLe": 9034.2819242099995 }, "geometry": { "type": "MultiPolygon", "coordinates": [ [ [ [ -70.699088424009702, -26.518060496066798 ], [ -70.699498075951297, -26.5182956436289 ], [ -70.7000129885283, -26.517477312301999 ], [ -70.699524389119503, -26.517378204884501 ], [ -70.699088424009702, -26.518060496066798 ] ] ] ] } },
{ "type": "Feature", "properties": { "id": "prc_chaaral_portofino_mono.62", "Name": null, "description": null, "timestamp": null, "begin": null, "end": null, "altitudeMode": null, "tessellate": -1, "extrude": 0, "visibility": -1, "drawOrder": null, "icon": null, "REG": "Atacama", "COM": "Chañaral", "LOCALIDAD": "Portofino", "ZONA": "ZU7", "NOMBRE": "ZU7 Zona Urbana Equipamiento Turístico y Recreativo de Borde Costero", "UPERM": "Equipamiento turístico, recreativo y residencial, áreas verdes y parques temáticos.", "UPROH": "Todos los no indicados como permitidos.", "Capa": "Seccional Chañaral - Portofino", "CUT": "03201", "Shape_STAr": 100460.865479, "Shape_STLe": 4257.1968052900002 }, "geometry": { "type": "MultiPolygon", "coordinates": [ [ [ [ -70.6965302878491, -26.519201751505701 ], [ -70.697183901481694, -26.5192369640564 ], [ -70.697815748980503, -26.517012285852601 ], [ -70.697175821031905, -26.516882148492801 ], [ -70.6965302878491, -26.519201751505701 ] ] ] ] } },
{ "type": "Feature", "properties": { "id": "prc_chaaral_portofino_mono.63", "Name": null, "description": null, "timestamp": null, "begin": null, "end": null, "altitudeMode": null, "tessellate": -1, "extrude": 0, "visibility": -1, "drawOrder": null, "icon": null, "REG": "Atacama", "COM": "Chañaral", "LOCALIDAD": "Portofino", "ZONA": "ZU7", "NOMBRE": "ZU7 Zona Urbana Equipamiento Turístico y Recreativo de Borde Costero", "UPERM": "Equipamiento turístico, recreativo y residencial, áreas verdes y parques temáticos.", "UPROH": "Todos los no indicados como permitidos.", "Capa": "Seccional Chañaral - Portofino", "CUT": "03201", "Shape_STAr": 100460.865479, "Shape_STLe": 4257.1968052900002 }, "geometry": { "type": "MultiPolygon", "coordinates": [ [ [ [ -70.698819197453005, -26.515983668958501 ], [ -70.699386272221901, -26.516273067817998 ], [ -70.700036197157303, -26.5152375061116 ], [ -70.699121756451305, -26.514895755233699 ], [ -70.698819197453005, -26.515983668958501 ] ] ] ] } },
{ "type": "Feature", "properties": { "id": "prc_chaaral_portofino_mono.64", "Name": null, "description": null, "timestamp": null, "begin": null, "end": null, "altitudeMode": null, "tessellate": -1, "extrude": 0, "visibility": -1, "drawOrder": null, "icon": null, "REG": "Atacama", "COM": "Chañaral", "LOCALIDAD": "Portofino", "ZONA": "ZU7", "NOMBRE": "ZU7 Zona Urbana Equipamiento Turístico y Recreativo de Borde Costero", "UPERM": "Equipamiento turístico, recreativo y residencial, áreas verdes y parques temáticos.", "UPROH": "Todos los no indicados como permitidos.", "Capa": "Seccional Chañaral - Portofino", "CUT": "03201", "Shape_STAr": 100460.865479, "Shape_STLe": 4257.1968052900002 }, "geometry": { "type": "MultiPolygon", "coordinates": [ [ [ [ -70.697603197623394, -26.515296796359301 ], [ -70.698211970637402, -26.515623917889599 ], [ -70.698454142507202, -26.514688521070401 ], [ -70.697829966947097, -26.514470116733701 ], [ -70.697603197623394, -26.515296796359301 ] ] ] ] } },
{ "type": "Feature", "properties": { "id": "prc_chaaral_portofino_mono.65", "Name": null, "description": null, "timestamp": null, "begin": null, "end": null, "altitudeMode": null, "tessellate": -1, "extrude": 0, "visibility": -1, "drawOrder": null, "icon": null, "REG": "Atacama", "COM": "Chañaral", "LOCALIDAD": "Portofino", "ZONA": "ZU7", "NOMBRE": "ZU7 Zona Urbana Equipamiento Turístico y Recreativo de Borde Costero", "UPERM": "Equipamiento turístico, recreativo y residencial, áreas verdes y parques temáticos.", "UPROH": "Todos los no indicados como permitidos.", "Capa": "Seccional Chañaral - Portofino", "CUT": "03201", "Shape_STAr": 100460.865479, "Shape_STLe": 4257.1968052900002 }, "geometry": { "type": "MultiPolygon", "coordinates": [ [ [ [ -70.700107820950294, -26.5125467268617 ], [ -70.700352146129603, -26.5116982234257 ], [ -70.700025830725593, -26.511579410020701 ], [ -70.699832634547604, -26.512285532163801 ], [ -70.699896722486699, -26.5123294018058 ], [ -70.699956661825595, -26.512377785860402 ], [ -70.700012060759704, -26.512430368060102 ], [ -70.700062557162198, -26.512486804695399 ], [ -70.700107820950294, -26.5125467268617 ] ] ] ] } },
{ "type": "Feature", "properties": { "id": "prc_chaaral_portofino_mono.66", "Name": null, "description": null, "timestamp": null, "begin": null, "end": null, "altitudeMode": null, "tessellate": -1, "extrude": 0, "visibility": -1, "drawOrder": null, "icon": null, "REG": "Atacama", "COM": "Chañaral", "LOCALIDAD": "Portofino", "ZONA": "ZU7", "NOMBRE": "ZU7 Zona Urbana Equipamiento Turístico y Recreativo de Borde Costero", "UPERM": "Equipamiento turístico, recreativo y residencial, áreas verdes y parques temáticos.", "UPROH": "Todos los no indicados como permitidos.", "Capa": "Seccional Chañaral - Portofino", "CUT": "03201", "Shape_STAr": 100460.865479, "Shape_STLe": 4257.1968052900002 }, "geometry": { "type": "MultiPolygon", "coordinates": [ [ [ [ -70.697868288912403, -26.514368155804799 ], [ -70.698482288198804, -26.514599679795499 ], [ -70.698709037394295, -26.513765387806298 ], [ -70.698637601124503, -26.513717052384202 ], [ -70.698571263391202, -26.513663155661501 ], [ -70.698510557294, -26.513604130765199 ], [ -70.698455970673294, -26.513540452033201 ], [ -70.698407942189604, -26.5134726312019 ], [ -70.698366857798902, -26.513401213294099 ], [ -70.698333047650706, -26.513326772237999 ], [ -70.698306783435896, -26.513249906255901 ], [ -70.698288276203002, -26.5131712330559 ], [ -70.698277674663402, -26.513091384867899 ], [ -70.698275063996206, -26.5130110033633 ], [ -70.698280465164302, -26.512930734497498 ], [ -70.698293834746707, -26.512851223319899 ], [ -70.698315065287801, -26.5127731087893 ], [ -70.698343986161504, -26.512697018639798 ], [ -70.698380364942693, -26.512623564336199 ], [ -70.698423909275803, -26.512553336160298 ], [ -70.698474269224405, -26.512486898467198 ], [ -70.698531040083594, -26.512424785151001 ], [ -70.698593765632495, -26.5123674953538 ], [ -70.698661941800594, -26.5123154894553 ], [ -70.6987350207189, -26.512269185372901 ], [ -70.698812415122006, -26.512228955204002 ], [ -70.698893503067794, -26.512195122236001 ], [ -70.698977632934898, -26.512167958347799 ], [ -70.699064128658804, -26.5121476818262 ], [ -70.699152295164893, -26.5121344556112 ], [ -70.699367750316398, -26.5113416887535 ], [ -70.698762857010195, -26.5111153193902 ], [ -70.697868288912403, -26.514368155804799 ] ] ] ] } },
{ "type": "Feature", "properties": { "id": "prc_chaaral_portofino_mono.67", "Name": null, "description": null, "timestamp": null, "begin": null, "end": null, "altitudeMode": null, "tessellate": -1, "extrude": 0, "visibility": -1, "drawOrder": null, "icon": null, "REG": "Atacama", "COM": "Chañaral", "LOCALIDAD": "Portofino", "ZONA": "ZU7", "NOMBRE": "ZU7 Zona Urbana Equipamiento Turístico y Recreativo de Borde Costero", "UPERM": "Equipamiento turístico, recreativo y residencial, áreas verdes y parques temáticos.", "UPROH": "Todos los no indicados como permitidos.", "Capa": "Seccional Chañaral - Portofino", "CUT": "03201", "Shape_STAr": 100460.865479, "Shape_STLe": 4257.1968052900002 }, "geometry": { "type": "MultiPolygon", "coordinates": [ [ [ [ -70.700043118032497, -26.5115239968978 ], [ -70.701057350178402, -26.5118940406091 ], [ -70.701754533782207, -26.510669937684501 ], [ -70.700497399080007, -26.509924359209101 ], [ -70.700043118032497, -26.5115239968978 ] ] ] ] } },
{ "type": "Feature", "properties": { "id": "prc_chaaral_portofino_mono.68", "Name": null, "description": null, "timestamp": null, "begin": null, "end": null, "altitudeMode": null, "tessellate": -1, "extrude": 0, "visibility": -1, "drawOrder": null, "icon": null, "REG": "Atacama", "COM": "Chañaral", "LOCALIDAD": "Portofino", "ZONA": "ZU7", "NOMBRE": "ZU7 Zona Urbana Equipamiento Turístico y Recreativo de Borde Costero", "UPERM": "Equipamiento turístico, recreativo y residencial, áreas verdes y parques temáticos.", "UPROH": "Todos los no indicados como permitidos.", "Capa": "Seccional Chañaral - Portofino", "CUT": "03201", "Shape_STAr": 100460.865479, "Shape_STLe": 4257.1968052900002 }, "geometry": { "type": "MultiPolygon", "coordinates": [ [ [ [ -70.700509790489704, -26.5098645027335 ], [ -70.701085365108099, -26.510192008746799 ], [ -70.701570704083593, -26.509294263567501 ], [ -70.7007556463019, -26.508983853055099 ], [ -70.700509790489704, -26.5098645027335 ] ] ] ] } },
{ "type": "Feature", "properties": { "id": "prc_chaaral_portofino_mono.69", "Name": null, "description": null, "timestamp": null, "begin": null, "end": null, "altitudeMode": null, "tessellate": -1, "extrude": 0, "visibility": -1, "drawOrder": null, "icon": null, "REG": "Atacama", "COM": "Chañaral", "LOCALIDAD": "Portofino", "ZONA": "ZU7", "NOMBRE": "ZU7 Zona Urbana Equipamiento Turístico y Recreativo de Borde Costero", "UPERM": "Equipamiento turístico, recreativo y residencial, áreas verdes y parques temáticos.", "UPROH": "Todos los no indicados como permitidos.", "Capa": "Seccional Chañaral - Portofino", "CUT": "03201", "Shape_STAr": 100460.865479, "Shape_STLe": 4257.1968052900002 }, "geometry": { "type": "MultiPolygon", "coordinates": [ [ [ [ -70.698781445118598, -26.511025534848699 ], [ -70.699395890295094, -26.511240420170299 ], [ -70.700108320849495, -26.508740793426099 ], [ -70.699494350601398, -26.508509275816699 ], [ -70.698781445118598, -26.511025534848699 ] ] ] ] } },
{ "type": "Feature", "properties": { "id": "prc_chaaral_portofino_mono.70", "Name": null, "description": null, "timestamp": null, "begin": null, "end": null, "altitudeMode": null, "tessellate": -1, "extrude": 0, "visibility": -1, "drawOrder": null, "icon": null, "REG": "Atacama", "COM": "Chañaral", "LOCALIDAD": "Portofino", "ZONA": "ZU6", "NOMBRE": "ZU6 Zona Urbana Equipamiento Exclusivo.", "UPERM": "Equipamiento.", "UPROH": "Todos los no indicados como permitidos.", "Capa": "Seccional Chañaral - Portofino", "CUT": "03201", "Shape_STAr": 17369.8312988, "Shape_STLe": 1486.8902113300001 }, "geometry": { "type": "MultiPolygon", "coordinates": [ [ [ [ -70.702069598514498, -26.5146074394798 ], [ -70.702460786448199, -26.5148511580262 ], [ -70.702678604655205, -26.514499859643401 ], [ -70.702737094026403, -26.514145685408501 ], [ -70.702172690196406, -26.514056131172801 ], [ -70.702167881664593, -26.514071276861699 ], [ -70.702069598514498, -26.5146074394798 ] ] ] ] } },
{ "type": "Feature", "properties": { "id": "prc_chaaral_portofino_mono.71", "Name": null, "description": null, "timestamp": null, "begin": null, "end": null, "altitudeMode": null, "tessellate": -1, "extrude": 0, "visibility": -1, "drawOrder": null, "icon": null, "REG": "Atacama", "COM": "Chañaral", "LOCALIDAD": "Portofino", "ZONA": "ZU6", "NOMBRE": "ZU6 Zona Urbana Equipamiento Exclusivo.", "UPERM": "Equipamiento.", "UPROH": "Todos los no indicados como permitidos.", "Capa": "Seccional Chañaral - Portofino", "CUT": "03201", "Shape_STAr": 17369.8312988, "Shape_STLe": 1486.8902113300001 }, "geometry": { "type": "MultiPolygon", "coordinates": [ [ [ [ -70.702782243319305, -26.5179447871677 ], [ -70.702213051826604, -26.519606549867099 ], [ -70.7031061788133, -26.518061374158499 ], [ -70.703120770417001, -26.518045815526101 ], [ -70.702782243319305, -26.5179447871677 ] ] ] ] } },
{ "type": "Feature", "properties": { "id": "prc_chaaral_portofino_mono.72", "Name": null, "description": null, "timestamp": null, "begin": null, "end": null, "altitudeMode": null, "tessellate": -1, "extrude": 0, "visibility": -1, "drawOrder": null, "icon": null, "REG": "Atacama", "COM": "Chañaral", "LOCALIDAD": "Portofino", "ZONA": "ZU6", "NOMBRE": "ZU6 Zona Urbana Equipamiento Exclusivo.", "UPERM": "Equipamiento.", "UPROH": "Todos los no indicados como permitidos.", "Capa": "Seccional Chañaral - Portofino", "CUT": "03201", "Shape_STAr": 17369.8312988, "Shape_STLe": 1486.8902113300001 }, "geometry": { "type": "MultiPolygon", "coordinates": [ [ [ [ -70.702545768140098, -26.514898109245301 ], [ -70.703098236062203, -26.515231851968601 ], [ -70.703295692845003, -26.514895125896398 ], [ -70.703314234785694, -26.514802356302098 ], [ -70.7027875820025, -26.5145113937476 ], [ -70.702545768140098, -26.514898109245301 ] ] ] ] } },
{ "type": "Feature", "properties": { "id": "prc_chaaral_portofino_mono.73", "Name": null, "description": null, "timestamp": null, "begin": null, "end": null, "altitudeMode": null, "tessellate": -1, "extrude": 0, "visibility": -1, "drawOrder": null, "icon": null, "REG": "Atacama", "COM": "Chañaral", "LOCALIDAD": "Portofino", "ZONA": "ZU6", "NOMBRE": "ZU6 Zona Urbana Equipamiento Exclusivo.", "UPERM": "Equipamiento.", "UPROH": "Todos los no indicados como permitidos.", "Capa": "Seccional Chañaral - Portofino", "CUT": "03201", "Shape_STAr": 17369.8312988, "Shape_STLe": 1486.8902113300001 }, "geometry": { "type": "MultiPolygon", "coordinates": [ [ [ [ -70.703030833063195, -26.513126293984499 ], [ -70.703542599223695, -26.513400812669001 ], [ -70.703614035264707, -26.5129070185587 ], [ -70.703106707815806, -26.5127187206812 ], [ -70.703030833063195, -26.513126293984499 ] ] ] ] } },
{ "type": "Feature", "properties": { "id": "prc_chaaral_portofino_mono.74", "Name": null, "description": null, "timestamp": null, "begin": null, "end": null, "altitudeMode": null, "tessellate": -1, "extrude": 0, "visibility": -1, "drawOrder": null, "icon": null, "REG": "Atacama", "COM": "Chañaral", "LOCALIDAD": "Portofino", "ZONA": "ZU6", "NOMBRE": "ZU6 Zona Urbana Equipamiento Exclusivo.", "UPERM": "Equipamiento.", "UPROH": "Todos los no indicados como permitidos.", "Capa": "Seccional Chañaral - Portofino", "CUT": "03201", "Shape_STAr": 17369.8312988, "Shape_STLe": 1486.8902113300001 }, "geometry": { "type": "MultiPolygon", "coordinates": [ [ [ [ -70.702395210046703, -26.512778616404599 ], [ -70.7029437330593, -26.513070610495401 ], [ -70.7030087176922, -26.512682351016998 ], [ -70.702453802584003, -26.512476387517101 ], [ -70.702395210046703, -26.512778616404599 ] ] ] ] } },
{ "type": "Feature", "properties": { "id": "prc_chaaral_portofino_mono.75", "Name": null, "description": null, "timestamp": null, "begin": null, "end": null, "altitudeMode": null, "tessellate": -1, "extrude": 0, "visibility": -1, "drawOrder": null, "icon": null, "REG": "Atacama", "COM": "Chañaral", "LOCALIDAD": "Portofino", "ZONA": "ZU6", "NOMBRE": "ZU6 Zona Urbana Equipamiento Exclusivo.", "UPERM": "Equipamiento.", "UPROH": "Todos los no indicados como permitidos.", "Capa": "Seccional Chañaral - Portofino", "CUT": "03201", "Shape_STAr": 17369.8312988, "Shape_STLe": 1486.8902113300001 }, "geometry": { "type": "MultiPolygon", "coordinates": [ [ [ [ -70.701491955088102, -26.514269753894101 ], [ -70.701882108315203, -26.514495036590301 ], [ -70.701970826682299, -26.514021784963202 ], [ -70.701905444252802, -26.514007137494499 ], [ -70.701825728250796, -26.5140021175119 ], [ -70.701693190618499, -26.514015640535799 ], [ -70.701535954090502, -26.514064487526198 ], [ -70.7014910635517, -26.5142608677133 ], [ -70.701491955088102, -26.514269753894101 ] ] ] ] } }
]
}
