{
"type": "FeatureCollection",
"name": "IPT_07_PRC_Parral",
"crs": { "type": "name", "properties": { "name": "urn:ogc:def:crs:OGC:1.3:CRS84" } },
"features": [
{ "type": "Feature", "properties": { "id": "monoparte.1", "Name": null, "description": null, "timestamp": null, "begin": null, "end": null, "altitudeMode": null, "tessellate": -1, "extrude": 0, "visibility": -1, "drawOrder": null, "icon": null, "REG": "Maule", "COM": "Parral", "LOC": "Parral", "ZONA": "ZU-5", "NOM": "Zona ZU-5", "UPERM": "Vivienda, equipamiento de cualquier tipo y escala (excepto los prohibidos). Industria y almacenamiento de tipo inofensivo enfrentando vías de 14 m. de ancho mínimo. Terminales rodoviarios, depósito de buses y camiones.", "UPROH": "Equipamiento, talleres artesanales y garages de tipo molesto, peligroso o insalubre. Industria y almacenamiento molesto o insalubre.", "P_DO": "03/07/1990", "N_DOC": "76", "T_DO": "Resolución", "OBS": null }, "geometry": { "type": "Polygon", "coordinates": [ [ [ -71.648816242609797, -36.285276256381103 ], [ -71.649548432210494, -36.288154094794102 ], [ -71.649625610788902, -36.288290936861401 ], [ -71.649925252775404, -36.289486124889699 ], [ -71.650082818826405, -36.289964316822697 ], [ -71.6499807296954, -36.290081040912398 ], [ -71.649825660409206, -36.290198939825103 ], [ -71.649546082106497, -36.290467444795603 ], [ -71.649485520023106, -36.290592785689903 ], [ -71.649373268484197, -36.2907574265774 ], [ -71.6493413340948, -36.290858288024197 ], [ -71.649207464221007, -36.291428787487597 ], [ -71.649030049997407, -36.291757024727602 ], [ -71.649098996898104, -36.291879495073402 ], [ -71.649156008471394, -36.291997460525501 ], [ -71.649231003063505, -36.292124565264302 ], [ -71.649335271474001, -36.292246252314399 ], [ -71.649386718978207, -36.292373879037498 ], [ -71.649508325940602, -36.292485642542097 ], [ -71.649571224708694, -36.292603477222997 ], [ -71.649628398840903, -36.292726208274502 ], [ -71.649739039686395, -36.292862060216699 ], [ -71.649795569214106, -36.292965728513302 ], [ -71.649875808016901, -36.293073640439303 ], [ -71.649926128075407, -36.293167907445202 ], [ -71.650124831246899, -36.293468728168797 ], [ -71.649914192092993, -36.293511552846098 ], [ -71.649733149221802, -36.293558490291403 ], [ -71.649587588833498, -36.293609410113 ], [ -71.650341687120999, -36.294241005487002 ], [ -71.652327669230502, -36.295989815193003 ], [ -71.654218744796196, -36.295332012284398 ], [ -71.651016479196201, -36.292562229532997 ], [ -71.654188237032898, -36.291122277694498 ], [ -71.656716880297097, -36.289964595343903 ], [ -71.655281178032197, -36.284881924515901 ], [ -71.652931874844199, -36.285275559976903 ], [ -71.652607395790795, -36.285298382117404 ], [ -71.651705786090801, -36.282181095896703 ], [ -71.648201255822599, -36.282748432466398 ], [ -71.648816242609797, -36.285276256381103 ] ] ] } },
{ "type": "Feature", "properties": { "id": "monoparte.2", "Name": null, "description": null, "timestamp": null, "begin": null, "end": null, "altitudeMode": null, "tessellate": -1, "extrude": 0, "visibility": -1, "drawOrder": null, "icon": null, "REG": "Maule", "COM": "Parral", "LOC": "Parral", "ZONA": "ZR-7", "NOM": "Zona ZR-7", "UPERM": "Vivienda sólo cuidador, equipamiento de culto, cultura, áreas verdes, deportes, esparcimiento, comercio minorista.", "UPROH": "Todos los no señalados expresamente como permitidos.", "P_DO": "03/07/1990", "N_DOC": "76", "T_DO": "Resolución", "OBS": null }, "geometry": { "type": "Polygon", "coordinates": [ [ [ -71.645998858173002, -36.293520979976797 ], [ -71.647080384896398, -36.295069520385397 ], [ -71.650341687120999, -36.294241005487002 ], [ -71.649587588833498, -36.293609410113 ], [ -71.649733149221802, -36.293558490291403 ], [ -71.649914192092993, -36.293511552846098 ], [ -71.650124831246899, -36.293468728168797 ], [ -71.649926128075407, -36.293167907445202 ], [ -71.649875808016901, -36.293073640439303 ], [ -71.649795569214106, -36.292965728513302 ], [ -71.649739039686395, -36.292862060216699 ], [ -71.649628398840903, -36.292726208274502 ], [ -71.649571224708694, -36.292603477222997 ], [ -71.649508325940602, -36.292485642542097 ], [ -71.649386718978207, -36.292373879037498 ], [ -71.649335271474001, -36.292246252314399 ], [ -71.649231003063505, -36.292124565264302 ], [ -71.649156008471394, -36.291997460525501 ], [ -71.649098996898104, -36.291879495073402 ], [ -71.649030049997407, -36.291757024727602 ], [ -71.649207464221007, -36.291428787487597 ], [ -71.6493413340948, -36.290858288024197 ], [ -71.649373268484197, -36.2907574265774 ], [ -71.649485520023106, -36.290592785689903 ], [ -71.649546082106497, -36.290467444795603 ], [ -71.649825660409206, -36.290198939825103 ], [ -71.6499807296954, -36.290081040912398 ], [ -71.650082818826405, -36.289964316822697 ], [ -71.649925252775404, -36.289486124889699 ], [ -71.649625610788902, -36.288290936861401 ], [ -71.649548432210494, -36.288154094794102 ], [ -71.646751991278293, -36.288823822643401 ], [ -71.646415141164198, -36.288902410896199 ], [ -71.646119392986094, -36.288993094115703 ], [ -71.645818899559799, -36.289143194551301 ], [ -71.645612546979194, -36.289398425726603 ], [ -71.645597241009298, -36.289581430323302 ], [ -71.645381048243195, -36.290735342114701 ], [ -71.645420700566405, -36.292555662909798 ], [ -71.645449287454099, -36.292780291009301 ], [ -71.645998858173002, -36.293520979976797 ] ] ] } },
{ "type": "Feature", "properties": { "id": "monoparte.3", "Name": null, "description": null, "timestamp": null, "begin": null, "end": null, "altitudeMode": null, "tessellate": -1, "extrude": 0, "visibility": -1, "drawOrder": null, "icon": null, "REG": "Maule", "COM": "Parral", "LOC": "Parral", "ZONA": "ZE-1", "NOM": "Zona ZE-1", "UPERM": "Vivienda, equipamiento de cualquier tipo y escala (salvo los prohibidos), industria y almacenamiento inofensivo, terminales rodoviarios, depósitos de buses y camiones, enfrentando vías de 20 m. de ancho mínimo.", "UPROH": "Equipamiento: talleres artesanales y garages de tipo peligrosos o insalubres, industria y almacenamiento insalubre.", "P_DO": "03/07/1990", "N_DOC": "76", "T_DO": "Resolución", "OBS": null }, "geometry": { "type": "Polygon", "coordinates": [ [ [ -71.842327612149703, -36.140853697717098 ], [ -71.842020703977894, -36.140902715558902 ], [ -71.841873840353003, -36.140906203236298 ], [ -71.841749651411504, -36.140927036369902 ], [ -71.841178602077605, -36.1409882857469 ], [ -71.841101266480393, -36.141085502886703 ], [ -71.841492647320507, -36.142155204657797 ], [ -71.841810210689999, -36.143012050796102 ], [ -71.841672190728104, -36.143057057178297 ], [ -71.841676490500504, -36.143176180970698 ], [ -71.842357602462897, -36.145145115117202 ], [ -71.843344035245295, -36.1449845711604 ], [ -71.843528102659903, -36.144920491755599 ], [ -71.8435200006044, -36.144588057491298 ], [ -71.843430332723798, -36.143326395451197 ], [ -71.843426919355807, -36.143028411958902 ], [ -71.843428670065407, -36.142873377307097 ], [ -71.843393273827104, -36.1427073019753 ], [ -71.843380767319402, -36.142564528475802 ], [ -71.843042450870996, -36.141743947041903 ], [ -71.842767403762394, -36.141047048142497 ], [ -71.842659411091105, -36.140797304269803 ], [ -71.842502772698893, -36.140819730892602 ], [ -71.842327612149703, -36.140853697717098 ] ] ] } },
{ "type": "Feature", "properties": { "id": "monoparte.4", "Name": null, "description": null, "timestamp": null, "begin": null, "end": null, "altitudeMode": null, "tessellate": -1, "extrude": 0, "visibility": -1, "drawOrder": null, "icon": null, "REG": "Maule", "COM": "Parral", "LOC": "Parral", "ZONA": "ZE-1", "NOM": "Zona ZE-1", "UPERM": "Vivienda, equipamiento de cualquier tipo y escala (salvo los prohibidos), industria y almacenamiento inofensivo, terminales rodoviarios, depósitos de buses y camiones, enfrentando vías de 20 m. de ancho mínimo.", "UPROH": "Equipamiento: talleres artesanales y garages de tipo peligrosos o insalubres, industria y almacenamiento insalubre.", "P_DO": "03/07/1990", "N_DOC": "76", "T_DO": "Resolución", "OBS": null }, "geometry": { "type": "Polygon", "coordinates": [ [ [ -71.8363753304141, -36.137754138996598 ], [ -71.836091788541196, -36.137839548190598 ], [ -71.836014889732397, -36.137540920451698 ], [ -71.835172528153194, -36.137904250528898 ], [ -71.834982753685694, -36.137973127707397 ], [ -71.834839164541194, -36.138026604380201 ], [ -71.834820753367893, -36.138017814549897 ], [ -71.834756671129298, -36.138115474423898 ], [ -71.834926668127807, -36.138673002631101 ], [ -71.835058559130403, -36.139274354540198 ], [ -71.835338844076901, -36.140322865564002 ], [ -71.835896109074994, -36.141715335707801 ], [ -71.836001694081602, -36.1418308673436 ], [ -71.836174815202199, -36.141862532745002 ], [ -71.836374114227496, -36.141886423446401 ], [ -71.837187004583697, -36.141927959453902 ], [ -71.837350412215102, -36.141934815341202 ], [ -71.8374848075252, -36.141870823461701 ], [ -71.837529254187999, -36.141880500588002 ], [ -71.837591994584102, -36.1417860164036 ], [ -71.837716167839901, -36.1415362744942 ], [ -71.837772827026001, -36.141395436156202 ], [ -71.837902558353804, -36.141324401330998 ], [ -71.838050041965801, -36.141256521467703 ], [ -71.838192990308002, -36.141185172891099 ], [ -71.838335809511193, -36.141110249312497 ], [ -71.838478233040703, -36.141063375942501 ], [ -71.837961764978203, -36.139230183123402 ], [ -71.837188736458103, -36.136451957149099 ], [ -71.836770971170495, -36.136618790476 ], [ -71.837172880840598, -36.137371117396299 ], [ -71.837176099895899, -36.137460460674802 ], [ -71.8363753304141, -36.137754138996598 ] ] ] } },
{ "type": "Feature", "properties": { "id": "monoparte.5", "Name": null, "description": null, "timestamp": null, "begin": null, "end": null, "altitudeMode": null, "tessellate": -1, "extrude": 0, "visibility": -1, "drawOrder": null, "icon": null, "REG": "Maule", "COM": "Parral", "LOC": "Parral", "ZONA": "ZE-1", "NOM": "Zona ZE-1", "UPERM": "Vivienda, equipamiento de cualquier tipo y escala (salvo los prohibidos), industria y almacenamiento inofensivo, terminales rodoviarios, depósitos de buses y camiones, enfrentando vías de 20 m. de ancho mínimo.", "UPROH": "Equipamiento: talleres artesanales y garages de tipo peligrosos o insalubres, industria y almacenamiento insalubre.", "P_DO": "03/07/1990", "N_DOC": "76", "T_DO": "Resolución", "OBS": null }, "geometry": { "type": "Polygon", "coordinates": [ [ [ -71.840525073393295, -36.131962437559601 ], [ -71.839984211775501, -36.132368484176297 ], [ -71.840033397095695, -36.132446002022299 ], [ -71.840176280077799, -36.1326178735494 ], [ -71.840348045775798, -36.132857018818498 ], [ -71.840477070762503, -36.133011334734803 ], [ -71.840533158652093, -36.133099423129799 ], [ -71.840178482554705, -36.133290256567903 ], [ -71.840367227381407, -36.133511114733203 ], [ -71.8405203425596, -36.133722087212497 ], [ -71.840585370421906, -36.1338135403808 ], [ -71.840655578742101, -36.133926330738198 ], [ -71.840725012736399, -36.134017679241197 ], [ -71.840916490805199, -36.1341919733051 ], [ -71.841020782807107, -36.134271763186298 ], [ -71.8410799888333, -36.134324009085503 ], [ -71.840113169567402, -36.136003005484802 ], [ -71.839746093690394, -36.136584001474198 ], [ -71.838773651175998, -36.1370076713293 ], [ -71.838309200221005, -36.1359885736519 ], [ -71.837370843840304, -36.136379232525798 ], [ -71.837322749140895, -36.136398438906397 ], [ -71.837937472538002, -36.138617341335099 ], [ -71.838640623451596, -36.140999814694098 ], [ -71.838879462896699, -36.140900631743797 ], [ -71.839032768474297, -36.140871956847597 ], [ -71.839195787294599, -36.140868089387901 ], [ -71.839332627864906, -36.140871996802403 ], [ -71.839769071071899, -36.1408687950181 ], [ -71.840096140855394, -36.140889647535197 ], [ -71.840400148448197, -36.140882432370397 ], [ -71.840717373357506, -36.140874902688402 ], [ -71.8408847981229, -36.140870928338103 ], [ -71.841047816678895, -36.140867058357699 ], [ -71.841363623785199, -36.140820215483302 ], [ -71.841671263072001, -36.140791450700299 ], [ -71.841995751645101, -36.140740823929598 ], [ -71.842162401901106, -36.140715405126699 ], [ -71.842307409390102, -36.140701231106704 ], [ -71.842454758676794, -36.140629772097 ], [ -71.842576850153804, -36.140591546503202 ], [ -71.842445077359699, -36.140261852888301 ], [ -71.842403416280106, -36.140125732420202 ], [ -71.842345564298896, -36.139948267588302 ], [ -71.842347961420401, -36.139811101565002 ], [ -71.842511423308807, -36.138638805559097 ], [ -71.842851945021806, -36.136264083164697 ], [ -71.842897109349195, -36.136090133036497 ], [ -71.842898860733797, -36.135935097320903 ], [ -71.8428993231215, -36.1357443249723 ], [ -71.842488479478902, -36.134949308181703 ], [ -71.841192319636406, -36.132428649968404 ], [ -71.8411364109662, -36.132304790345003 ], [ -71.841215298518406, -36.132296700918801 ], [ -71.841140830410396, -36.132148031100797 ], [ -71.841005042921097, -36.1322138586766 ], [ -71.840883040760801, -36.132060742883603 ], [ -71.840666453442196, -36.132017939848197 ], [ -71.840617457311296, -36.131961355252798 ], [ -71.840525073393295, -36.131962437559601 ] ] ] } },
{ "type": "Feature", "properties": { "id": "monoparte.6", "Name": null, "description": null, "timestamp": null, "begin": null, "end": null, "altitudeMode": null, "tessellate": -1, "extrude": 0, "visibility": -1, "drawOrder": null, "icon": null, "REG": "Maule", "COM": "Parral", "LOC": "Parral", "ZONA": "ZE-1", "NOM": "Zona ZE-1", "UPERM": "Vivienda, equipamiento de cualquier tipo y escala (salvo los prohibidos), industria y almacenamiento inofensivo, terminales rodoviarios, depósitos de buses y camiones, enfrentando vías de 20 m. de ancho mínimo.", "UPROH": "Equipamiento: talleres artesanales y garages de tipo peligrosos o insalubres, industria y almacenamiento insalubre.", "P_DO": "03/07/1990", "N_DOC": "76", "T_DO": "Resolución", "OBS": null }, "geometry": { "type": "Polygon", "coordinates": [ [ [ -71.837888459805399, -36.128794343841697 ], [ -71.832357611547295, -36.132429153924598 ], [ -71.8323028154214, -36.132438692481799 ], [ -71.832446522536301, -36.132842090707399 ], [ -71.832623427373505, -36.132856980394997 ], [ -71.832776322890993, -36.132858130069998 ], [ -71.832953570580798, -36.132882548932898 ], [ -71.833132361052705, -36.1329498523762 ], [ -71.833270891767398, -36.133041954425799 ], [ -71.833333574771103, -36.133150159040397 ], [ -71.833390897831805, -36.133272796728299 ], [ -71.833466826123299, -36.133585756709202 ], [ -71.833505968924499, -36.133856665269697 ], [ -71.833546870802095, -36.134013076108602 ], [ -71.833625760428404, -36.134244891551297 ], [ -71.834957332220498, -36.133998750699199 ], [ -71.835648470989, -36.135069719550401 ], [ -71.835705113996099, -36.1351732965624 ], [ -71.836648477836306, -36.1345953465542 ], [ -71.836689357674004, -36.134506150322302 ], [ -71.836463405340297, -36.132966335269003 ], [ -71.836483983029098, -36.132884773360203 ], [ -71.838133752932194, -36.131844163496801 ], [ -71.838382380305902, -36.131728579929799 ], [ -71.838716535715804, -36.133170444128503 ], [ -71.838761947655996, -36.133288592244 ], [ -71.839164194062704, -36.133031060642097 ], [ -71.839145026223804, -36.1329885940496 ], [ -71.839136404628107, -36.132912493742303 ], [ -71.839203284701398, -36.132810757492599 ], [ -71.839870485760301, -36.132314207589999 ], [ -71.840510525143301, -36.1318378627399 ], [ -71.838983740113406, -36.1300745731969 ], [ -71.837888459805399, -36.128794343841697 ] ] ] } },
{ "type": "Feature", "properties": { "id": "monoparte.7", "Name": null, "description": null, "timestamp": null, "begin": null, "end": null, "altitudeMode": null, "tessellate": -1, "extrude": 0, "visibility": -1, "drawOrder": null, "icon": null, "REG": "Maule", "COM": "Parral", "LOC": "Parral", "ZONA": "ZE-1", "NOM": "Zona ZE-1", "UPERM": "Vivienda, equipamiento de cualquier tipo y escala (salvo los prohibidos), industria y almacenamiento inofensivo, terminales rodoviarios, depósitos de buses y camiones, enfrentando vías de 20 m. de ancho mínimo.", "UPROH": "Equipamiento: talleres artesanales y garages de tipo peligrosos o insalubres, industria y almacenamiento insalubre.", "P_DO": "03/07/1990", "N_DOC": "76", "T_DO": "Resolución", "OBS": null }, "geometry": { "type": "Polygon", "coordinates": [ [ [ -71.823109965677702, -36.124375683034103 ], [ -71.820897301763495, -36.125520057991302 ], [ -71.820554853269002, -36.1249856457313 ], [ -71.820311744068405, -36.124797172337999 ], [ -71.817429422144201, -36.126094985158801 ], [ -71.817431894162098, -36.1261062681819 ], [ -71.817650991284196, -36.126097274141102 ], [ -71.818545120761499, -36.126237178632003 ], [ -71.819536617471798, -36.126428434499701 ], [ -71.820258660085003, -36.126071627335598 ], [ -71.820494151996698, -36.127723330262697 ], [ -71.820724234185306, -36.129428811348298 ], [ -71.821811826466202, -36.129224334905203 ], [ -71.822013006585394, -36.129917067808101 ], [ -71.8231163530901, -36.129742014641899 ], [ -71.823193321994196, -36.130044227522497 ], [ -71.823753717870304, -36.132147279612099 ], [ -71.823606441136903, -36.132138830862203 ], [ -71.820983714993901, -36.132570279898196 ], [ -71.820969670169703, -36.132588495121396 ], [ -71.822696495089403, -36.134020230257498 ], [ -71.822816802789106, -36.134068958017302 ], [ -71.822811465498702, -36.133920050617803 ], [ -71.822880408594301, -36.133793236204902 ], [ -71.823015222306395, -36.133658907266799 ], [ -71.823203994726498, -36.133594841160502 ], [ -71.823380430673595, -36.133596640783701 ], [ -71.823571552701793, -36.133598092771301 ], [ -71.823741500899402, -36.133623889879701 ], [ -71.824122594945194, -36.133799699523799 ], [ -71.8242953205486, -36.133902927751699 ], [ -71.824467192111797, -36.133982330018299 ], [ -71.824625445960294, -36.134091860063599 ], [ -71.824726241644598, -36.134238514350301 ], [ -71.824813206066295, -36.134409340848698 ], [ -71.824957204516807, -36.1345311293598 ], [ -71.825122375971901, -36.134628572944898 ], [ -71.825315208766497, -36.134677673402201 ], [ -71.825505905854598, -36.134667209796604 ], [ -71.825729040937901, -36.134536753493101 ], [ -71.825930575609704, -36.134418730189502 ], [ -71.826044639105703, -36.1343206561952 ], [ -71.826173386272004, -36.134222234456601 ], [ -71.826226997754503, -36.134077897005 ], [ -71.826309979105503, -36.133932865062903 ], [ -71.826436802565993, -36.133780836912202 ], [ -71.826586294900693, -36.133646157416798 ], [ -71.826728870144294, -36.133523563584497 ], [ -71.826894542988001, -36.133430230658 ], [ -71.8270317008311, -36.133361416903902 ], [ -71.827242496776705, -36.133296824275398 ], [ -71.826319216607402, -36.131732918623797 ], [ -71.825192045005295, -36.1298101771009 ], [ -71.824449678919194, -36.128575819146299 ], [ -71.824813795651295, -36.128483767850902 ], [ -71.825162158173399, -36.128362279763998 ], [ -71.825321975464803, -36.128310816501298 ], [ -71.825425492006801, -36.1282499077804 ], [ -71.825411604654903, -36.128225293833403 ], [ -71.823109965677702, -36.124375683034103 ] ] ] } },
{ "type": "Feature", "properties": { "id": "monoparte.8", "Name": null, "description": null, "timestamp": null, "begin": null, "end": null, "altitudeMode": null, "tessellate": -1, "extrude": 0, "visibility": -1, "drawOrder": null, "icon": null, "REG": "Maule", "COM": "Parral", "LOC": "Parral", "ZONA": "ZE-I", "NOM": "Zona ZE-1", "UPERM": "Vivienda (sólo para el cuidador de establecimientos permitidos), equipamiento de escala regional (salvo los prohibidos), industria y almacenamiento de tipo inofensivo, molesto e insalubre, terminales rodoviarios, depósito de buses y camiones.", "UPROH": "Vivienda, equipamiento escala local, de salud, educación, culto, cultura, organización comunitaria, deportes, servicios, comercio, seguridad regional, turismo (salvo hoteles y restaurantes).", "P_DO": "03/07/1990", "N_DOC": "76", "T_DO": "Resolución", "OBS": null }, "geometry": { "type": "Polygon", "coordinates": [ [ [ -71.813517669015695, -36.155488780074101 ], [ -71.814692615172106, -36.160046071656197 ], [ -71.814799140551301, -36.160026122196399 ], [ -71.814914745275402, -36.159969750028402 ], [ -71.815136689568206, -36.159803572706103 ], [ -71.8157258710863, -36.159217422371803 ], [ -71.816259906809705, -36.158733909574302 ], [ -71.816728899037102, -36.158281732322898 ], [ -71.816828948782103, -36.158212324057899 ], [ -71.816407681393599, -36.156629204876999 ], [ -71.815891816300095, -36.154729980931499 ], [ -71.814950803088394, -36.156021508534202 ], [ -71.814496189420197, -36.156670064631797 ], [ -71.814430518314197, -36.1567272887036 ], [ -71.813974450060002, -36.156800966718599 ], [ -71.813611013755605, -36.1553864251728 ], [ -71.813403225513795, -36.154574847759598 ], [ -71.813196259704895, -36.153786141932002 ], [ -71.813003427703705, -36.153050517019103 ], [ -71.812757708929198, -36.152098665046701 ], [ -71.812622676056606, -36.151578195952403 ], [ -71.812579683047403, -36.151411812206199 ], [ -71.812422557172596, -36.150816033635699 ], [ -71.812264773318304, -36.150211685926202 ], [ -71.812093015808799, -36.149551868777998 ], [ -71.811820493694299, -36.148490954936598 ], [ -71.811614338237305, -36.147707472173202 ], [ -71.811362801679905, -36.146690416414998 ], [ -71.811150297649107, -36.145877036996303 ], [ -71.8110141577056, -36.145335781609198 ], [ -71.810912329226696, -36.145351412728203 ], [ -71.811698601124107, -36.148510023333699 ], [ -71.8124092197544, -36.151277469588798 ], [ -71.813517669015695, -36.155488780074101 ] ] ] } },
{ "type": "Feature", "properties": { "id": "monoparte.9", "Name": null, "description": null, "timestamp": null, "begin": null, "end": null, "altitudeMode": null, "tessellate": -1, "extrude": 0, "visibility": -1, "drawOrder": null, "icon": null, "REG": "Maule", "COM": "Parral", "LOC": "Parral", "ZONA": "ZE-I", "NOM": "Zona ZE-1", "UPERM": "Vivienda (sólo para el cuidador de establecimientos permitidos), equipamiento de escala regional (salvo los prohibidos), industria y almacenamiento de tipo inofensivo, molesto e insalubre, terminales rodoviarios, depósito de buses y camiones.", "UPROH": "Vivienda, equipamiento escala local, de salud, educación, culto, cultura, organización comunitaria, deportes, servicios, comercio, seguridad regional, turismo (salvo hoteles y restaurantes).", "P_DO": "03/07/1990", "N_DOC": "76", "T_DO": "Resolución", "OBS": null }, "geometry": { "type": "Polygon", "coordinates": [ [ [ -71.813467721780498, -36.1547150915491 ], [ -71.8139897602058, -36.156774377031198 ], [ -71.814402931657995, -36.156713987321197 ], [ -71.814414842890997, -36.156697611947799 ], [ -71.814435599373795, -36.156661355400402 ], [ -71.814883615168995, -36.156033820195603 ], [ -71.815835719199896, -36.1547029075724 ], [ -71.815873852682003, -36.154663844567999 ], [ -71.815535661037998, -36.153418689287697 ], [ -71.814680112543897, -36.150255468837599 ], [ -71.8140928038341, -36.148090902467203 ], [ -71.813952045845397, -36.147572109502697 ], [ -71.813227867094895, -36.144995955752997 ], [ -71.811031517943604, -36.145333117111697 ], [ -71.811148841431901, -36.145791823834799 ], [ -71.811762273066904, -36.1481500232453 ], [ -71.812092132108901, -36.149420978251001 ], [ -71.812461725231898, -36.150816186430703 ], [ -71.812771354310399, -36.152075690757698 ], [ -71.812935975858593, -36.152691800143401 ], [ -71.813131618574403, -36.153435346827003 ], [ -71.813467721780498, -36.1547150915491 ] ] ] } },
{ "type": "Feature", "properties": { "id": "monoparte.10", "Name": null, "description": null, "timestamp": null, "begin": null, "end": null, "altitudeMode": null, "tessellate": -1, "extrude": 0, "visibility": -1, "drawOrder": null, "icon": null, "REG": "Maule", "COM": "Parral", "LOC": "Parral", "ZONA": "ZE-2", "NOM": "Zona ZE-2", "UPERM": "Vivienda, equipamiento de cualquier tipo y escala (salvo los prohibidos), industria y almacenamiento inofensivo, terminales rodoviarios, depósitos de buses y camiones, enfrentando vías de 20 m. de ancho mínimo.", "UPROH": "Equipamiento, talleres artesanales y garages peligrosos o insalubres. Industrias y almacenamiento insalubre.", "P_DO": "03/07/1990", "N_DOC": "76", "T_DO": "Resolución", "OBS": null }, "geometry": { "type": "Polygon", "coordinates": [ [ [ -71.814680112543897, -36.150255468837599 ], [ -71.815535661037998, -36.153418689287697 ], [ -71.815873852682003, -36.154663844567999 ], [ -71.815891816300095, -36.154729980931499 ], [ -71.816407681393599, -36.156629204876999 ], [ -71.816828948782103, -36.158212324057899 ], [ -71.818232329860706, -36.156992068340898 ], [ -71.819061923782101, -36.156346587981702 ], [ -71.819620088262695, -36.155922105521299 ], [ -71.819705237818795, -36.155836639946202 ], [ -71.820240974006197, -36.155812091425197 ], [ -71.820857501874798, -36.155785635863701 ], [ -71.821070498890705, -36.155780614252301 ], [ -71.821232082071106, -36.155776804518901 ], [ -71.821451782343004, -36.155753740045803 ], [ -71.821631341867899, -36.155636241230297 ], [ -71.821991739739602, -36.155436980014599 ], [ -71.822143201178093, -36.1553559104876 ], [ -71.822301365412997, -36.155256798546702 ], [ -71.823346165226596, -36.154669402368597 ], [ -71.824275017056394, -36.154128848717797 ], [ -71.824433818479307, -36.154047603124098 ], [ -71.824599107180703, -36.153942359293801 ], [ -71.825701356220705, -36.153522887661502 ], [ -71.826780917703701, -36.1530860588338 ], [ -71.828303120925497, -36.152489726028797 ], [ -71.828448295370904, -36.152438603869101 ], [ -71.828060416948702, -36.151609095977697 ], [ -71.826971684461299, -36.148802007538897 ], [ -71.825663848686503, -36.149061812120003 ], [ -71.825858923279796, -36.149581800552298 ], [ -71.825286225704801, -36.149681167254101 ], [ -71.825219604972006, -36.149463364019702 ], [ -71.823956700468202, -36.149664859980497 ], [ -71.824312266775607, -36.150724735963401 ], [ -71.824160190757794, -36.150747400832898 ], [ -71.823206885552906, -36.1510560398265 ], [ -71.823732433459497, -36.152264515806102 ], [ -71.821631265850499, -36.152705143934902 ], [ -71.820727742245793, -36.150465914437703 ], [ -71.820599167200001, -36.150488021702103 ], [ -71.820576338295396, -36.1505210890613 ], [ -71.819548198592003, -36.152010273104302 ], [ -71.818488466379904, -36.151519528472697 ], [ -71.818137013552203, -36.15135677288 ], [ -71.817869664726501, -36.151773207738501 ], [ -71.817722579263503, -36.151606892631499 ], [ -71.814246456610803, -36.148130975648598 ], [ -71.8140928038341, -36.148090902467203 ], [ -71.814680112543897, -36.150255468837599 ] ], [ [ -71.818197548569501, -36.151870405301402 ], [ -71.821628323035895, -36.155301961899397 ], [ -71.8214762349929, -36.155384970598597 ], [ -71.817987055347004, -36.151903976899398 ], [ -71.818197548569501, -36.151870405301402 ] ], [ [ -71.816920734848296, -36.153262270465497 ], [ -71.816139966294998, -36.154367993428998 ], [ -71.816101153834893, -36.154361087744803 ], [ -71.816095004169796, -36.154344014331301 ], [ -71.816149221757897, -36.154256895432397 ], [ -71.816519365455605, -36.153754585519401 ], [ -71.817081594835798, -36.152950879385401 ], [ -71.817824340665993, -36.151892543565602 ], [ -71.817886160529994, -36.151894664785097 ], [ -71.816920734848296, -36.153262270465497 ] ] ] } },
{ "type": "Feature", "properties": { "id": "monoparte.11", "Name": null, "description": null, "timestamp": null, "begin": null, "end": null, "altitudeMode": null, "tessellate": -1, "extrude": 0, "visibility": -1, "drawOrder": null, "icon": null, "REG": "Maule", "COM": "Parral", "LOC": "Parral", "ZONA": "ZR-4", "NOM": "Zona ZR-4", "UPERM": "Corresponde el área ocupada por la planta de agua potable de Parral.", "UPROH": "Todos los usos no mencionados como permitidos.", "P_DO": "03/07/1990", "N_DOC": "76", "T_DO": "Resolución", "OBS": null }, "geometry": { "type": "Polygon", "coordinates": [ [ [ -71.818488466379904, -36.151519528472697 ], [ -71.819548198592003, -36.152010273104302 ], [ -71.820576338295396, -36.1505210890613 ], [ -71.820493877852797, -36.1504761963498 ], [ -71.819579960512399, -36.149996982720197 ], [ -71.818488466379904, -36.151519528472697 ] ] ] } },
{ "type": "Feature", "properties": { "id": "monoparte.12", "Name": null, "description": null, "timestamp": null, "begin": null, "end": null, "altitudeMode": null, "tessellate": -1, "extrude": 0, "visibility": -1, "drawOrder": null, "icon": null, "REG": "Maule", "COM": "Parral", "LOC": "Parral", "ZONA": "ZR-1", "NOM": "Zona ZR-1", "UPERM": "Comprende el Estero Parral y las Área verde adyacentes.", "UPROH": "Todos los usos no mencionados como permitidos.", "P_DO": "03/07/1990", "N_DOC": "76", "T_DO": "Resolución", "OBS": null }, "geometry": { "type": "Polygon", "coordinates": [ [ [ -71.826319216607402, -36.131732918623797 ], [ -71.827242496776705, -36.133296824275398 ], [ -71.8270317008311, -36.133361416903902 ], [ -71.826894542988001, -36.133430230658 ], [ -71.826728870144294, -36.133523563584497 ], [ -71.826586294900693, -36.133646157416798 ], [ -71.826436802565993, -36.133780836912202 ], [ -71.826309979105503, -36.133932865062903 ], [ -71.826226997754503, -36.134077897005 ], [ -71.826173386272004, -36.134222234456601 ], [ -71.826044639105703, -36.1343206561952 ], [ -71.825930575609704, -36.134418730189502 ], [ -71.825729040937901, -36.134536753493101 ], [ -71.825505905854598, -36.134667209796604 ], [ -71.825315208766497, -36.134677673402201 ], [ -71.825122375971901, -36.134628572944898 ], [ -71.824957204516807, -36.1345311293598 ], [ -71.824813206066295, -36.134409340848698 ], [ -71.824726241644598, -36.134238514350301 ], [ -71.824625445960294, -36.134091860063599 ], [ -71.824467192111797, -36.133982330018299 ], [ -71.8242953205486, -36.133902927751699 ], [ -71.824122594945194, -36.133799699523799 ], [ -71.823741500899402, -36.133623889879701 ], [ -71.823571552701793, -36.133598092771301 ], [ -71.823380430673595, -36.133596640783701 ], [ -71.823203994726498, -36.133594841160502 ], [ -71.823015222306395, -36.133658907266799 ], [ -71.822880408594301, -36.133793236204902 ], [ -71.822811465498702, -36.133920050617803 ], [ -71.822816802789106, -36.134068958017302 ], [ -71.822911533035594, -36.1342515244108 ], [ -71.823003702783495, -36.134362616224102 ], [ -71.823178480189796, -36.134728095841702 ], [ -71.823213188842701, -36.134876310346002 ], [ -71.823240128468697, -36.135012784722598 ], [ -71.823224292411396, -36.135186037395002 ], [ -71.823141090491305, -36.135325109926399 ], [ -71.823072146650105, -36.135451924502 ], [ -71.822928066433505, -36.135532820496898 ], [ -71.822737581224303, -36.135549235827099 ], [ -71.822585516740602, -36.135612435560098 ], [ -71.822418766588697, -36.135675981435803 ], [ -71.822295860070398, -36.135732531484003 ], [ -71.822151565029799, -36.135807469940801 ], [ -71.821985455531603, -36.135888884292399 ], [ -71.821752831408801, -36.135959944198099 ], [ -71.821513356704202, -36.135977154845001 ], [ -71.820218057782995, -36.136247297386703 ], [ -71.819972252201097, -36.136269348704701 ], [ -71.8196993491065, -36.136346533157898 ], [ -71.819508535632707, -36.136401615173 ], [ -71.819249501828295, -36.136500739682901 ], [ -71.819017789432195, -36.136577807561999 ], [ -71.818744272573397, -36.136677105412602 ], [ -71.818552735340205, -36.136787439015897 ], [ -71.818347770939695, -36.1369528550184 ], [ -71.818197554666895, -36.137096188100102 ], [ -71.817978582910797, -36.1372286974415 ], [ -71.817526540711796, -36.137416724155699 ], [ -71.816436079500093, -36.1380223532963 ], [ -71.816192107451201, -36.138109749553301 ], [ -71.81594734219, -36.1381424199934 ], [ -71.815729165654503, -36.138098280786103 ], [ -71.815416677502697, -36.1381198008499 ], [ -71.815186501860097, -36.138185243470602 ], [ -71.814915897369801, -36.138261533995397 ], [ -71.814659068122495, -36.138392800017002 ], [ -71.8144899615816, -36.138519586308902 ], [ -71.814313750026201, -36.138673659560901 ], [ -71.814164802219096, -36.138849579206799 ], [ -71.813918187708197, -36.1389155033295 ], [ -71.813422481494896, -36.1390366736359 ], [ -71.812915130614698, -36.139146988002103 ], [ -71.812627095497604, -36.1392352884072 ], [ -71.812435504218598, -36.139345614638799 ], [ -71.812121709550198, -36.1395992379883 ], [ -71.811632170825604, -36.140061913587402 ], [ -71.811509688456397, -36.140216139995403 ], [ -71.8114011009297, -36.140414363770297 ], [ -71.811319900167206, -36.140612516392501 ], [ -71.811172169476293, -36.140776940106697 ], [ -71.811053075084899, -36.140962752471196 ], [ -71.810916697444497, -36.141116868493299 ], [ -71.810698094952599, -36.1412491426318 ], [ -71.810528290533099, -36.141411042329501 ], [ -71.810342600573506, -36.1415627541082 ], [ -71.810201979173002, -36.141729626932701 ], [ -71.810088933617493, -36.141896578485699 ], [ -71.810044799516007, -36.142083702039301 ], [ -71.810191019118605, -36.142633391346301 ], [ -71.810307931641105, -36.142618923471197 ], [ -71.811553143341499, -36.142417988099098 ], [ -71.811517984203803, -36.142256665698703 ], [ -71.811512879380601, -36.142113713759997 ], [ -71.811519523751599, -36.1419704857909 ], [ -71.811520294102607, -36.141827395819597 ], [ -71.811687428349998, -36.141732856683497 ], [ -71.812098068580099, -36.141541983167301 ], [ -71.812601851431296, -36.141325074245501 ], [ -71.812758086465195, -36.141254634814302 ], [ -71.812870983787505, -36.141123216625601 ], [ -71.813019300175299, -36.1409957342537 ], [ -71.813181578398897, -36.140929922500298 ], [ -71.8133327872834, -36.140883446394596 ], [ -71.813881772313394, -36.140779927027197 ], [ -71.813761468642298, -36.1405395326613 ], [ -71.814386222864599, -36.1402530055732 ], [ -71.814606904133001, -36.140176278839597 ], [ -71.814578124964299, -36.140029114533903 ], [ -71.814580252613396, -36.139924144879501 ], [ -71.814640784747695, -36.139808263809797 ], [ -71.814736394941207, -36.139686788332199 ], [ -71.814880704511694, -36.139611858238801 ], [ -71.815021183142093, -36.139594246800897 ], [ -71.815208829354404, -36.139580295017304 ], [ -71.815325468426906, -36.139553705294503 ], [ -71.815471310602007, -36.139521659979202 ], [ -71.815599188200494, -36.139480499321898 ], [ -71.816036883928703, -36.139389126336098 ], [ -71.816312136266106, -36.139358804213003 ], [ -71.816452954887595, -36.139350720920199 ], [ -71.816599137062596, -36.139328204958296 ], [ -71.816744807733002, -36.139291392784401 ], [ -71.816908783745205, -36.139273226100102 ], [ -71.817313430435206, -36.138915558593801 ], [ -71.817507366932603, -36.138748844739901 ], [ -71.817799898694801, -36.138708574626001 ], [ -71.817853357760697, -36.138559474866398 ], [ -71.817924950505002, -36.138424255279197 ], [ -71.818044222624394, -36.138306988580801 ], [ -71.818170220846, -36.1382134101666 ], [ -71.818296217623995, -36.138119830757297 ], [ -71.818434305917293, -36.138035504275102 ], [ -71.818555622335296, -36.137975418517897 ], [ -71.818723422996896, -36.137899930658897 ], [ -71.818874963580697, -36.137862977703001 ], [ -71.819050002049096, -36.137825471060602 ], [ -71.819189283203698, -36.137774500220402 ], [ -71.819321152804804, -36.137680781421103 ], [ -71.819405003625306, -36.137559579395699 ], [ -71.819424406938097, -36.137444664962601 ], [ -71.819371611599294, -36.137283760537997 ], [ -71.819396547312905, -36.137159177062799 ], [ -71.819414756323695, -36.137010907073702 ], [ -71.819540409598602, -36.1369077966894 ], [ -71.819633375790303, -36.136876992117301 ], [ -71.819739625840398, -36.136888795993301 ], [ -71.820095328691806, -36.136971027156903 ], [ -71.820273266784099, -36.137014524069102 ], [ -71.820450862651597, -36.137048491870203 ], [ -71.820621048894495, -36.137039711649003 ], [ -71.820766883887401, -36.137007660165203 ], [ -71.820942943582494, -36.136998741053603 ], [ -71.821101721624899, -36.1369997677592 ], [ -71.821280753737597, -36.136909704479997 ], [ -71.821403090462397, -36.136878206168099 ], [ -71.821577784966493, -36.136831166188998 ], [ -71.821710845222199, -36.136770799528399 ], [ -71.821964705741493, -36.136636049502002 ], [ -71.822022664245196, -36.136448689815097 ], [ -71.822082602229997, -36.136316604134301 ], [ -71.822207909211002, -36.136203960488999 ], [ -71.822411118794605, -36.136132401941403 ], [ -71.822597216422807, -36.136075552888101 ], [ -71.822789018726596, -36.136013800548 ], [ -71.823006196007896, -36.136003909534303 ], [ -71.823182936310502, -36.136014047622098 ], [ -71.823357968247095, -36.1359765349372 ], [ -71.823550282183604, -36.135929076473801 ], [ -71.823905536233994, -36.135834851722102 ], [ -71.824100069774005, -36.135849337067597 ], [ -71.8243008197893, -36.135873214094801 ], [ -71.824471686330298, -36.135883488890798 ], [ -71.824650648321594, -36.135955570320597 ], [ -71.825061721972901, -36.136270163520003 ], [ -71.825218556600902, -36.136380918473002 ], [ -71.825276211906498, -36.136513091075201 ], [ -71.825337457657298, -36.136745329796199 ], [ -71.825787777955298, -36.137006533669002 ], [ -71.826213748377299, -36.137244465866097 ], [ -71.826339845889393, -36.137317793042598 ], [ -71.826477864112704, -36.137395607892401 ], [ -71.827936757470795, -36.137418372352201 ], [ -71.828078083913297, -36.137424570576499 ], [ -71.8288912237076, -36.1372586638538 ], [ -71.829426327152504, -36.137149481813502 ], [ -71.829566112122194, -36.137112793343498 ], [ -71.830766045054801, -36.136473978379897 ], [ -71.830900638690906, -36.136456487638704 ], [ -71.830790670592606, -36.136177714729101 ], [ -71.831888173658399, -36.135960988411298 ], [ -71.831532514544705, -36.134572072066497 ], [ -71.831504049382602, -36.134434442704297 ], [ -71.831523091798999, -36.134309997397203 ], [ -71.831494112822895, -36.134158073055801 ], [ -71.831384195193493, -36.133717151653101 ], [ -71.831361947742494, -36.1335889138211 ], [ -71.831357493750403, -36.133465023482003 ], [ -71.831401231854002, -36.133373376645402 ], [ -71.831567858705398, -36.133102367575503 ], [ -71.831729075897201, -36.133007941153103 ], [ -71.832173443442201, -36.132940198026802 ], [ -71.8320659391335, -36.132479926451801 ], [ -71.828192761009106, -36.1331540674745 ], [ -71.825425492006801, -36.1282499077804 ], [ -71.825321975464803, -36.128310816501298 ], [ -71.825162158173399, -36.128362279763998 ], [ -71.824813795651295, -36.128483767850902 ], [ -71.824449678919194, -36.128575819146299 ], [ -71.825192045005295, -36.1298101771009 ], [ -71.826319216607402, -36.131732918623797 ] ] ] } },
{ "type": "Feature", "properties": { "id": "monoparte.13", "Name": null, "description": null, "timestamp": null, "begin": null, "end": null, "altitudeMode": null, "tessellate": -1, "extrude": 0, "visibility": -1, "drawOrder": null, "icon": null, "REG": "Maule", "COM": "Parral", "LOC": "Parral", "ZONA": "ZR-3", "NOM": "Zona ZR-3", "UPERM": "Cementerio", "UPROH": "Todos los usos no mencionados como permitidos.", "P_DO": "03/07/1990", "N_DOC": "76", "T_DO": "Resolución", "OBS": null }, "geometry": { "type": "Polygon", "coordinates": [ [ [ -71.820554853269002, -36.1249856457313 ], [ -71.820897301763495, -36.125520057991302 ], [ -71.823109965677702, -36.124375683034103 ], [ -71.822375378889703, -36.123146953528099 ], [ -71.819995399434504, -36.124355519797398 ], [ -71.820311744068405, -36.124797172337999 ], [ -71.820554853269002, -36.1249856457313 ] ] ] } },
{ "type": "Feature", "properties": { "id": "monoparte.14", "Name": null, "description": null, "timestamp": null, "begin": null, "end": null, "altitudeMode": null, "tessellate": -1, "extrude": 0, "visibility": -1, "drawOrder": null, "icon": null, "REG": "Maule", "COM": "Parral", "LOC": "Parral", "ZONA": "ZU-4", "NOM": "Zona ZU-4", "UPERM": "Vivienda, equipamiento de cualquier tipo y escala (salvo los prohibidos), industria y almacenamiento inofensivo, enfrentando vías de 15m. de ancho mínimo, terminales rodoviarios, depósitos de buses y camiones, enfrentando vías de 20 m. de ancho míni", "UPROH": "Equipamiento: talleres artesanales y garages de tipo peligrosos o insalubres.", "P_DO": "03/07/1990", "N_DOC": "76", "T_DO": "Resolución", "OBS": null }, "geometry": { "type": "Polygon", "coordinates": [ [ [ -71.814246456610803, -36.148130975648598 ], [ -71.817722579263503, -36.151606892631499 ], [ -71.817869664726501, -36.151773207738501 ], [ -71.818137013552203, -36.15135677288 ], [ -71.818488466379904, -36.151519528472697 ], [ -71.819579960512399, -36.149996982720197 ], [ -71.820493877852797, -36.1504761963498 ], [ -71.820576338295396, -36.1505210890613 ], [ -71.820599167200001, -36.150488021702103 ], [ -71.820727742245793, -36.150465914437703 ], [ -71.821631265850499, -36.152705143934902 ], [ -71.823732433459497, -36.152264515806102 ], [ -71.823206885552906, -36.1510560398265 ], [ -71.824160190757794, -36.150747400832898 ], [ -71.824312266775607, -36.150724735963401 ], [ -71.823956700468202, -36.149664859980497 ], [ -71.825219604972006, -36.149463364019702 ], [ -71.825286225704801, -36.149681167254101 ], [ -71.825858923279796, -36.149581800552298 ], [ -71.825663848686503, -36.149061812120003 ], [ -71.826971684461299, -36.148802007538897 ], [ -71.828060416948702, -36.151609095977697 ], [ -71.828448295370904, -36.152438603869101 ], [ -71.828572934908095, -36.152429696838198 ], [ -71.828609656610993, -36.152428828775797 ], [ -71.830311797481301, -36.151726874263602 ], [ -71.832681639892101, -36.150788524406401 ], [ -71.834761737884506, -36.149970257290001 ], [ -71.836645744334106, -36.149211684033197 ], [ -71.836572947668103, -36.148799280335702 ], [ -71.836462099747706, -36.148415615820703 ], [ -71.836310592947797, -36.147882690962199 ], [ -71.835691341809195, -36.145872910187599 ], [ -71.835378242575501, -36.144730394136602 ], [ -71.835166232056096, -36.144721110178999 ], [ -71.8331431946675, -36.145119547212403 ], [ -71.829183892038102, -36.145878500862501 ], [ -71.824664602873796, -36.146765001301603 ], [ -71.820591832722599, -36.147562119885698 ], [ -71.817105594735494, -36.148237990491403 ], [ -71.816056096793503, -36.144542822608102 ], [ -71.815947791341699, -36.144473835369901 ], [ -71.813227867094895, -36.144995955752997 ], [ -71.813952045845397, -36.147572109502697 ], [ -71.8140928038341, -36.148090902467203 ], [ -71.814246456610803, -36.148130975648598 ] ] ] } },
{ "type": "Feature", "properties": { "id": "monoparte.15", "Name": null, "description": null, "timestamp": null, "begin": null, "end": null, "altitudeMode": null, "tessellate": -1, "extrude": 0, "visibility": -1, "drawOrder": null, "icon": null, "REG": "Maule", "COM": "Parral", "LOC": "Parral", "ZONA": "ZU-4", "NOM": "Zona ZU-4", "UPERM": "Vivienda, equipamiento de cualquier tipo y escala (salvo los prohibidos), industria y almacenamiento inofensivo, enfrentando vías de 15m. de ancho mínimo, terminales rodoviarios, depósitos de buses y camiones, enfrentando vías de 20 m. de ancho míni", "UPROH": "Equipamiento: talleres artesanales y garages de tipo peligrosos o insalubres.", "P_DO": "03/07/1990", "N_DOC": "76", "T_DO": "Resolución", "OBS": null }, "geometry": { "type": "Polygon", "coordinates": [ [ [ -71.839503567633997, -36.141006243399502 ], [ -71.839269272527204, -36.141030877871998 ], [ -71.839122408312505, -36.141034362186197 ], [ -71.838915837644805, -36.141094107293497 ], [ -71.838773199234296, -36.141133258198899 ], [ -71.838430979641799, -36.141262986266703 ], [ -71.838276934322096, -36.141311945802002 ], [ -71.838131100046496, -36.1413440186572 ], [ -71.838030184371704, -36.1413988709443 ], [ -71.837932977831898, -36.1414750962726 ], [ -71.837721232503398, -36.141880716863703 ], [ -71.837674046244302, -36.141958140537099 ], [ -71.837559128902399, -36.142032400874001 ], [ -71.837398606544596, -36.142064821138199 ], [ -71.837278176603107, -36.142067676466603 ], [ -71.837118959193802, -36.142054759482797 ], [ -71.836966304750106, -36.142060763123801 ], [ -71.836671627627794, -36.142041518958003 ], [ -71.836389557823793, -36.142045820105203 ], [ -71.836224209156597, -36.142025894147601 ], [ -71.836046596681498, -36.141991950599397 ], [ -71.835987830286101, -36.142074417406 ], [ -71.835923018209797, -36.142152258121797 ], [ -71.835868218858295, -36.142263244151899 ], [ -71.835885976183505, -36.142429740056897 ], [ -71.836055481462907, -36.143136310236102 ], [ -71.836056491910696, -36.143245974599402 ], [ -71.836073562259898, -36.143393410300497 ], [ -71.8362228724408, -36.144028922335004 ], [ -71.836423514917897, -36.144620297025803 ], [ -71.836569758102797, -36.145088965402302 ], [ -71.836600573841594, -36.145209845636998 ], [ -71.836693590556294, -36.1453435584936 ], [ -71.836852826488595, -36.145683153759798 ], [ -71.837037710641894, -36.146081754605603 ], [ -71.837180286434801, -36.146366901555503 ], [ -71.837255559917594, -36.146660797147703 ], [ -71.837265968585797, -36.1468680034898 ], [ -71.837289568931098, -36.147196506781 ], [ -71.83727750784, -36.147432860031003 ], [ -71.837323682409604, -36.147653525394801 ], [ -71.837306554646901, -36.147749312637998 ], [ -71.837339244349707, -36.148003681201402 ], [ -71.837388529010795, -36.148229041195201 ], [ -71.837388683020393, -36.148314880012997 ], [ -71.837464113783398, -36.148694614981999 ], [ -71.837506728354001, -36.148865003719301 ], [ -71.838159707179301, -36.148602071932899 ], [ -71.838804509375706, -36.148342364184401 ], [ -71.840296286005, -36.147722757990103 ], [ -71.8405477315208, -36.147561796411097 ], [ -71.842390138072602, -36.146272138202903 ], [ -71.843336051834598, -36.1455998860704 ], [ -71.843436496500999, -36.145531925753701 ], [ -71.843491588091297, -36.1454292749359 ], [ -71.843489866933197, -36.145381625332298 ], [ -71.843535247716702, -36.145213630689099 ], [ -71.843528102659903, -36.144920491755599 ], [ -71.843344035245295, -36.1449845711604 ], [ -71.842357602462897, -36.145145115117202 ], [ -71.841676490500504, -36.143176180970698 ], [ -71.841672190728104, -36.143057057178297 ], [ -71.841810210689999, -36.143012050796102 ], [ -71.841492647320507, -36.142155204657797 ], [ -71.841101266480393, -36.141085502886703 ], [ -71.841178602077605, -36.1409882857469 ], [ -71.840987839441297, -36.140997245914697 ], [ -71.840824039593102, -36.1410202107703 ], [ -71.8403278969664, -36.141039140441301 ], [ -71.839945277077007, -36.141026760837804 ], [ -71.839806881586497, -36.141020506365997 ], [ -71.839642479739794, -36.141026792147102 ], [ -71.839503567633997, -36.141006243399502 ] ] ] } },
{ "type": "Feature", "properties": { "id": "monoparte.16", "Name": null, "description": null, "timestamp": null, "begin": null, "end": null, "altitudeMode": null, "tessellate": -1, "extrude": 0, "visibility": -1, "drawOrder": null, "icon": null, "REG": "Maule", "COM": "Parral", "LOC": "Parral", "ZONA": "ZU-4", "NOM": "Zona ZU-4", "UPERM": "Vivienda, equipamiento de cualquier tipo y escala (salvo los prohibidos), industria y almacenamiento inofensivo, enfrentando vías de 15m. de ancho mínimo, terminales rodoviarios, depósitos de buses y camiones, enfrentando vías de 20 m. de ancho míni", "UPROH": "Equipamiento: talleres artesanales y garages de tipo peligrosos o insalubres.", "P_DO": "03/07/1990", "N_DOC": "76", "T_DO": "Resolución", "OBS": null }, "geometry": { "type": "Polygon", "coordinates": [ [ [ -71.834200331722897, -36.136081657256298 ], [ -71.834229273136202, -36.136395728336701 ], [ -71.834682131605206, -36.1379516344522 ], [ -71.834820753367893, -36.138017814549897 ], [ -71.834839164541194, -36.138026604380201 ], [ -71.834982753685694, -36.137973127707397 ], [ -71.835172528153194, -36.137904250528898 ], [ -71.836014889732397, -36.137540920451698 ], [ -71.836091788541196, -36.137839548190598 ], [ -71.8363753304141, -36.137754138996598 ], [ -71.837176099895899, -36.137460460674802 ], [ -71.837172880840598, -36.137371117396299 ], [ -71.836770971170495, -36.136618790476 ], [ -71.837188736458103, -36.136451957149099 ], [ -71.837322749140895, -36.136398438906397 ], [ -71.837370843840304, -36.136379232525798 ], [ -71.838309200221005, -36.1359885736519 ], [ -71.838773651175998, -36.1370076713293 ], [ -71.839746093690394, -36.136584001474198 ], [ -71.840113169567402, -36.136003005484802 ], [ -71.8410799888333, -36.134324009085503 ], [ -71.841020782807107, -36.134271763186298 ], [ -71.840916490805199, -36.1341919733051 ], [ -71.840725012736399, -36.134017679241197 ], [ -71.840655578742101, -36.133926330738198 ], [ -71.840585370421906, -36.1338135403808 ], [ -71.8405203425596, -36.133722087212497 ], [ -71.840367227381407, -36.133511114733203 ], [ -71.840178482554705, -36.133290256567903 ], [ -71.840533158652093, -36.133099423129799 ], [ -71.840477070762503, -36.133011334734803 ], [ -71.840348045775798, -36.132857018818498 ], [ -71.840176280077799, -36.1326178735494 ], [ -71.840033397095695, -36.132446002022299 ], [ -71.839984211775501, -36.132368484176297 ], [ -71.839889418367704, -36.132439403960099 ], [ -71.839776939379604, -36.132499301231803 ], [ -71.839317150940005, -36.132832120095003 ], [ -71.839290564631895, -36.132950784605796 ], [ -71.839259057164199, -36.133055258757501 ], [ -71.836733901840901, -36.134683913967997 ], [ -71.835505590113399, -36.135471300265102 ], [ -71.835363035184201, -36.135553367197303 ], [ -71.835201956764095, -36.1356108346681 ], [ -71.835002513705206, -36.135704978948397 ], [ -71.834867740439606, -36.135758246751301 ], [ -71.834684889988196, -36.135823382359398 ], [ -71.834368550454002, -36.135977522760797 ], [ -71.834234290744803, -36.136045084815301 ], [ -71.834200331722897, -36.136081657256298 ] ] ] } },
{ "type": "Feature", "properties": { "id": "monoparte.17", "Name": null, "description": null, "timestamp": null, "begin": null, "end": null, "altitudeMode": null, "tessellate": -1, "extrude": 0, "visibility": -1, "drawOrder": null, "icon": null, "REG": "Maule", "COM": "Parral", "LOC": "Parral", "ZONA": "ZU-4", "NOM": "Zona ZU-4", "UPERM": "Vivienda, equipamiento de cualquier tipo y escala (salvo los prohibidos), industria y almacenamiento inofensivo, enfrentando vías de 15m. de ancho mínimo, terminales rodoviarios, depósitos de buses y camiones, enfrentando vías de 20 m. de ancho míni", "UPROH": "Equipamiento: talleres artesanales y garages de tipo peligrosos o insalubres.", "P_DO": "03/07/1990", "N_DOC": "76", "T_DO": "Resolución", "OBS": null }, "geometry": { "type": "Polygon", "coordinates": [ [ [ -71.836689357674004, -36.134506150322302 ], [ -71.836648477836306, -36.1345953465542 ], [ -71.8367608638479, -36.134567386895299 ], [ -71.836857667640402, -36.1344802041259 ], [ -71.837236774377203, -36.134232765054399 ], [ -71.838761947655996, -36.133288592244 ], [ -71.838716535715804, -36.133170444128503 ], [ -71.838382380305902, -36.131728579929799 ], [ -71.838133752932194, -36.131844163496801 ], [ -71.836483983029098, -36.132884773360203 ], [ -71.836463405340297, -36.132966335269003 ], [ -71.836689357674004, -36.134506150322302 ] ] ] } },
{ "type": "Feature", "properties": { "id": "monoparte.18", "Name": null, "description": null, "timestamp": null, "begin": null, "end": null, "altitudeMode": null, "tessellate": -1, "extrude": 0, "visibility": -1, "drawOrder": null, "icon": null, "REG": "Maule", "COM": "Parral", "LOC": "Parral", "ZONA": "ZU-4", "NOM": "Zona ZU-4", "UPERM": "Vivienda, equipamiento de cualquier tipo y escala (salvo los prohibidos), industria y almacenamiento inofensivo, enfrentando vías de 15m. de ancho mínimo, terminales rodoviarios, depósitos de buses y camiones, enfrentando vías de 20 m. de ancho míni", "UPROH": "Equipamiento: talleres artesanales y garages de tipo peligrosos o insalubres.", "P_DO": "03/07/1990", "N_DOC": "76", "T_DO": "Resolución", "OBS": null }, "geometry": { "type": "Polygon", "coordinates": [ [ [ -71.817431894162098, -36.1261062681819 ], [ -71.818078038145401, -36.129055376770502 ], [ -71.816648290582194, -36.129339788955797 ], [ -71.819162000052799, -36.1327971740156 ], [ -71.821513356704202, -36.135977154845001 ], [ -71.821752831408801, -36.135959944198099 ], [ -71.821985455531603, -36.135888884292399 ], [ -71.822151565029799, -36.135807469940801 ], [ -71.822295860070398, -36.135732531484003 ], [ -71.822418766588697, -36.135675981435803 ], [ -71.822585516740602, -36.135612435560098 ], [ -71.822737581224303, -36.135549235827099 ], [ -71.822928066433505, -36.135532820496898 ], [ -71.823072146650105, -36.135451924502 ], [ -71.823141090491305, -36.135325109926399 ], [ -71.823224292411396, -36.135186037395002 ], [ -71.823240128468697, -36.135012784722598 ], [ -71.823213188842701, -36.134876310346002 ], [ -71.823178480189796, -36.134728095841702 ], [ -71.823003702783495, -36.134362616224102 ], [ -71.822911533035594, -36.1342515244108 ], [ -71.822816802789106, -36.134068958017302 ], [ -71.822696495089403, -36.134020230257498 ], [ -71.820969670169703, -36.132588495121396 ], [ -71.820983714993901, -36.132570279898196 ], [ -71.823606441136903, -36.132138830862203 ], [ -71.823753717870304, -36.132147279612099 ], [ -71.823193321994196, -36.130044227522497 ], [ -71.8231163530901, -36.129742014641899 ], [ -71.822013006585394, -36.129917067808101 ], [ -71.821811826466202, -36.129224334905203 ], [ -71.820724234185306, -36.129428811348298 ], [ -71.820494151996698, -36.127723330262697 ], [ -71.820258660085003, -36.126071627335598 ], [ -71.819536617471798, -36.126428434499701 ], [ -71.818545120761499, -36.126237178632003 ], [ -71.817650991284196, -36.126097274141102 ], [ -71.817431894162098, -36.1261062681819 ] ] ] } },
{ "type": "Feature", "properties": { "id": "monoparte.19", "Name": null, "description": null, "timestamp": null, "begin": null, "end": null, "altitudeMode": null, "tessellate": -1, "extrude": 0, "visibility": -1, "drawOrder": null, "icon": null, "REG": "Maule", "COM": "Parral", "LOC": "Parral", "ZONA": "ZU-2", "NOM": "Zona ZU-2", "UPERM": "Vivienda, equipamiento de cualquier tipo y escala.", "UPROH": "Equipamiento deportivo (estadios), ferias libres, talleres artesanales molestos e insalubres o peligrosos y garages. Industrias y almacenamientos de tipo inofensivo, molesto o insalubre. Terminales rodoviarios.", "P_DO": "03/07/1990", "N_DOC": "76", "T_DO": "Resolución", "OBS": null }, "geometry": { "type": "Polygon", "coordinates": [ [ [ -71.823357968247095, -36.1359765349372 ], [ -71.823182936310502, -36.136014047622098 ], [ -71.823006196007896, -36.136003909534303 ], [ -71.822789018726596, -36.136013800548 ], [ -71.822597216422807, -36.136075552888101 ], [ -71.822411118794605, -36.136132401941403 ], [ -71.822207909211002, -36.136203960488999 ], [ -71.822082602229997, -36.136316604134301 ], [ -71.822022664245196, -36.136448689815097 ], [ -71.821964705741493, -36.136636049502002 ], [ -71.821710845222199, -36.136770799528399 ], [ -71.821577784966493, -36.136831166188998 ], [ -71.821403090462397, -36.136878206168099 ], [ -71.821280753737597, -36.136909704479997 ], [ -71.821101721624899, -36.1369997677592 ], [ -71.820942943582494, -36.136998741053603 ], [ -71.820766883887401, -36.137007660165203 ], [ -71.820621048894495, -36.137039711649003 ], [ -71.820450862651597, -36.137048491870203 ], [ -71.820273266784099, -36.137014524069102 ], [ -71.820095328691806, -36.136971027156903 ], [ -71.819739625840398, -36.136888795993301 ], [ -71.819633375790303, -36.136876992117301 ], [ -71.819540409598602, -36.1369077966894 ], [ -71.819414756323695, -36.137010907073702 ], [ -71.819396547312905, -36.137159177062799 ], [ -71.819371611599294, -36.137283760537997 ], [ -71.819424406938097, -36.137444664962601 ], [ -71.819405003625306, -36.137559579395699 ], [ -71.819321152804804, -36.137680781421103 ], [ -71.819189283203698, -36.137774500220402 ], [ -71.819050002049096, -36.137825471060602 ], [ -71.818874963580697, -36.137862977703001 ], [ -71.818723422996896, -36.137899930658897 ], [ -71.818555622335296, -36.137975418517897 ], [ -71.818434305917293, -36.138035504275102 ], [ -71.818296217623995, -36.138119830757297 ], [ -71.818170220846, -36.1382134101666 ], [ -71.818044222624394, -36.138306988580801 ], [ -71.817924950505002, -36.138424255279197 ], [ -71.817853357760697, -36.138559474866398 ], [ -71.817799898694801, -36.138708574626001 ], [ -71.817507366932603, -36.138748844739901 ], [ -71.817313430435206, -36.138915558593801 ], [ -71.816908783745205, -36.139273226100102 ], [ -71.816744807733002, -36.139291392784401 ], [ -71.816599137062596, -36.139328204958296 ], [ -71.816452954887595, -36.139350720920199 ], [ -71.816312136266106, -36.139358804213003 ], [ -71.816036883928703, -36.139389126336098 ], [ -71.815599188200494, -36.139480499321898 ], [ -71.815471310602007, -36.139521659979202 ], [ -71.815325468426906, -36.139553705294503 ], [ -71.815208829354404, -36.139580295017304 ], [ -71.815021183142093, -36.139594246800897 ], [ -71.814880704511694, -36.139611858238801 ], [ -71.814736394941207, -36.139686788332199 ], [ -71.814640784747695, -36.139808263809797 ], [ -71.814580252613396, -36.139924144879501 ], [ -71.814578124964299, -36.140029114533903 ], [ -71.814606904133001, -36.140176278839597 ], [ -71.814386222864599, -36.1402530055732 ], [ -71.813761468642298, -36.1405395326613 ], [ -71.813881772313394, -36.140779927027197 ], [ -71.8133327872834, -36.140883446394596 ], [ -71.813181578398897, -36.140929922500298 ], [ -71.813019300175299, -36.1409957342537 ], [ -71.812870983787505, -36.141123216625601 ], [ -71.812758086465195, -36.141254634814302 ], [ -71.812601851431296, -36.141325074245501 ], [ -71.812098068580099, -36.141541983167301 ], [ -71.811687428349998, -36.141732856683497 ], [ -71.811520294102607, -36.141827395819597 ], [ -71.811519523751599, -36.1419704857909 ], [ -71.811512879380601, -36.142113713759997 ], [ -71.811517984203803, -36.142256665698703 ], [ -71.811553143341499, -36.142417988099098 ], [ -71.810307931641105, -36.142618923471197 ], [ -71.810191019118605, -36.142633391346301 ], [ -71.810887159965006, -36.145250300808698 ], [ -71.810912329226696, -36.145351412728203 ], [ -71.8110141577056, -36.145335781609198 ], [ -71.811031517943604, -36.145333117111697 ], [ -71.813227867094895, -36.144995955752997 ], [ -71.815947791341699, -36.144473835369901 ], [ -71.816056096793503, -36.144542822608102 ], [ -71.816158553658894, -36.144448309458198 ], [ -71.819078954543699, -36.1439026422117 ], [ -71.819757242127693, -36.146423802183499 ], [ -71.826361281385502, -36.1451414904272 ], [ -71.8253490941173, -36.141403627633601 ], [ -71.825317785531198, -36.1412684494464 ], [ -71.825215816259202, -36.1408845631506 ], [ -71.824513936987998, -36.140986973674899 ], [ -71.824154954322694, -36.141059828372498 ], [ -71.823856886124403, -36.141109783494699 ], [ -71.824166368150003, -36.142361510569401 ], [ -71.821834640217304, -36.142759887379299 ], [ -71.821054710216103, -36.142899886708499 ], [ -71.820668887463299, -36.141485416415897 ], [ -71.817251622767202, -36.142109585876 ], [ -71.815428665162599, -36.142431477153799 ], [ -71.815097483640201, -36.141308998683698 ], [ -71.820767629251606, -36.1403027465633 ], [ -71.825404237011895, -36.139499472836199 ], [ -71.829163680872, -36.138831217451603 ], [ -71.829303799215594, -36.138825521175299 ], [ -71.829322502165994, -36.1386915455344 ], [ -71.8288912237076, -36.1372586638538 ], [ -71.828078083913297, -36.137424570576499 ], [ -71.827936757470795, -36.137418372352201 ], [ -71.826477864112704, -36.137395607892401 ], [ -71.826339845889393, -36.137317793042598 ], [ -71.826213748377299, -36.137244465866097 ], [ -71.825787777955298, -36.137006533669002 ], [ -71.825337457657298, -36.136745329796199 ], [ -71.825276211906498, -36.136513091075201 ], [ -71.825218556600902, -36.136380918473002 ], [ -71.825061721972901, -36.136270163520003 ], [ -71.824650648321594, -36.135955570320597 ], [ -71.824471686330298, -36.135883488890798 ], [ -71.8243008197893, -36.135873214094801 ], [ -71.824100069774005, -36.135849337067597 ], [ -71.823905536233994, -36.135834851722102 ], [ -71.823550282183604, -36.135929076473801 ], [ -71.823357968247095, -36.1359765349372 ] ] ] } },
{ "type": "Feature", "properties": { "id": "monoparte.20", "Name": null, "description": null, "timestamp": null, "begin": null, "end": null, "altitudeMode": null, "tessellate": -1, "extrude": 0, "visibility": -1, "drawOrder": null, "icon": null, "REG": "Maule", "COM": "Parral", "LOC": "Parral", "ZONA": "ZU-1", "NOM": "Zona ZU-1", "UPERM": "Vivienda, equipamiento de cualquier escala.", "UPROH": "Vivienda de 1° piso, equipamiento de salud (de hospitalización), estadios. Mercados, ferias libres, servicentros y playas de estacionamientos, garages y talleres, industria y almacenamiento inofensivo, molesto e insalubre y terminales rodoviarios.", "P_DO": "03/07/1990", "N_DOC": "76", "T_DO": "Resolución", "OBS": null }, "geometry": { "type": "Polygon", "coordinates": [ [ [ -71.825404237011895, -36.139499472836199 ], [ -71.820767629251606, -36.1403027465633 ], [ -71.815097483640201, -36.141308998683698 ], [ -71.815428665162599, -36.142431477153799 ], [ -71.817251622767202, -36.142109585876 ], [ -71.820668887463299, -36.141485416415897 ], [ -71.821054710216103, -36.142899886708499 ], [ -71.821834640217304, -36.142759887379299 ], [ -71.824166368150003, -36.142361510569401 ], [ -71.823856886124403, -36.141109783494699 ], [ -71.824154954322694, -36.141059828372498 ], [ -71.824513936987998, -36.140986973674899 ], [ -71.825215816259202, -36.1408845631506 ], [ -71.825317785531198, -36.1412684494464 ], [ -71.8253490941173, -36.141403627633601 ], [ -71.826361281385502, -36.1451414904272 ], [ -71.827138115850801, -36.144990626183102 ], [ -71.827874247286999, -36.144858775063803 ], [ -71.826675903619304, -36.140633092396698 ], [ -71.827960441855893, -36.1403833686486 ], [ -71.832902886855507, -36.139503426840797 ], [ -71.833067372421297, -36.139499533081 ], [ -71.832739112982694, -36.138219660666003 ], [ -71.829303799215594, -36.138825521175299 ], [ -71.829163680872, -36.138831217451603 ], [ -71.825404237011895, -36.139499472836199 ] ] ] } },
{ "type": "Feature", "properties": { "id": "monoparte.21", "Name": null, "description": null, "timestamp": null, "begin": null, "end": null, "altitudeMode": null, "tessellate": -1, "extrude": 0, "visibility": -1, "drawOrder": null, "icon": null, "REG": "Maule", "COM": "Parral", "LOC": "Parral", "ZONA": "ZU-3", "NOM": "Zona ZU-3", "UPERM": "Vivienda, equipamiento de cualquier tipo y escala, industria y almacenamiento de tipo inofensivo, terminales rodoviarios, enfrentando vías de 20 m de ancho mínimo.", "UPROH": "Talleres y garages molestos, insalubres o peligrosos, industria y almacenamiento de tipo molesto o insalubre.", "P_DO": "03/07/1990", "N_DOC": "76", "T_DO": "Resolución", "OBS": null }, "geometry": { "type": "Polygon", "coordinates": [ [ [ -71.8288912237076, -36.1372586638538 ], [ -71.829322502165994, -36.1386915455344 ], [ -71.829303799215594, -36.138825521175299 ], [ -71.832739112982694, -36.138219660666003 ], [ -71.833067372421297, -36.139499533081 ], [ -71.832902886855507, -36.139503426840797 ], [ -71.827960441855893, -36.1403833686486 ], [ -71.826675903619304, -36.140633092396698 ], [ -71.827874247286999, -36.144858775063803 ], [ -71.827138115850801, -36.144990626183102 ], [ -71.826361281385502, -36.1451414904272 ], [ -71.819757242127693, -36.146423802183499 ], [ -71.819078954543699, -36.1439026422117 ], [ -71.816158553658894, -36.144448309458198 ], [ -71.816056096793503, -36.144542822608102 ], [ -71.817105594735494, -36.148237990491403 ], [ -71.820591832722599, -36.147562119885698 ], [ -71.824664602873796, -36.146765001301603 ], [ -71.829183892038102, -36.145878500862501 ], [ -71.8331431946675, -36.145119547212403 ], [ -71.835166232056096, -36.144721110178999 ], [ -71.835378242575501, -36.144730394136602 ], [ -71.834805348544094, -36.142678434831602 ], [ -71.834686241762995, -36.142228197487 ], [ -71.834645021545697, -36.142103986077302 ], [ -71.834357075130001, -36.141455063393302 ], [ -71.834218088431697, -36.141064908438501 ], [ -71.834050801723905, -36.140705230910299 ], [ -71.833811909785695, -36.1399895701338 ], [ -71.833605236689294, -36.139147957988001 ], [ -71.8333199939065, -36.138165134335402 ], [ -71.832963588418195, -36.136838238846003 ], [ -71.832847932545903, -36.136483297722499 ], [ -71.832808062677799, -36.136192137434101 ], [ -71.832768036213196, -36.1356923339197 ], [ -71.832528220295501, -36.134541516122503 ], [ -71.832262100603302, -36.1332720927632 ], [ -71.832173443442201, -36.132940198026802 ], [ -71.831729075897201, -36.133007941153103 ], [ -71.831567858705398, -36.133102367575503 ], [ -71.831401231854002, -36.133373376645402 ], [ -71.831357493750403, -36.133465023482003 ], [ -71.831361947742494, -36.1335889138211 ], [ -71.831384195193493, -36.133717151653101 ], [ -71.831494112822895, -36.134158073055801 ], [ -71.831523091798999, -36.134309997397203 ], [ -71.831504049382602, -36.134434442704297 ], [ -71.831532514544705, -36.134572072066497 ], [ -71.831888173658399, -36.135960988411298 ], [ -71.830790670592606, -36.136177714729101 ], [ -71.830900638690906, -36.136456487638704 ], [ -71.830766045054801, -36.136473978379897 ], [ -71.829566112122194, -36.137112793343498 ], [ -71.829426327152504, -36.137149481813502 ], [ -71.8288912237076, -36.1372586638538 ] ] ] } },
{ "type": "Feature", "properties": { "id": "monoparte.22", "Name": null, "description": null, "timestamp": null, "begin": null, "end": null, "altitudeMode": null, "tessellate": -1, "extrude": 0, "visibility": -1, "drawOrder": null, "icon": null, "REG": "Maule", "COM": "Parral", "LOC": "Parral", "ZONA": "ZR-2", "NOM": "Zona ZR-2", "UPERM": "Área de restricción de acueducto o canales, estén o no señalados en los planos.", "UPROH": "Todos los usos no mencionados como permitidos.", "P_DO": "03/07/1990", "N_DOC": "76", "T_DO": "Resolución", "OBS": null }, "geometry": { "type": "Polygon", "coordinates": [ [ [ -71.840510525143301, -36.1318378627399 ], [ -71.839870485760301, -36.132314207589999 ], [ -71.839203284701398, -36.132810757492599 ], [ -71.839136404628107, -36.132912493742303 ], [ -71.839145026223804, -36.1329885940496 ], [ -71.839164194062704, -36.133031060642097 ], [ -71.838761947655996, -36.133288592244 ], [ -71.837236774377203, -36.134232765054399 ], [ -71.836857667640402, -36.1344802041259 ], [ -71.8367608638479, -36.134567386895299 ], [ -71.836648477836306, -36.1345953465542 ], [ -71.835705113996099, -36.1351732965624 ], [ -71.835636236507099, -36.135229951636198 ], [ -71.835532126191893, -36.1352979921935 ], [ -71.835376402535502, -36.135361294690803 ], [ -71.835232550552007, -36.135448160631498 ], [ -71.835094433193404, -36.1354901811766 ], [ -71.834971751381801, -36.135552700427901 ], [ -71.834417750211102, -36.135780429878601 ], [ -71.834147327841293, -36.135923943542203 ], [ -71.8340489227555, -36.136048481376399 ], [ -71.834079605937802, -36.1363905297694 ], [ -71.834296672680196, -36.137112669065601 ], [ -71.834400406642501, -36.1375036582794 ], [ -71.834610062878895, -36.138125743230198 ], [ -71.834702375179205, -36.138399644675701 ], [ -71.834796310332905, -36.138865381413702 ], [ -71.8351337560172, -36.140174836225697 ], [ -71.835405894993301, -36.140997010055202 ], [ -71.835462123717804, -36.141129807652597 ], [ -71.835620440687407, -36.141546328241098 ], [ -71.835709821486304, -36.141681319635801 ], [ -71.835894106477198, -36.141900502110701 ], [ -71.835801324860597, -36.141977216611402 ], [ -71.835722907730997, -36.1420446495178 ], [ -71.835669417879998, -36.142191968338601 ], [ -71.835706430948804, -36.142301375338 ], [ -71.835802069331507, -36.142916103981499 ], [ -71.835888929903604, -36.143307491146203 ], [ -71.835892963523705, -36.143419468536798 ], [ -71.835935659037702, -36.143706983254297 ], [ -71.836130079905999, -36.144288968205998 ], [ -71.836263026233595, -36.144715030895703 ], [ -71.836389327421202, -36.145119789807701 ], [ -71.836510135876395, -36.145372070110596 ], [ -71.836607292159997, -36.145539067509198 ], [ -71.836681463991496, -36.145720917650003 ], [ -71.836785354991505, -36.145911600975602 ], [ -71.836969551400301, -36.146291141803403 ], [ -71.837047350566905, -36.146491981181697 ], [ -71.837080055687494, -36.1466652754523 ], [ -71.837105237084799, -36.1468745162408 ], [ -71.837113394700694, -36.147100852377001 ], [ -71.837142372808401, -36.1473338479598 ], [ -71.837137252177399, -36.147436503595102 ], [ -71.837174700206901, -36.147659760587402 ], [ -71.837185194852694, -36.147869349537103 ], [ -71.837186894359405, -36.147998072958998 ], [ -71.837202336805703, -36.148100241040702 ], [ -71.837242568239503, -36.148237589515297 ], [ -71.837281511629698, -36.148339200364497 ], [ -71.837285118548607, -36.1484392643913 ], [ -71.837324886440996, -36.148726847683001 ], [ -71.837346327196002, -36.148929590821403 ], [ -71.836866345563493, -36.149122858663901 ], [ -71.836645744334106, -36.149211684033197 ], [ -71.834761737884506, -36.149970257290001 ], [ -71.832681639892101, -36.150788524406401 ], [ -71.830311797481301, -36.151726874263602 ], [ -71.828609656610993, -36.152428828775797 ], [ -71.828572934908095, -36.152429696838198 ], [ -71.828448295370904, -36.152438603869101 ], [ -71.828303120925497, -36.152489726028797 ], [ -71.826780917703701, -36.1530860588338 ], [ -71.825701356220705, -36.153522887661502 ], [ -71.824599107180703, -36.153942359293801 ], [ -71.824433818479307, -36.154047603124098 ], [ -71.824275017056394, -36.154128848717797 ], [ -71.823346165226596, -36.154669402368597 ], [ -71.822301365412997, -36.155256798546702 ], [ -71.822143201178093, -36.1553559104876 ], [ -71.821991739739602, -36.155436980014599 ], [ -71.821631341867899, -36.155636241230297 ], [ -71.821451782343004, -36.155753740045803 ], [ -71.821232082071106, -36.155776804518901 ], [ -71.821070498890705, -36.155780614252301 ], [ -71.820857501874798, -36.155785635863701 ], [ -71.820240974006197, -36.155812091425197 ], [ -71.819705237818795, -36.155836639946202 ], [ -71.819620088262695, -36.155922105521299 ], [ -71.819061923782101, -36.156346587981702 ], [ -71.818232329860706, -36.156992068340898 ], [ -71.816828948782103, -36.158212324057899 ], [ -71.816728899037102, -36.158281732322898 ], [ -71.816259906809705, -36.158733909574302 ], [ -71.8157258710863, -36.159217422371803 ], [ -71.815136689568206, -36.159803572706103 ], [ -71.814914745275402, -36.159969750028402 ], [ -71.814799140551301, -36.160026122196399 ], [ -71.814692615172106, -36.160046071656197 ], [ -71.814742208799601, -36.160238418648902 ], [ -71.814970129469998, -36.1601309346931 ], [ -71.816863573269899, -36.1583424388336 ], [ -71.818100644153006, -36.157291848073797 ], [ -71.819071198018094, -36.156543453721397 ], [ -71.819447919146299, -36.156271905737398 ], [ -71.819622825753399, -36.1561198363137 ], [ -71.819851544337098, -36.156022080448203 ], [ -71.8201072399862, -36.155978634026098 ], [ -71.820309144344407, -36.155946044119098 ], [ -71.820551790384002, -36.1559351532823 ], [ -71.820782064746993, -36.155945921924101 ], [ -71.821024889355897, -36.155934961929503 ], [ -71.821267167227603, -36.155891458075899 ], [ -71.821523048874298, -36.1558371182279 ], [ -71.821725060741699, -36.155771913982697 ], [ -71.822129050702003, -36.155554600890802 ], [ -71.822748329117701, -36.1551741130287 ], [ -71.823381154234099, -36.154826158768799 ], [ -71.823851943070906, -36.154576679479902 ], [ -71.824241981842405, -36.154348771127502 ], [ -71.824646250067104, -36.154163510971102 ], [ -71.825092403971198, -36.153987903255199 ], [ -71.827433055080505, -36.153043672513498 ], [ -71.830631467790795, -36.151761599445301 ], [ -71.834553221973593, -36.150205060112398 ], [ -71.838144729054306, -36.148734492072599 ], [ -71.840034617088406, -36.147990544176501 ], [ -71.840306051081498, -36.147869923707503 ], [ -71.840497310549196, -36.147781611582403 ], [ -71.840729543350506, -36.147638418360998 ], [ -71.840960214107895, -36.147495964748899 ], [ -71.843025519486901, -36.146024544523897 ], [ -71.843365219134895, -36.145760694736303 ], [ -71.843528374928496, -36.1455631070721 ], [ -71.843637149254107, -36.145387624533001 ], [ -71.843705413392598, -36.145179193012602 ], [ -71.843733272047203, -36.144959528877997 ], [ -71.843695233971303, -36.1445489121649 ], [ -71.843614273815405, -36.143968699469099 ], [ -71.843587414306, -36.143387756276901 ], [ -71.843560130227303, -36.142796054290102 ], [ -71.843573646301195, -36.142587858455698 ], [ -71.842623047406207, -36.140185256654703 ], [ -71.842541681971596, -36.139750743808101 ], [ -71.842866740453005, -36.137510595142402 ], [ -71.843070420064507, -36.136104840977502 ], [ -71.843097578513493, -36.135921504995402 ], [ -71.843015915909902, -36.135712798776296 ], [ -71.842839012983404, -36.135295440982603 ], [ -71.841628066531499, -36.133120745625199 ], [ -71.841215298518406, -36.132296700918801 ], [ -71.8411364109662, -36.132304790345003 ], [ -71.841192319636406, -36.132428649968404 ], [ -71.842488479478902, -36.134949308181703 ], [ -71.8428993231215, -36.1357443249723 ], [ -71.842898860733797, -36.135935097320903 ], [ -71.842897109349195, -36.136090133036497 ], [ -71.842851945021806, -36.136264083164697 ], [ -71.842511423308807, -36.138638805559097 ], [ -71.842347961420401, -36.139811101565002 ], [ -71.842345564298896, -36.139948267588302 ], [ -71.842403416280106, -36.140125732420202 ], [ -71.842445077359699, -36.140261852888301 ], [ -71.842576850153804, -36.140591546503202 ], [ -71.842454758676794, -36.140629772097 ], [ -71.842307409390102, -36.140701231106704 ], [ -71.842162401901106, -36.140715405126699 ], [ -71.841995751645101, -36.140740823929598 ], [ -71.841671263072001, -36.140791450700299 ], [ -71.841363623785199, -36.140820215483302 ], [ -71.841047816678895, -36.140867058357699 ], [ -71.8408847981229, -36.140870928338103 ], [ -71.840717373357506, -36.140874902688402 ], [ -71.840400148448197, -36.140882432370397 ], [ -71.840096140855394, -36.140889647535197 ], [ -71.839769071071899, -36.1408687950181 ], [ -71.839332627864906, -36.140871996802403 ], [ -71.839195787294599, -36.140868089387901 ], [ -71.839032768474297, -36.140871956847597 ], [ -71.838879462896699, -36.140900631743797 ], [ -71.838640623451596, -36.140999814694098 ], [ -71.838523202454695, -36.141048576315399 ], [ -71.838478233040703, -36.141063375942501 ], [ -71.838335809511193, -36.141110249312497 ], [ -71.838192990308002, -36.141185172891099 ], [ -71.838050041965801, -36.141256521467703 ], [ -71.837902558353804, -36.141324401330998 ], [ -71.837772827026001, -36.141395436156202 ], [ -71.837716167839901, -36.1415362744942 ], [ -71.837591994584102, -36.1417860164036 ], [ -71.837529254187999, -36.141880500588002 ], [ -71.8374848075252, -36.141870823461701 ], [ -71.837350412215102, -36.141934815341202 ], [ -71.837187004583697, -36.141927959453902 ], [ -71.836374114227496, -36.141886423446401 ], [ -71.836174815202199, -36.141862532745002 ], [ -71.836001694081602, -36.1418308673436 ], [ -71.835896109074994, -36.141715335707801 ], [ -71.835338844076901, -36.140322865564002 ], [ -71.835058559130403, -36.139274354540198 ], [ -71.834926668127807, -36.138673002631101 ], [ -71.834756671129298, -36.138115474423898 ], [ -71.834820753367893, -36.138017814549897 ], [ -71.834682131605206, -36.1379516344522 ], [ -71.834229273136202, -36.136395728336701 ], [ -71.834200331722897, -36.136081657256298 ], [ -71.834234290744803, -36.136045084815301 ], [ -71.834368550454002, -36.135977522760797 ], [ -71.834684889988196, -36.135823382359398 ], [ -71.834867740439606, -36.135758246751301 ], [ -71.835002513705206, -36.135704978948397 ], [ -71.835201956764095, -36.1356108346681 ], [ -71.835363035184201, -36.135553367197303 ], [ -71.835505590113399, -36.135471300265102 ], [ -71.836733901840901, -36.134683913967997 ], [ -71.839259057164199, -36.133055258757501 ], [ -71.839290564631895, -36.132950784605796 ], [ -71.839317150940005, -36.132832120095003 ], [ -71.839776939379604, -36.132499301231803 ], [ -71.839889418367704, -36.132439403960099 ], [ -71.839984211775501, -36.132368484176297 ], [ -71.840525073393295, -36.131962437559601 ], [ -71.840617457311296, -36.131961355252798 ], [ -71.840510525143301, -36.1318378627399 ] ], [ [ -71.837721232503398, -36.141880716863703 ], [ -71.837932977831898, -36.1414750962726 ], [ -71.838030184371704, -36.1413988709443 ], [ -71.838131100046496, -36.1413440186572 ], [ -71.838276934322096, -36.141311945802002 ], [ -71.838430979641799, -36.141262986266703 ], [ -71.838773199234296, -36.141133258198899 ], [ -71.838915837644805, -36.141094107293497 ], [ -71.839122408312505, -36.141034362186197 ], [ -71.839269272527204, -36.141030877871998 ], [ -71.839503567633997, -36.141006243399502 ], [ -71.839642479739794, -36.141026792147102 ], [ -71.839806881586497, -36.141020506365997 ], [ -71.839945277077007, -36.141026760837804 ], [ -71.8403278969664, -36.141039140441301 ], [ -71.840824039593102, -36.1410202107703 ], [ -71.840987839441297, -36.140997245914697 ], [ -71.841178602077605, -36.1409882857469 ], [ -71.841749651411504, -36.140927036369902 ], [ -71.841873840353003, -36.140906203236298 ], [ -71.842020703977894, -36.140902715558902 ], [ -71.842327612149703, -36.140853697717098 ], [ -71.842502772698893, -36.140819730892602 ], [ -71.842659411091105, -36.140797304269803 ], [ -71.842767403762394, -36.141047048142497 ], [ -71.843042450870996, -36.141743947041903 ], [ -71.843380767319402, -36.142564528475802 ], [ -71.843393273827104, -36.1427073019753 ], [ -71.843428670065407, -36.142873377307097 ], [ -71.843426919355807, -36.143028411958902 ], [ -71.843430332723798, -36.143326395451197 ], [ -71.8435200006044, -36.144588057491298 ], [ -71.843528102659903, -36.144920491755599 ], [ -71.843535247716702, -36.145213630689099 ], [ -71.843489866933197, -36.145381625332298 ], [ -71.843491588091297, -36.1454292749359 ], [ -71.843436496500999, -36.145531925753701 ], [ -71.843336051834598, -36.1455998860704 ], [ -71.842390138072602, -36.146272138202903 ], [ -71.8405477315208, -36.147561796411097 ], [ -71.840296286005, -36.147722757990103 ], [ -71.838804509375706, -36.148342364184401 ], [ -71.838159707179301, -36.148602071932899 ], [ -71.837506728354001, -36.148865003719301 ], [ -71.837464113783398, -36.148694614981999 ], [ -71.837388683020393, -36.148314880012997 ], [ -71.837388529010795, -36.148229041195201 ], [ -71.837339244349707, -36.148003681201402 ], [ -71.837306554646901, -36.147749312637998 ], [ -71.837323682409604, -36.147653525394801 ], [ -71.83727750784, -36.147432860031003 ], [ -71.837289568931098, -36.147196506781 ], [ -71.837265968585797, -36.1468680034898 ], [ -71.837255559917594, -36.146660797147703 ], [ -71.837180286434801, -36.146366901555503 ], [ -71.837037710641894, -36.146081754605603 ], [ -71.836852826488595, -36.145683153759798 ], [ -71.836693590556294, -36.1453435584936 ], [ -71.836600573841594, -36.145209845636998 ], [ -71.836569758102797, -36.145088965402302 ], [ -71.836423514917897, -36.144620297025803 ], [ -71.8362228724408, -36.144028922335004 ], [ -71.836073562259898, -36.143393410300497 ], [ -71.836056491910696, -36.143245974599402 ], [ -71.836055481462907, -36.143136310236102 ], [ -71.835885976183505, -36.142429740056897 ], [ -71.835868218858295, -36.142263244151899 ], [ -71.835923018209797, -36.142152258121797 ], [ -71.835987830286101, -36.142074417406 ], [ -71.836046596681498, -36.141991950599397 ], [ -71.836224209156597, -36.142025894147601 ], [ -71.836389557823793, -36.142045820105203 ], [ -71.836671627627794, -36.142041518958003 ], [ -71.836966304750106, -36.142060763123801 ], [ -71.837118959193802, -36.142054759482797 ], [ -71.837278176603107, -36.142067676466603 ], [ -71.837398606544596, -36.142064821138199 ], [ -71.837559128902399, -36.142032400874001 ], [ -71.837674046244302, -36.141958140537099 ], [ -71.837721232503398, -36.141880716863703 ] ] ] } },
{ "type": "Feature", "properties": { "id": "monoparte.23", "Name": null, "description": null, "timestamp": null, "begin": null, "end": null, "altitudeMode": null, "tessellate": -1, "extrude": 0, "visibility": -1, "drawOrder": null, "icon": null, "REG": "Maule", "COM": "Parral", "LOC": "Parral", "ZONA": "ZR-5", "NOM": "Zona ZR-5", "UPERM": "Corresponde a los terrenos adyacentes a las líneas de trazado ferroviario.", "UPROH": "Todos los usos no mencionados como permitidos.", "P_DO": "03/07/1990", "N_DOC": "76", "T_DO": "Resolución", "OBS": null }, "geometry": { "type": "Polygon", "coordinates": [ [ [ -71.836572947668103, -36.148799280335702 ], [ -71.836645744334106, -36.149211684033197 ], [ -71.836866345563493, -36.149122858663901 ], [ -71.836862609029197, -36.148960760398701 ], [ -71.836635297933299, -36.148364058499901 ], [ -71.836601844472597, -36.148251587199297 ], [ -71.836537411585098, -36.147972933680599 ], [ -71.836268498497404, -36.147037422198103 ], [ -71.836138464798097, -36.146692364778502 ], [ -71.835944467019303, -36.146122293439497 ], [ -71.835610594415598, -36.144852102324101 ], [ -71.835457663030695, -36.144197598897101 ], [ -71.835410209188396, -36.143941194690399 ], [ -71.8354126253885, -36.143600150952899 ], [ -71.835346089307393, -36.143303663099999 ], [ -71.835248894239001, -36.142759910704299 ], [ -71.835242610504494, -36.142667063001802 ], [ -71.835188214278503, -36.142544356308697 ], [ -71.835003582360102, -36.141907294734303 ], [ -71.834864323801597, -36.141550530611497 ], [ -71.834704591143094, -36.141196635926399 ], [ -71.834606542372498, -36.140841279936602 ], [ -71.834513084068206, -36.140450047797401 ], [ -71.834485768516302, -36.140181243570801 ], [ -71.834464285434095, -36.140074449567699 ], [ -71.834438321156, -36.139924839479001 ], [ -71.834376960011397, -36.139690225096203 ], [ -71.834333715709704, -36.139550562000402 ], [ -71.834299368507402, -36.139413073739703 ], [ -71.834123543142297, -36.138856874992101 ], [ -71.834046640631797, -36.1385987826337 ], [ -71.834012723192998, -36.138473206518199 ], [ -71.833873799665596, -36.137880365163298 ], [ -71.833537472896296, -36.136703220306103 ], [ -71.833456608882798, -36.1364166078788 ], [ -71.833307253659996, -36.135778706502798 ], [ -71.8331947287205, -36.135347387520298 ], [ -71.833009510391904, -36.134774717063301 ], [ -71.832890087068705, -36.1343149458257 ], [ -71.832684790210394, -36.1335925247148 ], [ -71.8325831395655, -36.1332181760203 ], [ -71.832446522536301, -36.132842090707399 ], [ -71.8323028154214, -36.132438692481799 ], [ -71.8320659391335, -36.132479926451801 ], [ -71.832173443442201, -36.132940198026802 ], [ -71.832262100603302, -36.1332720927632 ], [ -71.832528220295501, -36.134541516122503 ], [ -71.832768036213196, -36.1356923339197 ], [ -71.832808062677799, -36.136192137434101 ], [ -71.832847932545903, -36.136483297722499 ], [ -71.832963588418195, -36.136838238846003 ], [ -71.8333199939065, -36.138165134335402 ], [ -71.833605236689294, -36.139147957988001 ], [ -71.833811909785695, -36.1399895701338 ], [ -71.834050801723905, -36.140705230910299 ], [ -71.834218088431697, -36.141064908438501 ], [ -71.834357075130001, -36.141455063393302 ], [ -71.834645021545697, -36.142103986077302 ], [ -71.834686241762995, -36.142228197487 ], [ -71.834805348544094, -36.142678434831602 ], [ -71.835378242575501, -36.144730394136602 ], [ -71.835691341809195, -36.145872910187599 ], [ -71.836310592947797, -36.147882690962199 ], [ -71.836462099747706, -36.148415615820703 ], [ -71.836572947668103, -36.148799280335702 ] ] ] } },
{ "type": "Feature", "properties": { "id": "monoparte.24", "Name": null, "description": null, "timestamp": null, "begin": null, "end": null, "altitudeMode": null, "tessellate": -1, "extrude": 0, "visibility": -1, "drawOrder": null, "icon": null, "REG": "Maule", "COM": "Parral", "LOC": "Parral", "ZONA": "ZR-6", "NOM": "Zona ZR-6", "UPERM": "Faja de seguridad de los tendidos eléctricos de alta tensión.", "UPROH": "Todos los usos no mencionados como permitidos.", "P_DO": "03/07/1990", "N_DOC": "76", "T_DO": "Resolución", "OBS": null }, "geometry": { "type": "Polygon", "coordinates": [ [ [ -71.816101153834893, -36.154361087744803 ], [ -71.816139966294998, -36.154367993428998 ], [ -71.816920734848296, -36.153262270465497 ], [ -71.817886160529994, -36.151894664785097 ], [ -71.817824340665993, -36.151892543565602 ], [ -71.817081594835798, -36.152950879385401 ], [ -71.816519365455605, -36.153754585519401 ], [ -71.816149221757897, -36.154256895432397 ], [ -71.816095004169796, -36.154344014331301 ], [ -71.816101153834893, -36.154361087744803 ] ] ] } },
{ "type": "Feature", "properties": { "id": "monoparte.25", "Name": null, "description": null, "timestamp": null, "begin": null, "end": null, "altitudeMode": null, "tessellate": -1, "extrude": 0, "visibility": -1, "drawOrder": null, "icon": null, "REG": "Maule", "COM": "Parral", "LOC": "Parral", "ZONA": "ZR-6", "NOM": "Zona ZR-6", "UPERM": "Faja de seguridad de los tendidos eléctricos de alta tensión.", "UPROH": "Todos los usos no mencionados como permitidos.", "P_DO": "03/07/1990", "N_DOC": "76", "T_DO": "Resolución", "OBS": null }, "geometry": { "type": "Polygon", "coordinates": [ [ [ -71.817987055347004, -36.151903976899398 ], [ -71.8214762349929, -36.155384970598597 ], [ -71.821628323035895, -36.155301961899397 ], [ -71.818197548569501, -36.151870405301402 ], [ -71.817987055347004, -36.151903976899398 ] ] ] } },
{ "type": "Feature", "properties": { "id": "monoparte.26", "Name": null, "description": null, "timestamp": null, "begin": null, "end": null, "altitudeMode": null, "tessellate": -1, "extrude": 0, "visibility": -1, "drawOrder": null, "icon": null, "REG": "Maule", "COM": "Parral", "LOC": "Parral", "ZONA": "ZR-6", "NOM": "Zona ZR-6", "UPERM": "Faja de seguridad de los tendidos eléctricos de alta tensión.", "UPROH": "Todos los usos no mencionados como permitidos.", "P_DO": "03/07/1990", "N_DOC": "76", "T_DO": "Resolución", "OBS": null }, "geometry": { "type": "Polygon", "coordinates": [ [ [ -71.813611013755605, -36.1553864251728 ], [ -71.813974450060002, -36.156800966718599 ], [ -71.814430518314197, -36.1567272887036 ], [ -71.814496189420197, -36.156670064631797 ], [ -71.814950803088394, -36.156021508534202 ], [ -71.815891816300095, -36.154729980931499 ], [ -71.815873852682003, -36.154663844567999 ], [ -71.815835719199896, -36.1547029075724 ], [ -71.814883615168995, -36.156033820195603 ], [ -71.814435599373795, -36.156661355400402 ], [ -71.814414842890997, -36.156697611947799 ], [ -71.814402931657995, -36.156713987321197 ], [ -71.8139897602058, -36.156774377031198 ], [ -71.813467721780498, -36.1547150915491 ], [ -71.813131618574403, -36.153435346827003 ], [ -71.812935975858593, -36.152691800143401 ], [ -71.812771354310399, -36.152075690757698 ], [ -71.812461725231898, -36.150816186430703 ], [ -71.812092132108901, -36.149420978251001 ], [ -71.811762273066904, -36.1481500232453 ], [ -71.811148841431901, -36.145791823834799 ], [ -71.811031517943604, -36.145333117111697 ], [ -71.8110141577056, -36.145335781609198 ], [ -71.811150297649107, -36.145877036996303 ], [ -71.811362801679905, -36.146690416414998 ], [ -71.811614338237305, -36.147707472173202 ], [ -71.811820493694299, -36.148490954936598 ], [ -71.812093015808799, -36.149551868777998 ], [ -71.812264773318304, -36.150211685926202 ], [ -71.812422557172596, -36.150816033635699 ], [ -71.812579683047403, -36.151411812206199 ], [ -71.812622676056606, -36.151578195952403 ], [ -71.812757708929198, -36.152098665046701 ], [ -71.813003427703705, -36.153050517019103 ], [ -71.813196259704895, -36.153786141932002 ], [ -71.813403225513795, -36.154574847759598 ], [ -71.813611013755605, -36.1553864251728 ] ] ] } },
{ "type": "Feature", "properties": { "id": "monoparte.27", "Name": null, "description": null, "timestamp": null, "begin": null, "end": null, "altitudeMode": null, "tessellate": -1, "extrude": 0, "visibility": -1, "drawOrder": null, "icon": null, "REG": "Maule", "COM": "Parral", "LOC": "Parral", "ZONA": "ZR-6", "NOM": "Zona ZR-6", "UPERM": "Faja de seguridad de los tendidos eléctricos de alta tensión.", "UPROH": "Todos los usos no mencionados como permitidos.", "P_DO": "03/07/1990", "N_DOC": "76", "T_DO": "Resolución", "OBS": null }, "geometry": { "type": "Polygon", "coordinates": [ [ [ -71.837961764978203, -36.139230183123402 ], [ -71.838478233040703, -36.141063375942501 ], [ -71.838523202454695, -36.141048576315399 ], [ -71.838640623451596, -36.140999814694098 ], [ -71.837937472538002, -36.138617341335099 ], [ -71.837322749140895, -36.136398438906397 ], [ -71.837188736458103, -36.136451957149099 ], [ -71.837961764978203, -36.139230183123402 ] ] ] } },
{ "type": "Feature", "properties": { "id": "monoparte.28", "Name": null, "description": null, "timestamp": null, "begin": null, "end": null, "altitudeMode": null, "tessellate": -1, "extrude": 0, "visibility": -1, "drawOrder": null, "icon": null, "REG": "Maule", "COM": "Parral", "LOC": "Parral", "ZONA": "ZR-4", "NOM": "Zona ZR-4", "UPERM": "Corresponde a los terrenos ocupados por la Planta de Aguas Potables de Parral.", "UPROH": "Todos los usos no mencionados como permitidos.", "P_DO": "03/07/1990", "N_DOC": "76", "T_DO": "Resolución", "OBS": null }, "geometry": { "type": "Polygon", "coordinates": [ [ [ -71.832684790210394, -36.1335925247148 ], [ -71.832890087068705, -36.1343149458257 ], [ -71.833009510391904, -36.134774717063301 ], [ -71.8331947287205, -36.135347387520298 ], [ -71.833307253659996, -36.135778706502798 ], [ -71.833456608882798, -36.1364166078788 ], [ -71.833537472896296, -36.136703220306103 ], [ -71.833873799665596, -36.137880365163298 ], [ -71.834012723192998, -36.138473206518199 ], [ -71.834046640631797, -36.1385987826337 ], [ -71.834123543142297, -36.138856874992101 ], [ -71.834299368507402, -36.139413073739703 ], [ -71.834333715709704, -36.139550562000402 ], [ -71.834376960011397, -36.139690225096203 ], [ -71.834438321156, -36.139924839479001 ], [ -71.834464285434095, -36.140074449567699 ], [ -71.834485768516302, -36.140181243570801 ], [ -71.834513084068206, -36.140450047797401 ], [ -71.834606542372498, -36.140841279936602 ], [ -71.834704591143094, -36.141196635926399 ], [ -71.834864323801597, -36.141550530611497 ], [ -71.835003582360102, -36.141907294734303 ], [ -71.835188214278503, -36.142544356308697 ], [ -71.835242610504494, -36.142667063001802 ], [ -71.835248894239001, -36.142759910704299 ], [ -71.835346089307393, -36.143303663099999 ], [ -71.8354126253885, -36.143600150952899 ], [ -71.835410209188396, -36.143941194690399 ], [ -71.835457663030695, -36.144197598897101 ], [ -71.835610594415598, -36.144852102324101 ], [ -71.835944467019303, -36.146122293439497 ], [ -71.836138464798097, -36.146692364778502 ], [ -71.836268498497404, -36.147037422198103 ], [ -71.836537411585098, -36.147972933680599 ], [ -71.836601844472597, -36.148251587199297 ], [ -71.836635297933299, -36.148364058499901 ], [ -71.836862609029197, -36.148960760398701 ], [ -71.836866345563493, -36.149122858663901 ], [ -71.837346327196002, -36.148929590821403 ], [ -71.837324886440996, -36.148726847683001 ], [ -71.837285118548607, -36.1484392643913 ], [ -71.837281511629698, -36.148339200364497 ], [ -71.837242568239503, -36.148237589515297 ], [ -71.837202336805703, -36.148100241040702 ], [ -71.837186894359405, -36.147998072958998 ], [ -71.837185194852694, -36.147869349537103 ], [ -71.837174700206901, -36.147659760587402 ], [ -71.837137252177399, -36.147436503595102 ], [ -71.837142372808401, -36.1473338479598 ], [ -71.837113394700694, -36.147100852377001 ], [ -71.837105237084799, -36.1468745162408 ], [ -71.837080055687494, -36.1466652754523 ], [ -71.837047350566905, -36.146491981181697 ], [ -71.836969551400301, -36.146291141803403 ], [ -71.836785354991505, -36.145911600975602 ], [ -71.836681463991496, -36.145720917650003 ], [ -71.836607292159997, -36.145539067509198 ], [ -71.836510135876395, -36.145372070110596 ], [ -71.836389327421202, -36.145119789807701 ], [ -71.836263026233595, -36.144715030895703 ], [ -71.836130079905999, -36.144288968205998 ], [ -71.835935659037702, -36.143706983254297 ], [ -71.835892963523705, -36.143419468536798 ], [ -71.835888929903604, -36.143307491146203 ], [ -71.835802069331507, -36.142916103981499 ], [ -71.835706430948804, -36.142301375338 ], [ -71.835669417879998, -36.142191968338601 ], [ -71.835722907730997, -36.1420446495178 ], [ -71.835801324860597, -36.141977216611402 ], [ -71.835894106477198, -36.141900502110701 ], [ -71.835709821486304, -36.141681319635801 ], [ -71.835620440687407, -36.141546328241098 ], [ -71.835462123717804, -36.141129807652597 ], [ -71.835405894993301, -36.140997010055202 ], [ -71.8351337560172, -36.140174836225697 ], [ -71.834796310332905, -36.138865381413702 ], [ -71.834702375179205, -36.138399644675701 ], [ -71.834610062878895, -36.138125743230198 ], [ -71.834400406642501, -36.1375036582794 ], [ -71.834296672680196, -36.137112669065601 ], [ -71.834079605937802, -36.1363905297694 ], [ -71.8340489227555, -36.136048481376399 ], [ -71.834147327841293, -36.135923943542203 ], [ -71.834417750211102, -36.135780429878601 ], [ -71.834971751381801, -36.135552700427901 ], [ -71.835094433193404, -36.1354901811766 ], [ -71.835232550552007, -36.135448160631498 ], [ -71.835376402535502, -36.135361294690803 ], [ -71.835532126191893, -36.1352979921935 ], [ -71.835636236507099, -36.135229951636198 ], [ -71.835705113996099, -36.1351732965624 ], [ -71.835648470989, -36.135069719550401 ], [ -71.834957332220498, -36.133998750699199 ], [ -71.833625760428404, -36.134244891551297 ], [ -71.833546870802095, -36.134013076108602 ], [ -71.833505968924499, -36.133856665269697 ], [ -71.833466826123299, -36.133585756709202 ], [ -71.833390897831805, -36.133272796728299 ], [ -71.833333574771103, -36.133150159040397 ], [ -71.833270891767398, -36.133041954425799 ], [ -71.833132361052705, -36.1329498523762 ], [ -71.832953570580798, -36.132882548932898 ], [ -71.832776322890993, -36.132858130069998 ], [ -71.832623427373505, -36.132856980394997 ], [ -71.832446522536301, -36.132842090707399 ], [ -71.8325831395655, -36.1332181760203 ], [ -71.832684790210394, -36.1335925247148 ] ] ] } }
]
}
