{
"type": "FeatureCollection",
"name": "IPT_12_PRC_Puerto_Natales",
"crs": { "type": "name", "properties": { "name": "urn:ogc:def:crs:OGC:1.3:CRS84" } },
"features": [
{ "type": "Feature", "properties": { "id": "monoparte.1", "Name": null, "description": null, "timestamp": null, "begin": null, "end": null, "altitudeMode": null, "tessellate": -1, "extrude": 0, "visibility": -1, "drawOrder": null, "icon": null, "REG": "Magallanes", "COM": "Puerto Natales", "LOC": "Puerto Natales", "ZONA": "ZH4", "NOM": "ZH4 Área Consolidada_", "UPERM": "Vivienda; equipamientos a escala comunal y vecinal salvo los indicados como prohibidos, servicios, talleres artesanales, industrias y almacenamientos, inofensivos; terminales de transporte y distribución, cárcel y cementerio.", "UPROH": "Equipamiento de plantas o botaderos de basura; talleres y servicios artesanales, industrias y almacenamientos molestos, insalubres o peligrosos.", "P_DO": "13/02/1990", "N_DOC": "71", "T_DO": "Decreto", "OBS": null }, "geometry": { "type": "Polygon", "coordinates": [ [ [ -72.481701365788695, -51.723985669420301 ], [ -72.481843708113303, -51.724011948032199 ], [ -72.482254305707301, -51.724118766941302 ], [ -72.483611847223997, -51.724828182306801 ], [ -72.482785410931101, -51.725542906680403 ], [ -72.482618892507901, -51.725869146935899 ], [ -72.482037612883204, -51.727778489773399 ], [ -72.482621551556306, -51.7291415637456 ], [ -72.480311785246499, -51.729507570545401 ], [ -72.481619527826695, -51.730813485623997 ], [ -72.476926023190401, -51.731583303833503 ], [ -72.476916463709401, -51.731583586993203 ], [ -72.476868661965995, -51.731585002908403 ], [ -72.4750408673724, -51.736982206547303 ], [ -72.483760341584897, -51.737961352490601 ], [ -72.484649153501394, -51.738053971087901 ], [ -72.483125967482707, -51.739182074771101 ], [ -72.484387297937303, -51.739382641453297 ], [ -72.484397125109098, -51.7393751832521 ], [ -72.484435107526295, -51.739381222329499 ], [ -72.485632187199798, -51.738472696185198 ], [ -72.485911559766805, -51.738260658112601 ], [ -72.485920019030203, -51.7382542379707 ], [ -72.492655678578004, -51.739110001055799 ], [ -72.492665563694302, -51.739106877932898 ], [ -72.493004243971697, -51.738833817960902 ], [ -72.496664321954, -51.735882626008802 ], [ -72.496339168355803, -51.735450124742798 ], [ -72.4927299274012, -51.731597252023398 ], [ -72.491655703200294, -51.7303916112213 ], [ -72.490795850878698, -51.729579425161198 ], [ -72.489257013402394, -51.728311420710298 ], [ -72.487884383974404, -51.727209816717099 ], [ -72.487584193563094, -51.726895056793097 ], [ -72.4862640492574, -51.725677635353698 ], [ -72.485317133117107, -51.7253249573359 ], [ -72.489076115813205, -51.723975676966496 ], [ -72.4950630815908, -51.724882833620399 ], [ -72.499097093828098, -51.725501793738701 ], [ -72.501609681384494, -51.725887233759003 ], [ -72.501631925566997, -51.725899314667203 ], [ -72.500670100806602, -51.724540806059899 ], [ -72.5001925554254, -51.724049982561702 ], [ -72.500003827832302, -51.724002564444099 ], [ -72.499782374325804, -51.723913967246297 ], [ -72.4994109236426, -51.723867922517002 ], [ -72.498684509338105, -51.723741225282403 ], [ -72.498440530314795, -51.723782610528303 ], [ -72.498198769910005, -51.723827896055496 ], [ -72.497929355509896, -51.723912085855098 ], [ -72.497533189244805, -51.723942932111299 ], [ -72.497514873667598, -51.723942061135197 ], [ -72.497485396608596, -51.723944356264099 ], [ -72.496993065799401, -51.723920946171702 ], [ -72.496736628878494, -51.723776265565697 ], [ -72.4966025421935, -51.723627939553197 ], [ -72.496413151499198, -51.723557421200098 ], [ -72.496216246905107, -51.723563286687501 ], [ -72.495914777184794, -51.723629387277498 ], [ -72.495905777556402, -51.723622305290597 ], [ -72.495866984796606, -51.723630810765997 ], [ -72.495703782212601, -51.723502391265598 ], [ -72.495659812114994, -51.723503700830697 ], [ -72.495420983509106, -51.723586972998298 ], [ -72.495408176409299, -51.723576198462503 ], [ -72.495373191140501, -51.723588396285201 ], [ -72.495242042722396, -51.7234780618667 ], [ -72.495124954911304, -51.723428782319203 ], [ -72.494829562370299, -51.723471304231303 ], [ -72.494818469671699, -51.723467444525902 ], [ -72.494781770093397, -51.723472727275301 ], [ -72.494529743080804, -51.723385031524899 ], [ -72.4944539053771, -51.7231968891682 ], [ -72.494420528911704, -51.723143387700098 ], [ -72.494131723291801, -51.723168400355497 ], [ -72.4941287957854, -51.723165937347098 ], [ -72.494083931298704, -51.723169823109899 ], [ -72.494018358454198, -51.7231146551782 ], [ -72.494101321997704, -51.722997945434997 ], [ -72.494089593050802, -51.722845974034698 ], [ -72.493803056953396, -51.722784499848899 ], [ -72.493615945808799, -51.722841033994001 ], [ -72.493578723979098, -51.7228392625316 ], [ -72.493568154134607, -51.722842456532298 ], [ -72.493321995991707, -51.722830742926497 ], [ -72.493554961143801, -51.722671488380399 ], [ -72.493511182949504, -51.722501431490898 ], [ -72.493355318522305, -51.722467990073497 ], [ -72.493133885148893, -51.722379380827903 ], [ -72.492941573737596, -51.722270864215602 ], [ -72.492632779893697, -51.722241972928899 ], [ -72.4923545717227, -51.722212171659898 ], [ -72.492345779677194, -51.722098193331298 ], [ -72.492364643505994, -51.721945311521097 ], [ -72.492084973518601, -51.721896512841703 ], [ -72.491837354186401, -51.721865799365297 ], [ -72.491580945231902, -51.721721107828699 ], [ -72.491418697311602, -51.721636141776102 ], [ -72.490795612375805, -51.721699247562199 ], [ -72.490765518181107, -51.721698876979801 ], [ -72.490747821761602, -51.721700668931497 ], [ -72.489616302827898, -51.721686716167198 ], [ -72.489016379000802, -51.721609350931999 ], [ -72.488524697984701, -51.721554105110997 ], [ -72.488275829682294, -51.721571862563103 ], [ -72.487921767297806, -51.721701384980697 ], [ -72.487285531255594, -51.721898790571601 ], [ -72.486931463381893, -51.722028310094998 ], [ -72.486743956214497, -51.722081480749203 ], [ -72.486503671459204, -51.722195718900103 ], [ -72.485720887078699, -51.722480768622702 ], [ -72.485431473131499, -51.722703562857298 ], [ -72.485299482871199, -51.722731282873802 ], [ -72.485115626599793, -51.722831941736899 ], [ -72.484931769576704, -51.7229326012231 ], [ -72.484888009119203, -51.722931812726401 ], [ -72.484883977363907, -51.722934020231499 ], [ -72.484634544829305, -51.722929526047601 ], [ -72.484376467058098, -51.722937187800703 ], [ -72.484132515329506, -51.723003929649401 ], [ -72.484084723000805, -51.723005348334098 ], [ -72.483998697377302, -51.723007901900601 ], [ -72.483950905037602, -51.723009320530899 ], [ -72.483815259736403, -51.722989546279798 ], [ -72.483594339456701, -51.722950983220798 ], [ -72.483458854672307, -51.722964425053497 ], [ -72.483233106003894, -51.723018724950997 ], [ -72.483140261548598, -51.723057179693001 ], [ -72.483050157267797, -51.7231312533875 ], [ -72.483002364749794, -51.723132671634502 ], [ -72.482763402101099, -51.723139762578398 ], [ -72.482715609559605, -51.7231411807089 ], [ -72.4824680024184, -51.723160427365002 ], [ -72.482082982300199, -51.723386050604397 ], [ -72.4819619457502, -51.723556241381303 ], [ -72.481809980785002, -51.723822548882303 ], [ -72.481701365788695, -51.723985669420301 ] ] ] } },
{ "type": "Feature", "properties": { "id": "monoparte.2", "Name": null, "description": null, "timestamp": null, "begin": null, "end": null, "altitudeMode": null, "tessellate": -1, "extrude": 0, "visibility": -1, "drawOrder": null, "icon": null, "REG": "Magallanes", "COM": "Puerto Natales", "LOC": "Puerto Natales", "ZONA": "ZH6", "NOM": "ZH6 Área de Extensión Urbana", "UPERM": "Vivienda; equipamiento (regional, intercomunal, comunal, local) de áreas verdes; equipamiento (local) de salud, culto y educación.", "UPROH": "Todos los no indicados expresamente como permitidos.", "P_DO": "13/02/1990", "N_DOC": "71", "T_DO": "Decreto", "OBS": null }, "geometry": { "type": "Polygon", "coordinates": [ [ [ -72.493009555320398, -51.7211694595591 ], [ -72.493987370719395, -51.722315896921401 ], [ -72.494441970815998, -51.722645083061998 ], [ -72.494959216922695, -51.7229914433047 ], [ -72.495707965473898, -51.723159545725402 ], [ -72.496605252919693, -51.723266098369798 ], [ -72.497249043914394, -51.723265957711199 ], [ -72.498396902151896, -51.723441189758297 ], [ -72.499106273036602, -51.723496204267903 ], [ -72.499696235877195, -51.7235928547382 ], [ -72.500227963735398, -51.723729319602398 ], [ -72.500619719202604, -51.723641475670199 ], [ -72.501069709606398, -51.723513813573902 ], [ -72.501730864604795, -51.7233417691982 ], [ -72.502306134575093, -51.723248444288302 ], [ -72.502909047972196, -51.723116211739601 ], [ -72.503548424898696, -51.723059048063803 ], [ -72.504128096642205, -51.723022702858799 ], [ -72.504604245644202, -51.722837125884197 ], [ -72.5048633448163, -51.722619947914502 ], [ -72.5050583288251, -51.722366604257999 ], [ -72.505499468192596, -51.722124947962598 ], [ -72.505706214034007, -51.722023572878498 ], [ -72.506071770568695, -51.721993613115998 ], [ -72.506497027477295, -51.721942829166302 ], [ -72.507648978042297, -51.721775127250503 ], [ -72.508046588785206, -51.721763243685203 ], [ -72.508560079723097, -51.721576820204803 ], [ -72.508512404083405, -51.721554114578701 ], [ -72.508432260427796, -51.721508910731501 ], [ -72.508346188305296, -51.721449007604903 ], [ -72.507986230636803, -51.721083173823899 ], [ -72.507780644692204, -51.720803716485399 ], [ -72.507195119090696, -51.7207640944982 ], [ -72.506262764205502, -51.720115984157403 ], [ -72.506003234466206, -51.719980936705298 ], [ -72.504544596860796, -51.719453297765298 ], [ -72.5021854208333, -51.718428913676597 ], [ -72.500422722608704, -51.717684196006097 ], [ -72.497453773977995, -51.716451803452998 ], [ -72.495694894744503, -51.715754502783803 ], [ -72.4955546845123, -51.715675378055302 ], [ -72.494310237432003, -51.720650947491698 ], [ -72.493381017404104, -51.721023709611998 ], [ -72.493009555320398, -51.7211694595591 ] ] ] } },
{ "type": "Feature", "properties": { "id": "monoparte.3", "Name": null, "description": null, "timestamp": null, "begin": null, "end": null, "altitudeMode": null, "tessellate": -1, "extrude": 0, "visibility": -1, "drawOrder": null, "icon": null, "REG": "Magallanes", "COM": "Puerto Natales", "LOC": "Puerto Natales", "ZONA": "ZP", "NOM": "ZP Área Consolidada", "UPERM": "Equipamiento (regional, intercomunal, comunal) de tipo portuario y de seguridad, comercio y servicios públicos, profesionales y artesanales, talleres, industria y almacenamientos inofensivos y molestos.", "UPROH": "Vivienda, industria, almacenamineto, talleres, servicios artesanales, insalubres o peligrosos. Equipamiento de salud, educación, culto, deporte, esparcimiento; terminales rodoviarios, agropecuarios, pesqueros; depositos*", "P_DO": "13/02/1990", "N_DOC": "71", "T_DO": "Decreto", "OBS": null }, "geometry": { "type": "Polygon", "coordinates": [ [ [ -72.512661509744404, -51.729260303299299 ], [ -72.511893595664006, -51.730625609234899 ], [ -72.513572068004194, -51.730918099924203 ], [ -72.513593375703707, -51.730912053217601 ], [ -72.513619867171997, -51.730916669093602 ], [ -72.513652012211594, -51.730907546300998 ], [ -72.513617655098003, -51.730888175202203 ], [ -72.514110206817605, -51.729531101855102 ], [ -72.514107299756304, -51.729434962436301 ], [ -72.512709307210301, -51.729258872871299 ], [ -72.512705394315603, -51.729265830905398 ], [ -72.512661509744404, -51.729260303299299 ] ] ] } },
{ "type": "Feature", "properties": { "id": "monoparte.4", "Name": null, "description": null, "timestamp": null, "begin": null, "end": null, "altitudeMode": null, "tessellate": -1, "extrude": 0, "visibility": -1, "drawOrder": null, "icon": null, "REG": "Magallanes", "COM": "Puerto Natales", "LOC": "Puerto Natales", "ZONA": "R2", "NOM": "R2 Área Especial", "UPERM": "Zona de protección litoral del Seno Ultima Esperanza. Sólo se permitirá equipamiento de áreas verdes y artesanía pesquera (caleta).", "UPROH": "No podrán localizarse viviendas como complemento de áreas verdes y artesanía pesquera, la cual podrá contar con muelles y otras instalaciones para reparar botes, redes, etc.", "P_DO": "13/02/1990", "N_DOC": "71", "T_DO": "Decreto", "OBS": null }, "geometry": { "type": "Polygon", "coordinates": [ [ [ -72.509058051686395, -51.722093206686999 ], [ -72.5086205487097, -51.722222089080802 ], [ -72.508577676847494, -51.722232953381301 ], [ -72.509850983796994, -51.723462177908502 ], [ -72.509850910050105, -51.723466476273202 ], [ -72.509874748994605, -51.7234571359878 ], [ -72.511371303283596, -51.724757842162298 ], [ -72.512113679690103, -51.725435354029997 ], [ -72.512326220125502, -51.726100158503399 ], [ -72.512431524336705, -51.726568250051699 ], [ -72.513111208625602, -51.727918796544799 ], [ -72.513959812895294, -51.728778759514597 ], [ -72.514095541126906, -51.729046017143602 ], [ -72.514107299756304, -51.729434962436301 ], [ -72.514110206817605, -51.729531101855102 ], [ -72.513617655098003, -51.730888175202203 ], [ -72.513652012211594, -51.730907546300998 ], [ -72.513761954182897, -51.730969535933902 ], [ -72.513533082699297, -51.731576150261802 ], [ -72.511755866746995, -51.733271543876903 ], [ -72.511426801204493, -51.733476548647999 ], [ -72.510828199365207, -51.733665815696597 ], [ -72.5103751917257, -51.733755524728103 ], [ -72.509977598978793, -51.733814233187601 ], [ -72.5094050393636, -51.733898774348098 ], [ -72.508962336848697, -51.7341214503641 ], [ -72.508918202536705, -51.734113373212999 ], [ -72.508917714074897, -51.7341144537574 ], [ -72.508483408132705, -51.734692688487399 ], [ -72.508214995803797, -51.734938711997302 ], [ -72.5079185626292, -51.734996361660102 ], [ -72.506340820536593, -51.735114901467597 ], [ -72.505980308248098, -51.735211349965098 ], [ -72.505736733089606, -51.735332864990198 ], [ -72.504775657963094, -51.735989886962003 ], [ -72.504276801313196, -51.736675942050503 ], [ -72.503859787661895, -51.737231031769099 ], [ -72.502946288079499, -51.738800539837698 ], [ -72.500567025122095, -51.7383717151044 ], [ -72.499919886476803, -51.738034010916998 ], [ -72.497906190075199, -51.738465313735396 ], [ -72.497572985192207, -51.738618042054597 ], [ -72.497032321550606, -51.739062550492498 ], [ -72.496027515804897, -51.740049240374297 ], [ -72.492269290683893, -51.742863589951803 ], [ -72.493401085844198, -51.7430083759564 ], [ -72.493461199788399, -51.743017297676502 ], [ -72.493520199284305, -51.742986981056603 ], [ -72.493609432732498, -51.742951006144096 ], [ -72.493681899364603, -51.742896489009802 ], [ -72.494096364014098, -51.7427032740732 ], [ -72.494212528785894, -51.742618895993502 ], [ -72.494349075385301, -51.742500591766003 ], [ -72.494511138842, -51.742414847105302 ], [ -72.4945588181441, -51.742337267630496 ], [ -72.494549335045704, -51.742313750282001 ], [ -72.494625780155999, -51.742211514804602 ], [ -72.494704427439999, -51.742137773652601 ], [ -72.494922918210605, -51.741988468366898 ], [ -72.495279783948106, -51.741744603395297 ], [ -72.495348265442203, -51.741737804044803 ], [ -72.495430579906795, -51.741711553395703 ], [ -72.495569320749993, -51.741621742278397 ], [ -72.495815470165994, -51.7414335320167 ], [ -72.495874834507902, -51.741407964491103 ], [ -72.496033588399101, -51.741279476271202 ], [ -72.496102379713506, -51.741177467703999 ], [ -72.496442155894599, -51.741010268172303 ], [ -72.496834376430201, -51.740827224516003 ], [ -72.496966931377202, -51.740756636215202 ], [ -72.497138776181103, -51.740599196491701 ], [ -72.497165704284598, -51.740550794032202 ], [ -72.497245077298203, -51.7404865491499 ], [ -72.497315700249004, -51.7404082858178 ], [ -72.497391034631704, -51.740291800618998 ], [ -72.497410312328299, -51.740243626927999 ], [ -72.497490052978705, -51.740184130308798 ], [ -72.497809498031103, -51.740150812552599 ], [ -72.498261066580895, -51.739942195867997 ], [ -72.498441655467801, -51.739798774437801 ], [ -72.498669975933296, -51.739677728886399 ], [ -72.498832019680606, -51.7395919795051 ], [ -72.499043875263993, -51.739357184035903 ], [ -72.499094116071802, -51.7393128464889 ], [ -72.499169874410995, -51.739301068548599 ], [ -72.499318088172302, -51.739234770109299 ], [ -72.499530434396405, -51.739204640154199 ], [ -72.499607663107199, -51.739211857481699 ], [ -72.499691135034993, -51.739299809180302 ], [ -72.499826318180098, -51.739362418504697 ], [ -72.499904281951999, -51.739379134319201 ], [ -72.500224454004098, -51.739355307913499 ], [ -72.500364347262007, -51.7393796964976 ], [ -72.500592727919894, -51.739358606181703 ], [ -72.500764321705304, -51.739396328939698 ], [ -72.500890385465695, -51.739440169623698 ], [ -72.501181130572604, -51.739531458189703 ], [ -72.501613243132994, -51.739666129480497 ], [ -72.501791384674206, -51.7396893754403 ], [ -72.501876264482306, -51.739696363943899 ], [ -72.501991373384399, -51.739697689370203 ], [ -72.502117369651003, -51.739641570771298 ], [ -72.5022808783269, -51.739574812241997 ], [ -72.502665484454297, -51.739491936728101 ], [ -72.502960868999807, -51.739445042758597 ], [ -72.503068328832796, -51.739446595377601 ], [ -72.503220948148197, -51.739437281388902 ], [ -72.503381217171494, -51.739427737997403 ], [ -72.503470436907705, -51.739391754905 ], [ -72.503596062666304, -51.739330885440502 ], [ -72.504738576323902, -51.741015143627898 ], [ -72.504659213305501, -51.741079393393001 ], [ -72.504741228389904, -51.741148344812501 ], [ -72.504878110528196, -51.7410347782223 ], [ -72.503669614686004, -51.739290610418102 ], [ -72.503750079389604, -51.739240608414299 ], [ -72.503920866133399, -51.739168870012001 ], [ -72.504010451278106, -51.7391376358919 ], [ -72.504130266262493, -51.739100739902803 ], [ -72.504240224374598, -51.739035577122898 ], [ -72.504334884085594, -51.738970870941202 ], [ -72.5044204224683, -51.7388873966745 ], [ -72.504566711509796, -51.738697389166603 ], [ -72.5053291810801, -51.737851140783803 ], [ -72.505461345875105, -51.737775793950398 ], [ -72.506920145135595, -51.738198701965601 ], [ -72.506982075283602, -51.738206371477197 ], [ -72.507023921173598, -51.738152761515003 ], [ -72.505385513975298, -51.737687618103102 ], [ -72.504778219708001, -51.737567711058297 ], [ -72.504812418178204, -51.737514330235499 ], [ -72.504585813535599, -51.737459215518797 ], [ -72.504580146883995, -51.737188063569803 ], [ -72.504603753296095, -51.737096918404099 ], [ -72.504643394166806, -51.7370148151129 ], [ -72.504743859496898, -51.736926135476097 ], [ -72.504801004264905, -51.736872068636103 ], [ -72.5048435872705, -51.736827957160898 ], [ -72.504926915280095, -51.736715989316998 ], [ -72.504989133964898, -51.736628450543897 ], [ -72.505060103957405, -51.736554931335903 ], [ -72.505625290396196, -51.735933531626401 ], [ -72.505884824482195, -51.735721099813198 ], [ -72.505982418648699, -51.735694385180999 ], [ -72.506065818092495, -51.735682373565403 ], [ -72.506127376741702, -51.735685295179202 ], [ -72.506290129290804, -51.735609033670102 ], [ -72.506436189550399, -51.735614190381398 ], [ -72.506750443844297, -51.7355143621511 ], [ -72.507005714816103, -51.735444856255498 ], [ -72.507380131692102, -51.735428908976502 ], [ -72.508067775840303, -51.735398840440403 ], [ -72.508311428984499, -51.7353772783732 ], [ -72.508583834363904, -51.735331055739103 ], [ -72.508844540921601, -51.735232822360999 ], [ -72.509050969182695, -51.7351266912938 ], [ -72.509161278892293, -51.735066273479099 ], [ -72.509202382850404, -51.735003164218 ], [ -72.509317960185498, -51.734714107344303 ], [ -72.509331416819506, -51.734689905278998 ], [ -72.509436285854605, -51.734658209912403 ], [ -72.509670639316397, -51.734417962173801 ], [ -72.509804629938102, -51.7343663553863 ], [ -72.510002666352307, -51.734250952863 ], [ -72.510119516512603, -51.734176058488103 ], [ -72.510279396717195, -51.734161757644401 ], [ -72.510418173463293, -51.734171887472002 ], [ -72.510507375736395, -51.734135899343599 ], [ -72.510564879987797, -51.734086579120699 ], [ -72.5107913847894, -51.734041724898503 ], [ -72.510965455244801, -51.734012718647001 ], [ -72.510995921284902, -51.733995345973803 ], [ -72.511009504758803, -51.733987600408597 ], [ -72.511284846624903, -51.7339793642385 ], [ -72.511472003243, -51.733921405687802 ], [ -72.511580554003899, -51.733937198663703 ], [ -72.511603867586402, -51.733941260621101 ], [ -72.511685789562407, -51.733910249693501 ], [ -72.511852948523597, -51.7338909686123 ], [ -72.511947218145906, -51.733821508257101 ], [ -72.512010156500097, -51.733743464627402 ], [ -72.511992647584904, -51.733715428403798 ], [ -72.512050886748995, -51.733675605166297 ], [ -72.512047477593597, -51.733532906724101 ], [ -72.512205881959801, -51.733499607016 ], [ -72.512279415379993, -51.733459326927203 ], [ -72.512431644848505, -51.733445251137802 ], [ -72.512837374021004, -51.733635410366396 ], [ -72.512863774765705, -51.733629860851003 ], [ -72.512869948989604, -51.733610635710001 ], [ -72.5125197841747, -51.733444993813599 ], [ -72.512514116831795, -51.733421363627599 ], [ -72.512546691763603, -51.7333965881624 ], [ -72.5126698018978, -51.733402424704003 ], [ -72.512739557903203, -51.733412237077097 ], [ -72.512824241356299, -51.733416842360697 ], [ -72.512907682448002, -51.733454806075301 ], [ -72.512962142495894, -51.733465076089097 ], [ -72.513038992960702, -51.733467535487499 ], [ -72.513091472003595, -51.733501665411197 ], [ -72.513124231009499, -51.733479264431502 ], [ -72.513039499474303, -51.733424680183298 ], [ -72.513011209256504, -51.733356506789399 ], [ -72.512994438603002, -51.733337968346198 ], [ -72.512939057115105, -51.7333158260356 ], [ -72.512918277807998, -51.733295027394902 ], [ -72.5129317306655, -51.733270824999003 ], [ -72.512955734941499, -51.7332344060273 ], [ -72.513663619861603, -51.733465499687597 ], [ -72.513669425053195, -51.733441526129603 ], [ -72.512973012122998, -51.733210089170903 ], [ -72.512963705928499, -51.733188947166902 ], [ -72.512991164452302, -51.733147665390703 ], [ -72.512984208096398, -51.733107413595903 ], [ -72.513005309567006, -51.733082982278603 ], [ -72.512968080633797, -51.732998415291902 ], [ -72.512984804729896, -51.732966974510802 ], [ -72.513072896662194, -51.732916738455998 ], [ -72.513106761223099, -51.732908584435997 ], [ -72.513300589796899, -51.7327885426755 ], [ -72.513331367289595, -51.7327900016219 ], [ -72.513604073170498, -51.732698537763703 ], [ -72.513811517435997, -51.732679833494203 ], [ -72.513912591955901, -51.732685732868397 ], [ -72.513950080732002, -51.732613209417302 ], [ -72.514272190683002, -51.732627366719001 ], [ -72.514285148197601, -51.732609128483602 ], [ -72.514219721257405, -51.732506962121001 ], [ -72.513995287981004, -51.732516655993699 ], [ -72.513930611724007, -51.732485867269297 ], [ -72.513863919869806, -51.732490838531398 ], [ -72.513810187117997, -51.732477571526402 ], [ -72.513695235047393, -51.732478037886402 ], [ -72.513613052074504, -51.732468598084203 ], [ -72.513568417881402, -51.732449109116303 ], [ -72.513538125546006, -51.732429190833003 ], [ -72.513498962360302, -51.732418463218302 ], [ -72.5133871770459, -51.732398008550597 ], [ -72.513275391897594, -51.7323775546718 ], [ -72.513225747838405, -51.732355239878899 ], [ -72.513188140161404, -51.732302815531902 ], [ -72.513201962161105, -51.732233976328097 ], [ -72.513277693082102, -51.732160309382699 ], [ -72.513327969028495, -51.732129054371399 ], [ -72.513423569939903, -51.732126192842301 ], [ -72.513543531222396, -51.732128552443697 ], [ -72.513642530532906, -51.732107738719399 ], [ -72.513686183073801, -51.732052882029699 ], [ -72.513696373929307, -51.731999026096297 ], [ -72.513703860591406, -51.731972026547801 ], [ -72.513657383400002, -51.731928792999597 ], [ -72.513634576631901, -51.7318818752304 ], [ -72.513618162584393, -51.731855592035501 ], [ -72.513624266662205, -51.731810783587399 ], [ -72.5136563439696, -51.731791973082302 ], [ -72.513689573469193, -51.731788003620103 ], [ -72.513738986622698, -51.7318073494774 ], [ -72.513788459538603, -51.731889168646397 ], [ -72.513822208342802, -51.731953609120097 ], [ -72.513823420391503, -51.732030923499998 ], [ -72.513785010009201, -51.732091573713298 ], [ -72.513730414216298, -51.732128907737 ], [ -72.5137274781857, -51.7321527963148 ], [ -72.5138347123264, -51.732176360746202 ], [ -72.513927838228994, -51.732203323084399 ], [ -72.514035764052593, -51.732235792673102 ], [ -72.514121344912496, -51.732227280155698 ], [ -72.5141769212008, -51.732264291613198 ], [ -72.514367723025103, -51.732315104702302 ], [ -72.514414199851004, -51.732358337990199 ], [ -72.514466320627605, -51.7323508279406 ], [ -72.514532258403193, -51.732274477734599 ], [ -72.514194138512593, -51.732177501229799 ], [ -72.514213428535996, -51.732117423327097 ], [ -72.514306323997801, -51.7321414166164 ], [ -72.514569456085397, -51.732136513801798 ], [ -72.5145639241032, -51.732065278262901 ], [ -72.514529311580404, -51.732051439986797 ], [ -72.514486001071106, -51.731987285997803 ], [ -72.514205822910796, -51.732019475320499 ], [ -72.5141234101702, -51.732007067114601 ], [ -72.514059886853403, -51.731991118594003 ], [ -72.514010242926204, -51.731968805028501 ], [ -72.513956450804798, -51.731893064750402 ], [ -72.513944817594904, -51.731866638474798 ], [ -72.513830320651294, -51.731626114216198 ], [ -72.513908807342901, -51.731341138269897 ], [ -72.513909839846306, -51.731231031750902 ], [ -72.513960226397202, -51.731077797629098 ], [ -72.514304644028996, -51.730392156886197 ], [ -72.515507906838195, -51.730463225438697 ], [ -72.515335137722801, -51.731384704783501 ], [ -72.515382937292401, -51.731383273226697 ], [ -72.515558702493905, -51.730500378519601 ], [ -72.515603334169398, -51.730519867696401 ], [ -72.515595511974496, -51.730665877350901 ], [ -72.515754631528594, -51.7306789616987 ], [ -72.515813063259202, -51.730382684190403 ], [ -72.515793713609696, -51.730380289023699 ], [ -72.515779604459695, -51.730383686386602 ], [ -72.515825771296306, -51.730114552582798 ], [ -72.515864241272098, -51.730116375018298 ], [ -72.515860091126896, -51.730062949317499 ], [ -72.515792941946899, -51.730061985018999 ], [ -72.515740674626002, -51.730375928193503 ], [ -72.515393527854798, -51.730347650297702 ], [ -72.5153611599155, -51.730301019199302 ], [ -72.515278980627201, -51.730291580493798 ], [ -72.514820977696999, -51.730254720963799 ], [ -72.514453831414002, -51.729783760975003 ], [ -72.514446858284202, -51.729632244023101 ], [ -72.514437057701301, -51.729382635981899 ], [ -72.514427669078501, -51.729323416695699 ], [ -72.514341914207094, -51.729144508370602 ], [ -72.515623464018404, -51.7292370311581 ], [ -72.515642244366006, -51.729355469481298 ], [ -72.515811149901694, -51.7293712353421 ], [ -72.515860711663095, -51.729084148585599 ], [ -72.515657889756696, -51.729063449183499 ], [ -72.515628411755003, -51.729177382546801 ], [ -72.514346404133505, -51.729078923139497 ], [ -72.514322555905693, -51.728895186482703 ], [ -72.514291453853403, -51.728741416304999 ], [ -72.514158075934901, -51.728504433313802 ], [ -72.514019056911806, -51.728318194315797 ], [ -72.513776844455805, -51.728036868710497 ], [ -72.513558070073103, -51.727748891521102 ], [ -72.513353063853103, -51.727576526962103 ], [ -72.513103545159595, -51.727262693786798 ], [ -72.513068879769904, -51.727186380660697 ], [ -72.513114371415895, -51.727155268860699 ], [ -72.513191937278293, -51.727105346711902 ], [ -72.513365495156904, -51.726996026450699 ], [ -72.513491948363495, -51.726897040229098 ], [ -72.513528052661499, -51.726806708864203 ], [ -72.513512042391696, -51.726723887924003 ], [ -72.513482616598694, -51.726653368467403 ], [ -72.513394224112602, -51.726563788154003 ], [ -72.513303126365997, -51.726501065102298 ], [ -72.513119433050903, -51.726479787971201 ], [ -72.513008353810605, -51.726468238012203 ], [ -72.512928889285206, -51.726431941038101 ], [ -72.512762587096105, -51.726264366609598 ], [ -72.512646153275099, -51.726122075885598 ], [ -72.512554772139396, -51.725746983243802 ], [ -72.512485903637696, -51.725600293244703 ], [ -72.512328534570102, -51.725239075079102 ], [ -72.512212740038393, -51.725043213930597 ], [ -72.512138461160006, -51.724950236533097 ], [ -72.511984259677206, -51.724815024818703 ], [ -72.511064420392103, -51.724134490480097 ], [ -72.510554275250101, -51.723733247384601 ], [ -72.510451096519603, -51.723638157712102 ], [ -72.510461521478007, -51.723587270680198 ], [ -72.510415056318607, -51.723544035579799 ], [ -72.510349935190803, -51.723507307930603 ], [ -72.510265697863403, -51.723471151968504 ], [ -72.510190559232001, -51.7234287734357 ], [ -72.510123851913093, -51.723359534581 ], [ -72.509549802033703, -51.722763681522302 ], [ -72.509099230380201, -51.722265450047203 ], [ -72.509058434556096, -51.722093792528497 ], [ -72.509058372340107, -51.722093531725598 ], [ -72.509058279669006, -51.7220931396023 ], [ -72.509058051686395, -51.722093206686999 ] ] ] } },
{ "type": "Feature", "properties": { "id": "monoparte.5", "Name": null, "description": null, "timestamp": null, "begin": null, "end": null, "altitudeMode": null, "tessellate": -1, "extrude": 0, "visibility": -1, "drawOrder": null, "icon": null, "REG": "Magallanes", "COM": "Puerto Natales", "LOC": "Puerto Natales", "ZONA": "ZH1", "NOM": "ZH1 Área Consolidada", "UPERM": "Vivienda; equipamiento (comunal, local), salvo los prohibidos; servicios artesanales, talleres, industria y almacenamientos inofensivos.", "UPROH": "Equipamiento de cementerio, plantas y botaderos de basura y presidios; talleres, servicios artesanales, industrias y almacenamientos molestos, insalubres y peligrosos; terminales de transporte y distribución de todo tip*", "P_DO": "13/02/1990", "N_DOC": "71", "T_DO": "Decreto", "OBS": null }, "geometry": { "type": "Polygon", "coordinates": [ [ [ -72.497384533694699, -51.7354130174879 ], [ -72.496665148708203, -51.735883725789499 ], [ -72.496664321954, -51.735882626008802 ], [ -72.493004243971697, -51.738833817960902 ], [ -72.492665563694302, -51.739106877932898 ], [ -72.492655678578004, -51.739110001055799 ], [ -72.492675584247706, -51.739112529248601 ], [ -72.488514699210299, -51.742383195310097 ], [ -72.488535586638903, -51.742385868651901 ], [ -72.492269290683893, -51.742863589951803 ], [ -72.496027515804897, -51.740049240374297 ], [ -72.497032321550606, -51.739062550492498 ], [ -72.497572985192207, -51.738618042054597 ], [ -72.497906190075199, -51.738465313735396 ], [ -72.499919886476803, -51.738034010916998 ], [ -72.500567025122095, -51.7383717151044 ], [ -72.502946288079499, -51.738800539837698 ], [ -72.503859787661895, -51.737231031769099 ], [ -72.504276801313196, -51.736675942050503 ], [ -72.504775657963094, -51.735989886962003 ], [ -72.505736733089606, -51.735332864990198 ], [ -72.505980308248098, -51.735211349965098 ], [ -72.506340820536593, -51.735114901467597 ], [ -72.5079185626292, -51.734996361660102 ], [ -72.508214995803797, -51.734938711997302 ], [ -72.508483408132705, -51.734692688487399 ], [ -72.508917714074897, -51.7341144537574 ], [ -72.508918202536705, -51.734113373212999 ], [ -72.504669766939202, -51.733335770014797 ], [ -72.503501070464395, -51.736361499184603 ], [ -72.497474062351301, -51.735354435388103 ], [ -72.497384533694699, -51.7354130174879 ] ] ] } },
{ "type": "Feature", "properties": { "id": "monoparte.6", "Name": null, "description": null, "timestamp": null, "begin": null, "end": null, "altitudeMode": null, "tessellate": -1, "extrude": 0, "visibility": -1, "drawOrder": null, "icon": null, "REG": "Magallanes", "COM": "Puerto Natales", "LOC": "Puerto Natales", "ZONA": "ZH2", "NOM": "ZH2 Área Consolidada", "UPERM": "Vivienda; equipamiento (local, comunal) salvo los indicados como prohibidos; servicios y/o talleres artesanales, industrias y almacenamiento inofensivo.", "UPROH": "Equipamiento de cementerio, plantas y botaderos de basura; presidio, cárceles; talleres, servicios artesanales, industrias, almacenamientos molestos, insalubres o peligrosos; terminales de transporte y distribución de t*", "P_DO": "13/02/1990", "N_DOC": "71", "T_DO": "Decreto", "OBS": null }, "geometry": { "type": "Polygon", "coordinates": [ [ [ -72.508855941030504, -51.724393954527798 ], [ -72.506793802973704, -51.729929608592002 ], [ -72.505943352354706, -51.729836013340602 ], [ -72.505783425556103, -51.730245392086999 ], [ -72.502458106547806, -51.729868662598498 ], [ -72.501130934570995, -51.733026065550298 ], [ -72.498763312091, -51.732644460645197 ], [ -72.498760655088404, -51.732649686938899 ], [ -72.497399105193793, -51.735326918689303 ], [ -72.497384533694699, -51.7354130174879 ], [ -72.497474062351301, -51.735354435388103 ], [ -72.503501070464395, -51.736361499184603 ], [ -72.504669766939202, -51.733335770014797 ], [ -72.508918202536705, -51.734113373212999 ], [ -72.508962336848697, -51.7341214503641 ], [ -72.5094050393636, -51.733898774348098 ], [ -72.509977598978793, -51.733814233187601 ], [ -72.5103751917257, -51.733755524728103 ], [ -72.510828199365207, -51.733665815696597 ], [ -72.511426801204493, -51.733476548647999 ], [ -72.511755866746995, -51.733271543876903 ], [ -72.513533082699297, -51.731576150261802 ], [ -72.513761954182897, -51.730969535933902 ], [ -72.513652012211594, -51.730907546300998 ], [ -72.513619867171997, -51.730916669093602 ], [ -72.513593375703707, -51.730912053217601 ], [ -72.513572068004194, -51.730918099924203 ], [ -72.511893595664006, -51.730625609234899 ], [ -72.512661509744404, -51.729260303299299 ], [ -72.512705394315603, -51.729265830905398 ], [ -72.512709307210301, -51.729258872871299 ], [ -72.514107299756304, -51.729434962436301 ], [ -72.514095541126906, -51.729046017143602 ], [ -72.513959812895294, -51.728778759514597 ], [ -72.513111208625602, -51.727918796544799 ], [ -72.512431524336705, -51.726568250051699 ], [ -72.512326220125502, -51.726100158503399 ], [ -72.512113679690103, -51.725435354029997 ], [ -72.511371303283596, -51.724757842162298 ], [ -72.509874748994605, -51.7234571359878 ], [ -72.509850910050105, -51.723466476273202 ], [ -72.508426089594195, -51.724024718855603 ], [ -72.508855941030504, -51.724393954527798 ] ] ] } },
{ "type": "Feature", "properties": { "id": "monoparte.7", "Name": null, "description": null, "timestamp": null, "begin": null, "end": null, "altitudeMode": null, "tessellate": -1, "extrude": 0, "visibility": -1, "drawOrder": null, "icon": null, "REG": "Magallanes", "COM": "Puerto Natales", "LOC": "Puerto Natales", "ZONA": "ZC", "NOM": "ZC Área Consolidada", "UPERM": "Vivienda; equipamiento (intecomunal, comunal, local), salvo los indicados como prohibidos; industrias y almacenamientos inofensivos.", "UPROH": "Industrias, talleres y almacenamientos molestos, insalubres o peligrosos; terminales de transportes rodoviarios y de distribución de todo tipo; cementerios, presidio; plantas y botaderos de basura.", "P_DO": "13/02/1990", "N_DOC": "71", "T_DO": "Decreto", "OBS": null }, "geometry": { "type": "Polygon", "coordinates": [ [ [ -72.501631925566997, -51.725899314667203 ], [ -72.501609681384494, -51.725887233759003 ], [ -72.499097093828098, -51.725501793738701 ], [ -72.498288845461502, -51.727993792405698 ], [ -72.496155276282096, -51.7321271684796 ], [ -72.498760655088404, -51.732649686938899 ], [ -72.498763312091, -51.732644460645197 ], [ -72.501130934570995, -51.733026065550298 ], [ -72.502458106547806, -51.729868662598498 ], [ -72.505783425556103, -51.730245392086999 ], [ -72.505943352354706, -51.729836013340602 ], [ -72.506793802973704, -51.729929608592002 ], [ -72.508855941030504, -51.724393954527798 ], [ -72.508426089594195, -51.724024718855603 ], [ -72.502473783129403, -51.726356493079798 ], [ -72.501631925566997, -51.725899314667203 ] ] ] } },
{ "type": "Feature", "properties": { "id": "monoparte.8", "Name": null, "description": null, "timestamp": null, "begin": null, "end": null, "altitudeMode": null, "tessellate": -1, "extrude": 0, "visibility": -1, "drawOrder": null, "icon": null, "REG": "Magallanes", "COM": "Puerto Natales", "LOC": "Puerto Natales", "ZONA": "ZH3", "NOM": "ZH3 Área Consolidada", "UPERM": "Vivienda; equipamiento (comunal, local), salvo los indicados como prohibidos; talleres, industrias y almacenamientos inofensivos.", "UPROH": "Equipamiento de plantas y botaderos de basura; presidio y cárcel. Talleres y servicios artesanales, industrias y almacenamientos molestos, insalubres o peligrosos; terminales de distribución y transporte de todo tipo.", "P_DO": "13/02/1990", "N_DOC": "71", "T_DO": "Decreto", "OBS": null }, "geometry": { "type": "Polygon", "coordinates": [ [ [ -72.496664321954, -51.735882626008802 ], [ -72.496665148708203, -51.735883725789499 ], [ -72.497384533694699, -51.7354130174879 ], [ -72.497399105193793, -51.735326918689303 ], [ -72.498760655088404, -51.732649686938899 ], [ -72.496155276282096, -51.7321271684796 ], [ -72.498288845461502, -51.727993792405698 ], [ -72.499097093828098, -51.725501793738701 ], [ -72.4950630815908, -51.724882833620399 ], [ -72.489076115813205, -51.723975676966496 ], [ -72.485317133117107, -51.7253249573359 ], [ -72.4862640492574, -51.725677635353698 ], [ -72.487584193563094, -51.726895056793097 ], [ -72.487884383974404, -51.727209816717099 ], [ -72.489257013402394, -51.728311420710298 ], [ -72.490795850878698, -51.729579425161198 ], [ -72.491655703200294, -51.7303916112213 ], [ -72.4927299274012, -51.731597252023398 ], [ -72.496339168355803, -51.735450124742798 ], [ -72.496664321954, -51.735882626008802 ] ] ] } },
{ "type": "Feature", "properties": { "id": "monoparte.9", "Name": null, "description": null, "timestamp": null, "begin": null, "end": null, "altitudeMode": null, "tessellate": -1, "extrude": 0, "visibility": -1, "drawOrder": null, "icon": null, "REG": "Magallanes", "COM": "Puerto Natales", "LOC": "Puerto Natales", "ZONA": "ZE", "NOM": "ZE Área Consolidada", "UPERM": "Vivienda; equipamiento (comunal, local), salvo los prohibidos.", "UPROH": "Industrias y bodegas inofensivas, molestas, insalubres o peligrosas; talleres, servicios artesanales, molestos, insalubres o peligrosos; cementerios, presidio; plantas y botaderos de basura; terminales de transporte y d*", "P_DO": "13/02/1990", "N_DOC": "71", "T_DO": "Decreto", "OBS": null }, "geometry": { "type": "Polygon", "coordinates": [ [ [ -72.507655050920604, -51.722422309063703 ], [ -72.507260377415506, -51.722472183280601 ], [ -72.507248861881806, -51.722469027317402 ], [ -72.507212586826995, -51.722473611360698 ], [ -72.506849493245497, -51.722374100927297 ], [ -72.506368969576599, -51.722441696981797 ], [ -72.5061257524589, -51.722468003105099 ], [ -72.505932245186401, -51.722740344838599 ], [ -72.505670208619307, -51.722919532253499 ], [ -72.5054925746592, -51.723000998285997 ], [ -72.505355821375602, -51.723214523755502 ], [ -72.505093779809897, -51.723393709964803 ], [ -72.504728209773305, -51.7234236669401 ], [ -72.504275291892796, -51.723513350831503 ], [ -72.504227500053901, -51.723514777717803 ], [ -72.5040611844816, -51.723519743129202 ], [ -72.503852957882202, -51.723602119039903 ], [ -72.503583555947799, -51.723686321602997 ], [ -72.503555808432694, -51.723681482842302 ], [ -72.503535763891193, -51.723687748211297 ], [ -72.503372064262393, -51.723659203541096 ], [ -72.502884466798307, -51.723764307802 ], [ -72.502396545155193, -51.723797908913397 ], [ -72.501917437883904, -51.723945485183599 ], [ -72.501620382578395, -51.7240685879936 ], [ -72.501352444196399, -51.7241717820093 ], [ -72.501322854496607, -51.724166197093702 ], [ -72.501304651513905, -51.724173207719801 ], [ -72.500869083887807, -51.7240909995732 ], [ -72.500458066920501, -51.724103258353203 ], [ -72.500410274264596, -51.724104683698499 ], [ -72.5001925554254, -51.724049982561702 ], [ -72.500670100806602, -51.724540806059899 ], [ -72.501631925566997, -51.725899314667203 ], [ -72.502473783129403, -51.726356493079798 ], [ -72.508426089594195, -51.724024718855603 ], [ -72.509850910050105, -51.723466476273202 ], [ -72.509850983796994, -51.723462177908502 ], [ -72.508577676847494, -51.722232953381301 ], [ -72.508109422640601, -51.722351608808303 ], [ -72.507655050920604, -51.722422309063703 ] ] ] } },
{ "type": "Feature", "properties": { "id": "monoparte.10", "Name": null, "description": null, "timestamp": null, "begin": null, "end": null, "altitudeMode": null, "tessellate": -1, "extrude": 0, "visibility": -1, "drawOrder": null, "icon": null, "REG": "Magallanes", "COM": "Puerto Natales", "LOC": "Puerto Natales", "ZONA": "R1", "NOM": "R1 Área Especial", "UPERM": "Corresponde a fajas de terreno no edificables. La delimitación de estos deslindes se hará de conformidad al D.S. 609, Tierras y Colonización, de 1978.", "UPROH": "Sin Información.", "P_DO": "13/02/1990", "N_DOC": "71", "T_DO": "Decreto", "OBS": null }, "geometry": { "type": "Polygon", "coordinates": [ [ [ -72.490113001131903, -51.720882933018203 ], [ -72.489468549641302, -51.720973494685403 ], [ -72.4886256180652, -51.720974752885198 ], [ -72.4880302785228, -51.720956746520002 ], [ -72.487556036823094, -51.721018439471599 ], [ -72.487179202906205, -51.721101036098901 ], [ -72.485637356713795, -51.7217299362242 ], [ -72.482855687191901, -51.722681211547702 ], [ -72.482380506181499, -51.722731010420198 ], [ -72.482119263662696, -51.722822061593298 ], [ -72.4817305921149, -51.723000190981402 ], [ -72.481604989890698, -51.7231110168782 ], [ -72.481599569007102, -51.723289677530303 ], [ -72.481502214399399, -51.7235186652888 ], [ -72.481306533324201, -51.723714869052102 ], [ -72.480940619682798, -51.7239399208039 ], [ -72.480539154636503, -51.7239518263912 ], [ -72.480130387768298, -51.723868747761301 ], [ -72.4799910893082, -51.723801478172902 ], [ -72.479838151345305, -51.723806012529501 ], [ -72.4795350114277, -51.723850698943899 ], [ -72.479321983076005, -51.7238213145854 ], [ -72.479179036136699, -51.723706552089901 ], [ -72.479038828534797, -51.723627407636997 ], [ -72.478831275589002, -51.723669259813903 ], [ -72.478682897992101, -51.723733157406002 ], [ -72.478407958254394, -51.723646105500997 ], [ -72.478325305073795, -51.723901217673998 ], [ -72.478520880235195, -51.723908172441099 ], [ -72.478603736279595, -51.723989016359099 ], [ -72.478798560251093, -51.724030842283398 ], [ -72.478929646221701, -51.723991256681998 ], [ -72.479074373210807, -51.7238798677853 ], [ -72.479105351855296, -51.724033648763303 ], [ -72.479210063791101, -51.724149544731198 ], [ -72.479482271889907, -51.724200975471597 ], [ -72.479788152001504, -51.7241919073943 ], [ -72.479840029371601, -51.7241189696433 ], [ -72.4799547340006, -51.724115568867397 ], [ -72.479883739593802, -51.724189073454397 ], [ -72.479948393951503, -51.724282355897699 ], [ -72.480169639413802, -51.724418596444401 ], [ -72.480318928325005, -51.724366569759297 ], [ -72.480576585722602, -51.724477929364298 ], [ -72.480809648183893, -51.724518618063598 ], [ -72.480962589838398, -51.724514082355803 ], [ -72.481092760781195, -51.724462621661203 ], [ -72.481371307458303, -51.724347260054699 ], [ -72.481475055753705, -51.724201383265999 ], [ -72.481672564268493, -51.7240289246581 ], [ -72.481701365788695, -51.723985669420301 ], [ -72.481809980785002, -51.723822548882303 ], [ -72.4819619457502, -51.723556241381303 ], [ -72.482082982300199, -51.723386050604397 ], [ -72.4824680024184, -51.723160427365002 ], [ -72.482715609559605, -51.7231411807089 ], [ -72.482763402101099, -51.723139762578398 ], [ -72.483002364749794, -51.723132671634502 ], [ -72.483050157267797, -51.7231312533875 ], [ -72.483140261548598, -51.723057179693001 ], [ -72.483233106003894, -51.723018724950997 ], [ -72.483458854672307, -51.722964425053497 ], [ -72.483594339456701, -51.722950983220798 ], [ -72.483815259736403, -51.722989546279798 ], [ -72.483950905037602, -51.723009320530899 ], [ -72.483998697377302, -51.723007901900601 ], [ -72.484084723000805, -51.723005348334098 ], [ -72.484132515329506, -51.723003929649401 ], [ -72.484376467058098, -51.722937187800703 ], [ -72.484634544829305, -51.722929526047601 ], [ -72.484883977363907, -51.722934020231499 ], [ -72.484888009119203, -51.722931812726401 ], [ -72.484931769576704, -51.7229326012231 ], [ -72.485115626599793, -51.722831941736899 ], [ -72.485299482871199, -51.722731282873802 ], [ -72.485431473131499, -51.722703562857298 ], [ -72.485720887078699, -51.722480768622702 ], [ -72.486503671459204, -51.722195718900103 ], [ -72.486743956214497, -51.722081480749203 ], [ -72.486931463381893, -51.722028310094998 ], [ -72.487285531255594, -51.721898790571601 ], [ -72.487921767297806, -51.721701384980697 ], [ -72.488275829682294, -51.721571862563103 ], [ -72.488524697984701, -51.721554105110997 ], [ -72.489016379000802, -51.721609350931999 ], [ -72.489616302827898, -51.721686716167198 ], [ -72.490747821761602, -51.721700668931497 ], [ -72.490765518181107, -51.721698876979801 ], [ -72.490795612375805, -51.721699247562199 ], [ -72.491418697311602, -51.721636141776102 ], [ -72.491580945231902, -51.721721107828699 ], [ -72.491837354186401, -51.721865799365297 ], [ -72.492084973518601, -51.721896512841703 ], [ -72.492364643505994, -51.721945311521097 ], [ -72.492345779677194, -51.722098193331298 ], [ -72.4923545717227, -51.722212171659898 ], [ -72.492632779893697, -51.722241972928899 ], [ -72.492941573737596, -51.722270864215602 ], [ -72.493133885148893, -51.722379380827903 ], [ -72.493355318522305, -51.722467990073497 ], [ -72.493511182949504, -51.722501431490898 ], [ -72.493554961143801, -51.722671488380399 ], [ -72.493321995991707, -51.722830742926497 ], [ -72.493568154134607, -51.722842456532298 ], [ -72.493578723979098, -51.7228392625316 ], [ -72.493615945808799, -51.722841033994001 ], [ -72.493803056953396, -51.722784499848899 ], [ -72.494089593050802, -51.722845974034698 ], [ -72.494101321997704, -51.722997945434997 ], [ -72.494018358454198, -51.7231146551782 ], [ -72.494083931298704, -51.723169823109899 ], [ -72.4941287957854, -51.723165937347098 ], [ -72.494131723291801, -51.723168400355497 ], [ -72.494420528911704, -51.723143387700098 ], [ -72.4944539053771, -51.7231968891682 ], [ -72.494529743080804, -51.723385031524899 ], [ -72.494781770093397, -51.723472727275301 ], [ -72.494818469671699, -51.723467444525902 ], [ -72.494829562370299, -51.723471304231303 ], [ -72.495124954911304, -51.723428782319203 ], [ -72.495242042722396, -51.7234780618667 ], [ -72.495373191140501, -51.723588396285201 ], [ -72.495408176409299, -51.723576198462503 ], [ -72.495420983509106, -51.723586972998298 ], [ -72.495659812114994, -51.723503700830697 ], [ -72.495703782212601, -51.723502391265598 ], [ -72.495866984796606, -51.723630810765997 ], [ -72.495905777556402, -51.723622305290597 ], [ -72.495914777184794, -51.723629387277498 ], [ -72.496216246905107, -51.723563286687501 ], [ -72.496413151499198, -51.723557421200098 ], [ -72.4966025421935, -51.723627939553197 ], [ -72.496736628878494, -51.723776265565697 ], [ -72.496993065799401, -51.723920946171702 ], [ -72.497485396608596, -51.723944356264099 ], [ -72.497514873667598, -51.723942061135197 ], [ -72.497533189244805, -51.723942932111299 ], [ -72.497929355509896, -51.723912085855098 ], [ -72.498198769910005, -51.723827896055496 ], [ -72.498440530314795, -51.723782610528303 ], [ -72.498684509338105, -51.723741225282403 ], [ -72.4994109236426, -51.723867922517002 ], [ -72.499782374325804, -51.723913967246297 ], [ -72.500003827832302, -51.724002564444099 ], [ -72.5001925554254, -51.724049982561702 ], [ -72.500410274264596, -51.724104683698499 ], [ -72.500458066920501, -51.724103258353203 ], [ -72.500869083887807, -51.7240909995732 ], [ -72.501304651513905, -51.724173207719801 ], [ -72.501322854496607, -51.724166197093702 ], [ -72.501352444196399, -51.7241717820093 ], [ -72.501620382578395, -51.7240685879936 ], [ -72.501917437883904, -51.723945485183599 ], [ -72.502396545155193, -51.723797908913397 ], [ -72.502884466798307, -51.723764307802 ], [ -72.503372064262393, -51.723659203541096 ], [ -72.503535763891193, -51.723687748211297 ], [ -72.503555808432694, -51.723681482842302 ], [ -72.503583555947799, -51.723686321602997 ], [ -72.503852957882202, -51.723602119039903 ], [ -72.5040611844816, -51.723519743129202 ], [ -72.504227500053901, -51.723514777717803 ], [ -72.504275291892796, -51.723513350831503 ], [ -72.504728209773305, -51.7234236669401 ], [ -72.505093779809897, -51.723393709964803 ], [ -72.505355821375602, -51.723214523755502 ], [ -72.5054925746592, -51.723000998285997 ], [ -72.505670208619307, -51.722919532253499 ], [ -72.505932245186401, -51.722740344838599 ], [ -72.5061257524589, -51.722468003105099 ], [ -72.506368969576599, -51.722441696981797 ], [ -72.506849493245497, -51.722374100927297 ], [ -72.507212586826995, -51.722473611360698 ], [ -72.507248861881806, -51.722469027317402 ], [ -72.507260377415506, -51.722472183280601 ], [ -72.507655050920604, -51.722422309063703 ], [ -72.508109422640601, -51.722351608808303 ], [ -72.508577676847494, -51.722232953381301 ], [ -72.5086205487097, -51.722222089080802 ], [ -72.509058051686395, -51.722093206686999 ], [ -72.508994978344703, -51.722029301634798 ], [ -72.508994574388097, -51.722027602804403 ], [ -72.508847931517806, -51.721927861734798 ], [ -72.5087718766828, -51.721873609827497 ], [ -72.508750868708702, -51.7217879629709 ], [ -72.508696178100195, -51.721700347399803 ], [ -72.508577060888697, -51.721584907592103 ], [ -72.508560079723097, -51.721576820204803 ], [ -72.508046588785206, -51.721763243685203 ], [ -72.507648978042297, -51.721775127250503 ], [ -72.506497027477295, -51.721942829166302 ], [ -72.506071770568695, -51.721993613115998 ], [ -72.505706214034007, -51.722023572878498 ], [ -72.505499468192596, -51.722124947962598 ], [ -72.5050583288251, -51.722366604257999 ], [ -72.5048633448163, -51.722619947914502 ], [ -72.504604245644202, -51.722837125884197 ], [ -72.504128096642205, -51.723022702858799 ], [ -72.503548424898696, -51.723059048063803 ], [ -72.502909047972196, -51.723116211739601 ], [ -72.502306134575093, -51.723248444288302 ], [ -72.501730864604795, -51.7233417691982 ], [ -72.501069709606398, -51.723513813573902 ], [ -72.500619719202604, -51.723641475670199 ], [ -72.500227963735398, -51.723729319602398 ], [ -72.499696235877195, -51.7235928547382 ], [ -72.499106273036602, -51.723496204267903 ], [ -72.498396902151896, -51.723441189758297 ], [ -72.497249043914394, -51.723265957711199 ], [ -72.496605252919693, -51.723266098369798 ], [ -72.495707965473898, -51.723159545725402 ], [ -72.494959216922695, -51.7229914433047 ], [ -72.494441970815998, -51.722645083061998 ], [ -72.493987370719395, -51.722315896921401 ], [ -72.493009555320398, -51.7211694595591 ], [ -72.492823110666095, -51.721242613930698 ], [ -72.492573686036707, -51.721238136505903 ], [ -72.492281451014307, -51.721175432243697 ], [ -72.491677867641997, -51.721050590172503 ], [ -72.491423867639, -51.720986745418799 ], [ -72.491092489009404, -51.7209133027972 ], [ -72.490650076303695, -51.720890760902101 ], [ -72.490113001131903, -51.720882933018203 ] ] ] } },
{ "type": "Feature", "properties": { "id": "monoparte.11", "Name": null, "description": null, "timestamp": null, "begin": null, "end": null, "altitudeMode": null, "tessellate": -1, "extrude": 0, "visibility": -1, "drawOrder": null, "icon": null, "REG": "Magallanes", "COM": "Puerto Natales", "LOC": "Puerto Natales", "ZONA": "ZH5", "NOM": "ZH5 Área de Extensión Urbana", "UPERM": "Vivienda; equipamiento (comunal, local) salvo los indicados como prohibidos; talleres, servicios artesanales, industrias y almacenamientos inofensivos.", "UPROH": "Equipamiento de cementerio, de plantas o botaderos de basura; talleres, servicios artesanales, industrias y almacenamientos, molestos, insalubres o peligrosos; terminales de transporte y distribución de todo tipo.", "P_DO": "13/02/1990", "N_DOC": "71", "T_DO": "Decreto", "OBS": null }, "geometry": { "type": "Polygon", "coordinates": [ [ [ -72.478325305073795, -51.723901217673998 ], [ -72.472977586794798, -51.740401387706598 ], [ -72.488466886660603, -51.742384616151298 ], [ -72.488474358356001, -51.742378744205297 ], [ -72.488488831569896, -51.7423845424129 ], [ -72.488535586638903, -51.742385868651901 ], [ -72.488514699210299, -51.742383195310097 ], [ -72.492675584247706, -51.739112529248601 ], [ -72.492655678578004, -51.739110001055799 ], [ -72.485920019030203, -51.7382542379707 ], [ -72.485911559766805, -51.738260658112601 ], [ -72.485632187199798, -51.738472696185198 ], [ -72.484435107526295, -51.739381222329499 ], [ -72.484397125109098, -51.7393751832521 ], [ -72.484387297937303, -51.739382641453297 ], [ -72.483125967482707, -51.739182074771101 ], [ -72.484649153501394, -51.738053971087901 ], [ -72.483760341584897, -51.737961352490601 ], [ -72.4750408673724, -51.736982206547303 ], [ -72.476868661965995, -51.731585002908403 ], [ -72.476916463709401, -51.731583586993203 ], [ -72.476926023190401, -51.731583303833503 ], [ -72.481619527826695, -51.730813485623997 ], [ -72.480311785246499, -51.729507570545401 ], [ -72.482621551556306, -51.7291415637456 ], [ -72.482037612883204, -51.727778489773399 ], [ -72.482618892507901, -51.725869146935899 ], [ -72.482785410931101, -51.725542906680403 ], [ -72.483611847223997, -51.724828182306801 ], [ -72.482254305707301, -51.724118766941302 ], [ -72.481843708113303, -51.724011948032199 ], [ -72.481701365788695, -51.723985669420301 ], [ -72.481672564268493, -51.7240289246581 ], [ -72.481475055753705, -51.724201383265999 ], [ -72.481371307458303, -51.724347260054699 ], [ -72.481092760781195, -51.724462621661203 ], [ -72.480962589838398, -51.724514082355803 ], [ -72.480809648183893, -51.724518618063598 ], [ -72.480576585722602, -51.724477929364298 ], [ -72.480318928325005, -51.724366569759297 ], [ -72.480169639413802, -51.724418596444401 ], [ -72.479948393951503, -51.724282355897699 ], [ -72.479883739593802, -51.724189073454397 ], [ -72.4799547340006, -51.724115568867397 ], [ -72.479840029371601, -51.7241189696433 ], [ -72.479788152001504, -51.7241919073943 ], [ -72.479482271889907, -51.724200975471597 ], [ -72.479210063791101, -51.724149544731198 ], [ -72.479105351855296, -51.724033648763303 ], [ -72.479074373210807, -51.7238798677853 ], [ -72.478929646221701, -51.723991256681998 ], [ -72.478798560251093, -51.724030842283398 ], [ -72.478603736279595, -51.723989016359099 ], [ -72.478520880235195, -51.723908172441099 ], [ -72.478325305073795, -51.723901217673998 ] ] ] } }
]
}
