{
"type": "FeatureCollection",
"name": "IPT_12_PRC_Puerto_Williams_CaboHornos",
"crs": { "type": "name", "properties": { "name": "urn:ogc:def:crs:OGC:1.3:CRS84" } },
"features": [
{ "type": "Feature", "properties": { "id": "monoparte.1", "Name": null, "description": null, "timestamp": null, "begin": null, "end": null, "altitudeMode": null, "tessellate": -1, "extrude": 0, "visibility": -1, "drawOrder": null, "icon": null, "REG": "Magallanes", "COM": "Cabo de Hornos", "LOC": "Puerto Williams", "ZONA": "ZV", "NOM": "ZV Residencial, áreas no consolidadas", "UPERM": "Vivienda, equipamiento (comunal, local) en educación, seguridad, culto, cultura, org. comunitarias, áreas verdes y servicios artesanales; (local) esparcimiento y turismo, comercio minorista, servicios profesionales; telecomunicaciones.", "UPROH": "Son todos aquellos usos no mencionados como permitidos. Para mayor especificación se debe revisar la Ordenanza del instrumento de planificación territorial.", "P_DO": "08/02/1988", "N_DOC": "194", "T_DO": "Decreto", "OBS": null }, "geometry": { "type": "Polygon", "coordinates": [ [ [ -67.598545356144299, -54.934892123292897 ], [ -67.599169334250305, -54.935059826136801 ], [ -67.600089810905601, -54.935311790894502 ], [ -67.600077633164204, -54.935365153699401 ], [ -67.599959457593499, -54.935646172188399 ], [ -67.599778839115004, -54.936089953466798 ], [ -67.5997150519797, -54.9362913422977 ], [ -67.599608433412996, -54.9365368242713 ], [ -67.599599555996903, -54.936643728096399 ], [ -67.599569722165398, -54.936907929281297 ], [ -67.599528125217503, -54.937064987931798 ], [ -67.599410093726505, -54.937550650310598 ], [ -67.600706992622605, -54.937831451716399 ], [ -67.601529396010207, -54.937787412174998 ], [ -67.601809000100801, -54.937763877586498 ], [ -67.601857968594601, -54.937806807546004 ], [ -67.6022239706584, -54.937971526748797 ], [ -67.6022481257951, -54.9380193632458 ], [ -67.602322855927596, -54.938097504471003 ], [ -67.602402542002594, -54.938181648706703 ], [ -67.602422978502304, -54.938187827955403 ], [ -67.6024948161525, -54.938200544238804 ], [ -67.602689585371706, -54.938241423824202 ], [ -67.602766171343504, -54.938266083987102 ], [ -67.602506176374305, -54.938319571229798 ], [ -67.602375097285204, -54.938377511475501 ], [ -67.602171222263706, -54.938482374543398 ], [ -67.6028558209035, -54.9386410117773 ], [ -67.603173625727607, -54.938707084463303 ], [ -67.603405656391899, -54.9387156957199 ], [ -67.604190401859299, -54.938671205422601 ], [ -67.604459175455702, -54.938662401942302 ], [ -67.604733622178003, -54.938638800494502 ], [ -67.605529103794495, -54.938627121921499 ], [ -67.605849279138496, -54.938624850204697 ], [ -67.606433166717196, -54.938610738729899 ], [ -67.606727537211796, -54.938608167963302 ], [ -67.607018711961402, -54.938623394487102 ], [ -67.607286353451599, -54.938647267998299 ], [ -67.607538719616997, -54.938665021661301 ], [ -67.607822049619301, -54.938683128529902 ], [ -67.608121069287805, -54.9386954701164 ], [ -67.608398931583196, -54.9387224303401 ], [ -67.608676896820697, -54.938746419866099 ], [ -67.608959920210097, -54.938773437875902 ], [ -67.609206614817595, -54.938805984746701 ], [ -67.609531130047898, -54.9388275318693 ], [ -67.6098142586807, -54.938851576949801 ], [ -67.610185017638599, -54.938879595451802 ], [ -67.610476810578703, -54.938876987022397 ], [ -67.610507890185403, -54.938876109217702 ], [ -67.609995676331195, -54.9382026017756 ], [ -67.611754030695707, -54.937875518665003 ], [ -67.612348672496694, -54.937758656949804 ], [ -67.613542647226794, -54.937508331875499 ], [ -67.614007904534802, -54.937430409825701 ], [ -67.614236608089101, -54.9373854595677 ], [ -67.615225677613793, -54.937508493212199 ], [ -67.6168665181997, -54.937715030418303 ], [ -67.618874927741999, -54.937982793148599 ], [ -67.619585997687096, -54.938083608547203 ], [ -67.619621607012803, -54.938129193480002 ], [ -67.619648960256001, -54.9381746846488 ], [ -67.619660125368398, -54.9382104806228 ], [ -67.619667241506306, -54.938243852551899 ], [ -67.619674522086001, -54.938272470216397 ], [ -67.619689734718506, -54.938310689314903 ], [ -67.619700979775999, -54.938344108126202 ], [ -67.619865013132994, -54.938438708909899 ], [ -67.620347427633405, -54.938824653177797 ], [ -67.621134051024498, -54.939164387605501 ], [ -67.621235611127503, -54.938909727757903 ], [ -67.621410643314604, -54.938471797888901 ], [ -67.621630345514106, -54.938388089445603 ], [ -67.621869265288893, -54.938346212824896 ], [ -67.622133990878496, -54.938304627354398 ], [ -67.622335768420896, -54.938292052813999 ], [ -67.622544517613903, -54.9383776453666 ], [ -67.622763688367996, -54.938460383499503 ], [ -67.622988023497797, -54.938543179733699 ], [ -67.623238364397693, -54.938620325830598 ], [ -67.623226124959004, -54.938487317579899 ], [ -67.623116564530207, -54.938424894049597 ], [ -67.6226138438806, -54.938149067231898 ], [ -67.622427464976496, -54.938091786957102 ], [ -67.622275987197, -54.938076754471901 ], [ -67.622179812586197, -54.938087078379397 ], [ -67.622056761786794, -54.938110413275297 ], [ -67.621827170476493, -54.938157271683103 ], [ -67.621143066542999, -54.938257946518803 ], [ -67.620628643881304, -54.938324399391497 ], [ -67.620533729160996, -54.9383280775358 ], [ -67.620341992959297, -54.938318768199402 ], [ -67.620090645348995, -54.938241010595 ], [ -67.619907423354604, -54.938164025948801 ], [ -67.619835429038105, -54.9380954372632 ], [ -67.619688179256698, -54.937872618649898 ], [ -67.619651509923401, -54.937857934754703 ], [ -67.619371524705798, -54.937712080045102 ], [ -67.6191618245835, -54.937684730195599 ], [ -67.617472327781599, -54.937451512814697 ], [ -67.617103217512295, -54.936997917893301 ], [ -67.617114629027697, -54.9370122684875 ], [ -67.615892216234599, -54.936865191664403 ], [ -67.615006711983398, -54.9367695003736 ], [ -67.614111563852703, -54.936666083013101 ], [ -67.613874256627298, -54.936553041423601 ], [ -67.613778623905404, -54.936595705146502 ], [ -67.613628037704302, -54.936651057784502 ], [ -67.613424083069106, -54.936721019850403 ], [ -67.613328367607807, -54.936718026242602 ], [ -67.613263551748702, -54.936873278572101 ], [ -67.611785930615397, -54.9369895760817 ], [ -67.611650124335299, -54.936999439037798 ], [ -67.6114342634975, -54.937031215395599 ], [ -67.611114823641302, -54.937048491270801 ], [ -67.609889645739401, -54.937125798271197 ], [ -67.609877047634299, -54.937203650558899 ], [ -67.609833454806704, -54.937222175670797 ], [ -67.608822465680404, -54.936693933560697 ], [ -67.608782898410496, -54.936691578072697 ], [ -67.607771074822907, -54.936714235303299 ], [ -67.607308343889102, -54.936623329338701 ], [ -67.607010588095704, -54.936730253279599 ], [ -67.606968842555801, -54.936743091529799 ], [ -67.606734676904495, -54.936730895434501 ], [ -67.605879953776693, -54.936223633756001 ], [ -67.604821897025701, -54.936198177374102 ], [ -67.604108711989198, -54.936184282360301 ], [ -67.603118493643194, -54.936155785785701 ], [ -67.603221969908404, -54.935744166375699 ], [ -67.603389753978803, -54.935002278949298 ], [ -67.603373228336807, -54.935002469238 ], [ -67.602536809689695, -54.934970027802002 ], [ -67.601517758622904, -54.934916456704102 ], [ -67.601125277696894, -54.934896721134798 ], [ -67.600200544333205, -54.934696031585297 ], [ -67.599115258955806, -54.934457149373102 ], [ -67.599168631101094, -54.934347428498299 ], [ -67.599238979338296, -54.934224586561101 ], [ -67.599295984334503, -54.934105396097998 ], [ -67.599372604210103, -54.933992138652798 ], [ -67.599431774649801, -54.933931475860398 ], [ -67.5989008262965, -54.933833886284603 ], [ -67.598490497912195, -54.933753330554303 ], [ -67.5977811930575, -54.933590584919301 ], [ -67.597295014963805, -54.933469050838497 ], [ -67.596933910526104, -54.9334619109014 ], [ -67.596932962308799, -54.933459736680398 ], [ -67.596282384216806, -54.933418657056897 ], [ -67.595910150386402, -54.933405502368501 ], [ -67.5952190078943, -54.933388600086197 ], [ -67.595183094524501, -54.933382239826003 ], [ -67.594541958015398, -54.933411685552599 ], [ -67.594452785655605, -54.933452268955897 ], [ -67.594260077514704, -54.933649192123198 ], [ -67.593975438486495, -54.934000068732601 ], [ -67.594563461292495, -54.934112258673302 ], [ -67.596186734427405, -54.9344309342153 ], [ -67.596991718954698, -54.934588849231702 ], [ -67.597781228882397, -54.934746580359402 ], [ -67.598545356144299, -54.934892123292897 ] ], [ [ -67.601114065248197, -54.935274032568799 ], [ -67.600967765819505, -54.9356813530785 ], [ -67.600224463688505, -54.9355890354541 ], [ -67.600395826488395, -54.935144490863699 ], [ -67.601114065248197, -54.935274032568799 ] ], [ [ -67.613332291655496, -54.936988014116203 ], [ -67.613582807424805, -54.937004013080099 ], [ -67.613764064465002, -54.937042874762703 ], [ -67.613262019808303, -54.937229760131103 ], [ -67.613332291655496, -54.936988014116203 ] ] ] } },
{ "type": "Feature", "properties": { "id": "monoparte.2", "Name": null, "description": null, "timestamp": null, "begin": null, "end": null, "altitudeMode": null, "tessellate": -1, "extrude": 0, "visibility": -1, "drawOrder": null, "icon": null, "REG": "Magallanes", "COM": "Cabo de Hornos", "LOC": "Puerto Williams", "ZONA": "ZE3", "NOM": "ZE3 Cementerio", "UPERM": "Equipamiento de cementerio. Sólo se consultan las construcciones específicas del uso de suelo permitido. Para mayor especificación revisar Ordenanza", "UPROH": "Son todos aquellos usos no mencionados como permitidos. Para mayor especificación se debe revisar la Ordenanza del instrumento de planificación territorial.", "P_DO": "08/02/1988", "N_DOC": "194", "T_DO": "Decreto", "OBS": null }, "geometry": { "type": "Polygon", "coordinates": [ [ [ -67.596164319818499, -54.933145575467996 ], [ -67.596256813252793, -54.933338168653698 ], [ -67.596284978258097, -54.933418749027901 ], [ -67.596282384216806, -54.933418657056897 ], [ -67.596932962308799, -54.933459736680398 ], [ -67.596919567940802, -54.933429049052897 ], [ -67.596906777105701, -54.933351618450999 ], [ -67.596897906112005, -54.933309902427403 ], [ -67.596885322261699, -54.933226529022498 ], [ -67.596883354297702, -54.933203703384699 ], [ -67.596874290146701, -54.933098588659497 ], [ -67.596879048773999, -54.932961912346599 ], [ -67.596093168607396, -54.932997423531098 ], [ -67.596164319818499, -54.933145575467996 ] ] ] } },
{ "type": "Feature", "properties": { "id": "monoparte.3", "Name": null, "description": null, "timestamp": null, "begin": null, "end": null, "altitudeMode": null, "tessellate": -1, "extrude": 0, "visibility": -1, "drawOrder": null, "icon": null, "REG": "Magallanes", "COM": "Cabo de Hornos", "LOC": "Puerto Williams", "ZONA": "ZR3", "NOM": "ZR3 Protección Cauces Naturales de Agua y Laderas", "UPERM": "Corresponde a las quebradas naturales, sus laderas y franjas colindantes a sus bordes. Se permitirá equipamiento turístico que no involucre edificación, específicamente zonas de picnic. Para mayor especificación revisar Ordenanza.", "UPROH": "Sin información. Para mayor especificación se debe revisar la Ordenanza del instrumento de planificación territorial.", "P_DO": "08/02/1988", "N_DOC": "194", "T_DO": "Decreto", "OBS": null }, "geometry": { "type": "Polygon", "coordinates": [ [ [ -67.592109772591598, -54.9330426694262 ], [ -67.591922204153803, -54.933070687281798 ], [ -67.591808382693202, -54.933087687756696 ], [ -67.591797942759001, -54.933080437965302 ], [ -67.591661919452307, -54.933101203858797 ], [ -67.591668217430893, -54.933181732411803 ], [ -67.591666556097493, -54.933229272008496 ], [ -67.591661430992801, -54.933257747753302 ], [ -67.591679495935594, -54.933331672960698 ], [ -67.591705319202703, -54.933419955618398 ], [ -67.591748235798306, -54.9334917906722 ], [ -67.591823762421001, -54.933575892997197 ], [ -67.591895826978401, -54.933640932347799 ], [ -67.592025433373607, -54.933713771542998 ], [ -67.592144319073299, -54.933738927584201 ], [ -67.592164378031995, -54.933755805557098 ], [ -67.592220345162303, -54.933808768774298 ], [ -67.592348458179004, -54.933924393003103 ], [ -67.592305350821903, -54.933976208760598 ], [ -67.592247201103703, -54.934103943345399 ], [ -67.591327430055998, -54.934188404081503 ], [ -67.591296647831896, -54.934123843750299 ], [ -67.591269246279893, -54.934080723486503 ], [ -67.591258856924895, -54.934023531925 ], [ -67.591248050514096, -54.933978226811902 ], [ -67.591232369510607, -54.933954265197002 ], [ -67.591221564738404, -54.933908959200899 ], [ -67.591185657363795, -54.9338728745618 ], [ -67.5911305142087, -54.933796378706901 ], [ -67.591050195437504, -54.933731244117403 ], [ -67.590924883788503, -54.933653697505697 ], [ -67.590729644882202, -54.933568206688498 ], [ -67.590315190912904, -54.933387702442097 ], [ -67.590314910301998, -54.933564748224597 ], [ -67.590336953248297, -54.933572138103301 ], [ -67.590428728895702, -54.933640259551197 ], [ -67.5904528489081, -54.933659087548101 ], [ -67.590507672372894, -54.933721074281202 ], [ -67.590533320827902, -54.933767027909603 ], [ -67.590542829220595, -54.933778552219799 ], [ -67.590557524393802, -54.933854340266301 ], [ -67.590573872654204, -54.9339536900832 ], [ -67.590578409467795, -54.934036494563699 ], [ -67.590620499318703, -54.934108320430397 ], [ -67.590655358952702, -54.934174355422201 ], [ -67.590715436446004, -54.934227842431902 ], [ -67.590853775644504, -54.934310771865803 ], [ -67.591086971616093, -54.934444736704101 ], [ -67.591299337810199, -54.934572039050799 ], [ -67.591354313345903, -54.934629747321502 ], [ -67.591410917746103, -54.934711727947999 ], [ -67.5914752366605, -54.934856576107798 ], [ -67.591502218097602, -54.934935360798001 ], [ -67.591501354364993, -54.935030943892897 ], [ -67.591487867629198, -54.935204138241303 ], [ -67.591480006094301, -54.935358136787698 ], [ -67.591474788122994, -54.935436548348797 ], [ -67.591501919493098, -54.935511054049996 ], [ -67.591518877534398, -54.935663913883502 ], [ -67.591572567553797, -54.935829326980603 ], [ -67.591668143458804, -54.936001645081497 ], [ -67.591731783394394, -54.936095121985701 ], [ -67.591728857040707, -54.936107928434097 ], [ -67.591690057880001, -54.936154562300104 ], [ -67.591689360058893, -54.936174528795398 ], [ -67.591700747440697, -54.936203195844101 ], [ -67.591743638977803, -54.936252202469603 ], [ -67.591808575327406, -54.936308598698901 ], [ -67.5918649928077, -54.936466909008303 ], [ -67.591924910201499, -54.936596011114098 ], [ -67.591951111791801, -54.936626276948203 ], [ -67.591958292958097, -54.936633493461798 ], [ -67.592057908781598, -54.9366902912627 ], [ -67.592141231231594, -54.936716937951999 ], [ -67.592198054485706, -54.936721876795502 ], [ -67.592321159289199, -54.9367447033882 ], [ -67.592445745653905, -54.936796083018997 ], [ -67.592797503444899, -54.9369770734314 ], [ -67.592977344667702, -54.937078315450698 ], [ -67.593244643605004, -54.937229791764601 ], [ -67.593639161627493, -54.937428395605302 ], [ -67.593989243463398, -54.937622204340002 ], [ -67.594142042216305, -54.937717424771499 ], [ -67.594294916347195, -54.937810505070601 ], [ -67.594379818523294, -54.937898519372297 ], [ -67.594426773830094, -54.937973253585902 ], [ -67.594472286592506, -54.938089346537403 ], [ -67.594478176517299, -54.938133644487301 ], [ -67.594472713632797, -54.938219186603398 ], [ -67.594453796131404, -54.938335249043199 ], [ -67.594447996095795, -54.938359436357501 ], [ -67.594425155282195, -54.9383748669974 ], [ -67.594401765628803, -54.938405985138701 ], [ -67.594373472936695, -54.938435620273403 ], [ -67.594353058683396, -54.938452505265097 ], [ -67.594322885086001, -54.938464996683102 ], [ -67.594304748144907, -54.9384876150203 ], [ -67.594314109429007, -54.938503418026301 ], [ -67.594365782188504, -54.938514002397397 ], [ -67.594427461510406, -54.938521849843802 ], [ -67.594456988374304, -54.9385278982827 ], [ -67.594488694685694, -54.938542532442398 ], [ -67.594500084703895, -54.938571199233103 ], [ -67.594521932190702, -54.938584292186 ], [ -67.594538973039107, -54.938593049745201 ], [ -67.594561268260094, -54.9385933075257 ], [ -67.594595749517893, -54.938599413213304 ], [ -67.5946555495631, -54.9385901177601 ], [ -67.594682600131904, -54.938596137514502 ], [ -67.594706774831096, -54.938613538051797 ], [ -67.594735108017801, -54.938653814731701 ], [ -67.594754875605204, -54.9386554695607 ], [ -67.594836720718803, -54.938653562190403 ], [ -67.594934027180201, -54.938634712429199 ], [ -67.595151032954504, -54.9385944179663 ], [ -67.595228420844506, -54.938578191275298 ], [ -67.595295304943093, -54.938578964207203 ], [ -67.595382601383093, -54.938562851921397 ], [ -67.595487240202402, -54.938546939955998 ], [ -67.595635027528601, -54.938551500974398 ], [ -67.595723956697896, -54.938559662581397 ], [ -67.595829479724301, -54.938589416675804 ], [ -67.596054994803893, -54.938660505735299 ], [ -67.5960892279018, -54.938673741453201 ], [ -67.596140999149597, -54.938681473593 ], [ -67.5962128377803, -54.938682303238799 ], [ -67.596272240094805, -54.938684416432402 ], [ -67.596351757893501, -54.938678200454099 ], [ -67.596553998892205, -54.9386348794906 ], [ -67.596826096678498, -54.938578097057302 ], [ -67.5970783748797, -54.938521085275703 ], [ -67.597263473621197, -54.938471858277303 ], [ -67.597344925056703, -54.938438555189897 ], [ -67.597435294072497, -54.938405355842299 ], [ -67.597560144472794, -54.938378261274899 ], [ -67.597605328843798, -54.938361661528603 ], [ -67.597823218718005, -54.938367028644002 ], [ -67.597877318975705, -54.938379066723002 ], [ -67.597921659529305, -54.938386712393097 ], [ -67.597975612541305, -54.938403028541998 ], [ -67.598012024654807, -54.938424850271403 ], [ -67.598053690449206, -54.938438171159902 ], [ -67.598172494620897, -54.9384423948175 ], [ -67.598251416241794, -54.938453292670403 ], [ -67.598288175872497, -54.938465130596803 ], [ -67.598364472372197, -54.938480277916497 ], [ -67.598453749252201, -54.9384784538071 ], [ -67.598578053575494, -54.938467045743103 ], [ -67.598722026264099, -54.938460144998103 ], [ -67.598821262854102, -54.938457009128101 ], [ -67.598865653288499, -54.938463227824002 ], [ -67.598899688782893, -54.9384821674834 ], [ -67.598930601621404, -54.938519620287401 ], [ -67.598937190829801, -54.938543950598699 ], [ -67.598954775676404, -54.938644026039199 ], [ -67.598940949192595, -54.938756580664901 ], [ -67.598949419700901, -54.938798054600703 ], [ -67.598972604546205, -54.938843977941097 ], [ -67.599016003629004, -54.938878720225297 ], [ -67.599087146913007, -54.938899514705902 ], [ -67.5991952009241, -54.938927867822699 ], [ -67.599305237224797, -54.938970512118303 ], [ -67.599397982234393, -54.939011529877597 ], [ -67.599543294552902, -54.9390374593644 ], [ -67.599659127021795, -54.939055914854599 ], [ -67.599815191028895, -54.939057712616297 ], [ -67.599969123991201, -54.939049497910197 ], [ -67.600072712233199, -54.939022155874198 ], [ -67.600334263119194, -54.938924106009303 ], [ -67.600544204675302, -54.938825461431598 ], [ -67.600827221460506, -54.938703877827201 ], [ -67.601404190824297, -54.938443001646597 ], [ -67.601708569915104, -54.938375164820599 ], [ -67.602171222263706, -54.938482374543398 ], [ -67.602375097285204, -54.938377511475501 ], [ -67.602506176374305, -54.938319571229798 ], [ -67.602766171343504, -54.938266083987102 ], [ -67.602689585371706, -54.938241423824202 ], [ -67.6024948161525, -54.938200544238804 ], [ -67.602422978502304, -54.938187827955403 ], [ -67.602402542002594, -54.938181648706703 ], [ -67.602322855927596, -54.938097504471003 ], [ -67.6022481257951, -54.9380193632458 ], [ -67.6022239706584, -54.937971526748797 ], [ -67.601857968594601, -54.937806807546004 ], [ -67.601809000100801, -54.937763877586498 ], [ -67.601529396010207, -54.937787412174998 ], [ -67.600706992622605, -54.937831451716399 ], [ -67.599410093726505, -54.937550650310598 ], [ -67.598749564784001, -54.937407627740598 ], [ -67.596444158924299, -54.936896526338202 ], [ -67.594897382389604, -54.936542773333898 ], [ -67.594138435035305, -54.935804271191301 ], [ -67.593413877803101, -54.9354124470673 ], [ -67.593302968562696, -54.935188232905801 ], [ -67.593353714624698, -54.934769709916203 ], [ -67.593925635347603, -54.934061461005399 ], [ -67.593975438486495, -54.934000068732601 ], [ -67.594260077514704, -54.933649192123198 ], [ -67.594452785655605, -54.933452268955897 ], [ -67.594541958015398, -54.933411685552599 ], [ -67.594435087096997, -54.933367647086598 ], [ -67.594259770355606, -54.933214026701897 ], [ -67.595080635557593, -54.933211628020302 ], [ -67.595125626617303, -54.933253761676397 ], [ -67.595139864076998, -54.9332895955758 ], [ -67.5951590540502, -54.933331431004802 ], [ -67.595168442668196, -54.933358291522403 ], [ -67.595183094524501, -54.933382239826003 ], [ -67.5952190078943, -54.933388600086197 ], [ -67.595910150386402, -54.933405502368501 ], [ -67.596282384216806, -54.933418657056897 ], [ -67.596284978258097, -54.933418749027901 ], [ -67.596256813252793, -54.933338168653698 ], [ -67.596164319818499, -54.933145575467996 ], [ -67.595769677183597, -54.933103868168402 ], [ -67.595558980694904, -54.933106189978901 ], [ -67.595386265812905, -54.933085170488297 ], [ -67.595238485014505, -54.933059683670997 ], [ -67.595140903683699, -54.933015753184499 ], [ -67.594836920800304, -54.932969436665502 ], [ -67.594343048711593, -54.9329209235216 ], [ -67.5942275460703, -54.932917209639001 ], [ -67.594202777961399, -54.932916923177601 ], [ -67.594130481443997, -54.932740120117501 ], [ -67.593541318192095, -54.932818909522197 ], [ -67.592852416379301, -54.932915565171101 ], [ -67.592104921326296, -54.933034007758401 ], [ -67.592109772591598, -54.9330426694262 ] ] ] } },
{ "type": "Feature", "properties": { "id": "monoparte.4", "Name": null, "description": null, "timestamp": null, "begin": null, "end": null, "altitudeMode": null, "tessellate": -1, "extrude": 0, "visibility": -1, "drawOrder": null, "icon": null, "REG": "Magallanes", "COM": "Cabo de Hornos", "LOC": "Puerto Williams", "ZONA": "ZR3", "NOM": "ZR3 Protección Cauces Naturales de Agua y Laderas", "UPERM": "Corresponde a las quebradas naturales, sus laderas y franjas colindantes a sus bordes. Se permitirá equipamiento turístico que no involucre edificación, específicamente zonas de picnic. Para mayor especificación revisar Ordenanza.", "UPROH": "Sin información. Para mayor especificación se debe revisar la Ordenanza del instrumento de planificación territorial.", "P_DO": "08/02/1988", "N_DOC": "194", "T_DO": "Decreto", "OBS": null }, "geometry": { "type": "Polygon", "coordinates": [ [ [ -67.600878345248006, -54.933975039444299 ], [ -67.6013803315643, -54.934165375271597 ], [ -67.601481330239494, -54.934203669835199 ], [ -67.602964350657302, -54.934269665959697 ], [ -67.603159318316102, -54.934278214943298 ], [ -67.603452751424598, -54.934288007315601 ], [ -67.604504332811501, -54.934271499514303 ], [ -67.604506683515297, -54.934271453704199 ], [ -67.604542081892603, -54.934115152686203 ], [ -67.604360797586097, -54.9341120952704 ], [ -67.604261524204503, -54.934116662381498 ], [ -67.604118197686702, -54.9341530629601 ], [ -67.603981870703507, -54.9341781297328 ], [ -67.603865953202003, -54.934186310635901 ], [ -67.603757364955797, -54.934173649300398 ], [ -67.603664827704094, -54.934174488027502 ], [ -67.603539000999504, -54.934182554783902 ], [ -67.603308286217001, -54.934166587258296 ], [ -67.603166804217693, -54.934149743039299 ], [ -67.602994940413396, -54.934151572257001 ], [ -67.602859601667205, -54.934148114055702 ], [ -67.602724660077399, -54.9341332471366 ], [ -67.602626243687993, -54.934113092063903 ], [ -67.602534563797704, -54.934089209983597 ], [ -67.602380399423296, -54.934056999725897 ], [ -67.602195656741898, -54.934049168330603 ], [ -67.602046977439898, -54.934049361082799 ], [ -67.601951203371101, -54.934048259537001 ], [ -67.601470222633296, -54.934008484292697 ], [ -67.601405793888503, -54.934005136613202 ], [ -67.601141092782399, -54.9339913802512 ], [ -67.600878345248006, -54.933975039444299 ] ] ] } },
{ "type": "Feature", "properties": { "id": "monoparte.5", "Name": null, "description": null, "timestamp": null, "begin": null, "end": null, "altitudeMode": null, "tessellate": -1, "extrude": 0, "visibility": -1, "drawOrder": null, "icon": null, "REG": "Magallanes", "COM": "Cabo de Hornos", "LOC": "Puerto Williams", "ZONA": "ZR3", "NOM": "ZR3 Protección Cauces Naturales de Agua y Laderas", "UPERM": "Corresponde a las quebradas naturales, sus laderas y franjas colindantes a sus bordes. Se permitirá equipamiento turístico que no involucre edificación, específicamente zonas de picnic. Para mayor especificación revisar Ordenanza.", "UPROH": "Sin información. Para mayor especificación se debe revisar la Ordenanza del instrumento de planificación territorial.", "P_DO": "08/02/1988", "N_DOC": "194", "T_DO": "Decreto", "OBS": null }, "geometry": { "type": "Polygon", "coordinates": [ [ [ -67.5977811930575, -54.933590584919301 ], [ -67.598404311513093, -54.9337335557206 ], [ -67.598822425612298, -54.933729161518301 ], [ -67.598947053114401, -54.9337205582625 ], [ -67.598911518336294, -54.9337118586526 ], [ -67.598806431555502, -54.933681890189703 ], [ -67.598790977555893, -54.933651274301901 ], [ -67.597972169561501, -54.933445891029798 ], [ -67.597136328734607, -54.933255524022698 ], [ -67.596883354297702, -54.933203703384699 ], [ -67.596885322261699, -54.933226529022498 ], [ -67.596897906112005, -54.933309902427403 ], [ -67.596906777105701, -54.933351618450999 ], [ -67.596919567940802, -54.933429049052897 ], [ -67.596932962308799, -54.933459736680398 ], [ -67.596933910526104, -54.9334619109014 ], [ -67.597295014963805, -54.933469050838497 ], [ -67.5977811930575, -54.933590584919301 ] ] ] } },
{ "type": "Feature", "properties": { "id": "monoparte.6", "Name": null, "description": null, "timestamp": null, "begin": null, "end": null, "altitudeMode": null, "tessellate": -1, "extrude": 0, "visibility": -1, "drawOrder": null, "icon": null, "REG": "Magallanes", "COM": "Cabo de Hornos", "LOC": "Puerto Williams", "ZONA": "ZR2", "NOM": "ZR2 Protección Ribera de Mar - Terrenos de Playa Fiscales Marítimos", "UPERM": "Corresponde al borde costero. En esta zona sólo se permiten actividades complementarias al turismo, a la pesca y terminales marítimos, varaderos de mantención de botes pesqueros, carpitería de ribera, etc. Mayor detalle ver Ordenanza.", "UPROH": "En esta zona no se permitirá edificación alguna, salvo aquella que represente una infraestructura de apoyo a la actividad pesquera artesanal del sector. Para mayor especificación se debe revisar la Ordenanza del instrumento de planificación territor*", "P_DO": "08/02/1988", "N_DOC": "194", "T_DO": "Decreto", "OBS": null }, "geometry": { "type": "Polygon", "coordinates": [ [ [ -67.595129386701004, -54.932342114043401 ], [ -67.595025014039805, -54.932350895369098 ], [ -67.5949606178404, -54.932350150986402 ], [ -67.594869026060607, -54.9323476649746 ], [ -67.594757223781201, -54.932356360180798 ], [ -67.594702336842104, -54.932367139648498 ], [ -67.594605194646505, -54.932381711235401 ], [ -67.594254915697505, -54.932457558931297 ], [ -67.5941802142234, -54.932468108998499 ], [ -67.594135333619306, -54.932476150433303 ], [ -67.594075890811496, -54.932475462876099 ], [ -67.594031059949501, -54.932482077642497 ], [ -67.593986129528901, -54.9324915456518 ], [ -67.593943525834604, -54.9325053203791 ], [ -67.593890618448995, -54.932530389942698 ], [ -67.593817198457501, -54.932575196758997 ], [ -67.593751358738103, -54.932615811413598 ], [ -67.593682893585296, -54.932660675475198 ], [ -67.593551983394903, -54.932719798113297 ], [ -67.593494320982501, -54.932739105460598 ], [ -67.593431753146504, -54.932756928808899 ], [ -67.593374439057897, -54.932766253287198 ], [ -67.592963575324205, -54.932824275072299 ], [ -67.592869554813603, -54.9328203331373 ], [ -67.592745814245006, -54.932816047038799 ], [ -67.592696128791403, -54.932819751597599 ], [ -67.592599974582001, -54.932841466362397 ], [ -67.592520168926399, -54.932856237031899 ], [ -67.592438136261705, -54.932863847628703 ], [ -67.592349120718794, -54.932858536044897 ], [ -67.592274864803201, -54.932856249749797 ], [ -67.592217301232296, -54.932872704127597 ], [ -67.592085816812499, -54.932948226023598 ], [ -67.592077737864003, -54.932966680724903 ], [ -67.592086449324398, -54.933001023784698 ], [ -67.592104921326296, -54.933034007758401 ], [ -67.592852416379301, -54.932915565171101 ], [ -67.593541318192095, -54.932818909522197 ], [ -67.594130481443997, -54.932740120117501 ], [ -67.594726438919096, -54.932655936665803 ], [ -67.594971233286401, -54.932623097280199 ], [ -67.595246657678203, -54.932600123712099 ], [ -67.5955117595921, -54.932577030244602 ], [ -67.595771947731194, -54.932576469355702 ], [ -67.596019709727102, -54.932576953414802 ], [ -67.596510444835801, -54.932596888427298 ], [ -67.596872715903302, -54.932629606100697 ], [ -67.597411747189, -54.932685764316403 ], [ -67.597763368330305, -54.932727868731199 ], [ -67.597971416593893, -54.932801606473603 ], [ -67.598682171312007, -54.933026194159297 ], [ -67.599654816750999, -54.933320377623197 ], [ -67.599827453969993, -54.933343767308301 ], [ -67.600140030990602, -54.933380658871599 ], [ -67.601357143874793, -54.933210713649501 ], [ -67.601355156571898, -54.933206271662797 ], [ -67.601181506599502, -54.932817999024302 ], [ -67.601244560527405, -54.932786027489797 ], [ -67.601220079970503, -54.932695029344899 ], [ -67.601120592665794, -54.932736515369399 ], [ -67.601035638600607, -54.932756939377299 ], [ -67.601000814774906, -54.932760818377503 ], [ -67.600817382398901, -54.932762987662102 ], [ -67.600695621856303, -54.932773000001497 ], [ -67.6005470133302, -54.932771289066999 ], [ -67.600411332921794, -54.932754032064601 ], [ -67.600369227976202, -54.932753547228899 ], [ -67.600336830572303, -54.932758881183702 ], [ -67.600309188643493, -54.932769976910997 ], [ -67.600283727084204, -54.932789658269101 ], [ -67.6002675287763, -54.932827994557698 ], [ -67.600221757292204, -54.932861709560498 ], [ -67.600228792224698, -54.932873204614303 ], [ -67.600249844374602, -54.932909116370801 ], [ -67.600248556450694, -54.932946197160597 ], [ -67.600212493951503, -54.932985730987802 ], [ -67.600172022671799, -54.933009519279203 ], [ -67.600096875773403, -54.933032909091203 ], [ -67.600017171520193, -54.933044831429498 ], [ -67.599957727724203, -54.933044146743498 ], [ -67.599899572265599, -54.933042050563301 ], [ -67.599813031296705, -54.933036772959298 ], [ -67.599694887055804, -54.933014011049998 ], [ -67.599604036776896, -54.9329901362877 ], [ -67.599366809524895, -54.932900370376998 ], [ -67.599236381235798, -54.932803274309897 ], [ -67.599105508937697, -54.932719014224197 ], [ -67.598937335699304, -54.932638603850002 ], [ -67.598721807269797, -54.932566208733 ], [ -67.598492952566602, -54.932520767467402 ], [ -67.598241857695299, -54.932473642076801 ], [ -67.597930923622101, -54.932437240860601 ], [ -67.597557523863202, -54.932415811972902 ], [ -67.597244508224193, -54.932403639368701 ], [ -67.596490180126494, -54.932363541896599 ], [ -67.595979817988393, -54.932326259000398 ], [ -67.595732238192895, -54.932320545368498 ], [ -67.595583383136997, -54.9323259597329 ], [ -67.595400052033298, -54.9323252675905 ], [ -67.595129386701004, -54.932342114043401 ] ] ] } },
{ "type": "Feature", "properties": { "id": "monoparte.7", "Name": null, "description": null, "timestamp": null, "begin": null, "end": null, "altitudeMode": null, "tessellate": -1, "extrude": 0, "visibility": -1, "drawOrder": null, "icon": null, "REG": "Magallanes", "COM": "Cabo de Hornos", "LOC": "Puerto Williams", "ZONA": "ZR2", "NOM": "ZR2 Protección Ribera de Mar - Terrenos de Playa Fiscales Marítimos", "UPERM": "Corresponde al borde costero. En esta zona sólo se permiten actividades complementarias al turismo, a la pesca y terminales marítimos, varaderos de mantención de botes pesqueros, carpitería de ribera, etc. Mayor detalle ver Ordenanza.", "UPROH": "En esta zona no se permitirá edificación alguna, salvo aquella que represente una infraestructura de apoyo a la actividad pesquera artesanal del sector. Para mayor especificación se debe revisar la Ordenanza del instrumento de planificación territor*", "P_DO": "08/02/1988", "N_DOC": "194", "T_DO": "Decreto", "OBS": null }, "geometry": { "type": "Polygon", "coordinates": [ [ [ -67.590919636120702, -54.932923298202198 ], [ -67.590897294188807, -54.932924466399299 ], [ -67.590865096467695, -54.9329240931255 ], [ -67.590832847334099, -54.9329251455543 ], [ -67.590815310982507, -54.932930649270602 ], [ -67.590792619968497, -54.9329418002484 ], [ -67.590764827254205, -54.932957172791603 ], [ -67.590722421474098, -54.932965241665997 ], [ -67.590672486276603, -54.932976076736601 ], [ -67.590632508189799, -54.932985600035899 ], [ -67.590574992078103, -54.933000627883402 ], [ -67.590525156557604, -54.933008610536298 ], [ -67.590470566918299, -54.933010831010797 ], [ -67.590428461883704, -54.933010342730697 ], [ -67.590371394644706, -54.9330125344283 ], [ -67.590319031606001, -54.933021913991801 ], [ -67.590310853620593, -54.933043220945102 ], [ -67.590311902485794, -54.933114347157499 ], [ -67.591355953953297, -54.933147914316102 ], [ -67.591661919452307, -54.933101203858797 ], [ -67.591797942759001, -54.933080437965302 ], [ -67.591762420310801, -54.933055766609101 ], [ -67.591702741812597, -54.932990871575299 ], [ -67.591646822556498, -54.932960261324503 ], [ -67.591585449755101, -54.932943856318701 ], [ -67.591509016804594, -54.932932982892503 ], [ -67.591474391309404, -54.93293115534 ], [ -67.591418073526995, -54.932911954415999 ], [ -67.591351797146999, -54.932894065258701 ], [ -67.591241239017407, -54.932867102298403 ], [ -67.591209488490094, -54.932853893040203 ], [ -67.591144991877499, -54.932855998989297 ], [ -67.591102735839399, -54.932859789910701 ], [ -67.591064936389998, -54.932877899144103 ], [ -67.591017178212397, -54.932897321028797 ], [ -67.590977000829199, -54.932912549156804 ], [ -67.590947029804596, -54.932919335949798 ], [ -67.590919636120702, -54.932923298202198 ] ] ] } },
{ "type": "Feature", "properties": { "id": "monoparte.8", "Name": null, "description": null, "timestamp": null, "begin": null, "end": null, "altitudeMode": null, "tessellate": -1, "extrude": 0, "visibility": -1, "drawOrder": null, "icon": null, "REG": "Magallanes", "COM": "Cabo de Hornos", "LOC": "Puerto Williams", "ZONA": "ZE1", "NOM": "ZE1 Equipamiento Deportivo y Esparcimiento", "UPERM": "Vivienda, equipamiento (regional, comunal, local) en áreas verdes y deportes. Para mayor especificación revisar Ordenanza", "UPROH": "Cementerios, industrias, plantas y botaderos de basura, servicentros y todos los usos no mencionados como permitidos. Para mayor especificación se debe revisar la Ordenanza del instrumento de planificación territorial.", "P_DO": "08/02/1988", "N_DOC": "194", "T_DO": "Decreto", "OBS": null }, "geometry": { "type": "Polygon", "coordinates": [ [ [ -67.609995676331195, -54.9382026017756 ], [ -67.610507890185403, -54.938876109217702 ], [ -67.610776548197904, -54.938868522619401 ], [ -67.611009399519205, -54.938853349836599 ], [ -67.611252982626397, -54.938826408874597 ], [ -67.611517721941894, -54.938784846607199 ], [ -67.611720938159607, -54.938730692594802 ], [ -67.6133335426927, -54.938918526120901 ], [ -67.613631644365597, -54.938957594668601 ], [ -67.613888767016704, -54.938987278803197 ], [ -67.614171695169304, -54.939017255693599 ], [ -67.614449257401603, -54.939053116827097 ], [ -67.614726922315299, -54.939086005460602 ], [ -67.615276991015406, -54.939154693018303 ], [ -67.615559919837807, -54.939184667569798 ], [ -67.616431220553295, -54.939295649349297 ], [ -67.616708786828497, -54.939331504445498 ], [ -67.616981193164406, -54.939367300197901 ], [ -67.617259066324806, -54.939394241123303 ], [ -67.617536634046402, -54.939430094336501 ], [ -67.618364179737199, -54.939537592433098 ], [ -67.619140222269706, -54.939641526791398 ], [ -67.620851700828595, -54.939869024556899 ], [ -67.621077481597197, -54.939306235669797 ], [ -67.621134051024498, -54.939164387605501 ], [ -67.620347427633405, -54.938824653177797 ], [ -67.619865013132994, -54.938438708909899 ], [ -67.619700979775999, -54.938344108126202 ], [ -67.619689734718506, -54.938310689314903 ], [ -67.619674522086001, -54.938272470216397 ], [ -67.619667241506306, -54.938243852551899 ], [ -67.619660125368398, -54.9382104806228 ], [ -67.619648960256001, -54.9381746846488 ], [ -67.619621607012803, -54.938129193480002 ], [ -67.619585997687096, -54.938083608547203 ], [ -67.618874927741999, -54.937982793148599 ], [ -67.6168665181997, -54.937715030418303 ], [ -67.615225677613793, -54.937508493212199 ], [ -67.614236608089101, -54.9373854595677 ], [ -67.614007904534802, -54.937430409825701 ], [ -67.613542647226794, -54.937508331875499 ], [ -67.612348672496694, -54.937758656949804 ], [ -67.611754030695707, -54.937875518665003 ], [ -67.609995676331195, -54.9382026017756 ] ] ] } },
{ "type": "Feature", "properties": { "id": "monoparte.9", "Name": null, "description": null, "timestamp": null, "begin": null, "end": null, "altitudeMode": null, "tessellate": -1, "extrude": 0, "visibility": -1, "drawOrder": null, "icon": null, "REG": "Magallanes", "COM": "Cabo de Hornos", "LOC": "Puerto Williams", "ZONA": "ZE1", "NOM": "ZE1 Equipamiento Deportivo y Esparcimiento", "UPERM": "Vivienda, equipamiento (regional, comunal, local) en áreas verdes y deportes. Para mayor especificación revisar Ordenanza", "UPROH": "Cementerios, industrias, plantas y botaderos de basura, servicentros y todos los usos no mencionados como permitidos. Para mayor especificación se debe revisar la Ordenanza del instrumento de planificación territorial.", "P_DO": "08/02/1988", "N_DOC": "194", "T_DO": "Decreto", "OBS": null }, "geometry": { "type": "Polygon", "coordinates": [ [ [ -67.598749564784001, -54.937407627740598 ], [ -67.599410093726505, -54.937550650310598 ], [ -67.599528125217503, -54.937064987931798 ], [ -67.599569722165398, -54.936907929281297 ], [ -67.599599555996903, -54.936643728096399 ], [ -67.599608433412996, -54.9365368242713 ], [ -67.5997150519797, -54.9362913422977 ], [ -67.599778839115004, -54.936089953466798 ], [ -67.599959457593499, -54.935646172188399 ], [ -67.600077633164204, -54.935365153699401 ], [ -67.600089810905601, -54.935311790894502 ], [ -67.599169334250305, -54.935059826136801 ], [ -67.598545356144299, -54.934892123292897 ], [ -67.597781228882397, -54.934746580359402 ], [ -67.596991718954698, -54.934588849231702 ], [ -67.596186734427405, -54.9344309342153 ], [ -67.594563461292495, -54.934112258673302 ], [ -67.593975438486495, -54.934000068732601 ], [ -67.593925635347603, -54.934061461005399 ], [ -67.593353714624698, -54.934769709916203 ], [ -67.593302968562696, -54.935188232905801 ], [ -67.593413877803101, -54.9354124470673 ], [ -67.594138435035305, -54.935804271191301 ], [ -67.594897382389604, -54.936542773333898 ], [ -67.596444158924299, -54.936896526338202 ], [ -67.598749564784001, -54.937407627740598 ] ] ] } },
{ "type": "Feature", "properties": { "id": "monoparte.10", "Name": null, "description": null, "timestamp": null, "begin": null, "end": null, "altitudeMode": null, "tessellate": -1, "extrude": 0, "visibility": -1, "drawOrder": null, "icon": null, "REG": "Magallanes", "COM": "Cabo de Hornos", "LOC": "Puerto Williams", "ZONA": "ZVE1", "NOM": "ZVE1 Residencial y Equipamiento Menor", "UPERM": "Vivienda, equipamiento (local) en seguridad, educación, culto, cultura, organizaciones comunitarias, áreas verdes, almacenamiento inofensivo, servicios artesanales, comercio minorista, esparcimiento y turismo. Mayor detalle ver Ordenanza.", "UPROH": "Todos aquellos no mencionados como permitidos. Para mayor especificación se debe revisar la Ordenanza del instrumento de planificación territorial.", "P_DO": "08/02/1988", "N_DOC": "194", "T_DO": "Decreto", "OBS": null }, "geometry": { "type": "Polygon", "coordinates": [ [ [ -67.602823549221796, -54.933102275881303 ], [ -67.602252357786995, -54.933091903497299 ], [ -67.601355156571898, -54.933206271662797 ], [ -67.601357143874793, -54.933210713649501 ], [ -67.601435396043598, -54.933385678095803 ], [ -67.6014807074054, -54.933567517229299 ], [ -67.601405793888503, -54.934005136613202 ], [ -67.601470222633296, -54.934008484292697 ], [ -67.601951203371101, -54.934048259537001 ], [ -67.602046977439898, -54.934049361082799 ], [ -67.602195656741898, -54.934049168330603 ], [ -67.602380399423296, -54.934056999725897 ], [ -67.602534563797704, -54.934089209983597 ], [ -67.602626243687993, -54.934113092063903 ], [ -67.602724660077399, -54.9341332471366 ], [ -67.602859601667205, -54.934148114055702 ], [ -67.602994940413396, -54.934151572257001 ], [ -67.603166804217693, -54.934149743039299 ], [ -67.603308286217001, -54.934166587258296 ], [ -67.603539000999504, -54.934182554783902 ], [ -67.603664827704094, -54.934174488027502 ], [ -67.603757364955797, -54.934173649300398 ], [ -67.603865953202003, -54.934186310635901 ], [ -67.603981870703507, -54.9341781297328 ], [ -67.604118197686702, -54.9341530629601 ], [ -67.604261524204503, -54.934116662381498 ], [ -67.604360797586097, -54.9341120952704 ], [ -67.604542081892603, -54.934115152686203 ], [ -67.604641727305307, -54.933702424858602 ], [ -67.604714388209601, -54.933392939383502 ], [ -67.604736155011395, -54.933122105150296 ], [ -67.602823549221796, -54.933102275881303 ] ] ] } },
{ "type": "Feature", "properties": { "id": "monoparte.11", "Name": null, "description": null, "timestamp": null, "begin": null, "end": null, "altitudeMode": null, "tessellate": -1, "extrude": 0, "visibility": -1, "drawOrder": null, "icon": null, "REG": "Magallanes", "COM": "Cabo de Hornos", "LOC": "Puerto Williams", "ZONA": "ZVE1", "NOM": "ZVE1 Residencial y Equipamiento Menor", "UPERM": "Vivienda, equipamiento (local) en seguridad, educación, culto, cultura, organizaciones comunitarias, áreas verdes, almacenamiento inofensivo, servicios artesanales, comercio minorista, esparcimiento y turismo. Mayor detalle ver Ordenanza.", "UPROH": "Todos aquellos no mencionados como permitidos. Para mayor especificación se debe revisar la Ordenanza del instrumento de planificación territorial.", "P_DO": "08/02/1988", "N_DOC": "194", "T_DO": "Decreto", "OBS": null }, "geometry": { "type": "Polygon", "coordinates": [ [ [ -67.601483606676695, -54.934204729581403 ], [ -67.602964350657302, -54.934269665959697 ], [ -67.601481330239494, -54.934203669835199 ], [ -67.601483606676695, -54.934204729581403 ] ] ] } },
{ "type": "Feature", "properties": { "id": "monoparte.12", "Name": null, "description": null, "timestamp": null, "begin": null, "end": null, "altitudeMode": null, "tessellate": -1, "extrude": 0, "visibility": -1, "drawOrder": null, "icon": null, "REG": "Magallanes", "COM": "Cabo de Hornos", "LOC": "Puerto Williams", "ZONA": "ZVE1", "NOM": "ZVE1 Residencial y Equipamiento Menor", "UPERM": "Vivienda, equipamiento (local) en seguridad, educación, culto, cultura, organizaciones comunitarias, áreas verdes, almacenamiento inofensivo, servicios artesanales, comercio minorista, esparcimiento y turismo. Mayor detalle ver Ordenanza.", "UPROH": "Todos aquellos no mencionados como permitidos. Para mayor especificación se debe revisar la Ordenanza del instrumento de planificación territorial.", "P_DO": "08/02/1988", "N_DOC": "194", "T_DO": "Decreto", "OBS": null }, "geometry": { "type": "Polygon", "coordinates": [ [ [ -67.603452751424598, -54.934288007315601 ], [ -67.603159318316102, -54.934278214943298 ], [ -67.603357761539499, -54.934286915891697 ], [ -67.603452751424598, -54.934288007315601 ] ] ] } },
{ "type": "Feature", "properties": { "id": "monoparte.13", "Name": null, "description": null, "timestamp": null, "begin": null, "end": null, "altitudeMode": null, "tessellate": -1, "extrude": 0, "visibility": -1, "drawOrder": null, "icon": null, "REG": "Magallanes", "COM": "Cabo de Hornos", "LOC": "Puerto Williams", "ZONA": "ZVE1", "NOM": "ZVE1 Residencial y Equipamiento Menor", "UPERM": "Vivienda, equipamiento (local) en seguridad, educación, culto, cultura, organizaciones comunitarias, áreas verdes, almacenamiento inofensivo, servicios artesanales, comercio minorista, esparcimiento y turismo. Mayor detalle ver Ordenanza.", "UPROH": "Todos aquellos no mencionados como permitidos. Para mayor especificación se debe revisar la Ordenanza del instrumento de planificación territorial.", "P_DO": "08/02/1988", "N_DOC": "194", "T_DO": "Decreto", "OBS": null }, "geometry": { "type": "Polygon", "coordinates": [ [ [ -67.604504332811501, -54.934271499514303 ], [ -67.603452751424598, -54.934288007315601 ], [ -67.603463030384901, -54.9342881254153 ], [ -67.604494137608796, -54.934271712302703 ], [ -67.604504332811501, -54.934271499514303 ] ] ] } },
{ "type": "Feature", "properties": { "id": "monoparte.14", "Name": null, "description": null, "timestamp": null, "begin": null, "end": null, "altitudeMode": null, "tessellate": -1, "extrude": 0, "visibility": -1, "drawOrder": null, "icon": null, "REG": "Magallanes", "COM": "Cabo de Hornos", "LOC": "Puerto Williams", "ZONA": "ZE2", "NOM": "ZE2 Equipamiento y Vivienda", "UPERM": "Vivienda, equipamiento comunal de salud, educación, seguridad, culto, cultura, esparcimiento y turismo, áreas verdes, deportes, comercio minorista a escala vecinal, comunal y servicios profesionales. Mayor detalle ver Ordenanza.", "UPROH": "Cementerios, plantas y botaderos de basura, y todos los no mencionados como permitidos. Para mayor especificación se debe revisar la Ordenanza del instrumento de planificación territorial.", "P_DO": "08/02/1988", "N_DOC": "194", "T_DO": "Decreto", "OBS": null }, "geometry": { "type": "Polygon", "coordinates": [ [ [ -67.599238979338296, -54.934224586561101 ], [ -67.599168631101094, -54.934347428498299 ], [ -67.599115258955806, -54.934457149373102 ], [ -67.600200544333205, -54.934696031585297 ], [ -67.601125277696894, -54.934896721134798 ], [ -67.601517758622904, -54.934916456704102 ], [ -67.602536809689695, -54.934970027802002 ], [ -67.603373228336807, -54.935002469238 ], [ -67.603389753978803, -54.935002278949298 ], [ -67.603221969908404, -54.935744166375699 ], [ -67.603118493643194, -54.936155785785701 ], [ -67.604108711989198, -54.936184282360301 ], [ -67.604821897025701, -54.936198177374102 ], [ -67.605879953776693, -54.936223633756001 ], [ -67.606734676904495, -54.936730895434501 ], [ -67.606968842555801, -54.936743091529799 ], [ -67.607010588095704, -54.936730253279599 ], [ -67.607308343889102, -54.936623329338701 ], [ -67.607771074822907, -54.936714235303299 ], [ -67.608782898410496, -54.936691578072697 ], [ -67.608822465680404, -54.936693933560697 ], [ -67.609833454806704, -54.937222175670797 ], [ -67.609877047634299, -54.937203650558899 ], [ -67.609889645739401, -54.937125798271197 ], [ -67.611114823641302, -54.937048491270801 ], [ -67.6114342634975, -54.937031215395599 ], [ -67.611650124335299, -54.936999439037798 ], [ -67.611785930615397, -54.9369895760817 ], [ -67.613263551748702, -54.936873278572101 ], [ -67.613328367607807, -54.936718026242602 ], [ -67.613424083069106, -54.936721019850403 ], [ -67.613628037704302, -54.936651057784502 ], [ -67.613778623905404, -54.936595705146502 ], [ -67.613874256627298, -54.936553041423601 ], [ -67.614111563852703, -54.936666083013101 ], [ -67.615006711983398, -54.9367695003736 ], [ -67.615892216234599, -54.936865191664403 ], [ -67.617114629027697, -54.9370122684875 ], [ -67.617103217512295, -54.936997917893301 ], [ -67.616412676241893, -54.936129442973098 ], [ -67.616202560980298, -54.935801751074301 ], [ -67.616091343186397, -54.935673029075197 ], [ -67.615968649095606, -54.935589831424501 ], [ -67.615838762852903, -54.935523672757 ], [ -67.615615489210299, -54.9354830827576 ], [ -67.615494335795901, -54.935451266098099 ], [ -67.614839944363197, -54.935072854465197 ], [ -67.614379504747305, -54.934819350944402 ], [ -67.614198875620701, -54.934883874059302 ], [ -67.614242529449697, -54.935247718351498 ], [ -67.614190177935399, -54.935328922210303 ], [ -67.614152868454298, -54.9353570318656 ], [ -67.613786403895901, -54.935541184322403 ], [ -67.613697116645398, -54.935591529081101 ], [ -67.613543623454504, -54.935635435335897 ], [ -67.613426787531594, -54.935670246387701 ], [ -67.613200569059003, -54.935715224333897 ], [ -67.612874746216903, -54.9357742836253 ], [ -67.612681881191506, -54.935810129851397 ], [ -67.612489585508399, -54.935829431056 ], [ -67.612284557997995, -54.935834700154601 ], [ -67.611611465278102, -54.935807990209298 ], [ -67.610999012098205, -54.935785774755701 ], [ -67.610550372663695, -54.935765427957598 ], [ -67.610459582505896, -54.935766743916503 ], [ -67.610471710945006, -54.936011728471101 ], [ -67.6099761008267, -54.936012007074297 ], [ -67.609971181104598, -54.936154626011998 ], [ -67.608875313298498, -54.936195593060802 ], [ -67.608669919716107, -54.936163518160598 ], [ -67.608567736041294, -54.936132624413297 ], [ -67.608364600533605, -54.936035181503598 ], [ -67.607969885651599, -54.935804758624897 ], [ -67.607635251223897, -54.935628526555 ], [ -67.607533275064398, -54.935591689123001 ], [ -67.607295036455596, -54.935533629550399 ], [ -67.606865530105907, -54.935581337061699 ], [ -67.606607049307399, -54.935613187046997 ], [ -67.6059995175886, -54.935315162682002 ], [ -67.605964923459197, -54.934978051329502 ], [ -67.605953147372702, -54.934840947978202 ], [ -67.605945462291402, -54.9346810634921 ], [ -67.605946158666995, -54.934621813815703 ], [ -67.605948856644503, -54.934391946518303 ], [ -67.605964026823997, -54.934239932897 ], [ -67.604705960540898, -54.934267349551597 ], [ -67.604506683515297, -54.934271453704199 ], [ -67.604504332811501, -54.934271499514303 ], [ -67.604494137608796, -54.934271712302703 ], [ -67.603463030384901, -54.9342881254153 ], [ -67.603452751424598, -54.934288007315601 ], [ -67.603357761539499, -54.934286915891697 ], [ -67.603159318316102, -54.934278214943298 ], [ -67.602964350657302, -54.934269665959697 ], [ -67.601483606676695, -54.934204729581403 ], [ -67.601481330239494, -54.934203669835199 ], [ -67.6013803315643, -54.934165375271597 ], [ -67.601363283040996, -54.9342735998341 ], [ -67.600246817814593, -54.934017009682897 ], [ -67.599482438727804, -54.933878613181598 ], [ -67.599483067529306, -54.933878889151003 ], [ -67.599372604210103, -54.933992138652798 ], [ -67.599295984334503, -54.934105396097998 ], [ -67.599238979338296, -54.934224586561101 ] ], [ [ -67.604915220238695, -54.9348661263164 ], [ -67.603345665300495, -54.934871880718902 ], [ -67.603465140573206, -54.934403612905101 ], [ -67.604923004545995, -54.934358031734 ], [ -67.604915220238695, -54.9348661263164 ] ], [ [ -67.606212007079606, -54.935582491024903 ], [ -67.606356051825898, -54.935654451225503 ], [ -67.606403991564207, -54.935703588650497 ], [ -67.606359626049596, -54.9357922522656 ], [ -67.606292356507296, -54.935946045712001 ], [ -67.606227554460901, -54.936028530675102 ], [ -67.606133637465305, -54.936057177838698 ], [ -67.605827710465903, -54.935946662420001 ], [ -67.605799010668704, -54.935880939873897 ], [ -67.605783096550098, -54.935744027227003 ], [ -67.605789264642496, -54.935565753410003 ], [ -67.605813608266203, -54.935459025709903 ], [ -67.605907728088297, -54.935424436844301 ], [ -67.606212007079606, -54.935582491024903 ] ], [ [ -67.613909324420902, -54.9358817268743 ], [ -67.614169786255104, -54.935667876352603 ], [ -67.614232071933102, -54.935864005986403 ], [ -67.614225020706201, -54.935888893518701 ], [ -67.614175112561199, -54.935899024933903 ], [ -67.613964074949905, -54.935910886217897 ], [ -67.613933726610796, -54.935892706443298 ], [ -67.613909324420902, -54.9358817268743 ] ] ] } },
{ "type": "Feature", "properties": { "id": "monoparte.15", "Name": null, "description": null, "timestamp": null, "begin": null, "end": null, "altitudeMode": null, "tessellate": -1, "extrude": 0, "visibility": -1, "drawOrder": null, "icon": null, "REG": "Magallanes", "COM": "Cabo de Hornos", "LOC": "Puerto Williams", "ZONA": "ZE2", "NOM": "ZE2 Equipamiento y Vivienda", "UPERM": "Vivienda, equipamiento comunal de salud, educación, seguridad, culto, cultura, esparcimiento y turismo, áreas verdes, deportes, comercio minorista a escala vecinal, comunal y servicios profesionales. Mayor detalle ver Ordenanza.", "UPROH": "Cementerios, plantas y botaderos de basura, y todos los no mencionados como permitidos. Para mayor especificación se debe revisar la Ordenanza del instrumento de planificación territorial.", "P_DO": "08/02/1988", "N_DOC": "194", "T_DO": "Decreto", "OBS": null }, "geometry": { "type": "Polygon", "coordinates": [ [ [ -67.600224463688505, -54.9355890354541 ], [ -67.600967765819505, -54.9356813530785 ], [ -67.601114065248197, -54.935274032568799 ], [ -67.600395826488395, -54.935144490863699 ], [ -67.600224463688505, -54.9355890354541 ] ] ] } },
{ "type": "Feature", "properties": { "id": "monoparte.16", "Name": null, "description": null, "timestamp": null, "begin": null, "end": null, "altitudeMode": null, "tessellate": -1, "extrude": 0, "visibility": -1, "drawOrder": null, "icon": null, "REG": "Magallanes", "COM": "Cabo de Hornos", "LOC": "Puerto Williams", "ZONA": "ZE4", "NOM": "ZE4 Centro Comercial", "UPERM": "Sin información. Para mayor especificación revisar Ordenanza", "UPROH": "Sin información. Para mayor especificación se debe revisar la Ordenanza del instrumento de planificación territorial.", "P_DO": "08/02/1988", "N_DOC": "194", "T_DO": "Decreto", "OBS": null }, "geometry": { "type": "Polygon", "coordinates": [ [ [ -67.607600527017595, -54.935500408593697 ], [ -67.607174069778296, -54.9346945926724 ], [ -67.607016951840393, -54.9346999263987 ], [ -67.607017545639806, -54.934802183976501 ], [ -67.606278344076799, -54.934800843726102 ], [ -67.606271961472203, -54.934627182105501 ], [ -67.605946158666995, -54.934621813815703 ], [ -67.605945462291402, -54.9346810634921 ], [ -67.605953147372702, -54.934840947978202 ], [ -67.605964923459197, -54.934978051329502 ], [ -67.6059995175886, -54.935315162682002 ], [ -67.606607049307399, -54.935613187046997 ], [ -67.606865530105907, -54.935581337061699 ], [ -67.607595202216999, -54.935500287381203 ], [ -67.607600527017595, -54.935500408593697 ] ] ] } },
{ "type": "Feature", "properties": { "id": "monoparte.17", "Name": null, "description": null, "timestamp": null, "begin": null, "end": null, "altitudeMode": null, "tessellate": -1, "extrude": 0, "visibility": -1, "drawOrder": null, "icon": null, "REG": "Magallanes", "COM": "Cabo de Hornos", "LOC": "Puerto Williams", "ZONA": "ZR1", "NOM": "ZR1 Base Naval", "UPERM": "Zona de restricción donde se emplaza la Base Naval de la Armada de Chile, debiéndose respetar en ella la vialidad estructurante que corresponde a Bienes Nacionales de Uso Público. Para mayor especificación revisar Ordenanza", "UPROH": "Sin información. Para mayor especificación se debe revisar la Ordenanza del instrumento de planificación territorial.", "P_DO": "08/02/1988", "N_DOC": "194", "T_DO": "Decreto", "OBS": null }, "geometry": { "type": "Polygon", "coordinates": [ [ [ -67.616436803055393, -54.9361597867589 ], [ -67.618227415141007, -54.936601117738597 ], [ -67.618315042604806, -54.936605086851202 ], [ -67.618428269946406, -54.936615291137201 ], [ -67.618432818827998, -54.936633176541797 ], [ -67.618778372832196, -54.9366430487405 ], [ -67.618998377787193, -54.937002236854397 ], [ -67.6185023490482, -54.937014434976 ], [ -67.618498376155301, -54.937130312924502 ], [ -67.618234980810499, -54.937133264247599 ], [ -67.618234302215896, -54.937002470961197 ], [ -67.617950265595397, -54.937005186123301 ], [ -67.617922331756702, -54.9366154839012 ], [ -67.618190781908794, -54.936615563770097 ], [ -67.618242183772196, -54.936622092356998 ], [ -67.616460668042905, -54.936189801316502 ], [ -67.617103217512295, -54.936997917893301 ], [ -67.617472327781599, -54.937451512814697 ], [ -67.6191618245835, -54.937684730195599 ], [ -67.619371524705798, -54.937712080045102 ], [ -67.619651509923401, -54.937857934754703 ], [ -67.619688179256698, -54.937872618649898 ], [ -67.619835429038105, -54.9380954372632 ], [ -67.619907423354604, -54.938164025948801 ], [ -67.620090645348995, -54.938241010595 ], [ -67.620341992959297, -54.938318768199402 ], [ -67.620533729160996, -54.9383280775358 ], [ -67.620628643881304, -54.938324399391497 ], [ -67.621143066542999, -54.938257946518803 ], [ -67.621827170476493, -54.938157271683103 ], [ -67.622056761786794, -54.938110413275297 ], [ -67.622179812586197, -54.938087078379397 ], [ -67.622275987197, -54.938076754471901 ], [ -67.622427464976496, -54.938091786957102 ], [ -67.6226138438806, -54.938149067231898 ], [ -67.623116564530207, -54.938424894049597 ], [ -67.623226124959004, -54.938487317579899 ], [ -67.623208246481695, -54.938293020632102 ], [ -67.623183746586605, -54.938303515426 ], [ -67.623159121082494, -54.938298955806097 ], [ -67.623120168634301, -54.938278540112499 ], [ -67.623086609183304, -54.938245345204599 ], [ -67.623015311129095, -54.938156221138797 ], [ -67.622975294418197, -54.938094418073298 ], [ -67.622947274483593, -54.938044163992103 ], [ -67.622931639603095, -54.9379940502102 ], [ -67.622905707746597, -54.9379552346631 ], [ -67.622881764900498, -54.937930708234198 ], [ -67.622619400639607, -54.937776500212799 ], [ -67.622555676027403, -54.937755803629798 ], [ -67.622439933951696, -54.937734517523801 ], [ -67.622298931447702, -54.937727212501102 ], [ -67.622199992328405, -54.937721810398102 ], [ -67.622087721982098, -54.937707697500898 ], [ -67.622036384202403, -54.937687141055299 ], [ -67.621950805629794, -54.937653355220398 ], [ -67.621789754080893, -54.937580191847303 ], [ -67.621703640855998, -54.937562094464496 ], [ -67.6216271419202, -54.937552666536902 ], [ -67.621480990796599, -54.937551009175102 ], [ -67.621339161141904, -54.937567947942803 ], [ -67.621206506262595, -54.937606392304097 ], [ -67.621120722123706, -54.937651076110299 ], [ -67.620995876475007, -54.937750958601598 ], [ -67.620929274356001, -54.937814407178102 ], [ -67.620876913511793, -54.9378237999208 ], [ -67.620843470945502, -54.937823420490602 ], [ -67.620781836123996, -54.9378141606784 ], [ -67.620653903664504, -54.937787027552297 ], [ -67.620616648167598, -54.937789458291299 ], [ -67.620544077975197, -54.937810036453101 ], [ -67.620491863518794, -54.937815150892803 ], [ -67.620415266738306, -54.937808574592403 ], [ -67.620356499063107, -54.937787933108297 ], [ -67.620339990063798, -54.937763490541499 ], [ -67.620321735664405, -54.937717627368698 ], [ -67.620292667342397, -54.937625700565299 ], [ -67.620271546058703, -54.937591217940401 ], [ -67.620253487156504, -54.937539649976003 ], [ -67.620256891366594, -54.937512580824198 ], [ -67.620269863775903, -54.937495607075299 ], [ -67.620288619056794, -54.9374544437716 ], [ -67.620302275112095, -54.937417503284998 ], [ -67.620297906893796, -54.937400332709103 ], [ -67.620262605155503, -54.937345715530299 ], [ -67.620207388980901, -54.937293725788898 ], [ -67.620163968322601, -54.9372591329155 ], [ -67.620116477520298, -54.937198670327298 ], [ -67.620095991492093, -54.937145648481298 ], [ -67.620080848907705, -54.937081272394998 ], [ -67.620069258756601, -54.936985548140903 ], [ -67.6200676258117, -54.936888510621898 ], [ -67.620051307823701, -54.936858506078501 ], [ -67.620034895475399, -54.936831211959998 ], [ -67.620011101557296, -54.936802406838098 ], [ -67.619987551908906, -54.936766470286301 ], [ -67.619969151794606, -54.936724886092797 ], [ -67.6199487150826, -54.936670436677502 ], [ -67.619913072501305, -54.936625803212998 ], [ -67.619832027486694, -54.936532143835997 ], [ -67.619770603874699, -54.936444414201603 ], [ -67.619723847380499, -54.936362558981997 ], [ -67.619686461873997, -54.936296503956001 ], [ -67.619625111255203, -54.936235597969201 ], [ -67.619579219268203, -54.936200834806002 ], [ -67.6195257015913, -54.936171692020501 ], [ -67.619476893773395, -54.936149736003301 ], [ -67.619408367427297, -54.9361247034049 ], [ -67.619332213854307, -54.9361052902347 ], [ -67.619283455075404, -54.936081908394698 ], [ -67.619217406776301, -54.936056903835002 ], [ -67.619050313040603, -54.935943433308303 ], [ -67.618940899174305, -54.935882266712198 ], [ -67.618694923900605, -54.935756770320303 ], [ -67.618125085024701, -54.935464943340101 ], [ -67.617845708909897, -54.935301969952697 ], [ -67.617795330281098, -54.935253601173002 ], [ -67.617783924551404, -54.935224936463001 ], [ -67.617789661211802, -54.935202173687699 ], [ -67.617815213663405, -54.935179636242403 ], [ -67.617860532972699, -54.935158749859603 ], [ -67.617991145324396, -54.935107445635303 ], [ -67.618104321567898, -54.935058795647997 ], [ -67.6181098134698, -54.935043164277602 ], [ -67.618086070891906, -54.935012932140602 ], [ -67.618045380105599, -54.934971093305897 ], [ -67.618042040185301, -54.934923973013603 ], [ -67.618009873304402, -54.934886511777698 ], [ -67.617979237260201, -54.934840507434501 ], [ -67.617963073255495, -54.934806081635898 ], [ -67.617936706440105, -54.934780100330698 ], [ -67.617907716763099, -54.934758368998999 ], [ -67.617820258717998, -54.934707437805699 ], [ -67.617791709402795, -54.934672871145999 ], [ -67.617739320182594, -54.934610925563 ], [ -67.617727375000797, -54.934597948517499 ], [ -67.617713051479001, -54.934582091821298 ], [ -67.617600824714202, -54.934530878790099 ], [ -67.617551677431393, -54.934518905820603 ], [ -67.617502628034103, -54.9345040804428 ], [ -67.617453529758805, -54.934490680790397 ], [ -67.617427067175797, -54.934467551782703 ], [ -67.617390842126198, -54.934440031920403 ], [ -67.617374334709396, -54.934415588937803 ], [ -67.617344954099494, -54.934405267926003 ], [ -67.617312803782895, -54.934403475006803 ], [ -67.617271086739606, -54.9343915864441 ], [ -67.617211689445, -54.934389484438597 ], [ -67.617025723479898, -54.934393075704499 ], [ -67.616670544798694, -54.934417569059796 ], [ -67.616472291184394, -54.934418166135103 ], [ -67.616002177808795, -54.934434215056399 ], [ -67.615937581773807, -54.934439186540502 ], [ -67.615855941927407, -54.934435403399902 ], [ -67.615731997602495, -54.934436845435201 ], [ -67.615664874816801, -54.934443215199302 ], [ -67.615567783913605, -54.934456376906702 ], [ -67.6155132425164, -54.934457181982303 ], [ -67.615449038392697, -54.9344507436615 ], [ -67.615397807733203, -54.934427332075401 ], [ -67.615354007126697, -54.934404005107297 ], [ -67.615288550546694, -54.9343618841012 ], [ -67.615190181604305, -54.934268024150299 ], [ -67.615120067250402, -54.934217288577898 ], [ -67.615041933360004, -54.934183583503298 ], [ -67.614696513829301, -54.934032263605097 ], [ -67.614255207048103, -54.933823207303803 ], [ -67.614140165829696, -54.933781946657298 ], [ -67.614054260414306, -54.933758139139698 ], [ -67.613788963086705, -54.933690909566103 ], [ -67.613607293183406, -54.933641754314102 ], [ -67.613482002165497, -54.933610363838703 ], [ -67.613277305799301, -54.933582347149198 ], [ -67.613119068720096, -54.933536312001003 ], [ -67.613015727420304, -54.933515158299997 ], [ -67.612317691377896, -54.9334943507479 ], [ -67.6121040206678, -54.9334391208765 ], [ -67.611899521103496, -54.933405397093402 ], [ -67.611775579874205, -54.933406835111597 ], [ -67.611600812886905, -54.933373164599701 ], [ -67.611320722027401, -54.933340003568297 ], [ -67.610365243368904, -54.9333119625446 ], [ -67.609713674224196, -54.933273123008398 ], [ -67.609056406133902, -54.933219947227201 ], [ -67.608124021632406, -54.933204993160501 ], [ -67.608065955099704, -54.933164379129799 ], [ -67.607971231078906, -54.933109077726201 ], [ -67.607878392181703, -54.9330709188744 ], [ -67.607802250032194, -54.933051498535299 ], [ -67.607735819731602, -54.933037897303301 ], [ -67.6076744401566, -54.933021499485598 ], [ -67.607573579159293, -54.933000369542498 ], [ -67.607492435900397, -54.932982318918299 ], [ -67.607450378294502, -54.932980410776402 ], [ -67.607285169312604, -54.932957116151101 ], [ -67.607196595014898, -54.932938980181703 ], [ -67.607022022856995, -54.932899884067901 ], [ -67.606749609304103, -54.932823996942403 ], [ -67.606307331608406, -54.932716200242297 ], [ -67.606145988742895, -54.9326886685758 ], [ -67.605923123698204, -54.932684685447398 ], [ -67.605194379899302, -54.932549344369598 ], [ -67.604576558515802, -54.9324666346306 ], [ -67.603485570287901, -54.932345671303302 ], [ -67.602987683411797, -54.932305707700301 ], [ -67.602120907142904, -54.9322928886995 ], [ -67.601960212456206, -54.932282479955603 ], [ -67.601858861605507, -54.932275607149499 ], [ -67.601686031380595, -54.932257924225397 ], [ -67.601526179821306, -54.9322589386422 ], [ -67.601441078506696, -54.932283641048102 ], [ -67.601335766872694, -54.932319524868802 ], [ -67.601285439275202, -54.932341773801298 ], [ -67.601252052340399, -54.932375631702698 ], [ -67.601240957213506, -54.932409746130801 ], [ -67.601236996185804, -54.932452504083599 ], [ -67.601283364103594, -54.932544349969 ], [ -67.601310759292303, -54.932611722233098 ], [ -67.601310264318201, -54.932625984082499 ], [ -67.601304667232199, -54.932644467932803 ], [ -67.601281583261496, -54.932667030365998 ], [ -67.601243788483103, -54.932685143690698 ], [ -67.601220079970503, -54.932695029344899 ], [ -67.601244560527405, -54.932786027489797 ], [ -67.601181506599502, -54.932817999024302 ], [ -67.601355156571898, -54.933206271662797 ], [ -67.602252357786995, -54.933091903497299 ], [ -67.602823549221796, -54.933102275881303 ], [ -67.604736155011395, -54.933122105150296 ], [ -67.604714388209601, -54.933392939383502 ], [ -67.604641727305307, -54.933702424858602 ], [ -67.604542081892603, -54.934115152686203 ], [ -67.604506683515297, -54.934271453704199 ], [ -67.604705960540898, -54.934267349551597 ], [ -67.605964026823997, -54.934239932897 ], [ -67.605948856644503, -54.934391946518303 ], [ -67.605946158666995, -54.934621813815703 ], [ -67.606271961472203, -54.934627182105501 ], [ -67.606278344076799, -54.934800843726102 ], [ -67.607017545639806, -54.934802183976501 ], [ -67.607016951840393, -54.9346999263987 ], [ -67.607174069778296, -54.9346945926724 ], [ -67.607600527017595, -54.935500408593697 ], [ -67.607849408404306, -54.935506052611899 ], [ -67.608063424580706, -54.935527527247103 ], [ -67.608105569766906, -54.935550837899903 ], [ -67.608192575467896, -54.935614611281302 ], [ -67.608361216924493, -54.935658393863299 ], [ -67.608499620213806, -54.935764607156898 ], [ -67.608599771012294, -54.935830432456498 ], [ -67.608691542986804, -54.935947525746698 ], [ -67.608907616332402, -54.936005167113301 ], [ -67.609071767213905, -54.936035580647598 ], [ -67.609368812557193, -54.936044686384101 ], [ -67.609549062394095, -54.935991580063003 ], [ -67.609670058689503, -54.9359320896342 ], [ -67.609876320013697, -54.935862349860002 ], [ -67.610183446733402, -54.935770745398401 ], [ -67.610550372663695, -54.935765427957598 ], [ -67.610999012098205, -54.935785774755701 ], [ -67.611611465278102, -54.935807990209298 ], [ -67.612284557997995, -54.935834700154601 ], [ -67.612489585508399, -54.935829431056 ], [ -67.612681881191506, -54.935810129851397 ], [ -67.612874746216903, -54.9357742836253 ], [ -67.613200569059003, -54.935715224333897 ], [ -67.613426787531594, -54.935670246387701 ], [ -67.613543623454504, -54.935635435335897 ], [ -67.613697116645398, -54.935591529081101 ], [ -67.613786403895901, -54.935541184322403 ], [ -67.614152868454298, -54.9353570318656 ], [ -67.614190177935399, -54.935328922210303 ], [ -67.614242529449697, -54.935247718351498 ], [ -67.614198875620701, -54.934883874059302 ], [ -67.614379504747305, -54.934819350944402 ], [ -67.614839944363197, -54.935072854465197 ], [ -67.615494335795901, -54.935451266098099 ], [ -67.615615489210299, -54.9354830827576 ], [ -67.615838762852903, -54.935523672757 ], [ -67.615968649095606, -54.935589831424501 ], [ -67.616091343186397, -54.935673029075197 ], [ -67.616202560980298, -54.935801751074301 ], [ -67.616412676241893, -54.936129442973098 ], [ -67.616436803055393, -54.9361597867589 ] ] ] } },
{ "type": "Feature", "properties": { "id": "monoparte.18", "Name": null, "description": null, "timestamp": null, "begin": null, "end": null, "altitudeMode": null, "tessellate": -1, "extrude": 0, "visibility": -1, "drawOrder": null, "icon": null, "REG": "Magallanes", "COM": "Cabo de Hornos", "LOC": "Puerto Williams", "ZONA": "ZVE2", "NOM": "ZVE2 Residencial y Equipamiento Especial", "UPERM": "Vivienda, equipamiento (comunal) de servicios artesanales, áreas verdes, comercio minorista, pesquero e industrial para varaderos menores de mantención de botes pesqueros artesanales y carpinteria de ribera. Mayor detalle ver Ordenanza.", "UPROH": "Todos los no mencionados como permitidos. Para mayor especificación se debe revisar la Ordenanza del instrumento de planificación territorial.", "P_DO": "08/02/1988", "N_DOC": "194", "T_DO": "Decreto", "OBS": null }, "geometry": { "type": "Polygon", "coordinates": [ [ [ -67.598947570045993, -54.933720684652599 ], [ -67.599153058004703, -54.933706007507801 ], [ -67.599267408064904, -54.933683546390398 ], [ -67.599464938627705, -54.933644208078199 ], [ -67.599579494858204, -54.933615803858899 ], [ -67.599725629899794, -54.933569929574503 ], [ -67.599755145672304, -54.9336118832029 ], [ -67.599772688794999, -54.933701257687197 ], [ -67.599831720686694, -54.933785164913999 ], [ -67.599891577083, -54.933845302664203 ], [ -67.6000647516871, -54.933912690757303 ], [ -67.600362185372603, -54.933969619135603 ], [ -67.601191533924805, -54.934169400440197 ], [ -67.601371140706405, -54.934223718353898 ], [ -67.6013803315643, -54.934165375271597 ], [ -67.600878345248006, -54.933975039444299 ], [ -67.601141092782399, -54.9339913802512 ], [ -67.601405793888503, -54.934005136613202 ], [ -67.6014807074054, -54.933567517229299 ], [ -67.601435396043598, -54.933385678095803 ], [ -67.601357143874793, -54.933210713649501 ], [ -67.600140030990602, -54.933380658871599 ], [ -67.599827453969993, -54.933343767308301 ], [ -67.599654816750999, -54.933320377623197 ], [ -67.598682171312007, -54.933026194159297 ], [ -67.597971416593893, -54.932801606473603 ], [ -67.597763368330305, -54.932727868731199 ], [ -67.597411747189, -54.932685764316403 ], [ -67.596872715903302, -54.932629606100697 ], [ -67.596510444835801, -54.932596888427298 ], [ -67.596019709727102, -54.932576953414802 ], [ -67.595771947731194, -54.932576469355702 ], [ -67.5955117595921, -54.932577030244602 ], [ -67.595246657678203, -54.932600123712099 ], [ -67.594971233286401, -54.932623097280199 ], [ -67.594726438919096, -54.932655936665803 ], [ -67.594130481443997, -54.932740120117501 ], [ -67.594202777961399, -54.932916923177601 ], [ -67.5942275460703, -54.932917209639001 ], [ -67.594343048711593, -54.9329209235216 ], [ -67.594836920800304, -54.932969436665502 ], [ -67.595140903683699, -54.933015753184499 ], [ -67.595238485014505, -54.933059683670997 ], [ -67.595386265812905, -54.933085170488297 ], [ -67.595558980694904, -54.933106189978901 ], [ -67.595769677183597, -54.933103868168402 ], [ -67.596164319818499, -54.933145575467996 ], [ -67.596093168607396, -54.932997423531098 ], [ -67.596879048773999, -54.932961912346599 ], [ -67.596874290146701, -54.933098588659497 ], [ -67.596883354297702, -54.933203703384699 ], [ -67.597136328734607, -54.933255524022698 ], [ -67.597972169561501, -54.933445891029798 ], [ -67.598790977555893, -54.933651274301901 ], [ -67.598806431555502, -54.933681890189703 ], [ -67.598911518336294, -54.9337118586526 ], [ -67.598947570045993, -54.933720684652599 ] ] ] } },
{ "type": "Feature", "properties": { "id": "monoparte.19", "Name": null, "description": null, "timestamp": null, "begin": null, "end": null, "altitudeMode": null, "tessellate": -1, "extrude": 0, "visibility": -1, "drawOrder": null, "icon": null, "REG": "Magallanes", "COM": "Cabo de Hornos", "LOC": "Puerto Williams", "ZONA": "ZP1", "NOM": "ZP1 Residencial Etnias Nativas", "UPERM": "Vivienda, equipamiento (local) en educación, seguridad, culto, cultura, organización comunitaria, áreas verdes, servicios artesanales. Para mayor especificación revisar Ordenanza", "UPROH": "Son todos aquellos usos no mencionados como permitidos. Para mayor especificación se debe revisar la Ordenanza del instrumento de planificación territorial.", "P_DO": "08/02/1988", "N_DOC": "194", "T_DO": "Decreto", "OBS": null }, "geometry": { "type": "Polygon", "coordinates": [ [ [ -67.591661919452307, -54.933101203858797 ], [ -67.591355953953297, -54.933147914316102 ], [ -67.590311902485794, -54.933114347157499 ], [ -67.590315263090204, -54.933342178283397 ], [ -67.590315190912904, -54.933387702442097 ], [ -67.590729644882202, -54.933568206688498 ], [ -67.590924883788503, -54.933653697505697 ], [ -67.591050195437504, -54.933731244117403 ], [ -67.5911305142087, -54.933796378706901 ], [ -67.591185657363795, -54.9338728745618 ], [ -67.591221564738404, -54.933908959200899 ], [ -67.591232369510607, -54.933954265197002 ], [ -67.591248050514096, -54.933978226811902 ], [ -67.591258856924895, -54.934023531925 ], [ -67.591269246279893, -54.934080723486503 ], [ -67.591296647831896, -54.934123843750299 ], [ -67.591327430055998, -54.934188404081503 ], [ -67.592247201103703, -54.934103943345399 ], [ -67.592305350821903, -54.933976208760598 ], [ -67.592348458179004, -54.933924393003103 ], [ -67.592220345162303, -54.933808768774298 ], [ -67.592164378031995, -54.933755805557098 ], [ -67.592144319073299, -54.933738927584201 ], [ -67.592025433373607, -54.933713771542998 ], [ -67.591895826978401, -54.933640932347799 ], [ -67.591823762421001, -54.933575892997197 ], [ -67.591748235798306, -54.9334917906722 ], [ -67.591705319202703, -54.933419955618398 ], [ -67.591679495935594, -54.933331672960698 ], [ -67.591661430992801, -54.933257747753302 ], [ -67.591666556097493, -54.933229272008496 ], [ -67.591668217430893, -54.933181732411803 ], [ -67.591661919452307, -54.933101203858797 ] ] ] } },
{ "type": "Feature", "properties": { "id": "monoparte.20", "Name": null, "description": null, "timestamp": null, "begin": null, "end": null, "altitudeMode": null, "tessellate": -1, "extrude": 0, "visibility": -1, "drawOrder": null, "icon": null, "REG": "Magallanes", "COM": "Cabo de Hornos", "LOC": "Puerto Williams", "ZONA": "ZP1", "NOM": "ZP1 Residencial Etnias Nativas", "UPERM": "Vivienda, equipamiento (local) en educación, seguridad, culto, cultura, organización comunitaria, áreas verdes, servicios artesanales. Para mayor especificación revisar Ordenanza", "UPROH": "Son todos aquellos usos no mencionados como permitidos. Para mayor especificación se debe revisar la Ordenanza del instrumento de planificación territorial.", "P_DO": "08/02/1988", "N_DOC": "194", "T_DO": "Decreto", "OBS": null }, "geometry": { "type": "Polygon", "coordinates": [ [ [ -67.594435087096997, -54.933367647086598 ], [ -67.594541958015398, -54.933411685552599 ], [ -67.595183094524501, -54.933382239826003 ], [ -67.595168442668196, -54.933358291522403 ], [ -67.5951590540502, -54.933331431004802 ], [ -67.595139864076998, -54.9332895955758 ], [ -67.595125626617303, -54.933253761676397 ], [ -67.595080635557593, -54.933211628020302 ], [ -67.594259770355606, -54.933214026701897 ], [ -67.594435087096997, -54.933367647086598 ] ] ] } },
{ "type": "Feature", "properties": { "id": "monoparte.21", "Name": null, "description": null, "timestamp": null, "begin": null, "end": null, "altitudeMode": null, "tessellate": -1, "extrude": 0, "visibility": -1, "drawOrder": null, "icon": null, "REG": "Magallanes", "COM": "Cabo de Hornos", "LOC": "Puerto Williams", "ZONA": "AV", "NOM": "Área Verde", "UPERM": "Sin información. Para mayor especificación revisar Ordenanza", "UPROH": "Sin información. Para mayor especificación se debe revisar la Ordenanza del instrumento de planificación territorial.", "P_DO": "08/02/1988", "N_DOC": "194", "T_DO": "Decreto", "OBS": null }, "geometry": { "type": "Polygon", "coordinates": [ [ [ -67.603465140573206, -54.934403612905101 ], [ -67.603345665300495, -54.934871880718902 ], [ -67.604915220238695, -54.9348661263164 ], [ -67.604923004545995, -54.934358031734 ], [ -67.603465140573206, -54.934403612905101 ] ] ] } },
{ "type": "Feature", "properties": { "id": "monoparte.22", "Name": null, "description": null, "timestamp": null, "begin": null, "end": null, "altitudeMode": null, "tessellate": -1, "extrude": 0, "visibility": -1, "drawOrder": null, "icon": null, "REG": "Magallanes", "COM": "Cabo de Hornos", "LOC": "Puerto Williams", "ZONA": "AV", "NOM": "Área Verde", "UPERM": "Sin información. Para mayor especificación revisar Ordenanza", "UPROH": "Sin información. Para mayor especificación se debe revisar la Ordenanza del instrumento de planificación territorial.", "P_DO": "08/02/1988", "N_DOC": "194", "T_DO": "Decreto", "OBS": null }, "geometry": { "type": "Polygon", "coordinates": [ [ [ -67.613332291655496, -54.936988014116203 ], [ -67.613262019808303, -54.937229760131103 ], [ -67.613764064465002, -54.937042874762703 ], [ -67.613582807424805, -54.937004013080099 ], [ -67.613332291655496, -54.936988014116203 ] ] ] } },
{ "type": "Feature", "properties": { "id": "monoparte.23", "Name": null, "description": null, "timestamp": null, "begin": null, "end": null, "altitudeMode": null, "tessellate": -1, "extrude": 0, "visibility": -1, "drawOrder": null, "icon": null, "REG": "Magallanes", "COM": "Cabo de Hornos", "LOC": "Puerto Williams", "ZONA": "AV", "NOM": "Área Verde", "UPERM": "Sin información. Para mayor especificación revisar Ordenanza", "UPROH": "Sin información. Para mayor especificación se debe revisar la Ordenanza del instrumento de planificación territorial.", "P_DO": "08/02/1988", "N_DOC": "194", "T_DO": "Decreto", "OBS": null }, "geometry": { "type": "Polygon", "coordinates": [ [ [ -67.613933726610796, -54.935892706443298 ], [ -67.613964074949905, -54.935910886217897 ], [ -67.614175112561199, -54.935899024933903 ], [ -67.614225020706201, -54.935888893518701 ], [ -67.614232071933102, -54.935864005986403 ], [ -67.614169786255104, -54.935667876352603 ], [ -67.613909324420902, -54.9358817268743 ], [ -67.613933726610796, -54.935892706443298 ] ] ] } },
{ "type": "Feature", "properties": { "id": "monoparte.24", "Name": null, "description": null, "timestamp": null, "begin": null, "end": null, "altitudeMode": null, "tessellate": -1, "extrude": 0, "visibility": -1, "drawOrder": null, "icon": null, "REG": "Magallanes", "COM": "Cabo de Hornos", "LOC": "Puerto Williams", "ZONA": "AV", "NOM": "Área Verde", "UPERM": "Sin información. Para mayor especificación revisar Ordenanza", "UPROH": "Sin información. Para mayor especificación se debe revisar la Ordenanza del instrumento de planificación territorial.", "P_DO": "08/02/1988", "N_DOC": "194", "T_DO": "Decreto", "OBS": null }, "geometry": { "type": "Polygon", "coordinates": [ [ [ -67.607969885651599, -54.935804758624897 ], [ -67.608364600533605, -54.936035181503598 ], [ -67.608567736041294, -54.936132624413297 ], [ -67.608669919716107, -54.936163518160598 ], [ -67.608875313298498, -54.936195593060802 ], [ -67.609971181104598, -54.936154626011998 ], [ -67.6099761008267, -54.936012007074297 ], [ -67.610471710945006, -54.936011728471101 ], [ -67.610459582505896, -54.935766743916503 ], [ -67.610183446733402, -54.935770745398401 ], [ -67.609876320013697, -54.935862349860002 ], [ -67.609670058689503, -54.9359320896342 ], [ -67.609549062394095, -54.935991580063003 ], [ -67.609368812557193, -54.936044686384101 ], [ -67.609071767213905, -54.936035580647598 ], [ -67.608907616332402, -54.936005167113301 ], [ -67.608691542986804, -54.935947525746698 ], [ -67.608599771012294, -54.935830432456498 ], [ -67.608499620213806, -54.935764607156898 ], [ -67.608361216924493, -54.935658393863299 ], [ -67.608192575467896, -54.935614611281302 ], [ -67.608105569766906, -54.935550837899903 ], [ -67.608063424580706, -54.935527527247103 ], [ -67.607849408404306, -54.935506052611899 ], [ -67.607600527017595, -54.935500408593697 ], [ -67.607595202216999, -54.935500287381203 ], [ -67.607295036455596, -54.935533629550399 ], [ -67.607533275064398, -54.935591689123001 ], [ -67.607635251223897, -54.935628526555 ], [ -67.607969885651599, -54.935804758624897 ] ] ] } },
{ "type": "Feature", "properties": { "id": "monoparte.25", "Name": null, "description": null, "timestamp": null, "begin": null, "end": null, "altitudeMode": null, "tessellate": -1, "extrude": 0, "visibility": -1, "drawOrder": null, "icon": null, "REG": "Magallanes", "COM": "Cabo de Hornos", "LOC": "Puerto Williams", "ZONA": "AV", "NOM": "Área Verde", "UPERM": "Sin información. Para mayor especificación revisar Ordenanza", "UPROH": "Sin información. Para mayor especificación se debe revisar la Ordenanza del instrumento de planificación territorial.", "P_DO": "08/02/1988", "N_DOC": "194", "T_DO": "Decreto", "OBS": null }, "geometry": { "type": "Polygon", "coordinates": [ [ [ -67.605827710465903, -54.935946662420001 ], [ -67.606133637465305, -54.936057177838698 ], [ -67.606227554460901, -54.936028530675102 ], [ -67.606292356507296, -54.935946045712001 ], [ -67.606359626049596, -54.9357922522656 ], [ -67.606403991564207, -54.935703588650497 ], [ -67.606356051825898, -54.935654451225503 ], [ -67.606212007079606, -54.935582491024903 ], [ -67.605907728088297, -54.935424436844301 ], [ -67.605813608266203, -54.935459025709903 ], [ -67.605789264642496, -54.935565753410003 ], [ -67.605783096550098, -54.935744027227003 ], [ -67.605799010668704, -54.935880939873897 ], [ -67.605827710465903, -54.935946662420001 ] ] ] } },
{ "type": "Feature", "properties": { "id": "monoparte.26", "Name": null, "description": null, "timestamp": null, "begin": null, "end": null, "altitudeMode": null, "tessellate": -1, "extrude": 0, "visibility": -1, "drawOrder": null, "icon": null, "REG": "Magallanes", "COM": "Cabo de Hornos", "LOC": "Puerto Williams", "ZONA": "AV", "NOM": "Área Verde", "UPERM": "Sin información. Para mayor especificación revisar Ordenanza", "UPROH": "Sin información. Para mayor especificación se debe revisar la Ordenanza del instrumento de planificación territorial.", "P_DO": "08/02/1988", "N_DOC": "194", "T_DO": "Decreto", "OBS": null }, "geometry": { "type": "Polygon", "coordinates": [ [ [ -67.599153058004703, -54.933706007507801 ], [ -67.598947570045993, -54.933720684652599 ], [ -67.598947053114401, -54.9337205582625 ], [ -67.598822425612298, -54.933729161518301 ], [ -67.598404311513093, -54.9337335557206 ], [ -67.598490497912195, -54.933753330554303 ], [ -67.5989008262965, -54.933833886284603 ], [ -67.599431774649801, -54.933931475860398 ], [ -67.599483067529306, -54.933878889151003 ], [ -67.599482438727804, -54.933878613181598 ], [ -67.600246817814593, -54.934017009682897 ], [ -67.601363283040996, -54.9342735998341 ], [ -67.601371140706405, -54.934223718353898 ], [ -67.601191533924805, -54.934169400440197 ], [ -67.600362185372603, -54.933969619135603 ], [ -67.6000647516871, -54.933912690757303 ], [ -67.599891577083, -54.933845302664203 ], [ -67.599831720686694, -54.933785164913999 ], [ -67.599772688794999, -54.933701257687197 ], [ -67.599755145672304, -54.9336118832029 ], [ -67.599725629899794, -54.933569929574503 ], [ -67.599579494858204, -54.933615803858899 ], [ -67.599464938627705, -54.933644208078199 ], [ -67.599267408064904, -54.933683546390398 ], [ -67.599153058004703, -54.933706007507801 ] ] ] } },
{ "type": "Feature", "properties": { "id": "monoparte.27", "Name": null, "description": null, "timestamp": null, "begin": null, "end": null, "altitudeMode": null, "tessellate": -1, "extrude": 0, "visibility": -1, "drawOrder": null, "icon": null, "REG": "Magallanes", "COM": "Cabo de Hornos", "LOC": "Puerto Williams", "ZONA": "ZR4", "NOM": "ZR4 Protección de pozos de captación y estanques de agua potable.", "UPERM": "Terrenos Ocupados por la Armada de Chile, en que se ubican las copas de agua, y las plantas correspondiente al tratamiento, cloración y filtros. Además la vivienda del operador del sistema. Para mayor especificación revisar Ordenanza", "UPROH": "Sin información. Para mayor especificación se debe revisar la Ordenanza del instrumento de planificación territorial.", "P_DO": "08/02/1988", "N_DOC": "194", "T_DO": "Decreto", "OBS": null }, "geometry": { "type": "Polygon", "coordinates": [ [ [ -67.616460668042905, -54.936189801316502 ], [ -67.618242183772196, -54.936622092356998 ], [ -67.618190781908794, -54.936615563770097 ], [ -67.617922331756702, -54.9366154839012 ], [ -67.617950265595397, -54.937005186123301 ], [ -67.618234302215896, -54.937002470961197 ], [ -67.618234980810499, -54.937133264247599 ], [ -67.618498376155301, -54.937130312924502 ], [ -67.6185023490482, -54.937014434976 ], [ -67.618998377787193, -54.937002236854397 ], [ -67.618778372832196, -54.9366430487405 ], [ -67.618432818827998, -54.936633176541797 ], [ -67.618428269946406, -54.936615291137201 ], [ -67.618315042604806, -54.936605086851202 ], [ -67.618227415141007, -54.936601117738597 ], [ -67.616436803055393, -54.9361597867589 ], [ -67.616460668042905, -54.936189801316502 ] ] ] } }
]
}
