{
"type": "FeatureCollection",
"name": "IPT_12_PRC_Laguna_Blanca",
"crs": { "type": "name", "properties": { "name": "urn:ogc:def:crs:OGC:1.3:CRS84" } },
"features": [
{ "type": "Feature", "properties": { "id": "monoparte.1", "Name": null, "description": null, "timestamp": null, "begin": null, "end": null, "altitudeMode": null, "tessellate": -1, "extrude": 0, "visibility": -1, "drawOrder": null, "icon": null, "REG": "Magallanes", "COM": "Laguna Blanca", "LOC": "Tehuelches", "ZONA": "ZEV", "NOM": "Zona_ZEV", "UPERM": "Vivienda, equipamiento (comunal) de servicios públicos, salud, educación, culto, cultura, áreas verdes y almacenamiento inofensivos. Organización comunitaria, esparcimiento y turismo.", "UPROH": "Todos los no mencionados como permitidos.", "P_DO": "27/09/1994", "N_DOC": "8", "T_DO": "Resolución", "OBS": null }, "geometry": { "type": "Polygon", "coordinates": [ [ [ -71.415246462915704, -52.423895775473 ], [ -71.414536600415104, -52.425700943285399 ], [ -71.413789738087601, -52.425591397281202 ], [ -71.412652182866196, -52.428308530795 ], [ -71.413434619466202, -52.4284311656249 ], [ -71.413475967902897, -52.428324590192801 ], [ -71.414252943208893, -52.4284432881866 ], [ -71.414212121419396, -52.428559465063501 ], [ -71.415115807150698, -52.428694792913397 ], [ -71.415126878025902, -52.428710198081703 ], [ -71.415875138560097, -52.428818185064003 ], [ -71.416045081284594, -52.428435502060204 ], [ -71.415617324287993, -52.4283769621955 ], [ -71.415065446990297, -52.428061435309601 ], [ -71.415556502470395, -52.427839938648702 ], [ -71.416396825713704, -52.427966938804197 ], [ -71.416649070995504, -52.427404290636701 ], [ -71.415777870406998, -52.427287534518001 ], [ -71.415943761560797, -52.426870830864203 ], [ -71.415325308133404, -52.425912667365303 ], [ -71.414501783945298, -52.425804539645 ], [ -71.414541682235594, -52.425701689240199 ], [ -71.416302744340399, -52.425959971198303 ], [ -71.416307834725899, -52.425959017347999 ], [ -71.415805492379306, -52.423668626608801 ], [ -71.415054235461994, -52.423490724376101 ], [ -71.415246462915704, -52.423895775473 ] ] ] } },
{ "type": "Feature", "properties": { "id": "monoparte.2", "Name": null, "description": null, "timestamp": null, "begin": null, "end": null, "altitudeMode": null, "tessellate": -1, "extrude": 0, "visibility": -1, "drawOrder": null, "icon": null, "REG": "Magallanes", "COM": "Laguna Blanca", "LOC": "Tehuelches", "ZONA": "ZEV", "NOM": "Zona_ZEV", "UPERM": "Vivienda, equipamiento (comunal) de servicios públicos, salud, educación, culto, cultura, áreas verdes y almacenamiento inofensivos. Organización comunitaria, esparcimiento y turismo.", "UPROH": "Todos los no mencionados como permitidos.", "P_DO": "27/09/1994", "N_DOC": "8", "T_DO": "Resolución", "OBS": null }, "geometry": { "type": "Polygon", "coordinates": [ [ [ -71.411684401368007, -52.430619882454202 ], [ -71.411615541374701, -52.430784333892703 ], [ -71.412913439634593, -52.430650279393099 ], [ -71.414398447098094, -52.429336631435497 ], [ -71.413091947914893, -52.429148843590298 ], [ -71.412634275134707, -52.430187262486797 ], [ -71.411684401368007, -52.430619882454202 ] ] ] } },
{ "type": "Feature", "properties": { "id": "monoparte.3", "Name": null, "description": null, "timestamp": null, "begin": null, "end": null, "altitudeMode": null, "tessellate": -1, "extrude": 0, "visibility": -1, "drawOrder": null, "icon": null, "REG": "Magallanes", "COM": "Laguna Blanca", "LOC": "Tehuelches", "ZONA": "ZR1", "NOM": "Zona_ZR1", "UPERM": "Franja de protección de la Ruta Interprovincial N°9, definida como \"Vía Troncal\".", "UPROH": "Todos los no mencionados como permitidos.", "P_DO": "27/09/1994", "N_DOC": "8", "T_DO": "Resolución", "OBS": null }, "geometry": { "type": "Polygon", "coordinates": [ [ [ -71.411615541374701, -52.430784333892703 ], [ -71.414703844154602, -52.423407747422701 ], [ -71.414247638925701, -52.423299710315703 ], [ -71.411130563254503, -52.430834420715001 ], [ -71.411615541374701, -52.430784333892703 ] ] ] } },
{ "type": "Feature", "properties": { "id": "monoparte.4", "Name": null, "description": null, "timestamp": null, "begin": null, "end": null, "altitudeMode": null, "tessellate": -1, "extrude": 0, "visibility": -1, "drawOrder": null, "icon": null, "REG": "Magallanes", "COM": "Laguna Blanca", "LOC": "Tehuelches", "ZONA": "ZE2", "NOM": "Zona_ZE2", "UPERM": "Equipamiento, aceptado solamente a escala regional de áreas verdes, esparcimiento y turismo.", "UPROH": "Todos los no mencionados como permitidos.", "P_DO": "27/09/1994", "N_DOC": "8", "T_DO": "Resolución", "OBS": null }, "geometry": { "type": "Polygon", "coordinates": [ [ [ -71.412652182866196, -52.428308530795 ], [ -71.411684401368007, -52.430619882454202 ], [ -71.412634275134707, -52.430187262486797 ], [ -71.413403730709405, -52.4284414082924 ], [ -71.413397154136206, -52.428425294319702 ], [ -71.412652182866196, -52.428308530795 ] ] ] } },
{ "type": "Feature", "properties": { "id": "monoparte.5", "Name": null, "description": null, "timestamp": null, "begin": null, "end": null, "altitudeMode": null, "tessellate": -1, "extrude": 0, "visibility": -1, "drawOrder": null, "icon": null, "REG": "Magallanes", "COM": "Laguna Blanca", "LOC": "Tehuelches", "ZONA": "ZE2", "NOM": "Zona_ZE2", "UPERM": "Equipamiento, aceptado solamente a escala regional de áreas verdes, esparcimiento y turismo.", "UPROH": "Todos los no mencionados como permitidos.", "P_DO": "27/09/1994", "N_DOC": "8", "T_DO": "Resolución", "OBS": null }, "geometry": { "type": "Polygon", "coordinates": [ [ [ -71.413789738087601, -52.425591397281202 ], [ -71.414536600415104, -52.425700943285399 ], [ -71.415246462915704, -52.423895775473 ], [ -71.415054235461994, -52.423490724376101 ], [ -71.414703844154602, -52.423407747422701 ], [ -71.413789738087601, -52.425591397281202 ] ] ] } },
{ "type": "Feature", "properties": { "id": "monoparte.6", "Name": null, "description": null, "timestamp": null, "begin": null, "end": null, "altitudeMode": null, "tessellate": -1, "extrude": 0, "visibility": -1, "drawOrder": null, "icon": null, "REG": "Magallanes", "COM": "Laguna Blanca", "LOC": "Tehuelches", "ZONA": "ZV", "NOM": "Zona_ZV", "UPERM": "Viviendas y equipamiento (local), comercio minorista, almacenamiento inofensivo, áreas verdes y servicios artesanales.", "UPROH": "Todos los no mencionados como permitidos.", "P_DO": "27/09/1994", "N_DOC": "8", "T_DO": "Resolución", "OBS": null }, "geometry": { "type": "Polygon", "coordinates": [ [ [ -71.413475967902897, -52.428324590192801 ], [ -71.413434619466202, -52.4284311656249 ], [ -71.413397154136206, -52.428425294319702 ], [ -71.413403730709405, -52.4284414082924 ], [ -71.413091947914893, -52.429148843590298 ], [ -71.414398447098094, -52.429336631435497 ], [ -71.415109409361406, -52.428707676593902 ], [ -71.415126878025902, -52.428710198081703 ], [ -71.415115807150698, -52.428694792913397 ], [ -71.414212121419396, -52.428559465063501 ], [ -71.414252943208893, -52.4284432881866 ], [ -71.413475967902897, -52.428324590192801 ] ] ] } },
{ "type": "Feature", "properties": { "id": "monoparte.7", "Name": null, "description": null, "timestamp": null, "begin": null, "end": null, "altitudeMode": null, "tessellate": -1, "extrude": 0, "visibility": -1, "drawOrder": null, "icon": null, "REG": "Magallanes", "COM": "Laguna Blanca", "LOC": "Tehuelches", "ZONA": "ZV", "NOM": "Zona_ZV", "UPERM": "Viviendas y equipamiento (local), comercio minorista, almacenamiento inofensivo, áreas verdes y servicios artesanales.", "UPROH": "Todos los no mencionados como permitidos.", "P_DO": "27/09/1994", "N_DOC": "8", "T_DO": "Resolución", "OBS": null }, "geometry": { "type": "Polygon", "coordinates": [ [ [ -71.415875138560097, -52.428818185064003 ], [ -71.416356532346597, -52.428887655608598 ], [ -71.416811714686105, -52.428055034240103 ], [ -71.416397351042505, -52.427976539985899 ], [ -71.416387592090103, -52.427965544036297 ], [ -71.415556502470395, -52.427839938648702 ], [ -71.415065446990297, -52.428061435309601 ], [ -71.415617324287993, -52.4283769621955 ], [ -71.416045081284594, -52.428435502060204 ], [ -71.415875138560097, -52.428818185064003 ] ] ] } },
{ "type": "Feature", "properties": { "id": "monoparte.8", "Name": null, "description": null, "timestamp": null, "begin": null, "end": null, "altitudeMode": null, "tessellate": -1, "extrude": 0, "visibility": -1, "drawOrder": null, "icon": null, "REG": "Magallanes", "COM": "Laguna Blanca", "LOC": "Tehuelches", "ZONA": "ZV", "NOM": "Zona_ZV", "UPERM": "Viviendas y equipamiento (local), comercio minorista, almacenamiento inofensivo, áreas verdes y servicios artesanales.", "UPROH": "Todos los no mencionados como permitidos.", "P_DO": "27/09/1994", "N_DOC": "8", "T_DO": "Resolución", "OBS": null }, "geometry": { "type": "Polygon", "coordinates": [ [ [ -71.415777870406998, -52.427287534518001 ], [ -71.416637034958995, -52.427402677126601 ], [ -71.416664251938698, -52.427394368297499 ], [ -71.417124840876596, -52.427482243020897 ], [ -71.417410704458504, -52.426959309967103 ], [ -71.4164437312388, -52.426812549916399 ], [ -71.415944286770497, -52.426880432050901 ], [ -71.4159396256441, -52.426881221541898 ], [ -71.415777870406998, -52.427287534518001 ] ] ] } },
{ "type": "Feature", "properties": { "id": "monoparte.9", "Name": null, "description": null, "timestamp": null, "begin": null, "end": null, "altitudeMode": null, "tessellate": -1, "extrude": 0, "visibility": -1, "drawOrder": null, "icon": null, "REG": "Magallanes", "COM": "Laguna Blanca", "LOC": "Tehuelches", "ZONA": "ZE3", "NOM": "Zona_ZE3", "UPERM": "Sin información.", "UPROH": "Sin información.", "P_DO": "27/09/1994", "N_DOC": "8", "T_DO": "Resolución", "OBS": null }, "geometry": { "type": "Polygon", "coordinates": [ [ [ -71.416637034958995, -52.427402677126601 ], [ -71.416649070995504, -52.427404290636701 ], [ -71.416396825713704, -52.427966938804197 ], [ -71.416387592090103, -52.427965544036297 ], [ -71.416397351042505, -52.427976539985899 ], [ -71.416811714686105, -52.428055034240103 ], [ -71.417124840876596, -52.427482243020897 ], [ -71.416664251938698, -52.427394368297499 ], [ -71.416637034958995, -52.427402677126601 ] ] ] } },
{ "type": "Feature", "properties": { "id": "monoparte.10", "Name": null, "description": null, "timestamp": null, "begin": null, "end": null, "altitudeMode": null, "tessellate": -1, "extrude": 0, "visibility": -1, "drawOrder": null, "icon": null, "REG": "Magallanes", "COM": "Laguna Blanca", "LOC": "Tehuelches", "ZONA": "ZE1", "NOM": "Zona_ZE1", "UPERM": "Equipamiento a escala comunal de servicios públicos, salud, educación, culto, cultura, áreas verdes y almacenamiento inofensivos.", "UPROH": "Todos los no mencionados como permitidos.", "P_DO": "27/09/1994", "N_DOC": "8", "T_DO": "Resolución", "OBS": null }, "geometry": { "type": "Polygon", "coordinates": [ [ [ -71.4159396256441, -52.426881221541898 ], [ -71.415944286770497, -52.426880432050901 ], [ -71.4164437312388, -52.426812549916399 ], [ -71.417410704458504, -52.426959309967103 ], [ -71.417794975779799, -52.426256338661098 ], [ -71.416310337285395, -52.425970425136903 ], [ -71.416307834725899, -52.425959017347999 ], [ -71.416302744340399, -52.425959971198303 ], [ -71.414541682235594, -52.425701689240199 ], [ -71.414501783945298, -52.425804539645 ], [ -71.415325308133404, -52.425912667365303 ], [ -71.415943761560797, -52.426870830864203 ], [ -71.4159396256441, -52.426881221541898 ] ] ] } }
]
}
