{
"type": "FeatureCollection",
"name": "IPT_12_PNSECC_Rio_Serrano",
"crs": { "type": "name", "properties": { "name": "urn:ogc:def:crs:OGC:1.3:CRS84" } },
"features": [
{ "type": "Feature", "properties": { "id": "monoparte.1", "Name": null, "description": null, "timestamp": null, "begin": null, "end": null, "altitudeMode": null, "tessellate": -1, "extrude": 0, "visibility": -1, "drawOrder": null, "icon": null, "REG": "Magallanes", "COM": "Torres del Paine", "LOC": "Río Serrano", "ZONA": "ZUP", "NOM": "Zonas con Uso Potencial. ZUP", "UPERM": "Ver detalle en Ordenanza", "UPROH": "Ver detalle en Ordenanza", "P_DO": "01/09/2008", "N_DOC": "80", "T_DO": "Resolución", "OBS": null }, "geometry": { "type": "Polygon", "coordinates": [ [ [ -72.992270037797297, -51.244647796017397 ], [ -72.996176418783904, -51.247087220936599 ], [ -72.996349554124706, -51.246989748778198 ], [ -72.996606174072596, -51.247105946197401 ], [ -72.997541466649906, -51.246520509502901 ], [ -72.997387139533899, -51.246162773761597 ], [ -72.997044591470697, -51.245930495646398 ], [ -72.996798098794699, -51.246040094391702 ], [ -72.996342292472093, -51.245704568167 ], [ -72.995957817787101, -51.245426112841102 ], [ -72.996008027699304, -51.245239913687797 ], [ -72.995632314542206, -51.245062325646998 ], [ -72.995407304249596, -51.245200941426603 ], [ -72.995157906565595, -51.245167810020497 ], [ -72.994976558133104, -51.245263274226602 ], [ -72.994681765976196, -51.245362616662 ], [ -72.994140524805005, -51.2452442416661 ], [ -72.993694147120394, -51.245235691400303 ], [ -72.993485327444603, -51.245123805848102 ], [ -72.992781705249399, -51.244772930819302 ], [ -72.9923939812019, -51.2445659875955 ], [ -72.992270037797297, -51.244647796017397 ] ] ] } },
{ "type": "Feature", "properties": { "id": "monoparte.2", "Name": null, "description": null, "timestamp": null, "begin": null, "end": null, "altitudeMode": null, "tessellate": -1, "extrude": 0, "visibility": -1, "drawOrder": null, "icon": null, "REG": "Magallanes", "COM": "Torres del Paine", "LOC": "Río Serrano", "ZONA": "ZUP", "NOM": "Zonas con Uso Potencial. ZUP", "UPERM": "Ver detalle en Ordenanza", "UPROH": "Ver detalle en Ordenanza", "P_DO": "01/09/2008", "N_DOC": "80", "T_DO": "Resolución", "OBS": null }, "geometry": { "type": "Polygon", "coordinates": [ [ [ -73.002958196251001, -51.247515428792703 ], [ -73.004281628333899, -51.2474111232669 ], [ -73.006807619122199, -51.247199652844998 ], [ -73.006793927692399, -51.247130840843603 ], [ -73.006578952196506, -51.2467525819767 ], [ -73.0045400336206, -51.246858168812103 ], [ -73.003929508205701, -51.247164738442798 ], [ -73.0036118587185, -51.247175620499597 ], [ -73.002958196251001, -51.247515428792703 ] ] ] } },
{ "type": "Feature", "properties": { "id": "monoparte.3", "Name": null, "description": null, "timestamp": null, "begin": null, "end": null, "altitudeMode": null, "tessellate": -1, "extrude": 0, "visibility": -1, "drawOrder": null, "icon": null, "REG": "Magallanes", "COM": "Torres del Paine", "LOC": "Río Serrano", "ZONA": "ZUP", "NOM": "Zonas con Uso Potencial. ZUP", "UPERM": "Ver detalle en Ordenanza", "UPROH": "Ver detalle en Ordenanza", "P_DO": "01/09/2008", "N_DOC": "80", "T_DO": "Resolución", "OBS": null }, "geometry": { "type": "Polygon", "coordinates": [ [ [ -72.997485574223504, -51.247938769207003 ], [ -72.999029161179493, -51.247820313049701 ], [ -73.000183496538398, -51.2471359056753 ], [ -72.999297780404206, -51.247287619860003 ], [ -72.998592337397795, -51.247418877080698 ], [ -72.998138950628203, -51.247570072545798 ], [ -72.997485574223504, -51.247938769207003 ] ] ] } },
{ "type": "Feature", "properties": { "id": "monoparte.4", "Name": null, "description": null, "timestamp": null, "begin": null, "end": null, "altitudeMode": null, "tessellate": -1, "extrude": 0, "visibility": -1, "drawOrder": null, "icon": null, "REG": "Magallanes", "COM": "Torres del Paine", "LOC": "Río Serrano", "ZONA": "ZUP", "NOM": "Zonas con Uso Potencial. ZUP", "UPERM": "Ver detalle en Ordenanza", "UPROH": "Ver detalle en Ordenanza", "P_DO": "01/09/2008", "N_DOC": "80", "T_DO": "Resolución", "OBS": null }, "geometry": { "type": "Polygon", "coordinates": [ [ [ -72.979461866075894, -51.245303344678298 ], [ -72.979556550372095, -51.245421636195502 ], [ -72.979697072403994, -51.246038139226002 ], [ -72.980092955311804, -51.247875428935799 ], [ -72.981245541964597, -51.249800013701901 ], [ -72.984837295633398, -51.249118211133698 ], [ -72.985465736406496, -51.248625147266701 ], [ -72.984362581632496, -51.2479597660042 ], [ -72.984091489554601, -51.248004713269097 ], [ -72.983523329527998, -51.2476848706645 ], [ -72.983196752659694, -51.2476364908824 ], [ -72.982757152815196, -51.247377724886199 ], [ -72.982744106192101, -51.247336512380997 ], [ -72.982868763535507, -51.247242998692101 ], [ -72.982736106188, -51.247134449088101 ], [ -72.982041203039202, -51.247431875747601 ], [ -72.981728701423904, -51.247436571317202 ], [ -72.982043337968605, -51.247675795071899 ], [ -72.982795525973302, -51.248150051540399 ], [ -72.982614139501493, -51.248245498236599 ], [ -72.981427707169004, -51.247464678729699 ], [ -72.981519387665998, -51.247318730926899 ], [ -72.981416122285694, -51.247221081353402 ], [ -72.981168044337394, -51.247312846321599 ], [ -72.980832236694596, -51.247157655562198 ], [ -72.980737619692704, -51.246940690086802 ], [ -72.980576970711596, -51.246398666494699 ], [ -72.980507566376801, -51.245924947332 ], [ -72.980535854031004, -51.2457037956734 ], [ -72.980448423882095, -51.245569900278497 ], [ -72.980053271670897, -51.245166785215197 ], [ -72.979764239367995, -51.245004048144096 ], [ -72.979461866075894, -51.245303344678298 ] ] ] } },
{ "type": "Feature", "properties": { "id": "monoparte.5", "Name": null, "description": null, "timestamp": null, "begin": null, "end": null, "altitudeMode": null, "tessellate": -1, "extrude": 0, "visibility": -1, "drawOrder": null, "icon": null, "REG": "Magallanes", "COM": "Torres del Paine", "LOC": "Río Serrano", "ZONA": "ZUP", "NOM": "Zonas con Uso Potencial. ZUP", "UPERM": "Ver detalle en Ordenanza", "UPROH": "Ver detalle en Ordenanza", "P_DO": "01/09/2008", "N_DOC": "80", "T_DO": "Resolución", "OBS": null }, "geometry": { "type": "Polygon", "coordinates": [ [ [ -72.985766927734403, -51.248388833384901 ], [ -72.986320109199895, -51.247954799834801 ], [ -72.9863831260502, -51.246531187476599 ], [ -72.985961430396898, -51.246764234769799 ], [ -72.986118777222202, -51.246873128097697 ], [ -72.985608129176399, -51.247283312783303 ], [ -72.985693707305202, -51.247351806716097 ], [ -72.985508241458106, -51.247443826307503 ], [ -72.984754770037199, -51.247940840507503 ], [ -72.984946769258102, -51.248055695639003 ], [ -72.985119661555203, -51.2479498232507 ], [ -72.985744745685096, -51.2483355584869 ], [ -72.985766927734403, -51.248388833384901 ] ] ] } },
{ "type": "Feature", "properties": { "id": "monoparte.6", "Name": null, "description": null, "timestamp": null, "begin": null, "end": null, "altitudeMode": null, "tessellate": -1, "extrude": 0, "visibility": -1, "drawOrder": null, "icon": null, "REG": "Magallanes", "COM": "Torres del Paine", "LOC": "Río Serrano", "ZONA": "ZUP", "NOM": "Zonas con Uso Potencial. ZUP", "UPERM": "Ver detalle en Ordenanza", "UPROH": "Ver detalle en Ordenanza", "P_DO": "01/09/2008", "N_DOC": "80", "T_DO": "Resolución", "OBS": null }, "geometry": { "type": "Polygon", "coordinates": [ [ [ -72.972674257778394, -51.239756756629703 ], [ -72.972712133616099, -51.239538263666802 ], [ -72.972851470049093, -51.239219312610302 ], [ -72.973083627756594, -51.239097160751598 ], [ -72.973218807309706, -51.238378441405899 ], [ -72.973011052603496, -51.2377285115398 ], [ -72.972913702417699, -51.2373033470788 ], [ -72.9729946150551, -51.237186336863601 ], [ -72.973308551922898, -51.237308966728499 ], [ -72.973609824863402, -51.2374605912417 ], [ -72.973973232048195, -51.2376291448046 ], [ -72.974120814132704, -51.237757429287498 ], [ -72.974335447267194, -51.237959606667701 ], [ -72.974440561364702, -51.238298811406999 ], [ -72.974599619934295, -51.2385600081045 ], [ -72.974620924425906, -51.238806846152897 ], [ -72.974734237288999, -51.239240987784299 ], [ -72.9749133785905, -51.2397347812311 ], [ -72.975200367259902, -51.239896409926601 ], [ -72.975407676427295, -51.240189289463899 ], [ -72.975725409301901, -51.240706933080602 ], [ -72.976124058992298, -51.2411075624942 ], [ -72.976067930961804, -51.241376516444298 ], [ -72.977162906660794, -51.242408581206199 ], [ -72.977282611134996, -51.242916295895398 ], [ -72.977721531703807, -51.244704520482202 ], [ -72.978865646572402, -51.244558455956401 ], [ -72.978894309029201, -51.2445942654333 ], [ -72.979089363783601, -51.2443555525346 ], [ -72.978098224928999, -51.243682311065001 ], [ -72.977825621319994, -51.243555906099701 ], [ -72.977830126825594, -51.243212973112897 ], [ -72.978182947632604, -51.242951020503902 ], [ -72.9783901390187, -51.242715447517199 ], [ -72.978756758513001, -51.242481588251302 ], [ -72.979093996315001, -51.242434400955297 ], [ -72.979673761374599, -51.242428942415202 ], [ -72.979663997544606, -51.242579241128801 ], [ -72.979390862471206, -51.2427099430111 ], [ -72.979124763028693, -51.242790415651598 ], [ -72.978898500484902, -51.242805259920203 ], [ -72.9786728516507, -51.2428272245306 ], [ -72.978647164660302, -51.243056619125497 ], [ -72.979562233468897, -51.243639609802798 ], [ -72.979806879705393, -51.24357414923 ], [ -72.979980998959405, -51.243482525030103 ], [ -72.980160657088902, -51.243454982529499 ], [ -72.980639043411699, -51.243724339490903 ], [ -72.981048754667597, -51.243988892230703 ], [ -72.981201508104107, -51.244176502406503 ], [ -72.9812435440885, -51.244267906872103 ], [ -72.981508771984807, -51.244308859619103 ], [ -72.982190400171305, -51.244428461623698 ], [ -72.982701249448596, -51.244546737016101 ], [ -72.982799396455704, -51.244629088017703 ], [ -72.982844977283406, -51.2451559867527 ], [ -72.982828446648298, -51.245227962418099 ], [ -72.982464292535795, -51.245490315327899 ], [ -72.982523836844905, -51.245652535069503 ], [ -72.983834005131499, -51.245672152942802 ], [ -72.9838696330809, -51.245820904830502 ], [ -72.985043169744401, -51.246102251929997 ], [ -72.986400906835399, -51.2461294885805 ], [ -72.986427879855995, -51.245520123345301 ], [ -72.984342432327693, -51.244978280798797 ], [ -72.984650855208798, -51.243831116638297 ], [ -72.985320104495301, -51.243457185397901 ], [ -72.985656827939394, -51.243404045265201 ], [ -72.989215342295395, -51.2427827447029 ], [ -72.990889666958594, -51.243847500356203 ], [ -72.991724779619403, -51.2437443516435 ], [ -72.991559638621496, -51.243589313675699 ], [ -72.991361314253496, -51.2434889688301 ], [ -72.991491796645207, -51.243353588497499 ], [ -72.991967737306496, -51.243265919893801 ], [ -72.992484062221294, -51.243206625004397 ], [ -72.993179995447093, -51.2431411910527 ], [ -72.993585641356105, -51.243008308948603 ], [ -72.993843124046293, -51.242916195547501 ], [ -72.994430246367401, -51.2429080316995 ], [ -72.994973706557502, -51.242943014687903 ], [ -72.995477110391803, -51.243062680024401 ], [ -72.995956461161498, -51.243123655010699 ], [ -72.996367064806705, -51.243157222689902 ], [ -72.997032087070806, -51.242713938681902 ], [ -72.996938769042103, -51.242621912850097 ], [ -72.997202270601505, -51.2423808094279 ], [ -72.997120465455694, -51.242312194769902 ], [ -72.998909696193607, -51.241298815137299 ], [ -72.998655166372799, -51.241206355451503 ], [ -72.998238910185606, -51.241107527292797 ], [ -72.9978326240809, -51.241014307133298 ], [ -72.996590716813401, -51.241015127313801 ], [ -72.996410417372502, -51.241122460997403 ], [ -72.996223091885597, -51.241039600750099 ], [ -72.996041246735402, -51.241129134232402 ], [ -72.996626583984906, -51.241537594657899 ], [ -72.996280767537201, -51.2417041476034 ], [ -72.996439039902697, -51.241889169230703 ], [ -72.995454499014599, -51.242452477218301 ], [ -72.995979526399395, -51.2428213455687 ], [ -72.995809185847406, -51.242934289106998 ], [ -72.994681971166102, -51.242181332700497 ], [ -72.994775658647995, -51.242059109953502 ], [ -72.994837710544004, -51.242009380187802 ], [ -72.994343119343796, -51.241663270518501 ], [ -72.994436806685101, -51.241541047141297 ], [ -72.994315136159003, -51.241449989262399 ], [ -72.994660117794794, -51.241164448593999 ], [ -72.994308683182695, -51.240938419038102 ], [ -72.993481934181702, -51.241353491186103 ], [ -72.993289277452604, -51.241318417117 ], [ -72.993134238886697, -51.241389176647097 ], [ -72.992930070676806, -51.2413306905353 ], [ -72.992159184548299, -51.241624824139897 ], [ -72.9916574739905, -51.241743129223501 ], [ -72.991335559976093, -51.241748173406897 ], [ -72.990809797483294, -51.241807785677103 ], [ -72.990012547930505, -51.241579112081098 ], [ -72.989919876862402, -51.241713198992301 ], [ -72.989764003832903, -51.241664961361302 ], [ -72.989691664285402, -51.2415960184887 ], [ -72.989373450009893, -51.241589028133703 ], [ -72.989019692938001, -51.241773683620401 ], [ -72.988114266336297, -51.2418283896654 ], [ -72.9878576983822, -51.241712172350503 ], [ -72.9876098658589, -51.241696825013101 ], [ -72.987225787389704, -51.241531397931404 ], [ -72.986649878946395, -51.241449877427499 ], [ -72.985221766285306, -51.2415997529626 ], [ -72.984743774383404, -51.241663660213099 ], [ -72.984175447658302, -51.241998441303402 ], [ -72.983862382368898, -51.2417770232706 ], [ -72.983047799405199, -51.241566746667502 ], [ -72.982706146547798, -51.2415335590618 ], [ -72.9817671658585, -51.2409371252051 ], [ -72.981582971492998, -51.240824379878703 ], [ -72.981715982539598, -51.240696066243601 ], [ -72.981035231323503, -51.240278881072797 ], [ -72.980476684294501, -51.240397883720597 ], [ -72.980152566977196, -51.240201826556898 ], [ -72.979916204480901, -51.240231300296699 ], [ -72.979701564629494, -51.240117208343499 ], [ -72.979505652361993, -51.240088173050196 ], [ -72.979407869979099, -51.240141491712698 ], [ -72.979218379352602, -51.240055107448399 ], [ -72.979028274205803, -51.239961603028902 ], [ -72.978875006659294, -51.240031092819699 ], [ -72.978629416001397, -51.239953759276503 ], [ -72.978455306902305, -51.240045381271102 ], [ -72.978296771572204, -51.2399222360458 ], [ -72.977789946098198, -51.239718109502597 ], [ -72.977353105765701, -51.239674418935003 ], [ -72.977117814496694, -51.239694328325101 ], [ -72.976959452788606, -51.239836591458499 ], [ -72.976339057585406, -51.239458982650902 ], [ -72.976008678805698, -51.239255985618897 ], [ -72.975520913390795, -51.238986930403499 ], [ -72.975268256513502, -51.2390252801125 ], [ -72.975116736621899, -51.238917363886003 ], [ -72.975188259441595, -51.238867323521603 ], [ -72.975092663556694, -51.238638484346602 ], [ -72.975130194204496, -51.238524138499002 ], [ -72.975332513028206, -51.238451794818502 ], [ -72.976246707638893, -51.238938433575797 ], [ -72.976467420184804, -51.238859511604801 ], [ -72.976698148667495, -51.239006387908098 ], [ -72.977042595105303, -51.239262463235697 ], [ -72.977355326556605, -51.239370840156703 ], [ -72.977576037688493, -51.239291916140701 ], [ -72.977714523449606, -51.239358614913101 ], [ -72.977924244536894, -51.239262211900602 ], [ -72.977753300523005, -51.239149009683302 ], [ -72.978467753771, -51.238749774158798 ], [ -72.978505974931196, -51.238562792961197 ], [ -72.977910627242494, -51.238000600426197 ], [ -72.977370344033801, -51.238070227408002 ], [ -72.976961331880702, -51.238054391774398 ], [ -72.976659882647695, -51.2380765517021 ], [ -72.976457514859305, -51.237928710369403 ], [ -72.976319777046001, -51.237760817300597 ], [ -72.976551190359103, -51.237586314066903 ], [ -72.976325822496307, -51.2373916475863 ], [ -72.975052154669697, -51.236583980162798 ], [ -72.975139504799003, -51.236497693952998 ], [ -72.975117248392294, -51.236349675151303 ], [ -72.975164229965799, -51.236235007772102 ], [ -72.975107239379099, -51.236123877025399 ], [ -72.975106961101005, -51.236010816298702 ], [ -72.975274767279501, -51.2358682351746 ], [ -72.975265268411505, -51.235648370186098 ], [ -72.975149293589595, -51.235397913079197 ], [ -72.974806459845595, -51.235604465976401 ], [ -72.974295036642303, -51.2356099568565 ], [ -72.973876082501107, -51.235588498291001 ], [ -72.973655855362395, -51.235453162387202 ], [ -72.973441772420202, -51.235389028479297 ], [ -72.973049130162806, -51.235342867676003 ], [ -72.972861867388403, -51.235259969422799 ], [ -72.972494271495506, -51.2352843674824 ], [ -72.972148408072698, -51.235450850060502 ], [ -72.971899349254002, -51.235530727413902 ], [ -72.9716870453193, -51.2353772653058 ], [ -72.971214210575198, -51.2355004527058 ], [ -72.970587084208006, -51.2357780214722 ], [ -72.968482400678894, -51.237739441655897 ], [ -72.968633657005896, -51.237830593498103 ], [ -72.969076912327907, -51.238023825112897 ], [ -72.972674257778394, -51.239756756629703 ] ] ] } },
{ "type": "Feature", "properties": { "id": "monoparte.7", "Name": null, "description": null, "timestamp": null, "begin": null, "end": null, "altitudeMode": null, "tessellate": -1, "extrude": 0, "visibility": -1, "drawOrder": null, "icon": null, "REG": "Magallanes", "COM": "Torres del Paine", "LOC": "Río Serrano", "ZONA": "ZUP", "NOM": "Zonas con Uso Potencial. ZUP", "UPERM": "Ver detalle en Ordenanza", "UPROH": "Ver detalle en Ordenanza", "P_DO": "01/09/2008", "N_DOC": "80", "T_DO": "Resolución", "OBS": null }, "geometry": { "type": "Polygon", "coordinates": [ [ [ -72.988688994121205, -51.2386329511925 ], [ -72.989424479009699, -51.2388934969578 ], [ -72.990409359001305, -51.239231217723002 ], [ -72.991198776495096, -51.239413737305597 ], [ -72.992142217705094, -51.239448164264097 ], [ -72.992330032535506, -51.239443594453903 ], [ -72.992335963583599, -51.2394477796039 ], [ -72.992459377186606, -51.239375573351502 ], [ -72.993188638347505, -51.239257821409097 ], [ -72.993830239346096, -51.239178765601501 ], [ -72.994123025445006, -51.2391395096152 ], [ -72.994118591469999, -51.239137086255703 ], [ -72.994456767275807, -51.2390262942383 ], [ -72.994943794003206, -51.238695431111402 ], [ -72.995281752047205, -51.238569616617802 ], [ -72.995921882886506, -51.238604860471398 ], [ -72.996247184669301, -51.238508041839097 ], [ -72.996539421803902, -51.238352660637602 ], [ -72.995944335554995, -51.238123604408599 ], [ -72.995752209993995, -51.237482698121802 ], [ -72.995759243982803, -51.237301545062799 ], [ -72.995996459491295, -51.235665222543503 ], [ -72.995591203980794, -51.234403171643599 ], [ -72.993602620234597, -51.233771301645 ], [ -72.992840027105203, -51.233787838907702 ], [ -72.989599263322205, -51.233910425540799 ], [ -72.988435534485504, -51.2345928636338 ], [ -72.987857355612604, -51.234922050003902 ], [ -72.986498784105606, -51.235872961881903 ], [ -72.986187612083796, -51.235921699644202 ], [ -72.986228313303201, -51.235965146181101 ], [ -72.9859522379449, -51.236297998497598 ], [ -72.986411181243597, -51.236606080954701 ], [ -72.986814482565606, -51.2369544476581 ], [ -72.987539581426006, -51.237796182035403 ], [ -72.988145188888893, -51.238308730655298 ], [ -72.988688994121205, -51.2386329511925 ] ] ] } },
{ "type": "Feature", "properties": { "id": "monoparte.8", "Name": null, "description": null, "timestamp": null, "begin": null, "end": null, "altitudeMode": null, "tessellate": -1, "extrude": 0, "visibility": -1, "drawOrder": null, "icon": null, "REG": "Magallanes", "COM": "Torres del Paine", "LOC": "Río Serrano", "ZONA": "ZUP", "NOM": "Zonas con Uso Potencial. ZUP", "UPERM": "Ver detalle en Ordenanza", "UPROH": "Ver detalle en Ordenanza", "P_DO": "01/09/2008", "N_DOC": "80", "T_DO": "Resolución", "OBS": null }, "geometry": { "type": "Polygon", "coordinates": [ [ [ -72.974343252355496, -51.230390823442796 ], [ -72.974829656755404, -51.230755146744698 ], [ -72.974957082671295, -51.230584183193201 ], [ -72.976061716158696, -51.231302385398998 ], [ -72.976170005266198, -51.231239190486797 ], [ -72.976320988963394, -51.2313411710888 ], [ -72.976644088280693, -51.231240911061803 ], [ -72.9781302247615, -51.232315075617898 ], [ -72.979941828245799, -51.232437873762301 ], [ -72.980302577920298, -51.232663628764797 ], [ -72.980686368094695, -51.232717207287799 ], [ -72.981935431825306, -51.233481614012902 ], [ -72.982058696895905, -51.233591674485098 ], [ -72.982126840528196, -51.233853578703098 ], [ -72.982480564821998, -51.234105488281998 ], [ -72.982558243076895, -51.233397190421798 ], [ -72.981970224085998, -51.232560278046897 ], [ -72.980630605812905, -51.231625186335201 ], [ -72.980422074871797, -51.231318074167497 ], [ -72.980412007526397, -51.230499554094798 ], [ -72.980447770010002, -51.229860383939801 ], [ -72.980526190111604, -51.2297148879818 ], [ -72.980728745846093, -51.229250947978798 ], [ -72.980049736600407, -51.228588515924301 ], [ -72.979629180545601, -51.228460014320298 ], [ -72.978994478549495, -51.228310237338299 ], [ -72.978467264151504, -51.228175841975798 ], [ -72.977707962459803, -51.228163603449502 ], [ -72.976947453440999, -51.228225194849799 ], [ -72.975377152827207, -51.228699959015302 ], [ -72.974865421283297, -51.229360078869 ], [ -72.974487480802395, -51.2298133101473 ], [ -72.974282717105297, -51.230296357151502 ], [ -72.974261040961494, -51.230350373506703 ], [ -72.974343252355496, -51.230390823442796 ] ] ] } },
{ "type": "Feature", "properties": { "id": "monoparte.9", "Name": null, "description": null, "timestamp": null, "begin": null, "end": null, "altitudeMode": null, "tessellate": -1, "extrude": 0, "visibility": -1, "drawOrder": null, "icon": null, "REG": "Magallanes", "COM": "Torres del Paine", "LOC": "Río Serrano", "ZONA": "ZUP", "NOM": "Zonas con Uso Potencial. ZUP", "UPERM": "Ver detalle en Ordenanza", "UPROH": "Ver detalle en Ordenanza", "P_DO": "01/09/2008", "N_DOC": "80", "T_DO": "Resolución", "OBS": null }, "geometry": { "type": "Polygon", "coordinates": [ [ [ -72.972674257778394, -51.239756756629703 ], [ -72.974131347238696, -51.240458604083003 ], [ -72.9760172740896, -51.241328768187699 ], [ -72.976067930961804, -51.241376516444298 ], [ -72.976124058992298, -51.2411075624942 ], [ -72.975725409301901, -51.240706933080602 ], [ -72.975407676427295, -51.240189289463899 ], [ -72.975200367259902, -51.239896409926601 ], [ -72.9749133785905, -51.2397347812311 ], [ -72.974734237288999, -51.239240987784299 ], [ -72.974620924425906, -51.238806846152897 ], [ -72.974599619934295, -51.2385600081045 ], [ -72.974440561364702, -51.238298811406999 ], [ -72.974335447267194, -51.237959606667701 ], [ -72.974120814132704, -51.237757429287498 ], [ -72.973973232048195, -51.2376291448046 ], [ -72.973609824863402, -51.2374605912417 ], [ -72.973308551922898, -51.237308966728499 ], [ -72.9729946150551, -51.237186336863601 ], [ -72.972913702417699, -51.2373033470788 ], [ -72.973011052603496, -51.2377285115398 ], [ -72.973218807309706, -51.238378441405899 ], [ -72.973083627756594, -51.239097160751598 ], [ -72.972851470049093, -51.239219312610302 ], [ -72.972712133616099, -51.239538263666802 ], [ -72.972674257778394, -51.239756756629703 ] ] ] } },
{ "type": "Feature", "properties": { "id": "monoparte.10", "Name": null, "description": null, "timestamp": null, "begin": null, "end": null, "altitudeMode": null, "tessellate": -1, "extrude": 0, "visibility": -1, "drawOrder": null, "icon": null, "REG": "Magallanes", "COM": "Torres del Paine", "LOC": "Río Serrano", "ZONA": "ZU1", "NOM": "Macrolote N°1 Estancia del Puerto. ZU1", "UPERM": "Hoteles o residenciales", "UPROH": "Residencial", "P_DO": "01/09/2008", "N_DOC": "80", "T_DO": "Resolución", "OBS": null }, "geometry": { "type": "Polygon", "coordinates": [ [ [ -72.975148271703603, -51.231968554891999 ], [ -72.975410179485294, -51.233597369869202 ], [ -72.974249924683804, -51.234036743294403 ], [ -72.974150620304002, -51.234116293752898 ], [ -72.973810362728102, -51.235270462655201 ], [ -72.973817172009802, -51.2352820790165 ], [ -72.974967891549696, -51.235326312237397 ], [ -72.976230993770997, -51.235902249673899 ], [ -72.975658484293803, -51.236473983878597 ], [ -72.976594283733604, -51.2372990934537 ], [ -72.977899267266395, -51.236778597865303 ], [ -72.979981131625095, -51.235945982534702 ], [ -72.981146299598194, -51.235563514581401 ], [ -72.982973270905504, -51.236520079623503 ], [ -72.983995409202706, -51.236237674947297 ], [ -72.9821875294314, -51.234975781228002 ], [ -72.979821546192795, -51.232695007861203 ], [ -72.9787393288332, -51.232808032640399 ], [ -72.977504611227005, -51.232735804873698 ], [ -72.976958949127706, -51.2325639429219 ], [ -72.976445172831703, -51.232410036150597 ], [ -72.975608851334897, -51.231857670652502 ], [ -72.975148271703603, -51.231968554891999 ] ] ] } },
{ "type": "Feature", "properties": { "id": "monoparte.11", "Name": null, "description": null, "timestamp": null, "begin": null, "end": null, "altitudeMode": null, "tessellate": -1, "extrude": 0, "visibility": -1, "drawOrder": null, "icon": null, "REG": "Magallanes", "COM": "Torres del Paine", "LOC": "Río Serrano", "ZONA": "ZUE", "NOM": "Macrolote N°2 Estancia del Encuentro. ZUE", "UPERM": "Equipamiento y servicios del conjunto de Estancias, incluyendo: Infraestructura de transporte, sanitaria, energética, espacios públicos, áreas verdes / arbolización", "UPROH": "Vivienda", "P_DO": "01/09/2008", "N_DOC": "80", "T_DO": "Resolución", "OBS": null }, "geometry": { "type": "Polygon", "coordinates": [ [ [ -72.981058463528598, -51.235968638211403 ], [ -72.9769964638012, -51.237582800196797 ], [ -72.977278981578294, -51.237868356835598 ], [ -72.977798925097403, -51.237917312416997 ], [ -72.978888955170902, -51.238946630322197 ], [ -72.978285275245099, -51.239157615076401 ], [ -72.978703569188497, -51.239609936720001 ], [ -72.9794880285326, -51.239735573155698 ], [ -72.979716177150607, -51.2399182371922 ], [ -72.980964804134302, -51.239447236439403 ], [ -72.981807550996507, -51.240246909735099 ], [ -72.981800800579407, -51.240260007895699 ], [ -72.982087524698002, -51.240151675503199 ], [ -72.985018714637206, -51.238966291547499 ], [ -72.987368652919301, -51.238076794020998 ], [ -72.987363720862803, -51.238019832340697 ], [ -72.985674045889098, -51.236373090812599 ], [ -72.984663268454995, -51.236436124564399 ], [ -72.9828568448944, -51.236945222752702 ], [ -72.981058463528598, -51.235968638211403 ] ] ] } },
{ "type": "Feature", "properties": { "id": "monoparte.12", "Name": null, "description": null, "timestamp": null, "begin": null, "end": null, "altitudeMode": null, "tessellate": -1, "extrude": 0, "visibility": -1, "drawOrder": null, "icon": null, "REG": "Magallanes", "COM": "Torres del Paine", "LOC": "Río Serrano", "ZONA": "ZU2", "NOM": "Macrolote N°4 Estancia de La Pampa. ZU2", "UPERM": "Hoteles o residenciales", "UPROH": "Residencial", "P_DO": "01/09/2008", "N_DOC": "80", "T_DO": "Resolución", "OBS": null }, "geometry": { "type": "Polygon", "coordinates": [ [ [ -72.982242827281297, -51.240927953565603 ], [ -72.982749169338604, -51.2413891629445 ], [ -72.983926536883104, -51.241584694545303 ], [ -72.983939235563795, -51.241594743866898 ], [ -72.984137094451697, -51.241572517972401 ], [ -72.987095159508698, -51.241178844620499 ], [ -72.989146597335406, -51.241351641892201 ], [ -72.990278851324106, -51.241420107105398 ], [ -72.990867003014699, -51.241642826374701 ], [ -72.992552698705396, -51.241271033699398 ], [ -72.992884197658398, -51.240895503731402 ], [ -72.992970850128202, -51.240714011307801 ], [ -72.990871767150594, -51.239728805083303 ], [ -72.990012913103499, -51.239348936505898 ], [ -72.987794361748797, -51.238296342702498 ], [ -72.985063933907796, -51.2393464098487 ], [ -72.982547670170007, -51.2403748309573 ], [ -72.982306739573104, -51.2404830183442 ], [ -72.982606074599801, -51.240787033152898 ], [ -72.982242827281297, -51.240927953565603 ] ] ] } },
{ "type": "Feature", "properties": { "id": "monoparte.13", "Name": null, "description": null, "timestamp": null, "begin": null, "end": null, "altitudeMode": null, "tessellate": -1, "extrude": 0, "visibility": -1, "drawOrder": null, "icon": null, "REG": "Magallanes", "COM": "Torres del Paine", "LOC": "Río Serrano", "ZONA": "ZU3", "NOM": "Macrolote N°3 Estancia de Los Bosques. ZU3", "UPERM": "Hoteles o residenciales", "UPROH": "Residencial", "P_DO": "01/09/2008", "N_DOC": "80", "T_DO": "Resolución", "OBS": null }, "geometry": { "type": "Polygon", "coordinates": [ [ [ -72.980964403810802, -51.2462523298246 ], [ -72.981274424618803, -51.247205837350897 ], [ -72.981274393948794, -51.247206825347099 ], [ -72.982341108516906, -51.247040952899901 ], [ -72.982770007847193, -51.246869230656401 ], [ -72.984163036874904, -51.247714406348102 ], [ -72.985173496955497, -51.247294329093002 ], [ -72.985201251069199, -51.2469577433152 ], [ -72.985710785449001, -51.246797543004398 ], [ -72.985741250770801, -51.246360887257303 ], [ -72.983681226314403, -51.245959800820998 ], [ -72.9825230991339, -51.245856446289402 ], [ -72.981072282662495, -51.244341943070999 ], [ -72.980316173977201, -51.244282001947603 ], [ -72.979981565523303, -51.243964900040197 ], [ -72.979130136396094, -51.243986751322602 ], [ -72.980688782993994, -51.245433333653899 ], [ -72.980964403810802, -51.2462523298246 ] ] ] } },
{ "type": "Feature", "properties": { "id": "monoparte.14", "Name": null, "description": null, "timestamp": null, "begin": null, "end": null, "altitudeMode": null, "tessellate": -1, "extrude": 0, "visibility": -1, "drawOrder": null, "icon": null, "REG": "Magallanes", "COM": "Torres del Paine", "LOC": "Río Serrano", "ZONA": "ZU4", "NOM": "Macrolote N°5 Estancia de Los Ríos. ZU4", "UPERM": "Hoteles o residenciales", "UPROH": "Residencial", "P_DO": "01/09/2008", "N_DOC": "80", "T_DO": "Resolución", "OBS": null }, "geometry": { "type": "Polygon", "coordinates": [ [ [ -72.995722213753396, -51.243767325609497 ], [ -72.996443818841996, -51.244478202738698 ], [ -72.996459971480903, -51.244481631494601 ], [ -72.996859222987894, -51.244414008519399 ], [ -72.997421480623501, -51.244337648164802 ], [ -72.998344888718094, -51.244227505622902 ], [ -72.998959319732705, -51.244227906255396 ], [ -72.999597057143504, -51.244234648651201 ], [ -73.0005850311437, -51.242772576073101 ], [ -73.000200175894605, -51.242664348684201 ], [ -72.999640838865005, -51.242512101407897 ], [ -72.9977317527769, -51.2434557994656 ], [ -72.995785951653005, -51.243715158048701 ], [ -72.995722213753396, -51.243767325609497 ] ] ] } },
{ "type": "Feature", "properties": { "id": "monoparte.15", "Name": null, "description": null, "timestamp": null, "begin": null, "end": null, "altitudeMode": null, "tessellate": -1, "extrude": 0, "visibility": -1, "drawOrder": null, "icon": null, "REG": "Magallanes", "COM": "Torres del Paine", "LOC": "Río Serrano", "ZONA": "ZU5", "NOM": "Macrolote N°5 Estancia de Los Ríos. ZU5", "UPERM": "Hoteles o residenciales", "UPROH": "Residencial", "P_DO": "01/09/2008", "N_DOC": "80", "T_DO": "Resolución", "OBS": null }, "geometry": { "type": "Polygon", "coordinates": [ [ [ -72.999608482789199, -51.246146714590097 ], [ -72.999794439632794, -51.246193243096002 ], [ -73.001557407308098, -51.2464066063134 ], [ -73.006080973926103, -51.245216147549002 ], [ -73.007562179902706, -51.246878496869599 ], [ -73.009596124814493, -51.246166795680502 ], [ -73.010094344004301, -51.246661494225599 ], [ -73.011541938820002, -51.246516597801602 ], [ -73.011526428199204, -51.246338597613097 ], [ -73.013296462541305, -51.246194512165502 ], [ -73.012955048364503, -51.244670855601001 ], [ -73.010198433665295, -51.2443661396197 ], [ -73.010169160540599, -51.2443661904233 ], [ -73.009677752362805, -51.2443118626312 ], [ -73.009669704093099, -51.244307686201402 ], [ -73.008436268854993, -51.244171313657702 ], [ -73.007902444454402, -51.2443562516032 ], [ -73.007377104219202, -51.243767257410802 ], [ -73.005333219659704, -51.244468137833699 ], [ -73.005021748580006, -51.244157454414299 ], [ -73.000134561202103, -51.244872332003403 ], [ -73.000328437405798, -51.245139444598898 ], [ -72.999587309917004, -51.246134382926002 ], [ -72.999593050387006, -51.246137725840399 ], [ -72.999608482789199, -51.246146714590097 ] ] ] } },
{ "type": "Feature", "properties": { "id": "monoparte.16", "Name": null, "description": null, "timestamp": null, "begin": null, "end": null, "altitudeMode": null, "tessellate": -1, "extrude": 0, "visibility": -1, "drawOrder": null, "icon": null, "REG": "Magallanes", "COM": "Torres del Paine", "LOC": "Río Serrano", "ZONA": "ZRPro", "NOM": "Zona de Protección. ZRPo", "UPERM": "Construcción de senderos", "UPROH": null, "P_DO": "01/09/2008", "N_DOC": "80", "T_DO": "Resolución", "OBS": null }, "geometry": { "type": "Polygon", "coordinates": [ [ [ -72.9738793529107, -51.231509802107396 ], [ -72.973819727390705, -51.232356876419999 ], [ -72.974015525162699, -51.233088146077499 ], [ -72.973935897441905, -51.2334836216057 ], [ -72.973866980189698, -51.233783516843303 ], [ -72.973506325392506, -51.233998115089904 ], [ -72.973011296978001, -51.2341934768492 ], [ -72.972273051486496, -51.234206671113398 ], [ -72.968482400678894, -51.237739441655897 ], [ -72.968633657005896, -51.237830593498103 ], [ -72.969076912327907, -51.238023825112897 ], [ -72.974131347238696, -51.240458604083003 ], [ -72.9760172740896, -51.241328768187699 ], [ -72.977162906660794, -51.242408581206199 ], [ -72.977282611134996, -51.242916295895398 ], [ -72.977721531703807, -51.244704520482202 ], [ -72.978865646572402, -51.244558455956401 ], [ -72.979556550372095, -51.245421636195502 ], [ -72.979697072403994, -51.246038139226002 ], [ -72.980092955311804, -51.247875428935799 ], [ -72.981245541964597, -51.249800013701901 ], [ -72.984837295633398, -51.249118211133698 ], [ -72.986320109199895, -51.247954799834801 ], [ -72.986427879855995, -51.245520123345301 ], [ -72.984342432327693, -51.244978280798797 ], [ -72.984650855208798, -51.243831116638297 ], [ -72.985320104495301, -51.243457185397901 ], [ -72.985656827939394, -51.243404045265201 ], [ -72.989215342295395, -51.2427827447029 ], [ -72.990931190691498, -51.243873906032697 ], [ -72.990976978143095, -51.243877103572402 ], [ -72.991662349317494, -51.2442583678272 ], [ -72.991657565473602, -51.244265288752501 ], [ -72.997349680928195, -51.247819812046998 ], [ -72.997481410357295, -51.2479390888656 ], [ -73.0013433441557, -51.247642682149298 ], [ -73.004281628333899, -51.2474111232669 ], [ -73.011021636930593, -51.246846739059201 ], [ -73.011608483528406, -51.247100346193001 ], [ -73.012552321293995, -51.246963205608601 ], [ -73.014438509942295, -51.2468460616832 ], [ -73.014476472601103, -51.2464115181469 ], [ -73.014341389792307, -51.244340418870998 ], [ -73.013347566687898, -51.242946291175102 ], [ -73.013218103491099, -51.242998345059199 ], [ -73.011722624390401, -51.243680506346799 ], [ -73.010349860042794, -51.243703816617 ], [ -73.009968787518503, -51.243574066991897 ], [ -73.008882661793194, -51.2432959217168 ], [ -73.008014279066998, -51.242796060620201 ], [ -73.006311607480001, -51.241860613119897 ], [ -73.006186300916696, -51.241728033698998 ], [ -73.005316916058803, -51.240888976180997 ], [ -73.0044570163695, -51.240049587489601 ], [ -73.003568972810598, -51.239431346632301 ], [ -73.003134334807996, -51.239339116268397 ], [ -73.002526980148602, -51.239223044515903 ], [ -73.000782534782303, -51.2394625003394 ], [ -72.999069981921593, -51.239392573306397 ], [ -72.997489199771493, -51.238708724551898 ], [ -72.995967020570106, -51.238122828730603 ], [ -72.995774894699295, -51.237481922488101 ], [ -72.995781928598703, -51.237300769429602 ], [ -72.996019143295996, -51.235664446881898 ], [ -72.995613887176106, -51.234402396074103 ], [ -72.993625303174298, -51.233770526467602 ], [ -72.992862710074107, -51.233787063877998 ], [ -72.989621946441005, -51.2339096511378 ], [ -72.988458217971996, -51.234592089449002 ], [ -72.987880039277002, -51.234921275927597 ], [ -72.9865214682751, -51.2358721880587 ], [ -72.985015649305296, -51.236108029249301 ], [ -72.983782205210005, -51.235876334619597 ], [ -72.982768051716405, -51.235220581314401 ], [ -72.982760581213995, -51.235123239143903 ], [ -72.982487641160802, -51.234247025563199 ], [ -72.9825809261378, -51.233396417388697 ], [ -72.9819929067516, -51.232559505136699 ], [ -72.980653288055706, -51.231624413694597 ], [ -72.980444756969405, -51.231317301570598 ], [ -72.980434689221894, -51.230498781508601 ], [ -72.980470451390303, -51.229859611353596 ], [ -72.980548871418193, -51.229714115381903 ], [ -72.980751426919099, -51.229250175344603 ], [ -72.9800724173665, -51.228587743428797 ], [ -72.979651861259995, -51.2284592419077 ], [ -72.9790171592078, -51.228309465050302 ], [ -72.978489944758294, -51.228175069791398 ], [ -72.9777306430815, -51.228162831412398 ], [ -72.976970134113998, -51.2282244229594 ], [ -72.975399833776805, -51.228699187424098 ], [ -72.974888102571498, -51.229359307369897 ], [ -72.974510162323796, -51.229812538716601 ], [ -72.974305398869802, -51.2302955857553 ], [ -72.974164976116896, -51.230645520755999 ], [ -72.974048573552295, -51.231054149946402 ], [ -72.973831514848996, -51.231394788723598 ], [ -72.9738793529107, -51.231509802107396 ] ], [ [ -72.975170954266304, -51.231967783310203 ], [ -72.975631533830395, -51.231856898982699 ], [ -72.976467855575805, -51.2324092643128 ], [ -72.976981631933299, -51.2325631709829 ], [ -72.977527294102103, -51.232735032827001 ], [ -72.978762011709705, -51.232807260353702 ], [ -72.979844228984007, -51.232694235365997 ], [ -72.982210213278805, -51.234975008249897 ], [ -72.984018093620705, -51.236236901605302 ], [ -72.982995955490594, -51.236519306476602 ], [ -72.981168983763297, -51.235562741798802 ], [ -72.980003816010296, -51.235945209973799 ], [ -72.977921952118606, -51.236777825698901 ], [ -72.976616968877593, -51.237298321534702 ], [ -72.976591554111096, -51.237275913363803 ], [ -72.976586326150397, -51.237275767372097 ], [ -72.976588585032204, -51.237273296454703 ], [ -72.976581535885003, -51.237267080201001 ], [ -72.975681169057793, -51.236473212149797 ], [ -72.976253678238194, -51.235901477840301 ], [ -72.974990575768402, -51.235325540654699 ], [ -72.973839856238399, -51.235281307657303 ], [ -72.973833046951199, -51.235269691297397 ], [ -72.974173303950195, -51.234115522341497 ], [ -72.974272608288103, -51.2340359718646 ], [ -72.9754328628417, -51.2335965982193 ], [ -72.975170954266304, -51.231967783310203 ] ], [ [ -72.977019149073698, -51.237582028196798 ], [ -72.981081147895296, -51.235967865441502 ], [ -72.982879529691701, -51.236944449623799 ], [ -72.984685952952105, -51.236435351090897 ], [ -72.985696730327305, -51.236372317143903 ], [ -72.987386406064203, -51.238019058326898 ], [ -72.987391338148598, -51.2380760200056 ], [ -72.9850414003689, -51.238965517978002 ], [ -72.982110211093598, -51.240150902489098 ], [ -72.981830519697397, -51.240256577874398 ], [ -72.981823487036294, -51.240259234935998 ], [ -72.981830237446701, -51.240246136774203 ], [ -72.9818030489309, -51.240220338045503 ], [ -72.980987490214403, -51.239446463650502 ], [ -72.979738863496806, -51.2399174646402 ], [ -72.979510714795296, -51.239734800649899 ], [ -72.978726255411004, -51.239609164367501 ], [ -72.978307961256704, -51.239156842809798 ], [ -72.978911641061998, -51.238945857940898 ], [ -72.977821610512294, -51.237916540257899 ], [ -72.977301666983493, -51.237867584777803 ], [ -72.977019149073698, -51.237582028196798 ] ], [ [ -72.985086619825196, -51.2393456362663 ], [ -72.987817047074302, -51.238295568602197 ], [ -72.990035598885399, -51.239348161964401 ], [ -72.990894453095606, -51.239728030371197 ], [ -72.992993536499696, -51.240713236178401 ], [ -72.992906884121595, -51.240894728616802 ], [ -72.9925753853624, -51.241270258645002 ], [ -72.990889689901294, -51.241642051642998 ], [ -72.990301538117393, -51.241419332490103 ], [ -72.989169284126305, -51.241350867497097 ], [ -72.987117846271303, -51.241178070624898 ], [ -72.984159781489595, -51.241571744545801 ], [ -72.983961922618207, -51.241593970478498 ], [ -72.983949223932797, -51.241583921159403 ], [ -72.982771856324703, -51.241388389788902 ], [ -72.982265514054504, -51.240927180513097 ], [ -72.982628761293597, -51.240786260031499 ], [ -72.982347081258894, -51.240500176240701 ], [ -72.982303579201698, -51.240493111617504 ], [ -72.982329426125702, -51.240482245283999 ], [ -72.982355757802296, -51.240470421357799 ], [ -72.982570356662606, -51.240374057851703 ], [ -72.985086619825196, -51.2393456362663 ] ], [ [ -73.000607718316999, -51.242771799445798 ], [ -72.999619745063498, -51.2442338721997 ], [ -72.998982007667095, -51.244227129927602 ], [ -72.998367576669196, -51.244226729414201 ], [ -72.997444168654397, -51.2443368721339 ], [ -72.996881911071995, -51.244413232596699 ], [ -72.996517735629794, -51.2444749148301 ], [ -72.996467549668296, -51.244477648549797 ], [ -72.996466506969099, -51.244477426895799 ], [ -72.995744901550907, -51.243766549914099 ], [ -72.995808639423004, -51.243714382341501 ], [ -72.997754440365398, -51.243455023384101 ], [ -72.999663525936299, -51.242511324966401 ], [ -73.0002228630253, -51.242663572132699 ], [ -73.000607718316999, -51.242771799445798 ] ], [ [ -73.000134561202103, -51.244872332003403 ], [ -73.005021748580006, -51.244157454414299 ], [ -73.005333219659704, -51.244468137833699 ], [ -73.007377104219202, -51.243767257410802 ], [ -73.007902444454402, -51.2443562516032 ], [ -73.008436268854993, -51.244171313657702 ], [ -73.012955048364503, -51.244670855601001 ], [ -73.013296462541305, -51.246194512165502 ], [ -73.011526428199204, -51.246338597613097 ], [ -73.011541938820002, -51.246516597801602 ], [ -73.010094344004301, -51.246661494225599 ], [ -73.009596124814493, -51.246166795680502 ], [ -73.007562179902706, -51.246878496869599 ], [ -73.006080973926103, -51.245216147549002 ], [ -73.001557407308098, -51.2464066063134 ], [ -72.999660548991798, -51.246177038056999 ], [ -72.999587309917004, -51.246134382926002 ], [ -73.000328437405798, -51.245139444598898 ], [ -73.000134561202103, -51.244872332003403 ] ], [ [ -72.985196186779902, -51.247293555404298 ], [ -72.984185726934001, -51.247713632850797 ], [ -72.984151863986597, -51.247693087775502 ], [ -72.984128487352606, -51.2476789049514 ], [ -72.982792697528794, -51.246868457438097 ], [ -72.982363798294898, -51.247040179762898 ], [ -72.981297083837802, -51.247206052415102 ], [ -72.981297114507399, -51.2472050644189 ], [ -72.980987093238795, -51.246251556962903 ], [ -72.980711472026499, -51.245432560854397 ], [ -72.979152824759893, -51.243985978840698 ], [ -72.980004253852897, -51.243964127393497 ], [ -72.980338862453607, -51.244281229232698 ], [ -72.981094971147499, -51.244341170208898 ], [ -72.982545788324003, -51.245855673129803 ], [ -72.983703915523407, -51.245959027435902 ], [ -72.985763940120293, -51.246360113468597 ], [ -72.985733475014101, -51.2467967692169 ], [ -72.985223940727295, -51.246956969624698 ], [ -72.985196186779902, -51.247293555404298 ] ] ] } },
{ "type": "Feature", "properties": { "id": "monoparte.17", "Name": null, "description": null, "timestamp": null, "begin": null, "end": null, "altitudeMode": null, "tessellate": -1, "extrude": 0, "visibility": -1, "drawOrder": null, "icon": null, "REG": "Magallanes", "COM": "Torres del Paine", "LOC": "Río Serrano", "ZONA": "ZRPre", "NOM": "Zona de Prevención. ZRPre", "UPERM": "Reforestación con lenga, nirre y otras especies de la zona", "UPROH": "Sin información", "P_DO": "01/09/2008", "N_DOC": "80", "T_DO": "Resolución", "OBS": null }, "geometry": { "type": "Polygon", "coordinates": [ [ [ -72.991614370088797, -51.241732752599198 ], [ -72.9910429257706, -51.241790356237701 ], [ -72.990707714283602, -51.241773238314103 ], [ -72.990318901770607, -51.241662732354001 ], [ -72.990131647675895, -51.241602474471399 ], [ -72.989998815501096, -51.241645095969602 ], [ -72.9906348268741, -51.243032589635199 ], [ -72.990967892643098, -51.242849825287699 ], [ -72.992182830791194, -51.242865459642999 ], [ -72.992832170923506, -51.2424814527797 ], [ -72.994199995071995, -51.2425108861392 ], [ -72.993388530899097, -51.2411012621194 ], [ -72.992900057231907, -51.241165140121097 ], [ -72.992856847993906, -51.241366571510497 ], [ -72.992032921400707, -51.241661326143202 ], [ -72.991614370088797, -51.241732752599198 ] ] ] } },
{ "type": "Feature", "properties": { "id": "monoparte.18", "Name": null, "description": null, "timestamp": null, "begin": null, "end": null, "altitudeMode": null, "tessellate": -1, "extrude": 0, "visibility": -1, "drawOrder": null, "icon": null, "REG": "Magallanes", "COM": "Torres del Paine", "LOC": "Río Serrano", "ZONA": "ZRPre", "NOM": "Zona de Prevención. ZRPre", "UPERM": "Reforestación con lenga, nirre y otras especies de la zona", "UPROH": "Sin información", "P_DO": "01/09/2008", "N_DOC": "80", "T_DO": "Resolución", "OBS": null }, "geometry": { "type": "Polygon", "coordinates": [ [ [ -72.986378563347301, -51.246122435146802 ], [ -72.9864051909381, -51.245520897253698 ], [ -72.984319743618897, -51.244979054297197 ], [ -72.984628167072898, -51.243831890184197 ], [ -72.985297416561906, -51.243457959069602 ], [ -72.985634140041398, -51.243404819001498 ], [ -72.9891926548014, -51.242783519122199 ], [ -72.989799274368806, -51.243169295830398 ], [ -72.9901294864748, -51.2428911487183 ], [ -72.989440859593401, -51.2424718997027 ], [ -72.989729532439, -51.242214481595902 ], [ -72.989839742413494, -51.2419107858194 ], [ -72.989764594884406, -51.241656266423298 ], [ -72.989713874119502, -51.241596106875001 ], [ -72.989553009439305, -51.241577794648897 ], [ -72.989402173735499, -51.2415877039384 ], [ -72.989322279020001, -51.2416285184621 ], [ -72.988912770073298, -51.241804365077002 ], [ -72.988103598077799, -51.241831980887802 ], [ -72.987840883433293, -51.241688598599602 ], [ -72.987583763635001, -51.241697371959603 ], [ -72.987482986374005, -51.241672245522402 ], [ -72.987372592578595, -51.241623643261399 ], [ -72.987209262231801, -51.241576846068199 ], [ -72.986910384805, -51.241453739119699 ], [ -72.986729869242794, -51.241442043913899 ], [ -72.984760039882303, -51.241642528059003 ], [ -72.984206078184997, -51.2419899126009 ], [ -72.983799038767998, -51.241756225330597 ], [ -72.983032703422296, -51.241577630010603 ], [ -72.982589569776593, -51.241540362196702 ], [ -72.980724651713203, -51.241989526786199 ], [ -72.979252057127795, -51.242853778094499 ], [ -72.979083218062399, -51.2428309618249 ], [ -72.978678871599499, -51.242803784402 ], [ -72.978763395022398, -51.243167491287601 ], [ -72.979322729691802, -51.243495987683403 ], [ -72.979289073686601, -51.243720892661202 ], [ -72.980148822834195, -51.243839201705498 ], [ -72.980796701269398, -51.244226566691403 ], [ -72.981309680877899, -51.244018659540998 ], [ -72.981402486516004, -51.244039301778201 ], [ -72.981392287252504, -51.2440967799742 ], [ -72.981265012502405, -51.244291548836401 ], [ -72.982680386754694, -51.244519452541901 ], [ -72.982792016275496, -51.2445822996091 ], [ -72.982813332499703, -51.2452671332587 ], [ -72.982473066042303, -51.245454879258702 ], [ -72.982496403860793, -51.245549301018599 ], [ -72.982581478757695, -51.245655900564799 ], [ -72.983894402070305, -51.245663522872498 ], [ -72.983894885348306, -51.24584441735 ], [ -72.984994724298403, -51.246106853854002 ], [ -72.986378563347301, -51.246122435146802 ] ] ] } },
{ "type": "Feature", "properties": { "id": "monoparte.19", "Name": null, "description": null, "timestamp": null, "begin": null, "end": null, "altitudeMode": null, "tessellate": -1, "extrude": 0, "visibility": -1, "drawOrder": null, "icon": null, "REG": "Magallanes", "COM": "Torres del Paine", "LOC": "Río Serrano", "ZONA": "ZRPre", "NOM": "Zona de Prevención. ZRPre", "UPERM": "Reforestación con lenga, nirre y otras especies de la zona", "UPROH": "Sin información", "P_DO": "01/09/2008", "N_DOC": "80", "T_DO": "Resolución", "OBS": null }, "geometry": { "type": "Polygon", "coordinates": [ [ [ -73.001760457707604, -51.243509497461602 ], [ -73.001920304750001, -51.243646850184398 ], [ -73.0004175599055, -51.243505484526104 ], [ -73.000392802205397, -51.2440062215124 ], [ -73.000881513704002, -51.2442614016812 ], [ -73.004356345972994, -51.243791927771802 ], [ -73.004404169326406, -51.243426083729098 ], [ -73.003740639213106, -51.242991775013699 ], [ -73.002742183425894, -51.2427617492772 ], [ -73.002117049063401, -51.242768876173102 ], [ -73.001557090315401, -51.243002288707899 ], [ -73.001760457707604, -51.243509497461602 ] ] ] } },
{ "type": "Feature", "properties": { "id": "monoparte.20", "Name": null, "description": null, "timestamp": null, "begin": null, "end": null, "altitudeMode": null, "tessellate": -1, "extrude": 0, "visibility": -1, "drawOrder": null, "icon": null, "REG": "Magallanes", "COM": "Torres del Paine", "LOC": "Río Serrano", "ZONA": "ZRPre", "NOM": "Zona de Prevención. ZRPre", "UPERM": "Reforestación con lenga, nirre y otras especies de la zona", "UPROH": "Sin información", "P_DO": "01/09/2008", "N_DOC": "80", "T_DO": "Resolución", "OBS": null }, "geometry": { "type": "Polygon", "coordinates": [ [ [ -72.992234804446596, -51.244637300079503 ], [ -72.995687663162002, -51.246803123769602 ], [ -72.9959666623554, -51.246709775465803 ], [ -72.9965685078066, -51.247089107377498 ], [ -72.997567706209196, -51.246540761804503 ], [ -72.995309087467703, -51.245032634564097 ], [ -72.994883343389702, -51.245240002601598 ], [ -72.993811420210307, -51.245212366730598 ], [ -72.9923895927909, -51.244561102870499 ], [ -72.992234804446596, -51.244637300079503 ] ] ] } },
{ "type": "Feature", "properties": { "id": "monoparte.21", "Name": null, "description": null, "timestamp": null, "begin": null, "end": null, "altitudeMode": null, "tessellate": -1, "extrude": 0, "visibility": -1, "drawOrder": null, "icon": null, "REG": "Magallanes", "COM": "Torres del Paine", "LOC": "Río Serrano", "ZONA": "ZRI", "NOM": "Zona Inundable. ZRI", "UPERM": "Sólo miradores", "UPROH": "Obras de infraestructura", "P_DO": "01/09/2008", "N_DOC": "80", "T_DO": "Resolución", "OBS": null }, "geometry": { "type": "Polygon", "coordinates": [ [ [ -72.988688994121205, -51.2386329511925 ], [ -72.989424479009699, -51.2388934969578 ], [ -72.990409359001305, -51.239231217723002 ], [ -72.991198776495096, -51.239413737305597 ], [ -72.992142217705094, -51.239448164264097 ], [ -72.992330032535506, -51.239443594453903 ], [ -72.992516519634606, -51.239575183124202 ], [ -72.9929528058193, -51.240145861013701 ], [ -72.993188242730994, -51.240630564498602 ], [ -72.993388530899097, -51.2411012621194 ], [ -72.994199995071995, -51.2425108861392 ], [ -72.992832170923506, -51.2424814527797 ], [ -72.992182830791194, -51.242865459642999 ], [ -72.990967892643098, -51.242849825287699 ], [ -72.9906348268741, -51.243032589635199 ], [ -72.990492945548596, -51.243136375318798 ], [ -72.990337217527596, -51.243177399260702 ], [ -72.990001837353802, -51.243245979911102 ], [ -72.989990045724497, -51.243290614582399 ], [ -72.990908502708095, -51.243874680796303 ], [ -72.990954290159294, -51.243877878344897 ], [ -72.991571818597805, -51.244221403188199 ], [ -72.991639661165195, -51.244259142736702 ], [ -72.991637338056705, -51.244262504132401 ], [ -72.991626180940401, -51.244278646780103 ], [ -72.9907251765149, -51.244647436366698 ], [ -72.9904632015582, -51.244775402744303 ], [ -72.990333906994493, -51.2449464470481 ], [ -72.990283023624201, -51.244971988217998 ], [ -72.990206571900501, -51.244965077112802 ], [ -72.989764699410401, -51.244680229578798 ], [ -72.988773418066202, -51.245232997763097 ], [ -72.988976155172097, -51.245559336527897 ], [ -72.989999560330006, -51.245814812616402 ], [ -72.990836150689006, -51.246916472490497 ], [ -72.991474951983903, -51.247285046000101 ], [ -72.992525838996499, -51.247944233898203 ], [ -72.993653968284093, -51.248181818691997 ], [ -72.995252306158605, -51.248155756008501 ], [ -72.994657649508198, -51.248471254996801 ], [ -72.994645406599105, -51.248504999596101 ], [ -72.994897436149103, -51.248786796349698 ], [ -72.995327697765603, -51.249024413464802 ], [ -72.996050174267495, -51.249394864208497 ], [ -72.996254656274601, -51.2494783278377 ], [ -72.996644663223094, -51.249426905310301 ], [ -72.996988875998795, -51.249372286465899 ], [ -72.998367210926901, -51.249775040014498 ], [ -72.999358372911502, -51.250050582381299 ], [ -73.000208589624194, -51.250122654206898 ], [ -73.002724575200403, -51.251357649625596 ], [ -73.003870662074803, -51.2513421967722 ], [ -73.005596547589803, -51.251015261481797 ], [ -73.006335241667301, -51.251222033682303 ], [ -73.007008588634505, -51.251222754026898 ], [ -73.0074303850229, -51.250839325452098 ], [ -73.007297097491602, -51.250397564800302 ], [ -73.006565443147196, -51.250053682516899 ], [ -73.005767656024602, -51.250039371599598 ], [ -73.004806490809699, -51.249564090073399 ], [ -73.003209074413405, -51.249514077785598 ], [ -73.001668586572904, -51.249071704117902 ], [ -73.000649310201496, -51.249039947686001 ], [ -73.000157556502799, -51.248618781724304 ], [ -72.996427057234101, -51.248289363200598 ], [ -72.995891030522003, -51.2482315175683 ], [ -72.995881141792395, -51.248117595589001 ], [ -72.997314136782506, -51.247823229281501 ], [ -72.997326991180898, -51.247820588096999 ], [ -72.997458720555002, -51.247939864942403 ], [ -72.999418773986307, -51.247789446052899 ], [ -73.001385624302799, -51.246678937438297 ], [ -72.999116316077803, -51.246228156973402 ], [ -72.999951293687303, -51.245099825046303 ], [ -72.999389059917903, -51.244390656824997 ], [ -72.998726158691994, -51.244356209210999 ], [ -72.996586859375199, -51.244615060395397 ], [ -72.995821286076804, -51.2441841969015 ], [ -72.995191065149797, -51.243477332912803 ], [ -72.997584829143605, -51.2432669338002 ], [ -72.999568986554905, -51.242270680500702 ], [ -73.000412524409498, -51.242551264286803 ], [ -73.000704019292698, -51.242588894661999 ], [ -73.003900019382598, -51.242707962946099 ], [ -73.006250467749993, -51.241820706190701 ], [ -73.006163614411605, -51.2417288113962 ], [ -73.005572449313902, -51.241158272138101 ], [ -73.0037633184008, -51.241712320997799 ], [ -73.002110629135004, -51.241721320747203 ], [ -73.001623347060999, -51.241699919465802 ], [ -73.0000223619097, -51.241430989920403 ], [ -72.998080415756903, -51.241078487128803 ], [ -72.997940175879805, -51.241035676049201 ], [ -72.996420329417703, -51.241001964431497 ], [ -72.995780522339601, -51.240271627765203 ], [ -72.995473280236098, -51.239877459825699 ], [ -72.994118591469999, -51.239137086255703 ], [ -72.994456767275807, -51.2390262942383 ], [ -72.994943794003206, -51.238695431111402 ], [ -72.995281752047205, -51.238569616617802 ], [ -72.995921882886506, -51.238604860471398 ], [ -72.996247184669301, -51.238508041839097 ], [ -72.996539421803902, -51.238352660637602 ], [ -72.995944335554995, -51.238123604408599 ], [ -72.995752209993995, -51.237482698121802 ], [ -72.995759243982803, -51.237301545062799 ], [ -72.995996459491295, -51.235665222543503 ], [ -72.995591203980794, -51.234403171643599 ], [ -72.993602620234597, -51.233771301645 ], [ -72.992840027105203, -51.233787838907702 ], [ -72.989599263322205, -51.233910425540799 ], [ -72.988435534485504, -51.2345928636338 ], [ -72.987857355612604, -51.234922050003902 ], [ -72.986498784105606, -51.235872961881903 ], [ -72.986187612083796, -51.235921699644202 ], [ -72.986228313303201, -51.235965146181101 ], [ -72.986814482565606, -51.2369544476581 ], [ -72.987539581426006, -51.237796182035403 ], [ -72.988145188888893, -51.238308730655298 ], [ -72.988688994121205, -51.2386329511925 ] ] ] } },
{ "type": "Feature", "properties": { "id": "monoparte.22", "Name": null, "description": null, "timestamp": null, "begin": null, "end": null, "altitudeMode": null, "tessellate": -1, "extrude": 0, "visibility": -1, "drawOrder": null, "icon": null, "REG": "Magallanes", "COM": "Torres del Paine", "LOC": "Río Serrano", "ZONA": "ZRI", "NOM": "Zona Inundable. ZRI", "UPERM": "Sólo miradores", "UPROH": "Obras de infraestructura", "P_DO": "01/09/2008", "N_DOC": "80", "T_DO": "Resolución", "OBS": null }, "geometry": { "type": "Polygon", "coordinates": [ [ [ -72.974343252355496, -51.230390823442796 ], [ -72.974829656755404, -51.230755146744698 ], [ -72.974957082671295, -51.230584183193201 ], [ -72.976061716158696, -51.231302385398998 ], [ -72.976170005266198, -51.231239190486797 ], [ -72.976320988963394, -51.2313411710888 ], [ -72.976644088280693, -51.231240911061803 ], [ -72.9781302247615, -51.232315075617898 ], [ -72.979941828245799, -51.232437873762301 ], [ -72.980302577920298, -51.232663628764797 ], [ -72.980686368094695, -51.232717207287799 ], [ -72.981935431825306, -51.233481614012902 ], [ -72.982058696895905, -51.233591674485098 ], [ -72.982126840528196, -51.233853578703098 ], [ -72.982480564821998, -51.234105488281998 ], [ -72.982558243076895, -51.233397190421798 ], [ -72.981970224085998, -51.232560278046897 ], [ -72.980630605812905, -51.231625186335201 ], [ -72.980422074871797, -51.231318074167497 ], [ -72.980412007526397, -51.230499554094798 ], [ -72.980447770010002, -51.229860383939801 ], [ -72.980526190111604, -51.2297148879818 ], [ -72.980728745846093, -51.229250947978798 ], [ -72.980049736600407, -51.228588515924301 ], [ -72.979629180545601, -51.228460014320298 ], [ -72.978994478549495, -51.228310237338299 ], [ -72.978467264151504, -51.228175841975798 ], [ -72.977707962459803, -51.228163603449502 ], [ -72.976947453440999, -51.228225194849799 ], [ -72.975377152827207, -51.228699959015302 ], [ -72.974865421283297, -51.229360078869 ], [ -72.974487480802395, -51.2298133101473 ], [ -72.974282717105297, -51.230296357151502 ], [ -72.974261040961494, -51.230350373506703 ], [ -72.974343252355496, -51.230390823442796 ] ] ] } },
{ "type": "Feature", "properties": { "id": "monoparte.23", "Name": null, "description": null, "timestamp": null, "begin": null, "end": null, "altitudeMode": null, "tessellate": -1, "extrude": 0, "visibility": -1, "drawOrder": null, "icon": null, "REG": "Magallanes", "COM": "Torres del Paine", "LOC": "Río Serrano", "ZONA": "ZRE", "NOM": "Zona de Riesgo de Inundación. ZRE", "UPERM": null, "UPROH": "Cualquier tipo de construcciones, incluyendo senderos y caminos", "P_DO": "01/09/2008", "N_DOC": "80", "T_DO": "Resolución", "OBS": null }, "geometry": { "type": "Polygon", "coordinates": [ [ [ -72.9974756380728, -51.247938566551099 ], [ -72.998437852642098, -51.247864728029498 ], [ -73.001302552555401, -51.247644848860297 ], [ -73.001364647506705, -51.247639992364398 ], [ -73.002115021670306, -51.247217406666998 ], [ -73.002603457416697, -51.247076897145497 ], [ -73.0038399385204, -51.2468155442183 ], [ -73.004345967271306, -51.246702990546801 ], [ -73.005819486309207, -51.246376363357598 ], [ -73.006207232753994, -51.246125030147297 ], [ -73.006241044218697, -51.245990566996603 ], [ -73.006133767600005, -51.245803809129001 ], [ -73.006073521001298, -51.245634483674301 ], [ -73.005835070727102, -51.245509352982502 ], [ -73.005445108794703, -51.245560806152803 ], [ -73.005031501078605, -51.2456892413215 ], [ -73.004436382479199, -51.245823894449799 ], [ -73.004157249920098, -51.245928675911003 ], [ -73.004019203554293, -51.246085752361203 ], [ -73.002716460471504, -51.246282725356401 ], [ -73.002169180617997, -51.246444293352297 ], [ -73.001352497938697, -51.246672357687999 ], [ -73.000983027573199, -51.246761036667898 ], [ -73.000477536532202, -51.247054469858597 ], [ -73.000203615197705, -51.247044802146299 ], [ -72.999601040629699, -51.247093990243698 ], [ -72.999094994959407, -51.247206524605502 ], [ -72.998795766177196, -51.247254849631297 ], [ -72.998457755779199, -51.247380674442397 ], [ -72.998026226615593, -51.247652523522603 ], [ -72.9974756380728, -51.247938566551099 ] ] ] } },
{ "type": "Feature", "properties": { "id": "monoparte.24", "Name": null, "description": null, "timestamp": null, "begin": null, "end": null, "altitudeMode": null, "tessellate": -1, "extrude": 0, "visibility": -1, "drawOrder": null, "icon": null, "REG": "Magallanes", "COM": "Torres del Paine", "LOC": "Río Serrano", "ZONA": "ZRE", "NOM": "Zona de Riesgo de Inundación. ZRE", "UPERM": null, "UPROH": "Cualquier tipo de construcciones, incluyendo senderos y caminos", "P_DO": "01/09/2008", "N_DOC": "80", "T_DO": "Resolución", "OBS": null }, "geometry": { "type": "Polygon", "coordinates": [ [ [ -72.994118591469999, -51.239137086255703 ], [ -72.994802218465097, -51.238996858551999 ], [ -72.995051870985606, -51.238924053463798 ], [ -72.995497832448393, -51.239015925672298 ], [ -72.995784713145397, -51.238913281151703 ], [ -72.996283791886995, -51.238896215718199 ], [ -72.996737500838805, -51.2388806997958 ], [ -72.997082726847296, -51.238926022687103 ], [ -72.997560139620205, -51.239052518097999 ], [ -72.998216135965194, -51.239401423299299 ], [ -72.998747798197797, -51.239497492858902 ], [ -72.998981243885495, -51.239696601977499 ], [ -72.998847601471098, -51.239729740067702 ], [ -72.998246428684396, -51.239750309325402 ], [ -72.9976143164794, -51.239807640598698 ], [ -72.996761743612794, -51.239815377364401 ], [ -72.996168820903307, -51.239799947880996 ], [ -72.996211897877203, -51.240034136914801 ], [ -72.996338083497605, -51.240308331533903 ], [ -72.996722292405096, -51.240409452633301 ], [ -72.997488460162202, -51.240454660280903 ], [ -72.998849628366301, -51.240408092283801 ], [ -73.000397229444104, -51.240412256887403 ], [ -73.001257237139697, -51.240489934351103 ], [ -73.001351898927098, -51.240400998015403 ], [ -73.001366129530098, -51.240171989227299 ], [ -73.0013828335547, -51.239971461723599 ], [ -73.001522454592305, -51.239745301243701 ], [ -73.001795301156704, -51.2397430992715 ], [ -73.002478966056501, -51.239755393268297 ], [ -73.003067555773498, -51.239720950641399 ], [ -73.003450953258707, -51.239943479604598 ], [ -73.004211173003597, -51.240574432324202 ], [ -73.004606152450194, -51.241060789343798 ], [ -73.005013917818601, -51.241432444710703 ], [ -73.005607325050306, -51.241976269220601 ], [ -73.006151227775604, -51.242343255472598 ], [ -73.006778261952803, -51.242750236815802 ], [ -73.007343630949805, -51.243102199175098 ], [ -73.007531757529705, -51.2433028457639 ], [ -73.007450304376206, -51.243412757623702 ], [ -73.007227149572401, -51.243463258111397 ], [ -73.006814868648704, -51.243563089313398 ], [ -73.006407113567505, -51.243584209378398 ], [ -73.0060839140762, -51.243531017702097 ], [ -73.005788976434602, -51.243541127466898 ], [ -73.005507667506706, -51.243707877444301 ], [ -73.005140755466698, -51.243806147676402 ], [ -73.004875512471202, -51.243765248973297 ], [ -73.004356345972994, -51.243791927771802 ], [ -73.000881513704002, -51.2442614016812 ], [ -73.000855253104305, -51.244374272146501 ], [ -73.000930123072905, -51.2444502625236 ], [ -73.000962711103895, -51.2445634080538 ], [ -73.001050369418905, -51.244524700284103 ], [ -73.001133697633094, -51.244436152273003 ], [ -73.001331701350594, -51.244357960542303 ], [ -73.001660676988195, -51.244346696647703 ], [ -73.002440934395395, -51.244291412385003 ], [ -73.003388873865703, -51.244201812967503 ], [ -73.003949877935597, -51.2441111813662 ], [ -73.0049293621272, -51.243991924403801 ], [ -73.005742498526601, -51.2438569367078 ], [ -73.006381660999295, -51.243749331764697 ], [ -73.006785698345496, -51.243685491599599 ], [ -73.007526328407295, -51.243567259739699 ], [ -73.0078022969318, -51.243600643781498 ], [ -73.008361050855498, -51.243745730655903 ], [ -73.009089161821507, -51.244006406643202 ], [ -73.009677752362805, -51.2443118626312 ], [ -73.010169160540599, -51.2443661904233 ], [ -73.010701921410202, -51.244365265890501 ], [ -73.011042237873298, -51.2443535863029 ], [ -73.011558470431098, -51.244271596280001 ], [ -73.012017363803295, -51.2441844306598 ], [ -73.012394985409301, -51.244078629221903 ], [ -73.012478909632193, -51.243997193199398 ], [ -73.012624962902294, -51.2441064391883 ], [ -73.012956862827295, -51.244259293076702 ], [ -73.013136329609495, -51.244360250259298 ], [ -73.013290004802798, -51.2444263859731 ], [ -73.013451130060204, -51.244577962024998 ], [ -73.013350104791499, -51.244724257180202 ], [ -73.013433856013094, -51.244771369634599 ], [ -73.013472681744801, -51.244955710733798 ], [ -73.013467373175402, -51.245155849163403 ], [ -73.013382657090006, -51.245358715454401 ], [ -73.013552304184003, -51.245738520026102 ], [ -73.013534409718602, -51.245924808097598 ], [ -73.013619856818195, -51.246121829737497 ], [ -73.013647960452403, -51.246313679846303 ], [ -73.013226186609202, -51.246435283880302 ], [ -73.012824169823503, -51.246391957910703 ], [ -73.012157336611693, -51.246443417528901 ], [ -73.011710386814499, -51.246537315166101 ], [ -73.011519837653907, -51.246700964155004 ], [ -73.011016957058104, -51.246855300073797 ], [ -73.011816448104, -51.246786103017897 ], [ -73.014444069000504, -51.2465235018364 ], [ -73.014453784022294, -51.246412297501401 ], [ -73.014318702228707, -51.244341198176897 ], [ -73.013324879782502, -51.242947070273402 ], [ -73.013195416556499, -51.242999124132901 ], [ -73.012139798245002, -51.243480647511497 ], [ -73.012074316397005, -51.243510516023598 ], [ -73.011699937078603, -51.243681285138003 ], [ -73.0103271726814, -51.243704595142397 ], [ -73.0099461002103, -51.243574845442097 ], [ -73.008859974591701, -51.243296699953497 ], [ -73.007991592087293, -51.242796838683198 ], [ -73.006288920913207, -51.2418613908428 ], [ -73.006250467749993, -51.241820706190701 ], [ -73.006163614411605, -51.2417288113962 ], [ -73.005572449313902, -51.241158272138101 ], [ -73.005294229942393, -51.240889753700699 ], [ -73.004434330641999, -51.2400503648336 ], [ -73.003546287362596, -51.239432123797599 ], [ -73.003111649393304, -51.239339893348401 ], [ -73.002504294774099, -51.239223821476998 ], [ -73.000759849241703, -51.239463276964898 ], [ -72.999047296367905, -51.239393349599297 ], [ -72.997466514510407, -51.238709500531101 ], [ -72.996539421803902, -51.238352660637602 ], [ -72.996491714155397, -51.238334297516701 ], [ -72.996434999742306, -51.238408181354302 ], [ -72.995958355488696, -51.238594005607297 ], [ -72.995637443554202, -51.238589200403901 ], [ -72.995146705645098, -51.238500427678296 ], [ -72.994977183460307, -51.23851336461 ], [ -72.994221713627894, -51.238853404052698 ], [ -72.993711063742296, -51.2389993987059 ], [ -72.9929048775046, -51.239148348223999 ], [ -72.992314434131202, -51.2391613786655 ], [ -72.9911150298054, -51.238973826327801 ], [ -72.9902816888698, -51.238809469086902 ], [ -72.989786167676598, -51.238605008185203 ], [ -72.989383244022704, -51.238418807566902 ], [ -72.988410085805199, -51.237559366872397 ], [ -72.9879645166465, -51.237274639493798 ], [ -72.987804116850199, -51.237130146406102 ], [ -72.987523016449202, -51.236511307690002 ], [ -72.986589403306894, -51.235809535934102 ], [ -72.986498784105606, -51.235872961881903 ], [ -72.986187612083796, -51.235921699644202 ], [ -72.984992964978204, -51.2361088027832 ], [ -72.983759520962806, -51.235877107912003 ], [ -72.982901560117298, -51.235322351249302 ], [ -72.982745367763698, -51.235221354403201 ], [ -72.982737897308894, -51.235124012230202 ], [ -72.982684849619901, -51.234953717857401 ], [ -72.982683288274103, -51.234948704950497 ], [ -72.982464957679099, -51.234247798587297 ], [ -72.982480564821998, -51.234105488281998 ], [ -72.982525488705804, -51.233695863539602 ], [ -72.982525583813796, -51.233694991203997 ], [ -72.981783440445099, -51.2336853071644 ], [ -72.982061534855603, -51.233875786899702 ], [ -72.981984344483493, -51.234035524381497 ], [ -72.981899244110807, -51.234366921918699 ], [ -72.981959695598306, -51.234756165000199 ], [ -72.9821875294314, -51.234975781228002 ], [ -72.982876174959898, -51.235456464959498 ], [ -72.983938512960904, -51.236197962837501 ], [ -72.984093874991402, -51.236198837256097 ], [ -72.984266472604205, -51.236221517876601 ], [ -72.984673307040595, -51.236321906587499 ], [ -72.984912110461096, -51.236320905546599 ], [ -72.985216502494794, -51.236289101483997 ], [ -72.985611631601103, -51.236254202059797 ], [ -72.985821337100404, -51.236311321482503 ], [ -72.986699712634007, -51.236760750935801 ], [ -72.986751515977303, -51.236848179297297 ], [ -72.986814482565606, -51.2369544476581 ], [ -72.987539581426006, -51.237796182035403 ], [ -72.988145188888893, -51.238308730655298 ], [ -72.988688994121205, -51.2386329511925 ], [ -72.989424479009699, -51.2388934969578 ], [ -72.990409359001305, -51.239231217723002 ], [ -72.991198776495096, -51.239413737305597 ], [ -72.992142217705094, -51.239448164264097 ], [ -72.992330032535506, -51.239443594453903 ], [ -72.992432906820099, -51.239441091271303 ], [ -72.993110967231701, -51.239424588818999 ], [ -72.993645545891596, -51.239292061670298 ], [ -72.994118591469999, -51.239137086255703 ] ] ] } },
{ "type": "Feature", "properties": { "id": "monoparte.25", "Name": null, "description": null, "timestamp": null, "begin": null, "end": null, "altitudeMode": null, "tessellate": -1, "extrude": 0, "visibility": -1, "drawOrder": null, "icon": null, "REG": "Magallanes", "COM": "Torres del Paine", "LOC": "Río Serrano", "ZONA": "ZRE", "NOM": "Zona de Riesgo de Inundación. ZRE", "UPERM": null, "UPROH": "Cualquier tipo de construcciones, incluyendo senderos y caminos", "P_DO": "01/09/2008", "N_DOC": "80", "T_DO": "Resolución", "OBS": null }, "geometry": { "type": "Polygon", "coordinates": [ [ [ -72.971748263282606, -51.234675424598301 ], [ -72.972172199126902, -51.2347275885272 ], [ -72.972943142196101, -51.2346537730797 ], [ -72.973373310749807, -51.234585588110001 ], [ -72.973621063662407, -51.234380780762301 ], [ -72.973787844956703, -51.234226333803498 ], [ -72.9738818107421, -51.233996999088198 ], [ -72.974031735037997, -51.233866929644797 ], [ -72.974454214197905, -51.233709736543702 ], [ -72.974932098042004, -51.233425687040302 ], [ -72.975061578727093, -51.233278457392302 ], [ -72.975043376745603, -51.232957720963 ], [ -72.974992726046693, -51.232590479801303 ], [ -72.974978388259899, -51.232424338310103 ], [ -72.974774750673703, -51.232151566327403 ], [ -72.974674052575295, -51.231863390949101 ], [ -72.974595053211402, -51.231497113833797 ], [ -72.974619268365799, -51.231228493606402 ], [ -72.9745972528994, -51.230973348559502 ], [ -72.974647025096601, -51.230781221814901 ], [ -72.974687183137803, -51.230648433088199 ], [ -72.974343252355496, -51.230390823442796 ], [ -72.974261040961494, -51.230350373506703 ], [ -72.974142294176502, -51.230646292128696 ], [ -72.974025891407905, -51.231054921300903 ], [ -72.973808832531105, -51.231395560039701 ], [ -72.9738566705376, -51.231510573434001 ], [ -72.973797044599493, -51.232357647744102 ], [ -72.973992842017296, -51.233088917447297 ], [ -72.973913214099895, -51.233484392964399 ], [ -72.973844296698303, -51.233784288191799 ], [ -72.973483641785705, -51.233998886370799 ], [ -72.972988613261506, -51.234194248036303 ], [ -72.9722503677432, -51.234207442157498 ], [ -72.971818110668707, -51.234610324949003 ], [ -72.971748263282606, -51.234675424598301 ] ] ] } }
]
}
