{
"type": "FeatureCollection",
"name": "IPT_12_PRC_Punta_Delgada_San_Gregorio",
"crs": { "type": "name", "properties": { "name": "urn:ogc:def:crs:OGC:1.3:CRS84" } },
"features": [
{ "type": "Feature", "properties": { "id": "monoparte.1", "Name": null, "description": null, "timestamp": null, "begin": null, "end": null, "altitudeMode": null, "tessellate": -1, "extrude": 0, "visibility": -1, "drawOrder": null, "icon": null, "REG": "Magallanes", "COM": "San gregorio", "LOC": "San gregorio", "ZONA": "G-C", "NOM": "G-C Área consolidada", "UPERM": "Equipamiento turístico y áreas verdes. Sólo se permitirá vivienda y almacenamiento inofensivo, siempre que complemente los usos de suelo permitidos.", "UPROH": "No se aceptará ningún tipo de acopio, almacenamiento ni actividad industrial molesta, insalubre o peligrosa. Se prohíben expresamente equipamientos de seguridad regional.", "P_DO": "01/02/2000", "N_DOC": "99", "T_DO": "Resolución", "OBS": null }, "geometry": { "type": "Polygon", "coordinates": [ [ [ -69.686072738235396, -52.312528830897101 ], [ -69.686994777490398, -52.3142279240543 ], [ -69.686693752919794, -52.3148358609713 ], [ -69.688023351771093, -52.314959902848798 ], [ -69.689333827982594, -52.315033303592301 ], [ -69.690805361216604, -52.314304358335399 ], [ -69.690548800155298, -52.314014970716997 ], [ -69.691763472999, -52.313113103275498 ], [ -69.691893869809505, -52.313226143144398 ], [ -69.694239240445, -52.311465866813101 ], [ -69.691706341847606, -52.309712691856703 ], [ -69.690970286915601, -52.310370251250298 ], [ -69.689527288699196, -52.311097840631597 ], [ -69.688279658521793, -52.311726888237899 ], [ -69.686554801325599, -52.312353666901103 ], [ -69.686072738235396, -52.312528830897101 ] ] ] } },
{ "type": "Feature", "properties": { "id": "monoparte.2", "Name": null, "description": null, "timestamp": null, "begin": null, "end": null, "altitudeMode": null, "tessellate": -1, "extrude": 0, "visibility": -1, "drawOrder": null, "icon": null, "REG": "Magallanes", "COM": "San gregorio", "LOC": "San gregorio", "ZONA": "G-C", "NOM": "G-C Área consolidada", "UPERM": "Equipamiento turístico y áreas verdes. Sólo se permitirá vivienda y almacenamiento inofensivo, siempre que complemente los usos de suelo permitidos.", "UPROH": "No se aceptará ningún tipo de acopio, almacenamiento ni actividad industrial molesta, insalubre o peligrosa. Se prohíben expresamente equipamientos de seguridad regional.", "P_DO": "01/02/2000", "N_DOC": "99", "T_DO": "Resolución", "OBS": null }, "geometry": { "type": "Polygon", "coordinates": [ [ [ -69.673218829416896, -52.317071383650998 ], [ -69.6700998471443, -52.318604878446003 ], [ -69.669832550229899, -52.318431330720699 ], [ -69.6693881666679, -52.318130088770403 ], [ -69.666898239457097, -52.3193631921798 ], [ -69.667819875617695, -52.3198039160444 ], [ -69.668378911629603, -52.320238790134702 ], [ -69.668668782449203, -52.320455299092202 ], [ -69.668886407112893, -52.320622154844301 ], [ -69.671267325976103, -52.319089232747103 ], [ -69.676239959978005, -52.318563458404697 ], [ -69.678825875221605, -52.317104825514498 ], [ -69.678309654783106, -52.3159834529473 ], [ -69.677969970885201, -52.3152455331903 ], [ -69.677810470891998, -52.314808330408702 ], [ -69.677480578868199, -52.314975726927898 ], [ -69.673218829416896, -52.317071383650998 ] ] ] } },
{ "type": "Feature", "properties": { "id": "monoparte.3", "Name": null, "description": null, "timestamp": null, "begin": null, "end": null, "altitudeMode": null, "tessellate": -1, "extrude": 0, "visibility": -1, "drawOrder": null, "icon": null, "REG": "Magallanes", "COM": "San gregorio", "LOC": "San gregorio", "ZONA": "G-C", "NOM": "G-C Área consolidada", "UPERM": "Equipamiento turístico y áreas verdes. Sólo se permitirá vivienda y almacenamiento inofensivo, siempre que complemente los usos de suelo permitidos.", "UPROH": "No se aceptará ningún tipo de acopio, almacenamiento ni actividad industrial molesta, insalubre o peligrosa. Se prohíben expresamente equipamientos de seguridad regional.", "P_DO": "01/02/2000", "N_DOC": "99", "T_DO": "Resolución", "OBS": null }, "geometry": { "type": "Polygon", "coordinates": [ [ [ -69.678249970050402, -52.314836568335103 ], [ -69.678391456061604, -52.315134895866002 ], [ -69.679038680854006, -52.316499535393802 ], [ -69.679149245446794, -52.316732648134398 ], [ -69.6797166063227, -52.316434520952299 ], [ -69.680079426974999, -52.3162438676937 ], [ -69.6806072389695, -52.315887117463802 ], [ -69.680733155050604, -52.315739277281502 ], [ -69.682884138222803, -52.315234119830102 ], [ -69.686354561161494, -52.3148042135564 ], [ -69.686630021569599, -52.314400227714501 ], [ -69.684606184128995, -52.314850773918799 ], [ -69.683538160672299, -52.3132143566107 ], [ -69.682882006959204, -52.313362808303999 ], [ -69.681124717323499, -52.313760363284899 ], [ -69.680627299336393, -52.313913031463102 ], [ -69.679413591897401, -52.3143669042433 ], [ -69.678504815067399, -52.314739911992298 ], [ -69.678249970050402, -52.314836568335103 ] ] ] } },
{ "type": "Feature", "properties": { "id": "monoparte.4", "Name": null, "description": null, "timestamp": null, "begin": null, "end": null, "altitudeMode": null, "tessellate": -1, "extrude": 0, "visibility": -1, "drawOrder": null, "icon": null, "REG": "Magallanes", "COM": "San gregorio", "LOC": "San gregorio", "ZONA": "G-C", "NOM": "G-C Área consolidada", "UPERM": "Equipamiento turístico y áreas verdes. Sólo se permitirá vivienda y almacenamiento inofensivo, siempre que complemente los usos de suelo permitidos.", "UPROH": "No se aceptará ningún tipo de acopio, almacenamiento ni actividad industrial molesta, insalubre o peligrosa. Se prohíben expresamente equipamientos de seguridad regional.", "P_DO": "01/02/2000", "N_DOC": "99", "T_DO": "Resolución", "OBS": null }, "geometry": { "type": "Polygon", "coordinates": [ [ [ -69.693999419005607, -52.312938236504401 ], [ -69.692723013238094, -52.314768787288898 ], [ -69.694406792604894, -52.315891099055001 ], [ -69.695502918315995, -52.3165833599531 ], [ -69.698981946312102, -52.3147480633546 ], [ -69.696718274548502, -52.313181571381001 ], [ -69.696695581538705, -52.313192536255002 ], [ -69.695324830012197, -52.313845117986702 ], [ -69.693999419005607, -52.312938236504401 ] ] ] } },
{ "type": "Feature", "properties": { "id": "monoparte.5", "Name": null, "description": null, "timestamp": null, "begin": null, "end": null, "altitudeMode": null, "tessellate": -1, "extrude": 0, "visibility": -1, "drawOrder": null, "icon": null, "REG": "Magallanes", "COM": "San gregorio", "LOC": "San gregorio", "ZONA": "G-A", "NOM": "G-A Área consolidada", "UPERM": "Áreas verdes, equipamiento comunal, lugares de culto, servicios y talleres artesanales.", "UPROH": "Todos los no mencionados como permitidos. No se aceptará ningún tipo de acopio ni actividad industrial molesta, insalubre o peligrosa. Terminales de transporte y distribución que no sean de pasajeros.", "P_DO": "01/02/2000", "N_DOC": "99", "T_DO": "Resolución", "OBS": null }, "geometry": { "type": "Polygon", "coordinates": [ [ [ -69.689852178458807, -52.315547764441199 ], [ -69.690307426829094, -52.3162932636642 ], [ -69.692202242933305, -52.315886419588502 ], [ -69.692665469271603, -52.315737517405999 ], [ -69.692886107832095, -52.315557424798001 ], [ -69.693006573295804, -52.315406486341999 ], [ -69.692975286154606, -52.315296863595897 ], [ -69.692783176432002, -52.315148194648899 ], [ -69.692642292575499, -52.315098378320599 ], [ -69.692405006205604, -52.315092531040598 ], [ -69.692055852856896, -52.315136664061903 ], [ -69.691264448770596, -52.315319426710801 ], [ -69.689852178458807, -52.315547764441199 ] ] ] } },
{ "type": "Feature", "properties": { "id": "monoparte.6", "Name": null, "description": null, "timestamp": null, "begin": null, "end": null, "altitudeMode": null, "tessellate": -1, "extrude": 0, "visibility": -1, "drawOrder": null, "icon": null, "REG": "Magallanes", "COM": "San gregorio", "LOC": "San gregorio", "ZONA": "G-E", "NOM": "G-E Área de extensión urbana", "UPERM": "Vivienda, equipamiento comunal, áreas verdes. Sólo se permitirá el almacenamiento inofensivo, siempre que complemente los usos de suelo permitidos.", "UPROH": "No se aceptará ningún tipo de acopio ni actividad industrial molesta, insalubre o peligrosa. Se prohíbe expresamente equipamientos de seguridad regional.", "P_DO": "01/02/2000", "N_DOC": "99", "T_DO": "Resolución", "OBS": null }, "geometry": { "type": "Polygon", "coordinates": [ [ [ -69.678309654783106, -52.3159834529473 ], [ -69.678825875221605, -52.317104825514498 ], [ -69.679072385305204, -52.316965769337301 ], [ -69.679218037915007, -52.316877685975697 ], [ -69.679038680854006, -52.316499535393802 ], [ -69.678391456061604, -52.315134895866002 ], [ -69.678157621758999, -52.3146418480219 ], [ -69.678140947087897, -52.314640636509601 ], [ -69.677810470891998, -52.314808330408702 ], [ -69.677969970885201, -52.3152455331903 ], [ -69.678309654783106, -52.3159834529473 ] ] ] } },
{ "type": "Feature", "properties": { "id": "monoparte.7", "Name": null, "description": null, "timestamp": null, "begin": null, "end": null, "altitudeMode": null, "tessellate": -1, "extrude": 0, "visibility": -1, "drawOrder": null, "icon": null, "REG": "Magallanes", "COM": "San gregorio", "LOC": "San gregorio", "ZONA": "G-E", "NOM": "G-E Área de extensión urbana", "UPERM": "Vivienda, equipamiento comunal, áreas verdes. Sólo se permitirá el almacenamiento inofensivo, siempre que complemente los usos de suelo permitidos.", "UPROH": "No se aceptará ningún tipo de acopio ni actividad industrial molesta, insalubre o peligrosa. Se prohíbe expresamente equipamientos de seguridad regional.", "P_DO": "01/02/2000", "N_DOC": "99", "T_DO": "Resolución", "OBS": null }, "geometry": { "type": "Polygon", "coordinates": [ [ [ -69.686354561161494, -52.3148042135564 ], [ -69.686693752919794, -52.3148358609713 ], [ -69.686994777490398, -52.3142279240543 ], [ -69.686072738235396, -52.312528830897101 ], [ -69.685791214638797, -52.312631124869597 ], [ -69.685689541974696, -52.312658149380503 ], [ -69.686630021569599, -52.314400227714501 ], [ -69.686354561161494, -52.3148042135564 ] ] ] } },
{ "type": "Feature", "properties": { "id": "monoparte.8", "Name": null, "description": null, "timestamp": null, "begin": null, "end": null, "altitudeMode": null, "tessellate": -1, "extrude": 0, "visibility": -1, "drawOrder": null, "icon": null, "REG": "Magallanes", "COM": "San gregorio", "LOC": "San gregorio", "ZONA": "Zona difusa", "NOM": "Zona difusa", "UPERM": "Sin información.", "UPROH": "Sin información.", "P_DO": "01/02/2000", "N_DOC": "99", "T_DO": "Resolución", "OBS": null }, "geometry": { "type": "Polygon", "coordinates": [ [ [ -69.687754055640497, -52.311319631010797 ], [ -69.685846904861904, -52.311977132435999 ], [ -69.683530175455004, -52.310972454323199 ], [ -69.6817709683191, -52.311168507876999 ], [ -69.680609748360595, -52.312665168225202 ], [ -69.678644766017101, -52.313510443297602 ], [ -69.669832550229899, -52.318431330720699 ], [ -69.6700998471443, -52.318604878446003 ], [ -69.673218829416896, -52.317071383650998 ], [ -69.677480578868199, -52.314975726927898 ], [ -69.678140947087897, -52.314640636509601 ], [ -69.678157621758999, -52.3146418480219 ], [ -69.678249970050402, -52.314836568335103 ], [ -69.678504815067399, -52.314739911992298 ], [ -69.679413591897401, -52.3143669042433 ], [ -69.680627299336393, -52.313913031463102 ], [ -69.681124717323499, -52.313760363284899 ], [ -69.682882006959204, -52.313362808303999 ], [ -69.683538160672299, -52.3132143566107 ], [ -69.684606184128995, -52.314850773918799 ], [ -69.686630021569599, -52.314400227714501 ], [ -69.685689541974696, -52.312658149380503 ], [ -69.685791214638797, -52.312631124869597 ], [ -69.686554801325599, -52.312353666901103 ], [ -69.688279658521793, -52.311726888237899 ], [ -69.689527288699196, -52.311097840631597 ], [ -69.690970286915601, -52.310370251250298 ], [ -69.691706341847606, -52.309712691856703 ], [ -69.690614588013403, -52.3089569615573 ], [ -69.687127991374695, -52.310499739540099 ], [ -69.688691264269593, -52.310734055509101 ], [ -69.687754055640497, -52.311319631010797 ] ] ] } },
{ "type": "Feature", "properties": { "id": "monoparte.9", "Name": null, "description": null, "timestamp": null, "begin": null, "end": null, "altitudeMode": null, "tessellate": -1, "extrude": 0, "visibility": -1, "drawOrder": null, "icon": null, "REG": "Magallanes", "COM": "San gregorio", "LOC": "San gregorio", "ZONA": "G-F", "NOM": "G-F Área de extensión urbana", "UPERM": "Zona destinada al traslado ganadero, o tránsito vehicular y peatonal subordinado al uso mencionado. Sólo se permitirá construcciones complementarias al uso de suelo específico.", "UPROH": "No se aceptará ningún tipo de actividad peligrosa, prohibiéndose expresamente equipamientos de seguridad regional.", "P_DO": "01/02/2000", "N_DOC": "99", "T_DO": "Resolución", "OBS": null }, "geometry": { "type": "Polygon", "coordinates": [ [ [ -69.695502918315995, -52.3165833599531 ], [ -69.694406792604894, -52.315891099055001 ], [ -69.693158415160397, -52.3166425105752 ], [ -69.6913411495688, -52.317106030875003 ], [ -69.689560955279902, -52.3174796412954 ], [ -69.687664457553495, -52.317575508676597 ], [ -69.687714468657504, -52.316266017356199 ], [ -69.686091230880805, -52.316474875689302 ], [ -69.686102408421405, -52.316923215107302 ], [ -69.686213312028897, -52.318266151043701 ], [ -69.686314879362101, -52.318880643444302 ], [ -69.689379669770005, -52.318639316174597 ], [ -69.6894228583472, -52.3186326780854 ], [ -69.689902035646497, -52.318522883981501 ], [ -69.694052876479503, -52.317348228511896 ], [ -69.695502918315995, -52.3165833599531 ] ] ] } },
{ "type": "Feature", "properties": { "id": "monoparte.10", "Name": null, "description": null, "timestamp": null, "begin": null, "end": null, "altitudeMode": null, "tessellate": -1, "extrude": 0, "visibility": -1, "drawOrder": null, "icon": null, "REG": "Magallanes", "COM": "San gregorio", "LOC": "San gregorio", "ZONA": "G-B", "NOM": "G-B Área consolidada", "UPERM": "Vivienda, equipamiento comunal, áreas verdes. Sólo se permitirá el almacenamiento inofensivo, siempre que complemente los usos de suelo permitidos.", "UPROH": "No se aceptará ningún tipo de acopio ni actividad industrial molesta, insalubre o peligrosa. Se prohíbe expresamente equipamientos de seguridad regional.", "P_DO": "01/02/2000", "N_DOC": "99", "T_DO": "Resolución", "OBS": null }, "geometry": { "type": "Polygon", "coordinates": [ [ [ -69.686091230880805, -52.316474875689302 ], [ -69.687714468657504, -52.316266017356199 ], [ -69.687664457553495, -52.317575508676597 ], [ -69.689560955279902, -52.3174796412954 ], [ -69.6913411495688, -52.317106030875003 ], [ -69.693158415160397, -52.3166425105752 ], [ -69.694406792604894, -52.315891099055001 ], [ -69.692723013238094, -52.314768787288898 ], [ -69.694139333390297, -52.312737566761598 ], [ -69.694936576665597, -52.311948502920401 ], [ -69.694239240445, -52.311465866813101 ], [ -69.691893869809505, -52.313226143144398 ], [ -69.691763472999, -52.313113103275498 ], [ -69.690548800155298, -52.314014970716997 ], [ -69.690805361216604, -52.314304358335399 ], [ -69.689333827982594, -52.315033303592301 ], [ -69.688023351771093, -52.314959902848798 ], [ -69.686354561161494, -52.3148042135564 ], [ -69.682884138222803, -52.315234119830102 ], [ -69.680733155050604, -52.315739277281502 ], [ -69.6806072389695, -52.315887117463802 ], [ -69.680079426974999, -52.3162438676937 ], [ -69.6797166063227, -52.316434520952299 ], [ -69.679149245446794, -52.316732648134398 ], [ -69.679218037915007, -52.316877685975697 ], [ -69.679420483337495, -52.316755256152099 ], [ -69.680112603073198, -52.316421711903999 ], [ -69.6803814933848, -52.316294295544203 ], [ -69.680885095909304, -52.316154240902598 ], [ -69.6821343571943, -52.315894676483097 ], [ -69.683166457236396, -52.315751342427397 ], [ -69.684478288136404, -52.315700856911697 ], [ -69.685689728380197, -52.315719310682603 ], [ -69.686072829089994, -52.315736652644503 ], [ -69.686091230880805, -52.316474875689302 ] ], [ [ -69.690307426829094, -52.3162932636642 ], [ -69.689852178458807, -52.315547764441199 ], [ -69.691264448770596, -52.315319426710801 ], [ -69.692055852856896, -52.315136664061903 ], [ -69.692405006205604, -52.315092531040598 ], [ -69.692642292575499, -52.315098378320599 ], [ -69.692783176432002, -52.315148194648899 ], [ -69.692975286154606, -52.315296863595897 ], [ -69.693006573295804, -52.315406486341999 ], [ -69.692886107832095, -52.315557424798001 ], [ -69.692665469271603, -52.315737517405999 ], [ -69.692202242933305, -52.315886419588502 ], [ -69.690307426829094, -52.3162932636642 ] ] ] } },
{ "type": "Feature", "properties": { "id": "monoparte.11", "Name": null, "description": null, "timestamp": null, "begin": null, "end": null, "altitudeMode": null, "tessellate": -1, "extrude": 0, "visibility": -1, "drawOrder": null, "icon": null, "REG": "Magallanes", "COM": "San gregorio", "LOC": "San gregorio", "ZONA": "G-D", "NOM": "G-D Área consolidada", "UPERM": "Equipamiento deportivo, cultural y áreas verdes (regional). Sólo se permitirá almacenamiento inofensivo y las construcciones complementarias a los usos específicos, siempre que complemente los usos de suelo permitidos.", "UPROH": "No se aceptará ningún tipo de actividad, insalubre o peligrosa, prohibiéndose expresamente equipamientos de seguridad regional.", "P_DO": "01/02/2000", "N_DOC": "99", "T_DO": "Resolución", "OBS": null }, "geometry": { "type": "Polygon", "coordinates": [ [ [ -69.693999419005607, -52.312938236504401 ], [ -69.695324830012197, -52.313845117986702 ], [ -69.696695581538705, -52.313192536255002 ], [ -69.696718274548502, -52.313181571381001 ], [ -69.694936576665597, -52.311948502920401 ], [ -69.694139333390297, -52.312737566761598 ], [ -69.693999419005607, -52.312938236504401 ] ] ] } }
]
}
