{
"type": "FeatureCollection",
"name": "IPT_12_PNSECC_Cerro_Castillo",
"crs": { "type": "name", "properties": { "name": "urn:ogc:def:crs:OGC:1.3:CRS84" } },
"features": [
{ "type": "Feature", "properties": { "id": "monoparte.1", "Name": null, "description": null, "timestamp": null, "begin": null, "end": null, "altitudeMode": null, "tessellate": -1, "extrude": 0, "visibility": -1, "drawOrder": null, "icon": null, "REG": "Magallanes", "COM": "Torres del Paine", "LOC": "Villa Cerro Castillo", "ZONA": "ZE1", "NOM": "ZE1", "UPERM": "Vivienda, equipamiento a escala comunal servicios públicos, salud, educación, culto, cultura, áreas verdes y almacenamiento inofensivo. Organizaciones comunitaria, espacimiento y turismo, comerio minorista, servicios profesionales y artesanales.", "UPROH": "Todos los no mencionados como permitidos.", "P_DO": "27/02/1993", "N_DOC": "3", "T_DO": "Resolución", "OBS": null }, "geometry": { "type": "Polygon", "coordinates": [ [ [ -72.339469290447795, -51.257368540892202 ], [ -72.339647364726304, -51.257370433141702 ], [ -72.339851688015301, -51.257441949236402 ], [ -72.339995354917704, -51.257461645973997 ], [ -72.3401773071447, -51.257486199443399 ], [ -72.340406142533496, -51.2575034638338 ], [ -72.340774769263106, -51.257486982780499 ], [ -72.341398036439202, -51.257451324707297 ], [ -72.341438904438505, -51.257491807508003 ], [ -72.341520642151593, -51.257572773918596 ], [ -72.341564096108499, -51.257648883786402 ], [ -72.341651850171104, -51.257682076251399 ], [ -72.3417981058534, -51.257737397813102 ], [ -72.341950376052495, -51.257744946267103 ], [ -72.342068655038403, -51.257676115303902 ], [ -72.342224785179795, -51.257606201497303 ], [ -72.342304779378395, -51.257532514031901 ], [ -72.3422819742608, -51.257479615225598 ], [ -72.342155506610197, -51.257435628756902 ], [ -72.342143889346701, -51.257406210242898 ], [ -72.342245826255905, -51.2573735462583 ], [ -72.342349919693802, -51.257370571087002 ], [ -72.342420039815295, -51.257422117496603 ], [ -72.342481991163694, -51.2574917478616 ], [ -72.342569744185596, -51.257524940570299 ], [ -72.342798580381, -51.257542199360302 ], [ -72.343091934437098, -51.257533813175002 ], [ -72.343339265427105, -51.257544592597803 ], [ -72.3436175745844, -51.257590186762798 ], [ -72.343696297596594, -51.257629586399602 ], [ -72.343728135395594, -51.257676277096401 ], [ -72.343705784612595, -51.257760217371001 ], [ -72.343711821823803, -51.257843345923902 ], [ -72.343773774260299, -51.257912975594799 ], [ -72.343909706942199, -51.257956689681201 ], [ -72.344023265183097, -51.257953442380298 ], [ -72.344134665530802, -51.257920506126702 ], [ -72.344275722667703, -51.257773669884102 ], [ -72.344439587981597, -51.257679731786197 ], [ -72.344598733839504, -51.257651380017101 ], [ -72.344738522359506, -51.2576176312296 ], [ -72.344856796661006, -51.2575487966295 ], [ -72.345118309589296, -51.257493715041399 ], [ -72.345512302884401, -51.257434842768902 ], [ -72.345948371920301, -51.2573870287113 ], [ -72.342083530173696, -51.257059338641 ], [ -72.342457493194004, -51.255418320586699 ], [ -72.343371073632497, -51.255463604793697 ], [ -72.343334992659607, -51.255750241896997 ], [ -72.3442305191911, -51.255807935675101 ], [ -72.344243406458801, -51.255724265907403 ], [ -72.346860695426003, -51.2557682499301 ], [ -72.346695885136498, -51.255062581779299 ], [ -72.347561165382203, -51.254979582375 ], [ -72.347443334877397, -51.254402224942503 ], [ -72.346687040040607, -51.254433392431103 ], [ -72.346514338084603, -51.254562096834697 ], [ -72.345241905789393, -51.254588985146498 ], [ -72.344667972063505, -51.254624443212698 ], [ -72.343784342621504, -51.254573552480302 ], [ -72.342423792679497, -51.254431566109801 ], [ -72.342523499711902, -51.253924146767098 ], [ -72.339975098773905, -51.253648333610101 ], [ -72.339776853155996, -51.254397800657898 ], [ -72.3411375974988, -51.2544778436949 ], [ -72.341000061644905, -51.255300507393002 ], [ -72.339564577759106, -51.255198442526002 ], [ -72.339216662947294, -51.2564856761919 ], [ -72.339077357685198, -51.257179865625297 ], [ -72.339469290447795, -51.257368540892202 ] ] ] } },
{ "type": "Feature", "properties": { "id": "monoparte.2", "Name": null, "description": null, "timestamp": null, "begin": null, "end": null, "altitudeMode": null, "tessellate": -1, "extrude": 0, "visibility": -1, "drawOrder": null, "icon": null, "REG": "Magallanes", "COM": "Torres del Paine", "LOC": "Villa Cerro Castillo", "ZONA": "ZE2", "NOM": "ZE2", "UPERM": "Equipamiento a escala vecinal de áreas verdes y deporte.", "UPROH": "Todos los no mencionados como permitidos.", "P_DO": "27/02/1993", "N_DOC": "3", "T_DO": "Resolución", "OBS": null }, "geometry": { "type": "Polygon", "coordinates": [ [ [ -72.339564577759106, -51.255198442526002 ], [ -72.341000061644905, -51.255300507393002 ], [ -72.3411375974988, -51.2544778436949 ], [ -72.339776853155996, -51.254397800657898 ], [ -72.339587480594702, -51.255113702917797 ], [ -72.339564577759106, -51.255198442526002 ] ] ] } },
{ "type": "Feature", "properties": { "id": "monoparte.3", "Name": null, "description": null, "timestamp": null, "begin": null, "end": null, "altitudeMode": null, "tessellate": -1, "extrude": 0, "visibility": -1, "drawOrder": null, "icon": null, "REG": "Magallanes", "COM": "Torres del Paine", "LOC": "Villa Cerro Castillo", "ZONA": "ZR1", "NOM": "ZR1", "UPERM": "Zona de resguardo de obras de infraestructura", "UPROH": "Todo tipo de construcciones, salvo equipamiento recreativo.", "P_DO": "27/02/1993", "N_DOC": "3", "T_DO": "Resolución", "OBS": null }, "geometry": { "type": "Polygon", "coordinates": [ [ [ -72.352045095521603, -51.2539628998815 ], [ -72.350843470773995, -51.254009715445797 ], [ -72.350142444027796, -51.253380562470497 ], [ -72.348390289180003, -51.254043869806999 ], [ -72.348069397858296, -51.254014857993397 ], [ -72.347843166527198, -51.254033235276403 ], [ -72.3475543701703, -51.254103980027203 ], [ -72.347164076883104, -51.254213329524902 ], [ -72.346872471486094, -51.254245476224902 ], [ -72.346454172667507, -51.2541652213487 ], [ -72.346096732954905, -51.254074298254999 ], [ -72.345956279549398, -51.253968239304498 ], [ -72.345316386601894, -51.253448062233403 ], [ -72.345097220264606, -51.253302604389098 ], [ -72.344864091462199, -51.253225971945398 ], [ -72.344508158161702, -51.253090374688597 ], [ -72.344095511374903, -51.252911475127902 ], [ -72.343944798425397, -51.2528729444319 ], [ -72.343837270605803, -51.252854599436098 ], [ -72.343675204342105, -51.252816393054196 ], [ -72.343421785671396, -51.252773657902999 ], [ -72.343300154177498, -51.2527699959087 ], [ -72.343156158694399, -51.252771732657799 ], [ -72.343042622873, -51.252827339163801 ], [ -72.342884350570998, -51.252841384680799 ], [ -72.342540794402694, -51.252863105726902 ], [ -72.342281011605706, -51.2528372104453 ], [ -72.342069226651006, -51.252793282362497 ], [ -72.341870700298799, -51.252827516696897 ], [ -72.341693165845498, -51.252889712153603 ], [ -72.341558979097698, -51.252922107264403 ], [ -72.341373350148999, -51.2529250315363 ], [ -72.341040623143101, -51.252886937615202 ], [ -72.340832477204003, -51.252865275830302 ], [ -72.340741469234203, -51.252865496621602 ], [ -72.340620699017194, -51.252873706368398 ], [ -72.340522122264304, -51.2528741423165 ], [ -72.340419069866101, -51.252865186185197 ], [ -72.340403414210101, -51.2528584937508 ], [ -72.340206605760898, -51.252773098284898 ], [ -72.339975098773905, -51.253648333610101 ], [ -72.342523499711902, -51.253924146767098 ], [ -72.342423792679497, -51.254431566109801 ], [ -72.343784342621504, -51.254573552480302 ], [ -72.344667972063505, -51.254624443212698 ], [ -72.345241905789393, -51.254588985146498 ], [ -72.346514338084603, -51.254562096834697 ], [ -72.346687040040607, -51.254433392431103 ], [ -72.347443334877397, -51.254402224942503 ], [ -72.347561165382203, -51.254979582375 ], [ -72.349620037433795, -51.255539562968401 ], [ -72.349630368599406, -51.255527617047001 ], [ -72.350498027800498, -51.254550740396901 ], [ -72.350629877906002, -51.254486272056901 ], [ -72.352045095521603, -51.2539628998815 ] ] ] } },
{ "type": "Feature", "properties": { "id": "monoparte.4", "Name": null, "description": null, "timestamp": null, "begin": null, "end": null, "altitudeMode": null, "tessellate": -1, "extrude": 0, "visibility": -1, "drawOrder": null, "icon": null, "REG": "Magallanes", "COM": "Torres del Paine", "LOC": "Villa Cerro Castillo", "ZONA": "ZE1", "NOM": "ZE1", "UPERM": "Vivienda, equipamiento a escala comunal servicios públicos, salud, educación, culto, cultura, áreas verdes y almacenamiento inofensivo. Organizaciones comunitaria, espacimiento y turismo, comerio minorista, servicios profesionales y artesanales.", "UPROH": "Todos los no mencionados como permitidos.", "P_DO": "27/02/1993", "N_DOC": "3", "T_DO": "Resolución", "OBS": null }, "geometry": { "type": "Polygon", "coordinates": [ [ [ -72.350142444027796, -51.253380562470497 ], [ -72.350843470773995, -51.254009715445797 ], [ -72.352045095521603, -51.2539628998815 ], [ -72.353926172362407, -51.253267200613998 ], [ -72.3550102935354, -51.253311072099699 ], [ -72.357369183048903, -51.2533865673741 ], [ -72.357475597275297, -51.252141124949702 ], [ -72.357524869553401, -51.251568498032597 ], [ -72.3560360095031, -51.251746902076398 ], [ -72.354261900435105, -51.251914429212903 ], [ -72.352870671402002, -51.252392257786703 ], [ -72.351416971987007, -51.252898041162901 ], [ -72.350142444027796, -51.253380562470497 ] ] ] } },
{ "type": "Feature", "properties": { "id": "monoparte.5", "Name": null, "description": null, "timestamp": null, "begin": null, "end": null, "altitudeMode": null, "tessellate": -1, "extrude": 0, "visibility": -1, "drawOrder": null, "icon": null, "REG": "Magallanes", "COM": "Torres del Paine", "LOC": "Villa Cerro Castillo", "ZONA": "ZAV", "NOM": "ZV", "UPERM": "Viviendas y equipamiento a escala vecinal, en comercio minorista, almacenamiento inofensivo, áreas verdes y servicios artesanales.", "UPROH": "Todos los no mencionados como permitidos.", "P_DO": "27/02/1993", "N_DOC": "3", "T_DO": "Resolución", "OBS": null }, "geometry": { "type": "Polygon", "coordinates": [ [ [ -72.344039028000793, -51.257225156894201 ], [ -72.344130913460702, -51.256302184323097 ], [ -72.346962900037397, -51.2563188861782 ], [ -72.346978263984795, -51.256300532937203 ], [ -72.346863716748402, -51.255768301086199 ], [ -72.344243406458801, -51.255724265907403 ], [ -72.3442305191911, -51.255807935675101 ], [ -72.343334992659607, -51.255750241896997 ], [ -72.343371073632497, -51.255463604793697 ], [ -72.342457493194004, -51.255418320586699 ], [ -72.342083530173696, -51.257059338641 ], [ -72.344039028000793, -51.257225156894201 ] ] ] } },
{ "type": "Feature", "properties": { "id": "monoparte.6", "Name": null, "description": null, "timestamp": null, "begin": null, "end": null, "altitudeMode": null, "tessellate": -1, "extrude": 0, "visibility": -1, "drawOrder": null, "icon": null, "REG": "Magallanes", "COM": "Torres del Paine", "LOC": "Villa Cerro Castillo", "ZONA": "ZE3", "NOM": "ZE3", "UPERM": "Equipamiento, aceptado solamente a escala regional de áreas verdes, esparcimiento y turismo.", "UPROH": "Todos los no mencionados como permitidos.", "P_DO": "27/02/1993", "N_DOC": "3", "T_DO": "Resolución", "OBS": null }, "geometry": { "type": "Polygon", "coordinates": [ [ [ -72.346860695426003, -51.2557682499301 ], [ -72.346863716748402, -51.255768301086199 ], [ -72.346864424730498, -51.2557715920397 ], [ -72.346978263984795, -51.256300532937203 ], [ -72.346060748190993, -51.2573965552508 ], [ -72.345948371920301, -51.2573870287113 ], [ -72.345512302884401, -51.257434842768902 ], [ -72.345118309589296, -51.257493715041399 ], [ -72.344856796661006, -51.2575487966295 ], [ -72.344738522359506, -51.2576176312296 ], [ -72.344598733839504, -51.257651380017101 ], [ -72.344439587981597, -51.257679731786197 ], [ -72.344275722667703, -51.257773669884102 ], [ -72.344134665530802, -51.257920506126702 ], [ -72.344023265183097, -51.257953442380298 ], [ -72.343909706942199, -51.257956689681201 ], [ -72.343773774260299, -51.257912975594799 ], [ -72.343711821823803, -51.257843345923902 ], [ -72.343705784612595, -51.257760217371001 ], [ -72.343728135395594, -51.257676277096401 ], [ -72.343696297596594, -51.257629586399602 ], [ -72.3436175745844, -51.257590186762798 ], [ -72.343339265427105, -51.257544592597803 ], [ -72.343091934437098, -51.257533813175002 ], [ -72.342798580381, -51.257542199360302 ], [ -72.342569744185596, -51.257524940570299 ], [ -72.342481991163694, -51.2574917478616 ], [ -72.342420039815295, -51.257422117496603 ], [ -72.342349919693802, -51.257370571087002 ], [ -72.342245826255905, -51.2573735462583 ], [ -72.342143889346701, -51.257406210242898 ], [ -72.342155506610197, -51.257435628756902 ], [ -72.3422819742608, -51.257479615225598 ], [ -72.342304779378395, -51.257532514031901 ], [ -72.342224785179795, -51.257606201497303 ], [ -72.342068655038403, -51.257676115303902 ], [ -72.341950376052495, -51.257744946267103 ], [ -72.3417981058534, -51.257737397813102 ], [ -72.341651850171104, -51.257682076251399 ], [ -72.341564096108499, -51.257648883786402 ], [ -72.341520642151593, -51.257572773918596 ], [ -72.341438904438505, -51.257491807508003 ], [ -72.341398036439202, -51.257451324707297 ], [ -72.340774769263106, -51.257486982780499 ], [ -72.340406142533496, -51.2575034638338 ], [ -72.3401773071447, -51.257486199443399 ], [ -72.339995354917704, -51.257461645973997 ], [ -72.339851688015301, -51.257441949236402 ], [ -72.339647364726304, -51.257370433141702 ], [ -72.339469290447795, -51.257368540892202 ], [ -72.340869580939, -51.2580426122204 ], [ -72.345223756074503, -51.258456024322797 ], [ -72.345308822612296, -51.258457399491299 ], [ -72.345230883740101, -51.259264083296898 ], [ -72.345193420716598, -51.259479359324999 ], [ -72.345399695069801, -51.260125589544302 ], [ -72.346865615749493, -51.259836119342097 ], [ -72.3470229774058, -51.258870077512903 ], [ -72.348281609504497, -51.257087093662797 ], [ -72.349620037433795, -51.255539562968401 ], [ -72.347561165382203, -51.254979582375 ], [ -72.346695885136498, -51.255062581779299 ], [ -72.346860695426003, -51.2557682499301 ] ] ] } },
{ "type": "Feature", "properties": { "id": "monoparte.7", "Name": null, "description": null, "timestamp": null, "begin": null, "end": null, "altitudeMode": null, "tessellate": -1, "extrude": 0, "visibility": -1, "drawOrder": null, "icon": null, "REG": "Magallanes", "COM": "Torres del Paine", "LOC": "Villa Cerro Castillo", "ZONA": "ZE2", "NOM": "ZE2", "UPERM": "Equipamiento a escala vecinal de áreas verdes y deporte.", "UPROH": "Todos los no mencionados como permitidos.", "P_DO": "27/02/1993", "N_DOC": "3", "T_DO": "Resolución", "OBS": null }, "geometry": { "type": "Polygon", "coordinates": [ [ [ -72.344039028000793, -51.257225156894201 ], [ -72.346060748190993, -51.2573965552508 ], [ -72.346962900037397, -51.2563188861782 ], [ -72.344130913460702, -51.256302184323097 ], [ -72.344039028000793, -51.257225156894201 ] ] ] } }
]
}
