{
"type": "FeatureCollection",
"name": "IPT_10_PNSECC_Puntilla_Niquen_Entre_Lagos",
"crs": { "type": "name", "properties": { "name": "urn:ogc:def:crs:OGC:1.3:CRS84" } },
"features": [
{ "type": "Feature", "properties": { "id": "monoparte.1", "Name": null, "description": null, "timestamp": null, "begin": null, "end": null, "altitudeMode": null, "tessellate": -1, "extrude": 0, "visibility": -1, "drawOrder": null, "icon": null, "REG": "Los Lagos", "COM": "Entre Lagos", "LOC": "Puntilla de Ñiquen", "ZONA": "1", "NOM": "Área residencial", "UPERM": "Viviendas, además de actividades destinadas al quipamiento vecinal, asimismo se aceptarán la localización de hoteles, moteles y residenciales", "UPROH": "Para mayor detalle revisar ordenanza local", "P_DO": "20/08/1990", "N_DOC": "235", "T_DO": "Decreto", "OBS": null }, "geometry": { "type": "Polygon", "coordinates": [ [ [ -72.433877873908799, -40.711317022989803 ], [ -72.433147351151106, -40.706270584648301 ], [ -72.430460090151101, -40.706374531061499 ], [ -72.429145135446007, -40.709176871057103 ], [ -72.428732458048898, -40.710042766218599 ], [ -72.428520624392405, -40.7105530720385 ], [ -72.428431394775203, -40.711177680718798 ], [ -72.428490881675799, -40.711802289394598 ], [ -72.428699084118605, -40.713081249556502 ], [ -72.428996516894998, -40.7143304663946 ], [ -72.429148108476397, -40.715475365565197 ], [ -72.429112106919305, -40.715673549057698 ], [ -72.428884831739495, -40.716095197707801 ], [ -72.428635402329803, -40.7164302592982 ], [ -72.428539294909797, -40.716497594800202 ], [ -72.428034217621402, -40.716872211911202 ], [ -72.4272281249836, -40.717385127262602 ], [ -72.426278875268494, -40.717985338923299 ], [ -72.425440485362003, -40.718401529728702 ], [ -72.424679622456097, -40.7186880226974 ], [ -72.423717177205305, -40.7189579694004 ], [ -72.423052986559597, -40.719091885243401 ], [ -72.422373718564401, -40.719212225664897 ], [ -72.421978245895403, -40.7192277734163 ], [ -72.420951605780999, -40.719339253042797 ], [ -72.421684303864495, -40.721051313318497 ], [ -72.422043432214593, -40.721004689225097 ], [ -72.422530901455303, -40.720958828625797 ], [ -72.422555989920895, -40.7209588332043 ], [ -72.423264601906695, -40.720865971111103 ], [ -72.423472027590293, -40.720842525649701 ], [ -72.423776239588193, -40.720848439158303 ], [ -72.424016923124597, -40.720866059838798 ], [ -72.4244758328188, -40.720941747349997 ], [ -72.425618116630204, -40.721316733406098 ], [ -72.426475222787502, -40.721596719630902 ], [ -72.426892278448804, -40.721703862648198 ], [ -72.427158095545096, -40.721719013080602 ], [ -72.427292956450103, -40.721719021965903 ], [ -72.427522648492896, -40.721678589760401 ], [ -72.4277169135284, -40.721642964146497 ], [ -72.427942343869503, -40.721555454229502 ], [ -72.428402654605904, -40.721316918276599 ], [ -72.428613267672802, -40.721230016979199 ], [ -72.430480688326895, -40.720395741270501 ], [ -72.430495173576304, -40.720411055010302 ], [ -72.430500724532905, -40.720386790020598 ], [ -72.432834594271597, -40.719247361019299 ], [ -72.435505599597803, -40.717925419225999 ], [ -72.435600586787402, -40.718095617773997 ], [ -72.435505415727505, -40.717917661320001 ], [ -72.435512471747501, -40.717912764221602 ], [ -72.435856929815799, -40.717682299884899 ], [ -72.4362154488242, -40.717349333278499 ], [ -72.436482439738299, -40.7169066110187 ], [ -72.436634655325093, -40.716597011819402 ], [ -72.436730029535099, -40.716302798920502 ], [ -72.436761260882406, -40.7159028084019 ], [ -72.436689725328705, -40.7154448259068 ], [ -72.436460351529803, -40.714967583943597 ], [ -72.4363150052327, -40.714660258223603 ], [ -72.435960332743704, -40.714234009713699 ], [ -72.435725726988906, -40.714035346667899 ], [ -72.435502264341395, -40.7138746159603 ], [ -72.435233408526202, -40.713680617221101 ], [ -72.435033556123301, -40.713507664033301 ], [ -72.434712709617102, -40.713197554353201 ], [ -72.434474421807707, -40.712910700132198 ], [ -72.434226065512405, -40.712471654986402 ], [ -72.434083244405201, -40.712132128374101 ], [ -72.433885865319198, -40.711372226600801 ], [ -72.433859346985301, -40.711317680125099 ], [ -72.433877873908799, -40.711317022989803 ] ] ] } },
{ "type": "Feature", "properties": { "id": "monoparte.2", "Name": null, "description": null, "timestamp": null, "begin": null, "end": null, "altitudeMode": null, "tessellate": -1, "extrude": 0, "visibility": -1, "drawOrder": null, "icon": null, "REG": "Los Lagos", "COM": "Entre Lagos", "LOC": "Puntilla de Ñiquen", "ZONA": "5", "NOM": "Área de equipamiento turístico", "UPERM": "Hoteles, moteles, residenciales y todas aquellas edificaciones de carácter recreativo cultural, deportivo y comercial vinculado a éstos.", "UPROH": "Para mayor detalle revisar ordenanza local", "P_DO": "20/08/1990", "N_DOC": "235", "T_DO": "Decreto", "OBS": null }, "geometry": { "type": "Polygon", "coordinates": [ [ [ -72.429227583159403, -40.706185586991403 ], [ -72.429230211755893, -40.706186694940897 ], [ -72.430140438557899, -40.706386895638801 ], [ -72.434083996162002, -40.706234354612803 ], [ -72.434107250995297, -40.706208018492397 ], [ -72.434051758806305, -40.705985781862303 ], [ -72.4335846860224, -40.705473131371903 ], [ -72.432812636739598, -40.705049638080098 ], [ -72.432588944018093, -40.705009248808203 ], [ -72.432239499550505, -40.705009331704197 ], [ -72.431939385930306, -40.7050336788705 ], [ -72.431497158366895, -40.704903964144798 ], [ -72.430938945641103, -40.704674851854499 ], [ -72.430689318894807, -40.704443011571698 ], [ -72.430533233812994, -40.704317706726698 ], [ -72.430354865887793, -40.704309360713303 ], [ -72.430137547539701, -40.704309406065398 ], [ -72.429817964114903, -40.704384797987899 ], [ -72.429838440680101, -40.704969334246698 ], [ -72.429618351381393, -40.705323193043903 ], [ -72.429227583159403, -40.706185586991403 ] ] ] } },
{ "type": "Feature", "properties": { "id": "monoparte.3", "Name": null, "description": null, "timestamp": null, "begin": null, "end": null, "altitudeMode": null, "tessellate": -1, "extrude": 0, "visibility": -1, "drawOrder": null, "icon": null, "REG": "Los Lagos", "COM": "Entre Lagos", "LOC": "Puntilla de Ñiquen", "ZONA": "6", "NOM": "Área verde con equipamiento turístico", "UPERM": "Jardies y edificaciones que tengan relación con las actividades lacustres.", "UPROH": "Para mayor detalle revisar ordenanza local", "P_DO": "20/08/1990", "N_DOC": "235", "T_DO": "Decreto", "OBS": null }, "geometry": { "type": "Polygon", "coordinates": [ [ [ -72.427402396913607, -40.7097050350907 ], [ -72.428732458048898, -40.710042766218599 ], [ -72.429145135446007, -40.709176871057103 ], [ -72.427784994733202, -40.7088223243071 ], [ -72.427782481381399, -40.708828626858399 ], [ -72.427641222441594, -40.709182806093402 ], [ -72.427402396913607, -40.7097050350907 ] ] ] } },
{ "type": "Feature", "properties": { "id": "monoparte.4", "Name": null, "description": null, "timestamp": null, "begin": null, "end": null, "altitudeMode": null, "tessellate": -1, "extrude": 0, "visibility": -1, "drawOrder": null, "icon": null, "REG": "Los Lagos", "COM": "Entre Lagos", "LOC": "Puntilla de Ñiquen", "ZONA": "6", "NOM": "Área verde con equipamiento turístico", "UPERM": "Jardies y edificaciones que tengan relación con las actividades lacustres.", "UPROH": "Para mayor detalle revisar ordenanza local", "P_DO": "20/08/1990", "N_DOC": "235", "T_DO": "Decreto", "OBS": null }, "geometry": { "type": "Polygon", "coordinates": [ [ [ -72.427470464404394, -40.715991171215002 ], [ -72.428539294909797, -40.716497594800202 ], [ -72.428635402329803, -40.7164302592982 ], [ -72.428884831739495, -40.716095197707801 ], [ -72.429112106919305, -40.715673549057698 ], [ -72.429148108476397, -40.715475365565197 ], [ -72.429093507555095, -40.715458463578003 ], [ -72.427923345886398, -40.7152575130673 ], [ -72.427963744519602, -40.715646445152402 ], [ -72.427470464404394, -40.715991171215002 ] ] ] } },
{ "type": "Feature", "properties": { "id": "monoparte.5", "Name": null, "description": null, "timestamp": null, "begin": null, "end": null, "altitudeMode": null, "tessellate": -1, "extrude": 0, "visibility": -1, "drawOrder": null, "icon": null, "REG": "Los Lagos", "COM": "Entre Lagos", "LOC": "Puntilla de Ñiquen", "ZONA": "2", "NOM": "Área residencial exclusivo", "UPERM": "Viviendas", "UPROH": "Para mayor detalle revisar ordenanza local", "P_DO": "20/08/1990", "N_DOC": "235", "T_DO": "Decreto", "OBS": null }, "geometry": { "type": "Polygon", "coordinates": [ [ [ -72.421880785776693, -40.7185585112735 ], [ -72.421978245895403, -40.7192277734163 ], [ -72.422373718564401, -40.719212225664897 ], [ -72.423052986559597, -40.719091885243401 ], [ -72.423717177205305, -40.7189579694004 ], [ -72.424679622456097, -40.7186880226974 ], [ -72.425440485362003, -40.718401529728702 ], [ -72.426278875268494, -40.717985338923299 ], [ -72.4272281249836, -40.717385127262602 ], [ -72.428034217621402, -40.716872211911202 ], [ -72.428539294909797, -40.716497594800202 ], [ -72.427470464404394, -40.715991171215002 ], [ -72.427445928244893, -40.716008318103697 ], [ -72.425434555777002, -40.717324923629903 ], [ -72.424643232512395, -40.7178727003635 ], [ -72.423384572453699, -40.7181736839892 ], [ -72.421880785776693, -40.7185585112735 ] ] ] } },
{ "type": "Feature", "properties": { "id": "monoparte.6", "Name": null, "description": null, "timestamp": null, "begin": null, "end": null, "altitudeMode": null, "tessellate": -1, "extrude": 0, "visibility": -1, "drawOrder": null, "icon": null, "REG": "Los Lagos", "COM": "Entre Lagos", "LOC": "Puntilla de Ñiquen", "ZONA": "6", "NOM": "Área verde con equipamiento turístico", "UPERM": "Jardies y edificaciones que tengan relación con las actividades lacustres.", "UPROH": "Para mayor detalle revisar ordenanza local", "P_DO": "20/08/1990", "N_DOC": "235", "T_DO": "Decreto", "OBS": null }, "geometry": { "type": "Polygon", "coordinates": [ [ [ -72.419685727609703, -40.718811440544499 ], [ -72.419912833738394, -40.719452049760299 ], [ -72.421978245895403, -40.7192277734163 ], [ -72.421880785776693, -40.7185585112735 ], [ -72.421555772546398, -40.718641683882304 ], [ -72.419723658627305, -40.718817478208898 ], [ -72.419685727609703, -40.718811440544499 ] ] ] } },
{ "type": "Feature", "properties": { "id": "monoparte.7", "Name": null, "description": null, "timestamp": null, "begin": null, "end": null, "altitudeMode": null, "tessellate": -1, "extrude": 0, "visibility": -1, "drawOrder": null, "icon": null, "REG": "Los Lagos", "COM": "Entre Lagos", "LOC": "Puntilla de Ñiquen", "ZONA": "3", "NOM": "Área mixta residencial-comercial-artesania-servicios", "UPERM": "Actividades que tengan por objetivo entregra servicios al balneario, incluyendo la actividad residencial.", "UPROH": "Para mayor detalle revisar ordenanza local", "P_DO": "20/08/1990", "N_DOC": "235", "T_DO": "Decreto", "OBS": null }, "geometry": { "type": "Polygon", "coordinates": [ [ [ -72.413122514393905, -40.718901960852001 ], [ -72.413323871873999, -40.718511320290901 ], [ -72.413738401133401, -40.717822074735103 ], [ -72.412284979845495, -40.717440366266501 ], [ -72.411717898797406, -40.718276533569401 ], [ -72.411626351529407, -40.718411522164701 ], [ -72.413122514393905, -40.718901960852001 ] ] ] } },
{ "type": "Feature", "properties": { "id": "monoparte.8", "Name": null, "description": null, "timestamp": null, "begin": null, "end": null, "altitudeMode": null, "tessellate": -1, "extrude": 0, "visibility": -1, "drawOrder": null, "icon": null, "REG": "Los Lagos", "COM": "Entre Lagos", "LOC": "Puntilla de Ñiquen", "ZONA": "5", "NOM": "Área de equipamiento turístico", "UPERM": "Hoteles, moteles, residenciales y todas aquellas edificaciones de carácter recreativo cultural, deportivo y comercial vinculado a éstos.", "UPROH": "Para mayor detalle revisar ordenanza local", "P_DO": "20/08/1990", "N_DOC": "235", "T_DO": "Decreto", "OBS": null }, "geometry": { "type": "Polygon", "coordinates": [ [ [ -72.4133148779338, -40.718528769624903 ], [ -72.415181042309399, -40.719127282935197 ], [ -72.415214860600798, -40.719031201083297 ], [ -72.415606326614594, -40.718178834131699 ], [ -72.415609193978398, -40.718162535193102 ], [ -72.414150861682401, -40.717930396623302 ], [ -72.413738401133401, -40.717822074735103 ], [ -72.413323871873999, -40.718511320290901 ], [ -72.4133148779338, -40.718528769624903 ] ] ] } },
{ "type": "Feature", "properties": { "id": "monoparte.9", "Name": null, "description": null, "timestamp": null, "begin": null, "end": null, "altitudeMode": null, "tessellate": -1, "extrude": 0, "visibility": -1, "drawOrder": null, "icon": null, "REG": "Los Lagos", "COM": "Entre Lagos", "LOC": "Puntilla de Ñiquen", "ZONA": "7", "NOM": "Área verde", "UPERM": "Jardines. Se permitirán edificaciones relacionadas con la ormamentación y mantención de éstos.", "UPROH": "Para mayor detalle revisar ordenanza local", "P_DO": "20/08/1990", "N_DOC": "235", "T_DO": "Decreto", "OBS": null }, "geometry": { "type": "Polygon", "coordinates": [ [ [ -72.421097119553394, -40.721516015878798 ], [ -72.421182577418804, -40.721459239906103 ], [ -72.421377376090803, -40.7212610136677 ], [ -72.421396105428101, -40.721201347974002 ], [ -72.416414115228207, -40.719594472158498 ], [ -72.4165117091149, -40.719279297723801 ], [ -72.4158487855142, -40.719122774135997 ], [ -72.415835196965702, -40.719184770614198 ], [ -72.415214860600798, -40.719031201083297 ], [ -72.415181042309399, -40.719127282935197 ], [ -72.4133148779338, -40.718528769624903 ], [ -72.413122514393905, -40.718901960852001 ], [ -72.414049869275104, -40.7192059451069 ], [ -72.421097119553394, -40.721516015878798 ] ] ] } },
{ "type": "Feature", "properties": { "id": "monoparte.10", "Name": null, "description": null, "timestamp": null, "begin": null, "end": null, "altitudeMode": null, "tessellate": -1, "extrude": 0, "visibility": -1, "drawOrder": null, "icon": null, "REG": "Los Lagos", "COM": "Entre Lagos", "LOC": "Puntilla de Ñiquen", "ZONA": "3", "NOM": "Área mixta residencial-comercial-artesania-servicios", "UPERM": "Actividades que tengan por objetivo entregra servicios al balneario, incluyendo la actividad residencial.", "UPROH": "Para mayor detalle revisar ordenanza local", "P_DO": "20/08/1990", "N_DOC": "235", "T_DO": "Decreto", "OBS": null }, "geometry": { "type": "Polygon", "coordinates": [ [ [ -72.4165117091149, -40.719279297723801 ], [ -72.416414115228207, -40.719594472158498 ], [ -72.421396105428101, -40.721201347974002 ], [ -72.421377376090803, -40.7212610136677 ], [ -72.421182577418804, -40.721459239906103 ], [ -72.421097119553394, -40.721516015878798 ], [ -72.421105608813704, -40.721518798193898 ], [ -72.426302757628505, -40.723222409832999 ], [ -72.431038540429597, -40.720987287073498 ], [ -72.431037895077907, -40.7209848421682 ], [ -72.430480688326895, -40.720395741270501 ], [ -72.428613267672802, -40.721230016979199 ], [ -72.428402654605904, -40.721316918276599 ], [ -72.427942343869503, -40.721555454229502 ], [ -72.4277169135284, -40.721642964146497 ], [ -72.427522648492896, -40.721678589760401 ], [ -72.427292956450103, -40.721719021965903 ], [ -72.427158095545096, -40.721719013080602 ], [ -72.426892278448804, -40.721703862648198 ], [ -72.426475222787502, -40.721596719630902 ], [ -72.425618116630204, -40.721316733406098 ], [ -72.4244758328188, -40.720941747349997 ], [ -72.424016923124597, -40.720866059838798 ], [ -72.423776239588193, -40.720848439158303 ], [ -72.423472027590293, -40.720842525649701 ], [ -72.423264601906695, -40.720865971111103 ], [ -72.422555989920895, -40.7209588332043 ], [ -72.422530901455303, -40.720958828625797 ], [ -72.422043432214593, -40.721004689225097 ], [ -72.421684303864495, -40.721051313318497 ], [ -72.420951605780999, -40.719339253042797 ], [ -72.419912833738394, -40.719452049760299 ], [ -72.419033019304393, -40.719364266002302 ], [ -72.417783802332806, -40.719197704019201 ], [ -72.416867710826196, -40.719054936551899 ], [ -72.416641662035303, -40.718995449997401 ], [ -72.4165117091149, -40.719279297723801 ] ] ] } },
{ "type": "Feature", "properties": { "id": "monoparte.11", "Name": null, "description": null, "timestamp": null, "begin": null, "end": null, "altitudeMode": null, "tessellate": -1, "extrude": 0, "visibility": -1, "drawOrder": null, "icon": null, "REG": "Los Lagos", "COM": "Entre Lagos", "LOC": "Puntilla de Ñiquen", "ZONA": "4", "NOM": "Área de equipamiento deportivo", "UPERM": "Edificaciones que tengan por finalidad difundir la práctica deportiva.", "UPROH": "Para mayor detalle revisar ordenanza local", "P_DO": "20/08/1990", "N_DOC": "235", "T_DO": "Decreto", "OBS": null }, "geometry": { "type": "Polygon", "coordinates": [ [ [ -72.430495173576304, -40.720411055010302 ], [ -72.431037895077907, -40.7209848421682 ], [ -72.431038540429597, -40.720987287073498 ], [ -72.433468871389493, -40.719840256209501 ], [ -72.432834594271597, -40.719247361019299 ], [ -72.430500724532905, -40.720386790020598 ], [ -72.430495173576304, -40.720411055010302 ] ] ] } },
{ "type": "Feature", "properties": { "id": "monoparte.12", "Name": null, "description": null, "timestamp": null, "begin": null, "end": null, "altitudeMode": null, "tessellate": -1, "extrude": 0, "visibility": -1, "drawOrder": null, "icon": null, "REG": "Los Lagos", "COM": "Entre Lagos", "LOC": "Puntilla de Ñiquen", "ZONA": "3", "NOM": "Área mixta residencial-comercial-artesania-servicios", "UPERM": "Actividades que tengan por objetivo entregra servicios al balneario, incluyendo la actividad residencial.", "UPROH": "Para mayor detalle revisar ordenanza local", "P_DO": "20/08/1990", "N_DOC": "235", "T_DO": "Decreto", "OBS": null }, "geometry": { "type": "Polygon", "coordinates": [ [ [ -72.432834594271597, -40.719247361019299 ], [ -72.433468871389493, -40.719840256209501 ], [ -72.439355334531598, -40.717062054001602 ], [ -72.4387076580485, -40.716236374322499 ], [ -72.437053664977299, -40.717035049381103 ], [ -72.436676365511502, -40.717599635373901 ], [ -72.435600586787402, -40.718095617773997 ], [ -72.435505599597803, -40.717925419225999 ], [ -72.432834594271597, -40.719247361019299 ] ] ] } },
{ "type": "Feature", "properties": { "id": "monoparte.13", "Name": null, "description": null, "timestamp": null, "begin": null, "end": null, "altitudeMode": null, "tessellate": -1, "extrude": 0, "visibility": -1, "drawOrder": null, "icon": null, "REG": "Los Lagos", "COM": "Entre Lagos", "LOC": "Puntilla de Ñiquen", "ZONA": "2", "NOM": "Área residencial exclusivo", "UPERM": "Viviendas", "UPROH": "Para mayor detalle revisar ordenanza local", "P_DO": "20/08/1990", "N_DOC": "235", "T_DO": "Decreto", "OBS": null }, "geometry": { "type": "Polygon", "coordinates": [ [ [ -72.436321837393606, -40.714674703265402 ], [ -72.4365490254566, -40.714719472103802 ], [ -72.437376813469498, -40.715746603666801 ], [ -72.438389479024494, -40.715775884233999 ], [ -72.438346603244298, -40.715713461680998 ], [ -72.4376866075702, -40.7148009582573 ], [ -72.436857660545797, -40.713880639578697 ], [ -72.435721729116395, -40.712749664952497 ], [ -72.435370336750594, -40.712251603457702 ], [ -72.434226795888307, -40.712472945443402 ], [ -72.434474421807707, -40.712910700132198 ], [ -72.434712709617102, -40.713197554353201 ], [ -72.435033556123301, -40.713507664033301 ], [ -72.435233408526202, -40.713680617221101 ], [ -72.435502264341395, -40.7138746159603 ], [ -72.435725726988906, -40.714035346667899 ], [ -72.435960332743704, -40.714234009713699 ], [ -72.4363150052327, -40.714660258223603 ], [ -72.436321837393606, -40.714674703265402 ] ] ] } },
{ "type": "Feature", "properties": { "id": "monoparte.14", "Name": null, "description": null, "timestamp": null, "begin": null, "end": null, "altitudeMode": null, "tessellate": -1, "extrude": 0, "visibility": -1, "drawOrder": null, "icon": null, "REG": "Los Lagos", "COM": "Entre Lagos", "LOC": "Puntilla de Ñiquen", "ZONA": "6", "NOM": "Área verde con equipamiento turístico", "UPERM": "Jardies y edificaciones que tengan relación con las actividades lacustres.", "UPROH": "Para mayor detalle revisar ordenanza local", "P_DO": "20/08/1990", "N_DOC": "235", "T_DO": "Decreto", "OBS": null }, "geometry": { "type": "Polygon", "coordinates": [ [ [ -72.434226795888307, -40.712472945443402 ], [ -72.435370336750594, -40.712251603457702 ], [ -72.434979228983707, -40.711697249680299 ], [ -72.434949566922199, -40.711290410322803 ], [ -72.434948738122301, -40.711279040300802 ], [ -72.433859346985301, -40.711317680125099 ], [ -72.433885865319198, -40.711372226600801 ], [ -72.434083244405201, -40.712132128374101 ], [ -72.434226065512405, -40.712471654986402 ], [ -72.434226795888307, -40.712472945443402 ] ] ] } },
{ "type": "Feature", "properties": { "id": "monoparte.15", "Name": null, "description": null, "timestamp": null, "begin": null, "end": null, "altitudeMode": null, "tessellate": -1, "extrude": 0, "visibility": -1, "drawOrder": null, "icon": null, "REG": "Los Lagos", "COM": "Entre Lagos", "LOC": "Puntilla de Ñiquen", "ZONA": "6", "NOM": "Área verde con equipamiento turístico", "UPERM": "Jardies y edificaciones que tengan relación con las actividades lacustres.", "UPROH": "Para mayor detalle revisar ordenanza local", "P_DO": "20/08/1990", "N_DOC": "235", "T_DO": "Decreto", "OBS": null }, "geometry": { "type": "Polygon", "coordinates": [ [ [ -72.438389479024494, -40.715775884233999 ], [ -72.437376813469498, -40.715746603666801 ], [ -72.4365490254566, -40.714719472103802 ], [ -72.436321837393606, -40.714674703265402 ], [ -72.436460351529803, -40.714967583943597 ], [ -72.436689725328705, -40.7154448259068 ], [ -72.436761260882406, -40.7159028084019 ], [ -72.436730029535099, -40.716302798920502 ], [ -72.436634655325093, -40.716597011819402 ], [ -72.436482439738299, -40.7169066110187 ], [ -72.4362154488242, -40.717349333278499 ], [ -72.435856929815799, -40.717682299884899 ], [ -72.435512471747501, -40.717912764221602 ], [ -72.435505415727505, -40.717917661320001 ], [ -72.435600586787402, -40.718095617773997 ], [ -72.436676365511502, -40.717599635373901 ], [ -72.437053664977299, -40.717035049381103 ], [ -72.4387076580485, -40.716236374322499 ], [ -72.438692479894598, -40.716217024973197 ], [ -72.438389479024494, -40.715775884233999 ] ] ] } },
{ "type": "Feature", "properties": { "id": "monoparte.16", "Name": null, "description": null, "timestamp": null, "begin": null, "end": null, "altitudeMode": null, "tessellate": -1, "extrude": 0, "visibility": -1, "drawOrder": null, "icon": null, "REG": "Los Lagos", "COM": "Entre Lagos", "LOC": "Puntilla de Ñiquen", "ZONA": "2", "NOM": "Área residencial exclusivo", "UPERM": "Viviendas", "UPROH": "Para mayor detalle revisar ordenanza local", "P_DO": "20/08/1990", "N_DOC": "235", "T_DO": "Decreto", "OBS": null }, "geometry": { "type": "Polygon", "coordinates": [ [ [ -72.4165117091149, -40.719279297723801 ], [ -72.416641662035303, -40.718995449997401 ], [ -72.416867710826196, -40.719054936551899 ], [ -72.417783802332806, -40.719197704019201 ], [ -72.419033019304393, -40.719364266002302 ], [ -72.419912833738394, -40.719452049760299 ], [ -72.419685727609703, -40.718811440544499 ], [ -72.415609193978398, -40.718162535193102 ], [ -72.415606326614594, -40.718178834131699 ], [ -72.415214860600798, -40.719031201083297 ], [ -72.415835196965702, -40.719184770614198 ], [ -72.4158487855142, -40.719122774135997 ], [ -72.4165117091149, -40.719279297723801 ] ] ] } },
{ "type": "Feature", "properties": { "id": "monoparte.17", "Name": null, "description": null, "timestamp": null, "begin": null, "end": null, "altitudeMode": null, "tessellate": -1, "extrude": 0, "visibility": -1, "drawOrder": null, "icon": null, "REG": "Los Lagos", "COM": "Entre Lagos", "LOC": "Puntilla de Ñiquen", "ZONA": "2", "NOM": "Área residencial exclusivo", "UPERM": "Viviendas", "UPROH": "Para mayor detalle revisar ordenanza local", "P_DO": "20/08/1990", "N_DOC": "235", "T_DO": "Decreto", "OBS": null }, "geometry": { "type": "Polygon", "coordinates": [ [ [ -72.429148108476397, -40.715475365565197 ], [ -72.428996516894998, -40.7143304663946 ], [ -72.428699084118605, -40.713081249556502 ], [ -72.428490881675799, -40.711802289394598 ], [ -72.428431394775203, -40.711177680718798 ], [ -72.428520624392405, -40.7105530720385 ], [ -72.428732458048898, -40.710042766218599 ], [ -72.427402396913607, -40.7097050350907 ], [ -72.427045445239898, -40.710485567302499 ], [ -72.427230433448301, -40.712381360781897 ], [ -72.427825902320293, -40.714319390022197 ], [ -72.427923345886398, -40.7152575130673 ], [ -72.429093507555095, -40.715458463578003 ], [ -72.429148108476397, -40.715475365565197 ] ] ] } },
{ "type": "Feature", "properties": { "id": "monoparte.18", "Name": null, "description": null, "timestamp": null, "begin": null, "end": null, "altitudeMode": null, "tessellate": -1, "extrude": 0, "visibility": -1, "drawOrder": null, "icon": null, "REG": "Los Lagos", "COM": "Entre Lagos", "LOC": "Puntilla de Ñiquen", "ZONA": "2", "NOM": "Área residencial exclusivo", "UPERM": "Viviendas", "UPROH": "Para mayor detalle revisar ordenanza local", "P_DO": "20/08/1990", "N_DOC": "235", "T_DO": "Decreto", "OBS": null }, "geometry": { "type": "Polygon", "coordinates": [ [ [ -72.429145135446007, -40.709176871057103 ], [ -72.430460090151101, -40.706374531061499 ], [ -72.430456702677205, -40.706374662464398 ], [ -72.430140438557899, -40.706386895638801 ], [ -72.429230211755893, -40.706186694940897 ], [ -72.429227583159403, -40.706185586991403 ], [ -72.429150615265598, -40.706355449344002 ], [ -72.428510240543702, -40.707348200356201 ], [ -72.428322238513204, -40.707475285788398 ], [ -72.427784994733202, -40.7088223243071 ], [ -72.429145135446007, -40.709176871057103 ] ] ] } },
{ "type": "Feature", "properties": { "id": "monoparte.19", "Name": null, "description": null, "timestamp": null, "begin": null, "end": null, "altitudeMode": null, "tessellate": -1, "extrude": 0, "visibility": -1, "drawOrder": null, "icon": null, "REG": "Los Lagos", "COM": "Entre Lagos", "LOC": "Puntilla de Ñiquen", "ZONA": "2", "NOM": "Área residencial exclusivo", "UPERM": "Viviendas", "UPROH": "Para mayor detalle revisar ordenanza local", "P_DO": "20/08/1990", "N_DOC": "235", "T_DO": "Decreto", "OBS": null }, "geometry": { "type": "Polygon", "coordinates": [ [ [ -72.433147351151106, -40.706270584648301 ], [ -72.433877873908799, -40.711317022989803 ], [ -72.434948738122301, -40.711279040300802 ], [ -72.434918404137306, -40.710862994922401 ], [ -72.434995437938596, -40.710566642185903 ], [ -72.434856043611802, -40.710162576415001 ], [ -72.4348712665346, -40.709885708328798 ], [ -72.434820971141704, -40.709552200019999 ], [ -72.434797265960796, -40.708960015315697 ], [ -72.434588936996207, -40.708196703058803 ], [ -72.434445951479603, -40.707474865879398 ], [ -72.434336576846206, -40.706950661291202 ], [ -72.434148120560096, -40.7063716905867 ], [ -72.434107250995297, -40.706208018492397 ], [ -72.434083996162002, -40.706234354612803 ], [ -72.433147351151106, -40.706270584648301 ] ] ] } }
]
}
