{
"type": "FeatureCollection",
"name": "IPT_10_PRC_Puyehue",
"crs": { "type": "name", "properties": { "name": "urn:ogc:def:crs:OGC:1.3:CRS84" } },
"features": [
{ "type": "Feature", "properties": { "id": "monoparte.1", "Name": null, "description": null, "timestamp": null, "begin": null, "end": null, "altitudeMode": null, "tessellate": -1, "extrude": 0, "visibility": -1, "drawOrder": null, "icon": null, "REG": "Los Lagos", "COM": "Puyehue", "LOC": "Puyehue", "ZONA": "ZR-2", "NOM": "Zona de resguardo del suelo agrícola circundante.", "UPERM": "Sólo la vivienda del propietario y edificaciones que complementen la actividad agrícola del predio.", "UPROH": "Todos aquellos no señalados como permitidos", "P_DO": "28/01/1993", "N_DOC": "15", "T_DO": "Resolución", "OBS": null }, "geometry": { "type": "Polygon", "coordinates": [ [ [ -72.596468675237702, -40.688418836181 ], [ -72.598208152139804, -40.688748800172597 ], [ -72.598824920773595, -40.688866565293502 ], [ -72.599136892668298, -40.688919377122197 ], [ -72.599584788335903, -40.6889530523896 ], [ -72.600199377627604, -40.688957692053798 ], [ -72.601061574487204, -40.688909917413703 ], [ -72.601658032537799, -40.688795973818401 ], [ -72.602592960617301, -40.688573158459803 ], [ -72.6027349313744, -40.688521066155197 ], [ -72.602539510355896, -40.688103179813297 ], [ -72.601621402117402, -40.688334249267697 ], [ -72.601079638474403, -40.688446484435097 ], [ -72.600511869012195, -40.688511872810601 ], [ -72.5997761846657, -40.688511014595598 ], [ -72.599304853350702, -40.688478072522699 ], [ -72.598650625431304, -40.688391264756902 ], [ -72.595763100781696, -40.687814151189102 ], [ -72.594502631690204, -40.687576628505397 ], [ -72.592426779282405, -40.687185420278801 ], [ -72.588141816452804, -40.686377615552097 ], [ -72.584604161908601, -40.685662765555797 ], [ -72.584414475788094, -40.6860837491447 ], [ -72.585294713298197, -40.686258871748699 ], [ -72.587303871950994, -40.686658059274997 ], [ -72.589214274471999, -40.687039435655301 ], [ -72.590858974307494, -40.687354591240101 ], [ -72.592969917603199, -40.687753487326901 ], [ -72.594334634402301, -40.688007872343398 ], [ -72.594475846044205, -40.688034193463999 ], [ -72.596468675237702, -40.688418836181 ] ] ] } },
{ "type": "Feature", "properties": { "id": "monoparte.2", "Name": null, "description": null, "timestamp": null, "begin": null, "end": null, "altitudeMode": null, "tessellate": -1, "extrude": 0, "visibility": -1, "drawOrder": null, "icon": null, "REG": "Los Lagos", "COM": "Puyehue", "LOC": "Puyehue", "ZONA": "ZR-2", "NOM": "Zona de resguardo del suelo agrícola circundante.", "UPERM": "Sólo la vivienda del propietario y edificaciones que complementen la actividad agrícola del predio.", "UPROH": "Todos aquellos no señalados como permitidos", "P_DO": "28/01/1993", "N_DOC": "15", "T_DO": "Resolución", "OBS": null }, "geometry": { "type": "Polygon", "coordinates": [ [ [ -72.583119438631996, -40.685826088572298 ], [ -72.583851590059496, -40.685971759503303 ], [ -72.584010133639396, -40.685642044111297 ], [ -72.584011896226301, -40.685543073923498 ], [ -72.582855594830605, -40.685309386777298 ], [ -72.583094725999601, -40.6858030282757 ], [ -72.583119438631996, -40.685826088572298 ] ] ] } },
{ "type": "Feature", "properties": { "id": "monoparte.3", "Name": null, "description": null, "timestamp": null, "begin": null, "end": null, "altitudeMode": null, "tessellate": -1, "extrude": 0, "visibility": -1, "drawOrder": null, "icon": null, "REG": "Los Lagos", "COM": "Puyehue", "LOC": "Puyehue", "ZONA": "ZR-2", "NOM": "Zona de resguardo del suelo agrícola circundante.", "UPERM": "Sólo la vivienda del propietario y edificaciones que complementen la actividad agrícola del predio.", "UPROH": "Todos aquellos no señalados como permitidos", "P_DO": "28/01/1993", "N_DOC": "15", "T_DO": "Resolución", "OBS": null }, "geometry": { "type": "Polygon", "coordinates": [ [ [ -72.6053464150569, -40.687354521326299 ], [ -72.605562197875699, -40.687762512335198 ], [ -72.606557618163706, -40.687356082125198 ], [ -72.607280977393899, -40.6870564471173 ], [ -72.607533012192505, -40.686941333307999 ], [ -72.609667117622294, -40.685522275660901 ], [ -72.6120378936577, -40.6839230082048 ], [ -72.611648547218095, -40.6836054704251 ], [ -72.611089936894203, -40.683975337995903 ], [ -72.609028521114794, -40.6853623605775 ], [ -72.6073900719215, -40.686468044718197 ], [ -72.606941014004704, -40.686702506834401 ], [ -72.605348419925505, -40.687353985819698 ], [ -72.6053464150569, -40.687354521326299 ] ] ] } },
{ "type": "Feature", "properties": { "id": "monoparte.4", "Name": null, "description": null, "timestamp": null, "begin": null, "end": null, "altitudeMode": null, "tessellate": -1, "extrude": 0, "visibility": -1, "drawOrder": null, "icon": null, "REG": "Los Lagos", "COM": "Puyehue", "LOC": "Puyehue", "ZONA": "Z5", "NOM": "Zona Z-5", "UPERM": "Vivienda, equipamiento de escala comunal y vecinal; actividades productivas inofensivas; actividades complementarias a la vialidad y transporte. (ver detalles en ordenanza)", "UPROH": "Todos aquellos no señalados como permitidos", "P_DO": "28/01/1993", "N_DOC": "15", "T_DO": "Resolución", "OBS": null }, "geometry": { "type": "Polygon", "coordinates": [ [ [ -72.603768160040303, -40.687776440294201 ], [ -72.603767704039399, -40.687776562619 ], [ -72.603950186118894, -40.688098257048601 ], [ -72.604219284167797, -40.688647432395399 ], [ -72.604433232353003, -40.689044636885498 ], [ -72.604872638097703, -40.689617081444297 ], [ -72.605077863051307, -40.689939497505797 ], [ -72.605591978857802, -40.690874525563999 ], [ -72.605692260963707, -40.6910569055864 ], [ -72.606275417510602, -40.692087156030802 ], [ -72.606533177118607, -40.692542522002697 ], [ -72.606893508012504, -40.693128154184997 ], [ -72.608285220000198, -40.6927091519999 ], [ -72.608151706776994, -40.692456140797397 ], [ -72.607133142354598, -40.690623432037697 ], [ -72.606167292254796, -40.688896293058903 ], [ -72.605562197875699, -40.687762512335198 ], [ -72.6053464150569, -40.687354521326299 ], [ -72.603768160040303, -40.687776440294201 ] ] ] } },
{ "type": "Feature", "properties": { "id": "monoparte.5", "Name": null, "description": null, "timestamp": null, "begin": null, "end": null, "altitudeMode": null, "tessellate": -1, "extrude": 0, "visibility": -1, "drawOrder": null, "icon": null, "REG": "Los Lagos", "COM": "Puyehue", "LOC": "Puyehue", "ZONA": "E-1", "NOM": "Zona E-1", "UPERM": "Equipamiento de escala regional e interurbana (turismo), comunal y vecinal (deportes y áreas verdes)", "UPROH": "Todos aquellos no señalados como permitidos", "P_DO": "28/01/1993", "N_DOC": "15", "T_DO": "Resolución", "OBS": null }, "geometry": { "type": "Polygon", "coordinates": [ [ [ -72.582241460935705, -40.683516378830703 ], [ -72.582645356958196, -40.6837272238674 ], [ -72.5830794711473, -40.6839424888474 ], [ -72.583791105176104, -40.684166998558801 ], [ -72.584451083131896, -40.684303753263002 ], [ -72.584492215622404, -40.684195245678502 ], [ -72.584618774534704, -40.683864670318897 ], [ -72.584552044066101, -40.683866338645799 ], [ -72.584007328048997, -40.683850506229099 ], [ -72.583599806641303, -40.6836933936249 ], [ -72.583018181874294, -40.683354040264199 ], [ -72.582597751187194, -40.683102010358802 ], [ -72.582347276148397, -40.683392756804203 ], [ -72.582241460935705, -40.683516378830703 ] ] ] } },
{ "type": "Feature", "properties": { "id": "monoparte.6", "Name": null, "description": null, "timestamp": null, "begin": null, "end": null, "altitudeMode": null, "tessellate": -1, "extrude": 0, "visibility": -1, "drawOrder": null, "icon": null, "REG": "Los Lagos", "COM": "Puyehue", "LOC": "Puyehue", "ZONA": "Z6", "NOM": "Zona Z-6", "UPERM": "Vivienda; equipamiento de escala regional, comunal y vecinal; actividades productivas. (ver detalles en ordenanza)", "UPROH": "Todos aquellos no señalados como permitidos", "P_DO": "28/01/1993", "N_DOC": "15", "T_DO": "Resolución", "OBS": null }, "geometry": { "type": "Polygon", "coordinates": [ [ [ -72.597197711163005, -40.681464370737899 ], [ -72.597001590482506, -40.681658734280802 ], [ -72.596804471316702, -40.681660118215603 ], [ -72.596403035434804, -40.681703616972399 ], [ -72.596181529837494, -40.681756227654503 ], [ -72.596180067396602, -40.681756574968098 ], [ -72.596223339696394, -40.681824415248599 ], [ -72.596405998486304, -40.682110775390001 ], [ -72.596826825923401, -40.682078585802103 ], [ -72.597211947810095, -40.682080868800398 ], [ -72.597573352530404, -40.682107718694901 ], [ -72.597786045668499, -40.682163036782697 ], [ -72.597918902191296, -40.682247056874303 ], [ -72.598388189115894, -40.683095445670503 ], [ -72.598485612755695, -40.683059319759202 ], [ -72.599095467200499, -40.682864205635198 ], [ -72.599640926921495, -40.682647018274501 ], [ -72.599800953971197, -40.682479988332503 ], [ -72.599830298796405, -40.682470938830299 ], [ -72.600230772676497, -40.682347425916902 ], [ -72.600397573299105, -40.682236419200599 ], [ -72.600767526441302, -40.682131458854997 ], [ -72.601562833504602, -40.681923693001202 ], [ -72.601598252112296, -40.681864368940097 ], [ -72.601665759553697, -40.681723101651897 ], [ -72.601738727556807, -40.6815902420105 ], [ -72.601818663259394, -40.681470508924399 ], [ -72.601902708589606, -40.681357319083602 ], [ -72.601966049263197, -40.681278136145202 ], [ -72.602068944098406, -40.681166263934102 ], [ -72.602171967861096, -40.681057250626097 ], [ -72.602243519658899, -40.680983037227101 ], [ -72.602676276412197, -40.6806149480052 ], [ -72.603133293181401, -40.680296125860899 ], [ -72.602801514057006, -40.680148025372098 ], [ -72.602508222356306, -40.680107149690897 ], [ -72.602065970619805, -40.680089988926802 ], [ -72.601429169072304, -40.680121794396499 ], [ -72.6006557758447, -40.680174541854399 ], [ -72.600059031917596, -40.680252746155503 ], [ -72.599446355636999, -40.680383868017998 ], [ -72.598816979086607, -40.680553632269103 ], [ -72.5982918694381, -40.680741586356497 ], [ -72.597907754712196, -40.680932286778003 ], [ -72.597532961188193, -40.681179883521303 ], [ -72.597197711163005, -40.681464370737899 ] ] ] } },
{ "type": "Feature", "properties": { "id": "monoparte.7", "Name": null, "description": null, "timestamp": null, "begin": null, "end": null, "altitudeMode": null, "tessellate": -1, "extrude": 0, "visibility": -1, "drawOrder": null, "icon": null, "REG": "Los Lagos", "COM": "Puyehue", "LOC": "Puyehue", "ZONA": "Z4", "NOM": "Zona Z-4", "UPERM": "Vivienda; equipamiento de escala regional e interurbana, comunal y vecinal; actividades productivas. (ver detalles em ordenanza).", "UPROH": "Todos aquellos no señalados como permitidos", "P_DO": "28/01/1993", "N_DOC": "15", "T_DO": "Resolución", "OBS": null }, "geometry": { "type": "Polygon", "coordinates": [ [ [ -72.605386767619706, -40.681497044065502 ], [ -72.605326315239395, -40.681810259445399 ], [ -72.605293237932301, -40.6821544236563 ], [ -72.605267868793902, -40.682380396591199 ], [ -72.605167118868593, -40.682601577445901 ], [ -72.605077157158405, -40.682761658994202 ], [ -72.605094038868899, -40.682900527487398 ], [ -72.605104302030199, -40.682945837477803 ], [ -72.605112529274393, -40.682982158255697 ], [ -72.605158112893506, -40.683130852819403 ], [ -72.605318886605502, -40.683325984988599 ], [ -72.6054613640094, -40.683443055546803 ], [ -72.6054979586537, -40.683599179123497 ], [ -72.605496545363195, -40.6836599861265 ], [ -72.605954420875094, -40.683792212921396 ], [ -72.606384240371995, -40.683839532932701 ], [ -72.607005277147906, -40.683862998124702 ], [ -72.607852718143704, -40.683818613187199 ], [ -72.608324347527201, -40.684379313153201 ], [ -72.607541371132797, -40.684922083159201 ], [ -72.606713240690894, -40.685498429027099 ], [ -72.605974096641603, -40.685896846732597 ], [ -72.6053444291327, -40.686148864979401 ], [ -72.604331921349697, -40.686441442152798 ], [ -72.603218588433194, -40.686780053488498 ], [ -72.603768160040303, -40.687776440294201 ], [ -72.6053464150569, -40.687354521326299 ], [ -72.605348419925505, -40.687353985819698 ], [ -72.606941014004704, -40.686702506834401 ], [ -72.6073900719215, -40.686468044718197 ], [ -72.609028521114794, -40.6853623605775 ], [ -72.611089936894203, -40.683975337995903 ], [ -72.611648547218095, -40.6836054704251 ], [ -72.610138718217797, -40.682374063661399 ], [ -72.608202918907494, -40.680739011848097 ], [ -72.607728323159805, -40.681137747975399 ], [ -72.606938998525393, -40.681765303294803 ], [ -72.6066535320642, -40.6816955984592 ], [ -72.606309721216206, -40.681646780792001 ], [ -72.605936845735599, -40.681639380180002 ], [ -72.605700048597797, -40.681601511065999 ], [ -72.605436200775003, -40.681526361151199 ], [ -72.605386767619706, -40.681497044065502 ] ] ] } },
{ "type": "Feature", "properties": { "id": "monoparte.8", "Name": null, "description": null, "timestamp": null, "begin": null, "end": null, "altitudeMode": null, "tessellate": -1, "extrude": 0, "visibility": -1, "drawOrder": null, "icon": null, "REG": "Los Lagos", "COM": "Puyehue", "LOC": "Puyehue", "ZONA": "ZR-3", "NOM": "Zona de protección de pozos de captación, plantas de filtro y estanques de agua potable.", "UPERM": "Edificaciones que sirvan y/o complementen su funcionamiento y fines propios", "UPROH": "Todos aquellos no señalados como permitidos", "P_DO": "28/01/1993", "N_DOC": "15", "T_DO": "Resolución", "OBS": null }, "geometry": { "type": "Polygon", "coordinates": [ [ [ -72.5853885165984, -40.684485837775497 ], [ -72.585339405641605, -40.683997863710999 ], [ -72.585289266588603, -40.683998899488103 ], [ -72.585010411261194, -40.683964677568603 ], [ -72.584978292891094, -40.683855686011299 ], [ -72.584618774534704, -40.683864670318897 ], [ -72.584492215622404, -40.684195245678502 ], [ -72.584451083131896, -40.684303753263002 ], [ -72.584408859947601, -40.684362730763397 ], [ -72.5852184567226, -40.684487680814897 ], [ -72.5853885165984, -40.684485837775497 ] ] ] } },
{ "type": "Feature", "properties": { "id": "monoparte.9", "Name": null, "description": null, "timestamp": null, "begin": null, "end": null, "altitudeMode": null, "tessellate": -1, "extrude": 0, "visibility": -1, "drawOrder": null, "icon": null, "REG": "Los Lagos", "COM": "Puyehue", "LOC": "Puyehue", "ZONA": "Z3", "NOM": "Zona Z-3", "UPERM": "Vivienda; equipamiento de escala regional interurbana, comunal y vecinal; actividades productivas", "UPROH": "Todos aquellos no señalados como permitidos", "P_DO": "28/01/1993", "N_DOC": "15", "T_DO": "Resolución", "OBS": null }, "geometry": { "type": "Polygon", "coordinates": [ [ [ -72.585339405641605, -40.683997863710999 ], [ -72.5853885165984, -40.684485837775497 ], [ -72.586100658724803, -40.684478118438498 ], [ -72.587176284115202, -40.684398194487201 ], [ -72.587850983119694, -40.684284270648099 ], [ -72.588428481804399, -40.684109031323999 ], [ -72.589268646878907, -40.683754046719102 ], [ -72.589605043412902, -40.684247549176497 ], [ -72.590735736486806, -40.683969291670202 ], [ -72.591776506940903, -40.683765310739197 ], [ -72.591986863722795, -40.683748035268998 ], [ -72.592794436999, -40.683747894550699 ], [ -72.593566510830996, -40.6836988151098 ], [ -72.594227318231304, -40.683588861472202 ], [ -72.594637665809998, -40.683457307687398 ], [ -72.594684264306593, -40.683442368405203 ], [ -72.595165685116001, -40.683227198511801 ], [ -72.594547249884599, -40.682184867764398 ], [ -72.594312484544503, -40.682233459059098 ], [ -72.593755385552299, -40.682350903400298 ], [ -72.593399281047695, -40.682364384648203 ], [ -72.592714992958193, -40.6823285194288 ], [ -72.591777240047705, -40.682526917551399 ], [ -72.590728263894704, -40.682752599959898 ], [ -72.590368914709003, -40.682880549816502 ], [ -72.589750838618201, -40.683028467791701 ], [ -72.588985190801694, -40.683226250226902 ], [ -72.588239339206794, -40.683413880448498 ], [ -72.587945094228601, -40.6835302656688 ], [ -72.5877404842239, -40.683654583789902 ], [ -72.586882700695, -40.683856410635698 ], [ -72.585974015242101, -40.683984754058997 ], [ -72.585339405641605, -40.683997863710999 ] ] ] } },
{ "type": "Feature", "properties": { "id": "monoparte.10", "Name": null, "description": null, "timestamp": null, "begin": null, "end": null, "altitudeMode": null, "tessellate": -1, "extrude": 0, "visibility": -1, "drawOrder": null, "icon": null, "REG": "Los Lagos", "COM": "Puyehue", "LOC": "Puyehue", "ZONA": "Z1", "NOM": "Zona Z-1", "UPERM": "Vivienda, equipamiento de escala regional e interurbana, comunal y vecinal; actividades productivas; actividades complementarias a la vialidad y transporte. (ver detalles en ordenanza)", "UPROH": "Todos aquellos no señalados como permitidos", "P_DO": "28/01/1993", "N_DOC": "15", "T_DO": "Resolución", "OBS": null }, "geometry": { "type": "Polygon", "coordinates": [ [ [ -72.5943140580913, -40.686426938424397 ], [ -72.594867552453707, -40.6865292023937 ], [ -72.594958039304402, -40.686547431028998 ], [ -72.595354107269301, -40.686627217943801 ], [ -72.595515204430498, -40.686656422902999 ], [ -72.596660893801896, -40.686872325160699 ], [ -72.598302972072901, -40.687196391452801 ], [ -72.599341280278793, -40.687382014501601 ], [ -72.599917589980194, -40.6874462306303 ], [ -72.600227356204897, -40.6874437077919 ], [ -72.600260553586295, -40.687449819312903 ], [ -72.600178672541404, -40.6872979458496 ], [ -72.599629151786004, -40.687263615193999 ], [ -72.599117324357806, -40.687205128216497 ], [ -72.597927268953498, -40.686977177293798 ], [ -72.596464322490903, -40.686695175582301 ], [ -72.595563129066093, -40.686514790771596 ], [ -72.594360533864005, -40.686309922229697 ], [ -72.5943140580913, -40.686426938424397 ] ] ] } },
{ "type": "Feature", "properties": { "id": "monoparte.11", "Name": null, "description": null, "timestamp": null, "begin": null, "end": null, "altitudeMode": null, "tessellate": -1, "extrude": 0, "visibility": -1, "drawOrder": null, "icon": null, "REG": "Los Lagos", "COM": "Puyehue", "LOC": "Puyehue", "ZONA": "Z3", "NOM": "Zona Z-3", "UPERM": "Vivienda; equipamiento de escala regional interurbana, comunal y vecinal; actividades productivas", "UPROH": "Todos aquellos no señalados como permitidos", "P_DO": "28/01/1993", "N_DOC": "15", "T_DO": "Resolución", "OBS": null }, "geometry": { "type": "Polygon", "coordinates": [ [ [ -72.582135547285802, -40.683640113694601 ], [ -72.582588728505399, -40.683897053683403 ], [ -72.582998482582695, -40.684095801295101 ], [ -72.583457583581193, -40.684266205464603 ], [ -72.584587126478098, -40.684534910145601 ], [ -72.5866796965757, -40.684958323592298 ], [ -72.589966839037501, -40.6856215194193 ], [ -72.592053645226002, -40.686009270466997 ], [ -72.5943140580913, -40.686426938424397 ], [ -72.594360533864005, -40.686309922229697 ], [ -72.592893915972198, -40.686020025123497 ], [ -72.592805392467895, -40.686003720405701 ], [ -72.592634759752301, -40.685799345638301 ], [ -72.590738014343401, -40.6854533438133 ], [ -72.589375161593196, -40.685197919738997 ], [ -72.589581874210594, -40.684733976109797 ], [ -72.589150720788794, -40.684399500898799 ], [ -72.589605043412902, -40.684247549176497 ], [ -72.589268646878907, -40.683754046719102 ], [ -72.588428481804399, -40.684109031323999 ], [ -72.587850983119694, -40.684284270648099 ], [ -72.587176284115202, -40.684398194487201 ], [ -72.586100658724803, -40.684478118438498 ], [ -72.5853885165984, -40.684485837775497 ], [ -72.5852184567226, -40.684487680814897 ], [ -72.584408859947601, -40.684362730763397 ], [ -72.584451083131896, -40.684303753263002 ], [ -72.583791105176104, -40.684166998558801 ], [ -72.5830794711473, -40.6839424888474 ], [ -72.582645356958196, -40.6837272238674 ], [ -72.582241460935705, -40.683516378830703 ], [ -72.582138013337897, -40.683637233493997 ], [ -72.582135547285802, -40.683640113694601 ] ] ] } },
{ "type": "Feature", "properties": { "id": "monoparte.12", "Name": null, "description": null, "timestamp": null, "begin": null, "end": null, "altitudeMode": null, "tessellate": -1, "extrude": 0, "visibility": -1, "drawOrder": null, "icon": null, "REG": "Los Lagos", "COM": "Puyehue", "LOC": "Puyehue", "ZONA": "Z2", "NOM": "Zona Z-2", "UPERM": "Vivienda; equipamiento de escala comunal y vecinal; actividades productivas; actividades complementarias a la vialidad y el transporte; terminales rodoviarios", "UPROH": "Todos aquellos no señalados como permitidos", "P_DO": "28/01/1993", "N_DOC": "15", "T_DO": "Resolución", "OBS": null }, "geometry": { "type": "Polygon", "coordinates": [ [ [ -72.589605043412902, -40.684247549176497 ], [ -72.589150720788794, -40.684399500898799 ], [ -72.589581874210594, -40.684733976109797 ], [ -72.589375161593196, -40.685197919738997 ], [ -72.590738014343401, -40.6854533438133 ], [ -72.592634759752301, -40.685799345638301 ], [ -72.592805392467895, -40.686003720405701 ], [ -72.592893915972198, -40.686020025123497 ], [ -72.594360533864005, -40.686309922229697 ], [ -72.594685712158494, -40.685491181439701 ], [ -72.595188116079797, -40.684356767282601 ], [ -72.594637665809998, -40.683457307687398 ], [ -72.594227318231304, -40.683588861472202 ], [ -72.593566510830996, -40.6836988151098 ], [ -72.592794436999, -40.683747894550699 ], [ -72.591986863722795, -40.683748035268998 ], [ -72.591776506940903, -40.683765310739197 ], [ -72.590735736486806, -40.683969291670202 ], [ -72.589605043412902, -40.684247549176497 ] ] ] } },
{ "type": "Feature", "properties": { "id": "monoparte.13", "Name": null, "description": null, "timestamp": null, "begin": null, "end": null, "altitudeMode": null, "tessellate": -1, "extrude": 0, "visibility": -1, "drawOrder": null, "icon": null, "REG": "Los Lagos", "COM": "Puyehue", "LOC": "Puyehue", "ZONA": "Z2", "NOM": "Zona Z-2", "UPERM": "Vivienda; equipamiento de escala comunal y vecinal; actividades productivas; actividades complementarias a la vialidad y el transporte; terminales rodoviarios", "UPROH": "Todos aquellos no señalados como permitidos", "P_DO": "28/01/1993", "N_DOC": "15", "T_DO": "Resolución", "OBS": null }, "geometry": { "type": "Polygon", "coordinates": [ [ [ -72.595563129066093, -40.686514790771596 ], [ -72.596464322490903, -40.686695175582301 ], [ -72.597927268953498, -40.686977177293798 ], [ -72.599117324357806, -40.687205128216497 ], [ -72.599629151786004, -40.687263615193999 ], [ -72.600178672541404, -40.6872979458496 ], [ -72.599331967338799, -40.685727413797601 ], [ -72.5985757944661, -40.684328452314901 ], [ -72.596355078150793, -40.684680106675899 ], [ -72.595618610964806, -40.686350819415402 ], [ -72.595563129066093, -40.686514790771596 ] ] ] } },
{ "type": "Feature", "properties": { "id": "monoparte.14", "Name": null, "description": null, "timestamp": null, "begin": null, "end": null, "altitudeMode": null, "tessellate": -1, "extrude": 0, "visibility": -1, "drawOrder": null, "icon": null, "REG": "Los Lagos", "COM": "Puyehue", "LOC": "Puyehue", "ZONA": "Z2", "NOM": "Zona Z-2", "UPERM": "Vivienda; equipamiento de escala comunal y vecinal; actividades productivas; actividades complementarias a la vialidad y el transporte; terminales rodoviarios", "UPROH": "Todos aquellos no señalados como permitidos", "P_DO": "28/01/1993", "N_DOC": "15", "T_DO": "Resolución", "OBS": null }, "geometry": { "type": "Polygon", "coordinates": [ [ [ -72.600555562038707, -40.6857793625637 ], [ -72.601311029677007, -40.687167528554198 ], [ -72.602040372680307, -40.6869750481114 ], [ -72.602352293486106, -40.686881903779799 ], [ -72.602541515434297, -40.686762805762903 ], [ -72.602654432711205, -40.686607371081898 ], [ -72.602741025537597, -40.686399145002298 ], [ -72.6027464911691, -40.686282809875202 ], [ -72.601951656118899, -40.684821338434801 ], [ -72.601489518993205, -40.683942204875798 ], [ -72.599739006568598, -40.684276853629001 ], [ -72.600555562038707, -40.6857793625637 ] ] ] } },
{ "type": "Feature", "properties": { "id": "monoparte.15", "Name": null, "description": null, "timestamp": null, "begin": null, "end": null, "altitudeMode": null, "tessellate": -1, "extrude": 0, "visibility": -1, "drawOrder": null, "icon": null, "REG": "Los Lagos", "COM": "Puyehue", "LOC": "Puyehue", "ZONA": "E-2", "NOM": "Zona E-2", "UPERM": "Equipamiento a escala comunal (cultura, organizaciones comunitarias, áreas verdes, deportes, servicios públicos); actividades complementarias a la vialidad y el transporte (solo terminales rodoviarios)", "UPROH": "Todos aquellos no señalados como permitidos", "P_DO": "28/01/1993", "N_DOC": "15", "T_DO": "Resolución", "OBS": null }, "geometry": { "type": "Polygon", "coordinates": [ [ [ -72.602169764049705, -40.684541390557101 ], [ -72.602673059863804, -40.685457956626401 ], [ -72.602861578341404, -40.685398452323 ], [ -72.603094828149096, -40.685370313873797 ], [ -72.6034056623118, -40.6854022999579 ], [ -72.603714035459802, -40.685461169478501 ], [ -72.603920204746601, -40.685511318627199 ], [ -72.604117119027194, -40.685534949333302 ], [ -72.604764482024706, -40.685422376169903 ], [ -72.604579056275099, -40.684318823306597 ], [ -72.603988001647906, -40.684374366192898 ], [ -72.602169764049705, -40.684541390557101 ] ] ] } },
{ "type": "Feature", "properties": { "id": "monoparte.16", "Name": null, "description": null, "timestamp": null, "begin": null, "end": null, "altitudeMode": null, "tessellate": -1, "extrude": 0, "visibility": -1, "drawOrder": null, "icon": null, "REG": "Los Lagos", "COM": "Puyehue", "LOC": "Puyehue", "ZONA": "Z2", "NOM": "Zona Z-2", "UPERM": "Vivienda; equipamiento de escala comunal y vecinal; actividades productivas; actividades complementarias a la vialidad y el transporte; terminales rodoviarios", "UPROH": "Todos aquellos no señalados como permitidos", "P_DO": "28/01/1993", "N_DOC": "15", "T_DO": "Resolución", "OBS": null }, "geometry": { "type": "Polygon", "coordinates": [ [ [ -72.604915048555299, -40.693027996079302 ], [ -72.605915237523206, -40.695028097738103 ], [ -72.604573498371906, -40.695400673014397 ], [ -72.6052533634968, -40.696758489397602 ], [ -72.605982975903302, -40.6982398452827 ], [ -72.608301160427203, -40.697613305758701 ], [ -72.610489360427593, -40.697044405067601 ], [ -72.609602950360895, -40.695270132478903 ], [ -72.609141326371798, -40.694331444388801 ], [ -72.608285220000198, -40.6927091519999 ], [ -72.606893508012504, -40.693128154184997 ], [ -72.606533177118607, -40.692542522002697 ], [ -72.606275417510602, -40.692087156030802 ], [ -72.605692260963707, -40.6910569055864 ], [ -72.605591978857802, -40.690874525563999 ], [ -72.605077863051307, -40.689939497505797 ], [ -72.604872638097703, -40.689617081444297 ], [ -72.604433232353003, -40.689044636885498 ], [ -72.604219284167797, -40.688647432395399 ], [ -72.603950186118894, -40.688098257048601 ], [ -72.603767704039399, -40.687776562619 ], [ -72.602648312707998, -40.688075796311203 ], [ -72.602539510355896, -40.688103179813297 ], [ -72.6027349313744, -40.688521066155197 ], [ -72.603230501791401, -40.689583819422197 ], [ -72.604004981115096, -40.6911739949702 ], [ -72.604915048555299, -40.693027996079302 ] ] ] } },
{ "type": "Feature", "properties": { "id": "monoparte.17", "Name": null, "description": null, "timestamp": null, "begin": null, "end": null, "altitudeMode": null, "tessellate": -1, "extrude": 0, "visibility": -1, "drawOrder": null, "icon": null, "REG": "Los Lagos", "COM": "Puyehue", "LOC": "Puyehue", "ZONA": "ZI-1", "NOM": "Zona ZI-1", "UPERM": "Vivienda (solo del cuidador);equipamiento de escala comunal; actividades productivas; actividades complementarias a la vialidad y el transporte (ver detalles en ordenanza).", "UPROH": "Todos aquellos no señalados como permitidos", "P_DO": "28/01/1993", "N_DOC": "15", "T_DO": "Resolución", "OBS": null }, "geometry": { "type": "Polygon", "coordinates": [ [ [ -72.594502631690204, -40.687576628505397 ], [ -72.595763100781696, -40.687814151189102 ], [ -72.598650625431304, -40.688391264756902 ], [ -72.599304853350702, -40.688478072522699 ], [ -72.5997761846657, -40.688511014595598 ], [ -72.600511869012195, -40.688511872810601 ], [ -72.601079638474403, -40.688446484435097 ], [ -72.601621402117402, -40.688334249267697 ], [ -72.602539510355896, -40.688103179813297 ], [ -72.602648312707998, -40.688075796311203 ], [ -72.603767704039399, -40.687776562619 ], [ -72.603768160040303, -40.687776440294201 ], [ -72.603218588433194, -40.686780053488498 ], [ -72.602937064115906, -40.686856364589197 ], [ -72.602002106476405, -40.687107181397302 ], [ -72.601346855672901, -40.687278157372603 ], [ -72.601052886542604, -40.6873548616081 ], [ -72.600624320050201, -40.687418285836699 ], [ -72.600260553586295, -40.687449819312903 ], [ -72.600227356204897, -40.6874437077919 ], [ -72.599917589980194, -40.6874462306303 ], [ -72.599341280278793, -40.687382014501601 ], [ -72.598302972072901, -40.687196391452801 ], [ -72.596660893801896, -40.686872325160699 ], [ -72.595515204430498, -40.686656422902999 ], [ -72.595354107269301, -40.686627217943801 ], [ -72.594958039304402, -40.686547431028998 ], [ -72.594502631690204, -40.687576628505397 ] ] ] } },
{ "type": "Feature", "properties": { "id": "monoparte.18", "Name": null, "description": null, "timestamp": null, "begin": null, "end": null, "altitudeMode": null, "tessellate": -1, "extrude": 0, "visibility": -1, "drawOrder": null, "icon": null, "REG": "Los Lagos", "COM": "Puyehue", "LOC": "Puyehue", "ZONA": "Z4", "NOM": "Zona Z-4", "UPERM": "Vivienda; equipamiento de escala regional e interurbana, comunal y vecinal; actividades productivas. (ver detalles em ordenanza).", "UPROH": "Todos aquellos no señalados como permitidos", "P_DO": "28/01/1993", "N_DOC": "15", "T_DO": "Resolución", "OBS": null }, "geometry": { "type": "Polygon", "coordinates": [ [ [ -72.582855594830605, -40.685309386777298 ], [ -72.584011896226301, -40.685543073923498 ], [ -72.584049802127495, -40.685452533017298 ], [ -72.584096180588404, -40.685476826237498 ], [ -72.584634378817498, -40.6855897236223 ], [ -72.584604161908601, -40.685662765555797 ], [ -72.588141816452804, -40.686377615552097 ], [ -72.592426779282405, -40.687185420278801 ], [ -72.594502631690204, -40.687576628505397 ], [ -72.594958039304402, -40.686547431028998 ], [ -72.594867552453707, -40.6865292023937 ], [ -72.5943140580913, -40.686426938424397 ], [ -72.592053645226002, -40.686009270466997 ], [ -72.589966839037501, -40.6856215194193 ], [ -72.5866796965757, -40.684958323592298 ], [ -72.584587126478098, -40.684534910145601 ], [ -72.583457583581193, -40.684266205464603 ], [ -72.582998482582695, -40.684095801295101 ], [ -72.582588728505399, -40.683897053683403 ], [ -72.582135547285802, -40.683640113694601 ], [ -72.582093213155105, -40.683689571696803 ], [ -72.582044105871006, -40.683795347903398 ], [ -72.582070649409204, -40.684071530157802 ], [ -72.582173963150893, -40.684247035187099 ], [ -72.582389521265, -40.684472667797301 ], [ -72.582507665281994, -40.684632818410499 ], [ -72.582637606471806, -40.684867067205403 ], [ -72.582817535317204, -40.685230819777303 ], [ -72.582855594830605, -40.685309386777298 ] ] ] } },
{ "type": "Feature", "properties": { "id": "monoparte.19", "Name": null, "description": null, "timestamp": null, "begin": null, "end": null, "altitudeMode": null, "tessellate": -1, "extrude": 0, "visibility": -1, "drawOrder": null, "icon": null, "REG": "Los Lagos", "COM": "Puyehue", "LOC": "Puyehue", "ZONA": "Z1", "NOM": "Zona Z-1", "UPERM": "Vivienda, equipamiento de escala regional e interurbana, comunal y vecinal; actividades productivas; actividades complementarias a la vialidad y transporte. (ver detalles en ordenanza)", "UPROH": "Todos aquellos no señalados como permitidos", "P_DO": "28/01/1993", "N_DOC": "15", "T_DO": "Resolución", "OBS": null }, "geometry": { "type": "Polygon", "coordinates": [ [ [ -72.594547249884599, -40.682184867764398 ], [ -72.595165685116001, -40.683227198511801 ], [ -72.594684264306593, -40.683442368405203 ], [ -72.594637665809998, -40.683457307687398 ], [ -72.595188116079797, -40.684356767282601 ], [ -72.594685712158494, -40.685491181439701 ], [ -72.594360533864005, -40.686309922229697 ], [ -72.595563129066093, -40.686514790771596 ], [ -72.595618610964806, -40.686350819415402 ], [ -72.596355078150793, -40.684680106675899 ], [ -72.5985757944661, -40.684328452314901 ], [ -72.599331967338799, -40.685727413797601 ], [ -72.600178672541404, -40.6872979458496 ], [ -72.600260553586295, -40.687449819312903 ], [ -72.600624320050201, -40.687418285836699 ], [ -72.601052886542604, -40.6873548616081 ], [ -72.601346855672901, -40.687278157372603 ], [ -72.602002106476405, -40.687107181397302 ], [ -72.602937064115906, -40.686856364589197 ], [ -72.603218588433194, -40.686780053488498 ], [ -72.604331921349697, -40.686441442152798 ], [ -72.6053444291327, -40.686148864979401 ], [ -72.605974096641603, -40.685896846732597 ], [ -72.606713240690894, -40.685498429027099 ], [ -72.607541371132797, -40.684922083159201 ], [ -72.608324347527201, -40.684379313153201 ], [ -72.607852718143704, -40.683818613187199 ], [ -72.607005277147906, -40.683862998124702 ], [ -72.606384240371995, -40.683839532932701 ], [ -72.605954420875094, -40.683792212921396 ], [ -72.605496545363195, -40.6836599861265 ], [ -72.6054979586537, -40.683599179123497 ], [ -72.6054613640094, -40.683443055546803 ], [ -72.605318886605502, -40.683325984988599 ], [ -72.605158112893506, -40.683130852819403 ], [ -72.605112529274393, -40.682982158255697 ], [ -72.605104302030199, -40.682945837477803 ], [ -72.604326123836501, -40.682866770689103 ], [ -72.602554538206405, -40.682519433152699 ], [ -72.6025178779133, -40.682768395033499 ], [ -72.6014192153973, -40.682826544945399 ], [ -72.601415899428901, -40.683055401947598 ], [ -72.600941337370799, -40.6831941321445 ], [ -72.600792611145806, -40.682931897121399 ], [ -72.600164288253495, -40.683063510748802 ], [ -72.599858276136899, -40.682530560766097 ], [ -72.599830298796405, -40.682470938830299 ], [ -72.599800953971197, -40.682479988332503 ], [ -72.599640926921495, -40.682647018274501 ], [ -72.599095467200499, -40.682864205635198 ], [ -72.598485612755695, -40.683059319759202 ], [ -72.598388189115894, -40.683095445670503 ], [ -72.597918902191296, -40.682247056874303 ], [ -72.597786045668499, -40.682163036782697 ], [ -72.597573352530404, -40.682107718694901 ], [ -72.597211947810095, -40.682080868800398 ], [ -72.596826825923401, -40.682078585802103 ], [ -72.596405998486304, -40.682110775390001 ], [ -72.596223339696394, -40.681824415248599 ], [ -72.596180067396602, -40.681756574968098 ], [ -72.595964176418605, -40.681807851946601 ], [ -72.595582586692302, -40.681929363448297 ], [ -72.595371069232598, -40.682012210545103 ], [ -72.594813974293302, -40.682129659852997 ], [ -72.594547249884599, -40.682184867764398 ] ], [ [ -72.600555562038707, -40.6857793625637 ], [ -72.599739006568598, -40.684276853629001 ], [ -72.601489518993205, -40.683942204875798 ], [ -72.601951656118899, -40.684821338434801 ], [ -72.6027464911691, -40.686282809875202 ], [ -72.602741025537597, -40.686399145002298 ], [ -72.602654432711205, -40.686607371081898 ], [ -72.602541515434297, -40.686762805762903 ], [ -72.602352293486106, -40.686881903779799 ], [ -72.602040372680307, -40.6869750481114 ], [ -72.601311029677007, -40.687167528554198 ], [ -72.600555562038707, -40.6857793625637 ] ], [ [ -72.602169764049705, -40.684541390557101 ], [ -72.603988001647906, -40.684374366192898 ], [ -72.604579056275099, -40.684318823306597 ], [ -72.604764482024706, -40.685422376169903 ], [ -72.604117119027194, -40.685534949333302 ], [ -72.603920204746601, -40.685511318627199 ], [ -72.603714035459802, -40.685461169478501 ], [ -72.6034056623118, -40.6854022999579 ], [ -72.603094828149096, -40.685370313873797 ], [ -72.602861578341404, -40.685398452323 ], [ -72.602673059863804, -40.685457956626401 ], [ -72.602169764049705, -40.684541390557101 ] ] ] } },
{ "type": "Feature", "properties": { "id": "monoparte.20", "Name": null, "description": null, "timestamp": null, "begin": null, "end": null, "altitudeMode": null, "tessellate": -1, "extrude": 0, "visibility": -1, "drawOrder": null, "icon": null, "REG": "Los Lagos", "COM": "Puyehue", "LOC": "Puyehue", "ZONA": "ZR-3", "NOM": "Zona de protección de pozos de captación, plantas de filtro y estanques de agua potable.", "UPERM": "Edificaciones que sirvan y/o complementen su funcionamiento y fines propios", "UPROH": "Todos aquellos no señalados como permitidos", "P_DO": "28/01/1993", "N_DOC": "15", "T_DO": "Resolución", "OBS": null }, "geometry": { "type": "Polygon", "coordinates": [ [ [ -72.583851590059496, -40.685971759503303 ], [ -72.584414475788094, -40.6860837491447 ], [ -72.584604161908601, -40.685662765555797 ], [ -72.584634378817498, -40.6855897236223 ], [ -72.584096180588404, -40.685476826237498 ], [ -72.584049802127495, -40.685452533017298 ], [ -72.584011896226301, -40.685543073923498 ], [ -72.584010133639396, -40.685642044111297 ], [ -72.583851590059496, -40.685971759503303 ] ] ] } },
{ "type": "Feature", "properties": { "id": "monoparte.21", "Name": null, "description": null, "timestamp": null, "begin": null, "end": null, "altitudeMode": null, "tessellate": -1, "extrude": 0, "visibility": -1, "drawOrder": null, "icon": null, "REG": "Los Lagos", "COM": "Puyehue", "LOC": "Puyehue", "ZONA": "ZR-1", "NOM": "Zona de restricción de cauces naturales de agua y borde lacustre", "UPERM": "Obras de defensa de la ribera del lago y cauce del río y equipamiento complementario para su uso como playa pública cuando corresponda como. (ver detalles en ordenanza)", "UPROH": "Todos aquellos no señalados como permitidos", "P_DO": "28/01/1993", "N_DOC": "15", "T_DO": "Resolución", "OBS": null }, "geometry": { "type": "Polygon", "coordinates": [ [ [ -72.596181529837494, -40.681756227654503 ], [ -72.595982969345698, -40.681432395337403 ], [ -72.595880301167696, -40.681485207877998 ], [ -72.595755722920202, -40.681569515084497 ], [ -72.595644208166803, -40.6816057565756 ], [ -72.595493567229695, -40.681714703535498 ], [ -72.595209481191205, -40.681815897967802 ], [ -72.595027817563803, -40.681857304376102 ], [ -72.594871896218805, -40.681868123125298 ], [ -72.594694139066604, -40.681909407218001 ], [ -72.594600554410505, -40.681915303915297 ], [ -72.594514621116303, -40.681917982812898 ], [ -72.594510782305306, -40.681846616045704 ], [ -72.594413931797405, -40.681864528505201 ], [ -72.594335262978106, -40.681929530547002 ], [ -72.594315185241896, -40.681992706146502 ], [ -72.594099166576598, -40.682050075318699 ], [ -72.593807331859097, -40.682080022305001 ], [ -72.593592339714604, -40.682083743702897 ], [ -72.593401742347993, -40.682104576972201 ], [ -72.593275949839594, -40.682093603807203 ], [ -72.593107669666395, -40.6820928912014 ], [ -72.592896263319801, -40.682090542954803 ], [ -72.592754685860299, -40.682077082769702 ], [ -72.592644357587602, -40.682062648765999 ], [ -72.592544398561799, -40.682095548924302 ], [ -72.592527426670003, -40.682143735049898 ], [ -72.592366797821398, -40.682139803768699 ], [ -72.592326458416807, -40.682117232321403 ], [ -72.591971257364406, -40.682205740154899 ], [ -72.591874564143893, -40.682226623890003 ], [ -72.591710759802297, -40.682309169494197 ], [ -72.591627133218395, -40.682281988658701 ], [ -72.591434458030093, -40.682264161861603 ], [ -72.591298863591504, -40.682289235069597 ], [ -72.591118314422602, -40.682351450547898 ], [ -72.591017236737997, -40.682363534308301 ], [ -72.590932332011405, -40.682312564545803 ], [ -72.590906108129303, -40.682334231147202 ], [ -72.590968694704102, -40.6824067459075 ], [ -72.590643939436603, -40.6824794099794 ], [ -72.590390131612097, -40.682561777212698 ], [ -72.590166933595896, -40.682631276712499 ], [ -72.590003444354394, -40.682719767610301 ], [ -72.5895368758015, -40.682847478568 ], [ -72.589099637308493, -40.682938532354598 ], [ -72.588767703095996, -40.6830233278449 ], [ -72.588554463582895, -40.6830597502518 ], [ -72.588426040227404, -40.6830726828019 ], [ -72.588330942436599, -40.6831232996702 ], [ -72.588108058333304, -40.683198742951497 ], [ -72.587854724472095, -40.683290025708402 ], [ -72.587572534714099, -40.683426884796702 ], [ -72.586936797291202, -40.683610484317498 ], [ -72.586489587761804, -40.683734602495399 ], [ -72.586055286867804, -40.683807681798903 ], [ -72.585533772956595, -40.6838596432383 ], [ -72.585040477071303, -40.6838541317709 ], [ -72.584978292891094, -40.683855686011299 ], [ -72.585010411261194, -40.683964677568603 ], [ -72.585289266588603, -40.683998899488103 ], [ -72.585339405641605, -40.683997863710999 ], [ -72.585974015242101, -40.683984754058997 ], [ -72.586882700695, -40.683856410635698 ], [ -72.5877404842239, -40.683654583789902 ], [ -72.587945094228601, -40.6835302656688 ], [ -72.588239339206794, -40.683413880448498 ], [ -72.588985190801694, -40.683226250226902 ], [ -72.589750838618201, -40.683028467791701 ], [ -72.590368914709003, -40.682880549816502 ], [ -72.590728263894704, -40.682752599959898 ], [ -72.591777240047705, -40.682526917551399 ], [ -72.592714992958193, -40.6823285194288 ], [ -72.593399281047695, -40.682364384648203 ], [ -72.593755385552299, -40.682350903400298 ], [ -72.594312484544503, -40.682233459059098 ], [ -72.594547249884599, -40.682184867764398 ], [ -72.594813974293302, -40.682129659852997 ], [ -72.595371069232598, -40.682012210545103 ], [ -72.595582586692302, -40.681929363448297 ], [ -72.595964176418605, -40.681807851946601 ], [ -72.596180067396602, -40.681756574968098 ], [ -72.596181529837494, -40.681756227654503 ] ] ] } },
{ "type": "Feature", "properties": { "id": "monoparte.22", "Name": null, "description": null, "timestamp": null, "begin": null, "end": null, "altitudeMode": null, "tessellate": -1, "extrude": 0, "visibility": -1, "drawOrder": null, "icon": null, "REG": "Los Lagos", "COM": "Puyehue", "LOC": "Puyehue", "ZONA": "ZR-1", "NOM": "Zona de restricción de cauces naturales de agua y borde lacustre", "UPERM": "Obras de defensa de la ribera del lago y cauce del río y equipamiento complementario para su uso como playa pública cuando corresponda como. (ver detalles en ordenanza)", "UPROH": "Todos aquellos no señalados como permitidos", "P_DO": "28/01/1993", "N_DOC": "15", "T_DO": "Resolución", "OBS": null }, "geometry": { "type": "Polygon", "coordinates": [ [ [ -72.607780205163493, -40.6803718654688 ], [ -72.607553160020004, -40.6805052887646 ], [ -72.607441098007101, -40.680632702502102 ], [ -72.607262602230705, -40.680805086633299 ], [ -72.6069411396699, -40.680996239904204 ], [ -72.606600241440006, -40.681059325597701 ], [ -72.606077425825404, -40.680999426919897 ], [ -72.6057075110553, -40.680872789375599 ], [ -72.605365507688006, -40.6806833235661 ], [ -72.605032579276099, -40.680545996229299 ], [ -72.604678849703305, -40.680371192935702 ], [ -72.604314420841703, -40.680230082244798 ], [ -72.603988001911105, -40.6800973143447 ], [ -72.6036556152835, -40.679940902928102 ], [ -72.603133293181401, -40.680296125860899 ], [ -72.603176889674103, -40.680315586395601 ], [ -72.603205616628401, -40.6803284094104 ], [ -72.603777725106497, -40.680606003860198 ], [ -72.604538945168102, -40.680965849289798 ], [ -72.604842679744806, -40.681142216900497 ], [ -72.605203387806696, -40.681388286846698 ], [ -72.605386767619706, -40.681497044065502 ], [ -72.605436200775003, -40.681526361151199 ], [ -72.605700048597797, -40.681601511065999 ], [ -72.605936845735599, -40.681639380180002 ], [ -72.606309721216206, -40.681646780792001 ], [ -72.6066535320642, -40.6816955984592 ], [ -72.606938998525393, -40.681765303294803 ], [ -72.607728323159805, -40.681137747975399 ], [ -72.608202918907494, -40.680739011848097 ], [ -72.607945456162497, -40.680521540063801 ], [ -72.607780205163493, -40.6803718654688 ] ] ] } },
{ "type": "Feature", "properties": { "id": "monoparte.23", "Name": null, "description": null, "timestamp": null, "begin": null, "end": null, "altitudeMode": null, "tessellate": -1, "extrude": 0, "visibility": -1, "drawOrder": null, "icon": null, "REG": "Los Lagos", "COM": "Puyehue", "LOC": "Puyehue", "ZONA": "ZR-1", "NOM": "Zona de restricción de cauces naturales de agua y borde lacustre", "UPERM": "Obras de defensa de la ribera del lago y cauce del río y equipamiento complementario para su uso como playa pública cuando corresponda como. (ver detalles en ordenanza)", "UPROH": "Todos aquellos no señalados como permitidos", "P_DO": "28/01/1993", "N_DOC": "15", "T_DO": "Resolución", "OBS": null }, "geometry": { "type": "Polygon", "coordinates": [ [ [ -72.597655222010104, -40.680096405837503 ], [ -72.596929677206901, -40.680572974850399 ], [ -72.596218296348695, -40.681138455651599 ], [ -72.595954618250204, -40.6813861553469 ], [ -72.595982969345698, -40.681432395337403 ], [ -72.596181529837494, -40.681756227654503 ], [ -72.596403035434804, -40.681703616972399 ], [ -72.596804471316702, -40.681660118215603 ], [ -72.597001590482506, -40.681658734280802 ], [ -72.597197711163005, -40.681464370737899 ], [ -72.597532961188193, -40.681179883521303 ], [ -72.597907754712196, -40.680932286778003 ], [ -72.5982918694381, -40.680741586356497 ], [ -72.598816979086607, -40.680553632269103 ], [ -72.599446355636999, -40.680383868017998 ], [ -72.600059031917596, -40.680252746155503 ], [ -72.6006557758447, -40.680174541854399 ], [ -72.601429169072304, -40.680121794396499 ], [ -72.602065970619805, -40.680089988926802 ], [ -72.602508222356306, -40.680107149690897 ], [ -72.602801514057006, -40.680148025372098 ], [ -72.603133293181401, -40.680296125860899 ], [ -72.6036556152835, -40.679940902928102 ], [ -72.6028755908672, -40.679551258011102 ], [ -72.602568748286203, -40.67944766 ], [ -72.602142748730898, -40.679383525929701 ], [ -72.601491811991494, -40.679356201874697 ], [ -72.600875327445294, -40.679387369620002 ], [ -72.600384110955801, -40.679415559340299 ], [ -72.599296922025005, -40.6795447724095 ], [ -72.598366736311107, -40.679795409903001 ], [ -72.597655222010104, -40.680096405837503 ] ] ] } },
{ "type": "Feature", "properties": { "id": "monoparte.24", "Name": null, "description": null, "timestamp": null, "begin": null, "end": null, "altitudeMode": null, "tessellate": -1, "extrude": 0, "visibility": -1, "drawOrder": null, "icon": null, "REG": "Los Lagos", "COM": "Puyehue", "LOC": "Puyehue", "ZONA": "Z2", "NOM": "Zona Z-2", "UPERM": "Vivienda; equipamiento de escala comunal y vecinal; actividades productivas; actividades complementarias a la vialidad y el transporte; terminales rodoviarios", "UPROH": "Todos aquellos no señalados como permitidos", "P_DO": "28/01/1993", "N_DOC": "15", "T_DO": "Resolución", "OBS": null }, "geometry": { "type": "Polygon", "coordinates": [ [ [ -72.602171967861096, -40.681057250626097 ], [ -72.602068944098406, -40.681166263934102 ], [ -72.601966049263197, -40.681278136145202 ], [ -72.601902708589606, -40.681357319083602 ], [ -72.601818663259394, -40.681470508924399 ], [ -72.601738727556807, -40.6815902420105 ], [ -72.601665759553697, -40.681723101651897 ], [ -72.601598252112296, -40.681864368940097 ], [ -72.601562833504602, -40.681923693001202 ], [ -72.600767526441302, -40.682131458854997 ], [ -72.600397573299105, -40.682236419200599 ], [ -72.600230772676497, -40.682347425916902 ], [ -72.599830298796405, -40.682470938830299 ], [ -72.599858276136899, -40.682530560766097 ], [ -72.600164288253495, -40.683063510748802 ], [ -72.600792611145806, -40.682931897121399 ], [ -72.600941337370799, -40.6831941321445 ], [ -72.601415899428901, -40.683055401947598 ], [ -72.6014192153973, -40.682826544945399 ], [ -72.6025178779133, -40.682768395033499 ], [ -72.602554538206405, -40.682519433152699 ], [ -72.604326123836501, -40.682866770689103 ], [ -72.605104302030199, -40.682945837477803 ], [ -72.605094038868899, -40.682900527487398 ], [ -72.605077157158405, -40.682761658994202 ], [ -72.605167118868593, -40.682601577445901 ], [ -72.605267868793902, -40.682380396591199 ], [ -72.605293237932301, -40.6821544236563 ], [ -72.605326315239395, -40.681810259445399 ], [ -72.605386767619706, -40.681497044065502 ], [ -72.605203387806696, -40.681388286846698 ], [ -72.604842679744806, -40.681142216900497 ], [ -72.604538945168102, -40.680965849289798 ], [ -72.603777725106497, -40.680606003860198 ], [ -72.603205616628401, -40.6803284094104 ], [ -72.603176889674103, -40.680315586395601 ], [ -72.603133293181401, -40.680296125860899 ], [ -72.602676276412197, -40.6806149480052 ], [ -72.602243519658899, -40.680983037227101 ], [ -72.602171967861096, -40.681057250626097 ] ] ] } }
]
}
