{
"type": "FeatureCollection",
"name": "IPT_10_PNSECC_San_Juan_Costa_Pauacho",
"crs": { "type": "name", "properties": { "name": "urn:ogc:def:crs:OGC:1.3:CRS84" } },
"features": [
{ "type": "Feature", "properties": { "id": "monoparte.1", "Name": null, "description": null, "timestamp": null, "begin": null, "end": null, "altitudeMode": null, "tessellate": -1, "extrude": 0, "visibility": -1, "drawOrder": null, "icon": null, "REG": "Los Lagos", "COM": "San Juan de La Costa", "LOC": "Puaucho", "ZONA": "R-1", "NOM": "Protección de vertientes y cauces naturales de agua", "UPERM": "Obras e instalaciones propias de captaciones de agua", "UPROH": "Todos aquellos no indicados como permitidos", "P_DO": "12/01/1989", "N_DOC": "229", "T_DO": "Decreto", "OBS": null }, "geometry": { "type": "Polygon", "coordinates": [ [ [ -73.464649648601494, -40.609346677375001 ], [ -73.464622763387496, -40.609258524039397 ], [ -73.464539398471004, -40.608983478598198 ], [ -73.464513950197102, -40.608864387217601 ], [ -73.464538346301893, -40.608817698669803 ], [ -73.464662014981798, -40.608759540773498 ], [ -73.464834769463707, -40.608649926129097 ], [ -73.464909986440304, -40.6085402768514 ], [ -73.464920221387203, -40.608431239266402 ], [ -73.464911771084999, -40.608229531906296 ], [ -73.464916601807403, -40.607851958894997 ], [ -73.464938003140404, -40.607572855520097 ], [ -73.464983456884497, -40.607391931966603 ], [ -73.465024302365507, -40.607216904856998 ], [ -73.465142223579306, -40.606922626696402 ], [ -73.465283649585999, -40.606680805767603 ], [ -73.4654449011704, -40.606436310356997 ], [ -73.465469594220593, -40.606319088383103 ], [ -73.465489722854699, -40.606133427775703 ], [ -73.465504651950098, -40.605869822614999 ], [ -73.465517642136703, -40.605427130582598 ], [ -73.465539039912201, -40.605148027232602 ], [ -73.465560436094407, -40.604981376749699 ], [ -73.465661608577193, -40.604773517168603 ], [ -73.4658324108063, -40.604484813008597 ], [ -73.465911006457205, -40.604275921618097 ], [ -73.4659851639138, -40.604000492058198 ], [ -73.465997256558495, -40.603881851878 ], [ -73.466010745987802, -40.603671670302198 ], [ -73.465999968779002, -40.603510078831697 ], [ -73.465959980311894, -40.603322935615601 ], [ -73.465950217633903, -40.603176552407803 ], [ -73.465967299643694, -40.603057719821301 ], [ -73.4660207384036, -40.602884109854998 ], [ -73.466025095908293, -40.602761957685303 ], [ -73.4660826349172, -40.602574847537497 ], [ -73.466144614526698, -40.602341821671203 ], [ -73.466136880411298, -40.6022258559383 ], [ -73.466109953844693, -40.602122069717304 ], [ -73.466038637789694, -40.602027627556502 ], [ -73.465971085551601, -40.601952099677597 ], [ -73.465881295873302, -40.601843124656597 ], [ -73.465767327289399, -40.601746523100203 ], [ -73.465771047499004, -40.601727318820799 ], [ -73.465876396297006, -40.601694647629003 ], [ -73.466078298569997, -40.601684918996398 ], [ -73.466375360918306, -40.6016772208649 ], [ -73.466481511436697, -40.601694074269098 ], [ -73.466732071446103, -40.6017015192541 ], [ -73.466888402567605, -40.601645905139598 ], [ -73.467001867956398, -40.601509995215103 ], [ -73.467016072873804, -40.601385555128999 ], [ -73.467009521200794, -40.6012123640987 ], [ -73.466998060583194, -40.6011382794103 ], [ -73.466974351436406, -40.600985008808998 ], [ -73.466957329376797, -40.6008582922206 ], [ -73.466954483588097, -40.600837111897299 ], [ -73.466980652841201, -40.600704583933599 ], [ -73.467032101549805, -40.600538675789103 ], [ -73.467156175384801, -40.600299430544901 ], [ -73.467275852412499, -40.6001442195059 ], [ -73.467369962188499, -40.599959103345398 ], [ -73.467397431478105, -40.5999050715997 ], [ -73.467423127814499, -40.599815571696503 ], [ -73.467187060270106, -40.599760423529197 ], [ -73.467185421340005, -40.599829578848798 ], [ -73.467173479016594, -40.599884838571597 ], [ -73.467152817222498, -40.599949966725397 ], [ -73.467125603843897, -40.600010583506197 ], [ -73.467080001536999, -40.600076678162203 ], [ -73.4670329713895, -40.6001213853514 ], [ -73.466992335401798, -40.600168227368599 ], [ -73.466959002195395, -40.600221457026102 ], [ -73.4668970290179, -40.600342029333902 ], [ -73.466842029707195, -40.600454708029901 ], [ -73.4667948930487, -40.600572799977698 ], [ -73.466771769058894, -40.600638499824498 ], [ -73.466758240434203, -40.600698109893401 ], [ -73.4667433156866, -40.600849261341402 ], [ -73.466742807207297, -40.600954110520703 ], [ -73.466752234282097, -40.601020454398302 ], [ -73.466777807890395, -40.6011414467606 ], [ -73.466799578714699, -40.6012054069257 ], [ -73.466798563140699, -40.601302651511702 ], [ -73.466792686447107, -40.601401990752002 ], [ -73.466777423997698, -40.601473103917698 ], [ -73.466732951868394, -40.601518664564701 ], [ -73.466567954579304, -40.601519340100303 ], [ -73.466321370081701, -40.601496493130298 ], [ -73.466145509346504, -40.601484246777801 ], [ -73.465961066163899, -40.601493299103197 ], [ -73.465793236020303, -40.601526484727003 ], [ -73.465628787679606, -40.601572881293599 ], [ -73.465551636413494, -40.601615896715003 ], [ -73.465513038695605, -40.601674571527397 ], [ -73.465502890727194, -40.601747391796003 ], [ -73.465527534317204, -40.601816958881599 ], [ -73.465635035516797, -40.6019290597105 ], [ -73.465793688484297, -40.602058238889803 ], [ -73.465848009350395, -40.602122843575899 ], [ -73.465883857450294, -40.602172916336301 ], [ -73.465907867737798, -40.6022329782406 ], [ -73.465912051537998, -40.602295713659103 ], [ -73.465856835277407, -40.602555160875099 ], [ -73.465796576597896, -40.6028514946832 ], [ -73.465732363564001, -40.603154175059501 ], [ -73.465725385361395, -40.603274523367297 ], [ -73.465755882949495, -40.603450598457698 ], [ -73.465780705930996, -40.603569713829799 ], [ -73.465788441081003, -40.603629453584198 ], [ -73.465790754868905, -40.603692261449503 ], [ -73.465772457429097, -40.603811617445402 ], [ -73.465744739997106, -40.604042839408201 ], [ -73.465716994479806, -40.6041611332912 ], [ -73.465613338758601, -40.604406733071201 ], [ -73.465496491580595, -40.6046514138582 ], [ -73.4653991144353, -40.604822436811602 ], [ -73.465350884514905, -40.604942953191902 ], [ -73.465322027344598, -40.605072725060303 ], [ -73.465302585107594, -40.605259312656898 ], [ -73.465295606192498, -40.605379660062098 ], [ -73.465301721915395, -40.605499500205298 ], [ -73.465311960699495, -40.605624898581603 ], [ -73.465301430544102, -40.605748243431201 ], [ -73.465300158395394, -40.605869798801898 ], [ -73.465273069921693, -40.6062510930496 ], [ -73.465259718654195, -40.606360252290102 ], [ -73.465193318799905, -40.6064614587332 ], [ -73.465101488596503, -40.606575087038202 ], [ -73.464989583827006, -40.606809569927698 ], [ -73.464902856956996, -40.6069716030173 ], [ -73.464824468560295, -40.607146178008897 ], [ -73.464789141124001, -40.607263335424101 ], [ -73.464747819261305, -40.607459346444699 ], [ -73.464724633704094, -40.6076460789374 ], [ -73.464708675233496, -40.607941171734304 ], [ -73.464700360989596, -40.608125898261903 ], [ -73.464703239425006, -40.608365941763303 ], [ -73.464709640121796, -40.608490059802399 ], [ -73.464683319888906, -40.608545399844203 ], [ -73.464424156652001, -40.608681232821297 ], [ -73.464352270456999, -40.608728331632904 ], [ -73.464293479400595, -40.608774922326099 ], [ -73.464272866945606, -40.608831471155298 ], [ -73.464270771580402, -40.608884443841099 ], [ -73.464349816244706, -40.609057209084099 ], [ -73.464388055277695, -40.609124344414298 ], [ -73.464395536246599, -40.609208394049297 ], [ -73.464422011064201, -40.609295996945399 ], [ -73.464649648601494, -40.609346677375001 ] ] ] } },
{ "type": "Feature", "properties": { "id": "monoparte.2", "Name": null, "description": null, "timestamp": null, "begin": null, "end": null, "altitudeMode": null, "tessellate": -1, "extrude": 0, "visibility": -1, "drawOrder": null, "icon": null, "REG": "Los Lagos", "COM": "San Juan de La Costa", "LOC": "Puaucho", "ZONA": "R-1", "NOM": "Protección de vertientes y cauces naturales de agua", "UPERM": "Obras e instalaciones propias de captaciones de agua", "UPROH": "Todos aquellos no indicados como permitidos", "P_DO": "12/01/1989", "N_DOC": "229", "T_DO": "Decreto", "OBS": null }, "geometry": { "type": "Polygon", "coordinates": [ [ [ -73.474480598937305, -40.601584258317899 ], [ -73.474432447031802, -40.601701318375099 ], [ -73.474530856768396, -40.6018642723825 ], [ -73.474587149872804, -40.602005035828498 ], [ -73.474586688038002, -40.602138472779302 ], [ -73.474535448108696, -40.60230723582 ], [ -73.474435493735598, -40.602542216236202 ], [ -73.474414161161306, -40.6026907581888 ], [ -73.474435539104903, -40.602963914283301 ], [ -73.474409471642801, -40.603322297712097 ], [ -73.474342022237096, -40.603622726264 ], [ -73.474269591229699, -40.603801841363598 ], [ -73.474232365908904, -40.604086801813501 ], [ -73.474241648397395, -40.604412841608799 ], [ -73.474189251398997, -40.604657888981201 ], [ -73.474184157513605, -40.604955896171198 ], [ -73.474179582381595, -40.605168114952399 ], [ -73.474204295617795, -40.6054911731487 ], [ -73.474210185273705, -40.6057196632119 ], [ -73.474175759864394, -40.6059997496899 ], [ -73.474094320574693, -40.606465111563303 ], [ -73.474080144826104, -40.606554820300403 ], [ -73.474039396888898, -40.606812703584701 ], [ -73.474015074426205, -40.607197227142599 ], [ -73.473993077274599, -40.607569748201101 ], [ -73.473958534106899, -40.607754539511802 ], [ -73.473814169602207, -40.608401030642902 ], [ -73.473706612627794, -40.608803079526297 ], [ -73.473536014205905, -40.609290961539898 ], [ -73.4734569794891, -40.609558485149599 ], [ -73.473451811723805, -40.609668279330997 ], [ -73.473466881662802, -40.6097534636205 ], [ -73.473502433564505, -40.609846072425803 ], [ -73.473504820824502, -40.609840139368501 ], [ -73.473710545789501, -40.609774975467602 ], [ -73.473693508796799, -40.609688437624001 ], [ -73.473680533491105, -40.609634620759699 ], [ -73.473773694194605, -40.609316517186798 ], [ -73.473926390876898, -40.608878884891503 ], [ -73.474016655961293, -40.608489420133402 ], [ -73.4741246153947, -40.608112132516602 ], [ -73.474185526354006, -40.607816723157299 ], [ -73.474232605346501, -40.607454664387099 ], [ -73.474290258629097, -40.606942099564499 ], [ -73.474329940476295, -40.6064974176956 ], [ -73.474399527112098, -40.606107324485002 ], [ -73.474435510940097, -40.605775715963702 ], [ -73.474434088737993, -40.6055298986753 ], [ -73.474420870715207, -40.605275963251898 ], [ -73.474436405459301, -40.604975167256299 ], [ -73.474433633847795, -40.604849480067799 ], [ -73.474416181265397, -40.604728650763803 ], [ -73.474470509079296, -40.604559291564001 ], [ -73.474488765295703, -40.604495685507501 ], [ -73.474467415031398, -40.604091969251897 ], [ -73.4744810979346, -40.603959924485402 ], [ -73.474562081175193, -40.603712338285099 ], [ -73.474634533222996, -40.6034493593069 ], [ -73.474662825574697, -40.603255279939098 ], [ -73.474673901400806, -40.603056150953499 ], [ -73.474674037990894, -40.602861735527199 ], [ -73.474644791478894, -40.6027327871534 ], [ -73.474658829498495, -40.602662196935597 ], [ -73.474704909554305, -40.602481721912497 ], [ -73.474812174813906, -40.602234545229102 ], [ -73.474835566338001, -40.602163591885102 ], [ -73.474823059750705, -40.602032564661698 ], [ -73.474746336328295, -40.601782523544003 ], [ -73.474828330375303, -40.601522032103297 ], [ -73.474532455228101, -40.601458193881797 ], [ -73.474480598937305, -40.601584258317899 ] ] ] } },
{ "type": "Feature", "properties": { "id": "monoparte.3", "Name": null, "description": null, "timestamp": null, "begin": null, "end": null, "altitudeMode": null, "tessellate": -1, "extrude": 0, "visibility": -1, "drawOrder": null, "icon": null, "REG": "Los Lagos", "COM": "San Juan de La Costa", "LOC": "Puaucho", "ZONA": "Z-F", "NOM": "Zona Z-F", "UPERM": "Equipamiento de escala comunal y vecinal de: deportes; áreas Verdes; vivienda sólo en función del equipamiento permitido.", "UPROH": "Todos aquellos no indicados como permitidos", "P_DO": "12/01/1989", "N_DOC": "229", "T_DO": "Decreto", "OBS": null }, "geometry": { "type": "Polygon", "coordinates": [ [ [ -73.468235101315798, -40.603289484779097 ], [ -73.468440453631302, -40.603322026487199 ], [ -73.468614416385194, -40.6033057530653 ], [ -73.468833877830605, -40.603268655337303 ], [ -73.469156964498097, -40.603191801914598 ], [ -73.469385936565104, -40.603156717029997 ], [ -73.4695849998255, -40.603141851544301 ], [ -73.470131321831204, -40.6023820965518 ], [ -73.470483974260702, -40.6018585682503 ], [ -73.470575595036806, -40.601685859053397 ], [ -73.468179536510803, -40.601145020096801 ], [ -73.467957956316297, -40.601707774875898 ], [ -73.467612155517699, -40.602634145842401 ], [ -73.467444858686704, -40.603074951992397 ], [ -73.468235101315798, -40.603289484779097 ] ] ] } },
{ "type": "Feature", "properties": { "id": "monoparte.4", "Name": null, "description": null, "timestamp": null, "begin": null, "end": null, "altitudeMode": null, "tessellate": -1, "extrude": 0, "visibility": -1, "drawOrder": null, "icon": null, "REG": "Los Lagos", "COM": "San Juan de La Costa", "LOC": "Puaucho", "ZONA": "Z-B", "NOM": "Zona Z-B", "UPERM": "Vivienda, Equipamiento de escala Comunal y Vecinal de: Salud; Seguridad; Culto; Cultura; Organizaciones Comunitarias; Esparcimiento y Turismo; 'Comercio Minorista; Servicios Públicos; Servicios Profesionales; Servicios Artesanales", "UPROH": "Todos aquéllos no indicados como permitidos", "P_DO": "12/01/1989", "N_DOC": "229", "T_DO": "Decreto", "OBS": null }, "geometry": { "type": "Polygon", "coordinates": [ [ [ -73.468015310285594, -40.606567706699401 ], [ -73.469474983708196, -40.606892850599202 ], [ -73.469087584129497, -40.607870394913398 ], [ -73.467814013319, -40.607585927026904 ], [ -73.467812074775793, -40.607597670387896 ], [ -73.467674780895607, -40.607999675417901 ], [ -73.467554607167699, -40.608236625201201 ], [ -73.467398363681397, -40.608424941204099 ], [ -73.467343607003201, -40.6085378187625 ], [ -73.468805583706299, -40.608872640554097 ], [ -73.469348176176297, -40.608990036211601 ], [ -73.469646082075101, -40.6082383355198 ], [ -73.469974296127702, -40.607418541677298 ], [ -73.470339029286095, -40.606502031831802 ], [ -73.470629760971207, -40.605774953750803 ], [ -73.468623432914001, -40.605323844898898 ], [ -73.468394999908398, -40.605863259582101 ], [ -73.468015310285594, -40.606567706699401 ] ] ] } },
{ "type": "Feature", "properties": { "id": "monoparte.5", "Name": null, "description": null, "timestamp": null, "begin": null, "end": null, "altitudeMode": null, "tessellate": -1, "extrude": 0, "visibility": -1, "drawOrder": null, "icon": null, "REG": "Los Lagos", "COM": "San Juan de La Costa", "LOC": "Puaucho", "ZONA": "R-3", "NOM": "Zona R-3", "UPERM": "Áreas verdes de escala comunal y vecinal", "UPROH": "Construcciones de cualquier tipo", "P_DO": "12/01/1989", "N_DOC": "229", "T_DO": "Decreto", "OBS": null }, "geometry": { "type": "Polygon", "coordinates": [ [ [ -73.466998060583194, -40.6011382794103 ], [ -73.467679304250296, -40.601292923552499 ], [ -73.467408856009399, -40.602018151306602 ], [ -73.466947685684801, -40.603258238336402 ], [ -73.466628955353301, -40.604788729521502 ], [ -73.465954384188706, -40.608036701522998 ], [ -73.465981176509302, -40.608157170423603 ], [ -73.466082855172601, -40.608322387738902 ], [ -73.466337369958893, -40.608529332003599 ], [ -73.466626291948501, -40.608689675122299 ], [ -73.466950095234594, -40.608810546358797 ], [ -73.467937256240702, -40.6090343595354 ], [ -73.468997251414507, -40.609272018685601 ], [ -73.470117289089899, -40.6095192507848 ], [ -73.470295812319193, -40.609524239594997 ], [ -73.470523852884398, -40.609474893419403 ], [ -73.470713151195497, -40.609360339479103 ], [ -73.470913754271507, -40.609181020296298 ], [ -73.471126614795295, -40.608951192831 ], [ -73.471295184950307, -40.608713552552103 ], [ -73.471395531167701, -40.6085309736998 ], [ -73.471439072090405, -40.608433985850901 ], [ -73.471618578015693, -40.607423997212898 ], [ -73.471789156207194, -40.606514418720401 ], [ -73.471871246537802, -40.6060585626159 ], [ -73.471477286951895, -40.605969912413698 ], [ -73.4714072662441, -40.606168883002503 ], [ -73.471210478039794, -40.607200984526102 ], [ -73.471058462575499, -40.608025859538202 ], [ -73.470998433802706, -40.608355778613301 ], [ -73.470922081774305, -40.608558273099199 ], [ -73.470717376828404, -40.608828286738401 ], [ -73.470456318010804, -40.609073681542696 ], [ -73.470264681883407, -40.609188325721703 ], [ -73.469348176176297, -40.608990036211601 ], [ -73.468805583706299, -40.608872640554097 ], [ -73.467343607003201, -40.6085378187625 ], [ -73.467059531397794, -40.608472757829603 ], [ -73.466771772993397, -40.608376697221502 ], [ -73.466568373704206, -40.6082565203534 ], [ -73.466458912389996, -40.608138659748597 ], [ -73.466408905944903, -40.608033385362901 ], [ -73.466528081292594, -40.607418255804603 ], [ -73.466753677836905, -40.606289746057499 ], [ -73.467031189335103, -40.604885237727501 ], [ -73.467185778555802, -40.604125944764498 ], [ -73.467348473550004, -40.603401915735702 ], [ -73.467444858686704, -40.603074951992397 ], [ -73.467612155517699, -40.602634145842401 ], [ -73.467957956316297, -40.601707774875898 ], [ -73.468179536510803, -40.601145020096801 ], [ -73.466957329376797, -40.6008582922206 ], [ -73.466974351436406, -40.600985008808998 ], [ -73.466998060583194, -40.6011382794103 ] ] ] } },
{ "type": "Feature", "properties": { "id": "monoparte.6", "Name": null, "description": null, "timestamp": null, "begin": null, "end": null, "altitudeMode": null, "tessellate": -1, "extrude": 0, "visibility": -1, "drawOrder": null, "icon": null, "REG": "Los Lagos", "COM": "San Juan de La Costa", "LOC": "Puaucho", "ZONA": "R-2", "NOM": "Zona R-2", "UPERM": "Ärea de reforestación obligatoria como defensa a la erosión provocada por la lluvia y el viento en las laderas adyacentes a los esteros Contaco Este y sin nombre Oeste.", "UPROH": "Construcciones de cualquier tipo", "P_DO": "12/01/1989", "N_DOC": "229", "T_DO": "Decreto", "OBS": null }, "geometry": { "type": "Polygon", "coordinates": [ [ [ -73.464649648601494, -40.609346677375001 ], [ -73.465280697061303, -40.609487165884403 ], [ -73.466129749579494, -40.609674413571099 ], [ -73.466839664008603, -40.609828450303603 ], [ -73.4677858505909, -40.610037651257699 ], [ -73.468800726310803, -40.610264195014103 ], [ -73.470074902426106, -40.610553577504099 ], [ -73.471020189197205, -40.610777082143599 ], [ -73.471671745199302, -40.6109276343442 ], [ -73.472948577373401, -40.611228317393802 ], [ -73.473368092733494, -40.610179946372398 ], [ -73.473502433564505, -40.609846072425803 ], [ -73.473466881662802, -40.6097534636205 ], [ -73.473451811723805, -40.609668279330997 ], [ -73.4734569794891, -40.609558485149599 ], [ -73.473536014205905, -40.609290961539898 ], [ -73.473706612627794, -40.608803079526297 ], [ -73.473814169602207, -40.608401030642902 ], [ -73.473958534106899, -40.607754539511802 ], [ -73.473993077274599, -40.607569748201101 ], [ -73.474015074426205, -40.607197227142599 ], [ -73.474039396888898, -40.606812703584701 ], [ -73.474080144826104, -40.606554820300403 ], [ -73.471871246537802, -40.6060585626159 ], [ -73.471789156207194, -40.606514418720401 ], [ -73.471618578015693, -40.607423997212898 ], [ -73.471439072090405, -40.608433985850901 ], [ -73.471395531167701, -40.6085309736998 ], [ -73.471295184950307, -40.608713552552103 ], [ -73.471126614795295, -40.608951192831 ], [ -73.470913754271507, -40.609181020296298 ], [ -73.470713151195497, -40.609360339479103 ], [ -73.470523852884398, -40.609474893419403 ], [ -73.470295812319193, -40.609524239594997 ], [ -73.470117289089899, -40.6095192507848 ], [ -73.468997251414507, -40.609272018685601 ], [ -73.467937256240702, -40.6090343595354 ], [ -73.466950095234594, -40.608810546358797 ], [ -73.466626291948501, -40.608689675122299 ], [ -73.466337369958893, -40.608529332003599 ], [ -73.466082855172601, -40.608322387738902 ], [ -73.465981176509302, -40.608157170423603 ], [ -73.465954384188706, -40.608036701522998 ], [ -73.466628955353301, -40.604788729521502 ], [ -73.466947685684801, -40.603258238336402 ], [ -73.467408856009399, -40.602018151306602 ], [ -73.467679304250296, -40.601292923552499 ], [ -73.466998060583194, -40.6011382794103 ], [ -73.467009521200794, -40.6012123640987 ], [ -73.467016072873804, -40.601385555128999 ], [ -73.467001867956398, -40.601509995215103 ], [ -73.466888402567605, -40.601645905139598 ], [ -73.466732071446103, -40.6017015192541 ], [ -73.466481511436697, -40.601694074269098 ], [ -73.466375360918306, -40.6016772208649 ], [ -73.466078298569997, -40.601684918996398 ], [ -73.465876396297006, -40.601694647629003 ], [ -73.465771047499004, -40.601727318820799 ], [ -73.465767327289399, -40.601746523100203 ], [ -73.465881295873302, -40.601843124656597 ], [ -73.465971085551601, -40.601952099677597 ], [ -73.466038637789694, -40.602027627556502 ], [ -73.466109953844693, -40.602122069717304 ], [ -73.466136880411298, -40.6022258559383 ], [ -73.466144614526698, -40.602341821671203 ], [ -73.4660826349172, -40.602574847537497 ], [ -73.466025095908293, -40.602761957685303 ], [ -73.4660207384036, -40.602884109854998 ], [ -73.465967299643694, -40.603057719821301 ], [ -73.465950217633903, -40.603176552407803 ], [ -73.465959980311894, -40.603322935615601 ], [ -73.465999968779002, -40.603510078831697 ], [ -73.466010745987802, -40.603671670302198 ], [ -73.465997256558495, -40.603881851878 ], [ -73.4659851639138, -40.604000492058198 ], [ -73.465911006457205, -40.604275921618097 ], [ -73.4658324108063, -40.604484813008597 ], [ -73.465661608577193, -40.604773517168603 ], [ -73.465560436094407, -40.604981376749699 ], [ -73.465539039912201, -40.605148027232602 ], [ -73.465517642136703, -40.605427130582598 ], [ -73.465504651950098, -40.605869822614999 ], [ -73.465489722854699, -40.606133427775703 ], [ -73.465469594220593, -40.606319088383103 ], [ -73.4654449011704, -40.606436310356997 ], [ -73.465283649585999, -40.606680805767603 ], [ -73.465142223579306, -40.606922626696402 ], [ -73.465024302365507, -40.607216904856998 ], [ -73.464983456884497, -40.607391931966603 ], [ -73.464938003140404, -40.607572855520097 ], [ -73.464916601807403, -40.607851958894997 ], [ -73.464911771084999, -40.608229531906296 ], [ -73.464920221387203, -40.608431239266402 ], [ -73.464909986440304, -40.6085402768514 ], [ -73.464834769463707, -40.608649926129097 ], [ -73.464662014981798, -40.608759540773498 ], [ -73.464538346301893, -40.608817698669803 ], [ -73.464513950197102, -40.608864387217601 ], [ -73.464539398471004, -40.608983478598198 ], [ -73.464622763387496, -40.609258524039397 ], [ -73.464649648601494, -40.609346677375001 ] ] ] } },
{ "type": "Feature", "properties": { "id": "monoparte.7", "Name": null, "description": null, "timestamp": null, "begin": null, "end": null, "altitudeMode": null, "tessellate": -1, "extrude": 0, "visibility": -1, "drawOrder": null, "icon": null, "REG": "Los Lagos", "COM": "San Juan de La Costa", "LOC": "Puaucho", "ZONA": "Z-D", "NOM": "Zona Z-D", "UPERM": "Equipamiento de escala Regional de Cultura; Educación de escala Comunal y Vecinal; Servicios Artesanaíes (sólo jardines de plantas, cultivos, etc.); Vivienda y almacenamiento, sólo en función de los equipamientos permitidos.", "UPROH": "Todos aquellos no indicados como permitidos", "P_DO": "12/01/1989", "N_DOC": "229", "T_DO": "Decreto", "OBS": null }, "geometry": { "type": "Polygon", "coordinates": [ [ [ -73.472855578068504, -40.602205400989703 ], [ -73.472718840460104, -40.603106520011202 ], [ -73.472473643355499, -40.604443076726803 ], [ -73.472407544960603, -40.6045766777846 ], [ -73.471969612550595, -40.605227409013999 ], [ -73.471534788960298, -40.605878018061802 ], [ -73.471477286951895, -40.605969912413698 ], [ -73.471871246537802, -40.6060585626159 ], [ -73.474080144826104, -40.606554820300403 ], [ -73.474094320574693, -40.606465111563303 ], [ -73.474175759864394, -40.6059997496899 ], [ -73.474210185273705, -40.6057196632119 ], [ -73.474204295617795, -40.6054911731487 ], [ -73.474179582381595, -40.605168114952399 ], [ -73.474184157513605, -40.604955896171198 ], [ -73.474189251398997, -40.604657888981201 ], [ -73.474241648397395, -40.604412841608799 ], [ -73.474232365908904, -40.604086801813501 ], [ -73.474269591229699, -40.603801841363598 ], [ -73.474342022237096, -40.603622726264 ], [ -73.474409471642801, -40.603322297712097 ], [ -73.474435539104903, -40.602963914283301 ], [ -73.474414161161306, -40.6026907581888 ], [ -73.474435493735598, -40.602542216236202 ], [ -73.474535448108696, -40.60230723582 ], [ -73.474586688038002, -40.602138472779302 ], [ -73.474587149872804, -40.602005035828498 ], [ -73.474530856768396, -40.6018642723825 ], [ -73.474432447031802, -40.601701318375099 ], [ -73.474480598937305, -40.601584258317899 ], [ -73.473229580123899, -40.601298373084497 ], [ -73.472855578068504, -40.602205400989703 ] ] ] } },
{ "type": "Feature", "properties": { "id": "monoparte.8", "Name": null, "description": null, "timestamp": null, "begin": null, "end": null, "altitudeMode": null, "tessellate": -1, "extrude": 0, "visibility": -1, "drawOrder": null, "icon": null, "REG": "Los Lagos", "COM": "San Juan de La Costa", "LOC": "Puaucho", "ZONA": "Z-E", "NOM": "Zona Z-E", "UPERM": "Equipamiento de escala Comunal y Vecinal de: Educación; Cultura; Servicios públicos; Servicios Profesionales; Vivienda sólo en función del equipamiento permitido.", "UPROH": "Todos aquellos no indicados como permitidos", "P_DO": "12/01/1989", "N_DOC": "229", "T_DO": "Decreto", "OBS": null }, "geometry": { "type": "Polygon", "coordinates": [ [ [ -73.467343607003201, -40.6085378187625 ], [ -73.467398363681397, -40.608424941204099 ], [ -73.467554607167699, -40.608236625201201 ], [ -73.467674780895607, -40.607999675417901 ], [ -73.467812074775793, -40.607597670387896 ], [ -73.467814013319, -40.607585927026904 ], [ -73.467865498989099, -40.6072739644273 ], [ -73.467872709514694, -40.607030671112199 ], [ -73.467895615660098, -40.6068117861292 ], [ -73.468015310285594, -40.606567706699401 ], [ -73.468394999908398, -40.605863259582101 ], [ -73.468623432914001, -40.605323844898898 ], [ -73.467031189335103, -40.604885237727501 ], [ -73.466753677836905, -40.606289746057499 ], [ -73.466528081292594, -40.607418255804603 ], [ -73.466408905944903, -40.608033385362901 ], [ -73.466458912389996, -40.608138659748597 ], [ -73.466568373704206, -40.6082565203534 ], [ -73.466771772993397, -40.608376697221502 ], [ -73.467059531397794, -40.608472757829603 ], [ -73.467343607003201, -40.6085378187625 ] ] ] } },
{ "type": "Feature", "properties": { "id": "monoparte.9", "Name": null, "description": null, "timestamp": null, "begin": null, "end": null, "altitudeMode": null, "tessellate": -1, "extrude": 0, "visibility": -1, "drawOrder": null, "icon": null, "REG": "Los Lagos", "COM": "San Juan de La Costa", "LOC": "Puaucho", "ZONA": "Z-A", "NOM": "Zona Z-A", "UPERM": "Vivienda, Equipamiento de escala comunal y vecinal. (ver detalles en ordenanza)", "UPROH": "Todos aquéllos no indicados como permitidos", "P_DO": "12/01/1989", "N_DOC": "229", "T_DO": "Decreto", "OBS": null }, "geometry": { "type": "Polygon", "coordinates": [ [ [ -73.469348176176297, -40.608990036211601 ], [ -73.470264681883407, -40.609188325721703 ], [ -73.470456318010804, -40.609073681542696 ], [ -73.470717376828404, -40.608828286738401 ], [ -73.470922081774305, -40.608558273099199 ], [ -73.470998433802706, -40.608355778613301 ], [ -73.471058462575499, -40.608025859538202 ], [ -73.471210478039794, -40.607200984526102 ], [ -73.4714072662441, -40.606168883002503 ], [ -73.471477286951895, -40.605969912413698 ], [ -73.471472543809199, -40.605964435191503 ], [ -73.470629760971207, -40.605774953750803 ], [ -73.470339029286095, -40.606502031831802 ], [ -73.469974296127702, -40.607418541677298 ], [ -73.469646082075101, -40.6082383355198 ], [ -73.469348176176297, -40.608990036211601 ] ] ] } },
{ "type": "Feature", "properties": { "id": "monoparte.10", "Name": null, "description": null, "timestamp": null, "begin": null, "end": null, "altitudeMode": null, "tessellate": -1, "extrude": 0, "visibility": -1, "drawOrder": null, "icon": null, "REG": "Los Lagos", "COM": "San Juan de La Costa", "LOC": "Puaucho", "ZONA": "Z-A", "NOM": "Zona Z-A", "UPERM": "Vivienda, Equipamiento de escala comunal y vecinal. (ver detalles en ordenanza)", "UPROH": "Todos aquéllos no indicados como permitidos", "P_DO": "12/01/1989", "N_DOC": "229", "T_DO": "Decreto", "OBS": null }, "geometry": { "type": "Polygon", "coordinates": [ [ [ -73.467423127814499, -40.599815571696503 ], [ -73.467397431478105, -40.5999050715997 ], [ -73.467369962188499, -40.599959103345398 ], [ -73.467275852412499, -40.6001442195059 ], [ -73.467156175384801, -40.600299430544901 ], [ -73.467032101549805, -40.600538675789103 ], [ -73.466980652841201, -40.600704583933599 ], [ -73.466954483588097, -40.600837111897299 ], [ -73.466957329376797, -40.6008582922206 ], [ -73.468179536510803, -40.601145020096801 ], [ -73.470575595036806, -40.601685859053397 ], [ -73.470483974260702, -40.6018585682503 ], [ -73.470131321831204, -40.6023820965518 ], [ -73.4695849998255, -40.603141851544301 ], [ -73.469385936565104, -40.603156717029997 ], [ -73.469156964498097, -40.603191801914598 ], [ -73.468833877830605, -40.603268655337303 ], [ -73.468614416385194, -40.6033057530653 ], [ -73.468440453631302, -40.603322026487199 ], [ -73.468235101315798, -40.603289484779097 ], [ -73.467444858686704, -40.603074951992397 ], [ -73.467348473550004, -40.603401915735702 ], [ -73.467185778555802, -40.604125944764498 ], [ -73.467031189335103, -40.604885237727501 ], [ -73.468623432914001, -40.605323844898898 ], [ -73.470629760971207, -40.605774953750803 ], [ -73.471472543809199, -40.605964435191503 ], [ -73.471477286951895, -40.605969912413698 ], [ -73.471534788960298, -40.605878018061802 ], [ -73.471969612550595, -40.605227409013999 ], [ -73.472407544960603, -40.6045766777846 ], [ -73.472473643355499, -40.604443076726803 ], [ -73.472718840460104, -40.603106520011202 ], [ -73.472855578068504, -40.602205400989703 ], [ -73.473229580123899, -40.601298373084497 ], [ -73.474480598937305, -40.601584258317899 ], [ -73.474532455228101, -40.601458193881797 ], [ -73.473800765366605, -40.601300321389999 ], [ -73.474179488863001, -40.600372177850701 ], [ -73.474271919274102, -40.600155597130197 ], [ -73.472650282636394, -40.599799688724502 ], [ -73.4713246589547, -40.599495173725302 ], [ -73.469912047488506, -40.599179720608497 ], [ -73.468842491451994, -40.5989181382769 ], [ -73.468535401546404, -40.598840937483899 ], [ -73.468079289027003, -40.599968856226603 ], [ -73.467423127814499, -40.599815571696503 ] ] ] } },
{ "type": "Feature", "properties": { "id": "monoparte.11", "Name": null, "description": null, "timestamp": null, "begin": null, "end": null, "altitudeMode": null, "tessellate": -1, "extrude": 0, "visibility": -1, "drawOrder": null, "icon": null, "REG": "Los Lagos", "COM": "San Juan de La Costa", "LOC": "Puaucho", "ZONA": "Plaza", "NOM": "Zona Plaza", "UPERM": "Sin información", "UPROH": "Sin información", "P_DO": "12/01/1989", "N_DOC": "229", "T_DO": "Decreto", "OBS": null }, "geometry": { "type": "Polygon", "coordinates": [ [ [ -73.467814013319, -40.607585927026904 ], [ -73.469087584129497, -40.607870394913398 ], [ -73.469474983708196, -40.606892850599202 ], [ -73.468015310285594, -40.606567706699401 ], [ -73.467895615660098, -40.6068117861292 ], [ -73.467872709514694, -40.607030671112199 ], [ -73.467865498989099, -40.6072739644273 ], [ -73.467814013319, -40.607585927026904 ] ] ] } }
]
}
