{
"type": "FeatureCollection",
"name": "IPT_10_PRC_Fresia",
"crs": { "type": "name", "properties": { "name": "urn:ogc:def:crs:OGC:1.3:CRS84" } },
"features": [
{ "type": "Feature", "properties": { "id": "monoparte.1", "Name": null, "description": null, "timestamp": null, "begin": null, "end": null, "altitudeMode": null, "tessellate": -1, "extrude": 0, "visibility": -1, "drawOrder": null, "icon": null, "REG": "Los Lagos", "COM": "Fresia", "LOC": "Fresia", "ZONA": "ZR-1", "NOM": "Protección de Cauces Naturales de Agua", "UPERM": "Equipamiento de áreas verdes a escala comunal. Deportes a escala vecinal, en aquellos puntos que no representen riesgos de inundación y/o sean habilitados mediante obras de mejoramiento.", "UPROH": "Todo otro uso no indicados como permitido", "P_DO": "19/01/2004", "N_DOC": "63", "T_DO": "Resolución", "OBS": null }, "geometry": { "type": "Polygon", "coordinates": [ [ [ -73.410481336030102, -41.149075566220198 ], [ -73.410584341431303, -41.149102535655402 ], [ -73.410738919381004, -41.148646923362698 ], [ -73.410697250585898, -41.1484370823162 ], [ -73.411017886700293, -41.148400956700002 ], [ -73.411106234622096, -41.148132522206701 ], [ -73.411227284378697, -41.1477526468611 ], [ -73.411363603175204, -41.1473185804712 ], [ -73.411524862565301, -41.146833525715003 ], [ -73.411599615936893, -41.146609092093001 ], [ -73.411789738522799, -41.145990705998898 ], [ -73.411831387323105, -41.1459069137127 ], [ -73.411945208929694, -41.145637822511397 ], [ -73.411949701297999, -41.145627204100599 ], [ -73.412101667539602, -41.145285451068503 ], [ -73.412616867314398, -41.144157852410999 ], [ -73.412993522581502, -41.1433607700503 ], [ -73.413029702443495, -41.143287637786997 ], [ -73.411848807501102, -41.143067443488903 ], [ -73.411182436253, -41.142941133981701 ], [ -73.411196117066396, -41.1429479548652 ], [ -73.411253245449601, -41.143728388388297 ], [ -73.411258103230296, -41.143871146998798 ], [ -73.411286227234399, -41.143937967443499 ], [ -73.411494129592498, -41.144358825983097 ], [ -73.411475579208698, -41.144434584133002 ], [ -73.411316527688996, -41.144530027899002 ], [ -73.411221814051402, -41.144597986822802 ], [ -73.411218366307693, -41.144687459955698 ], [ -73.411289071375805, -41.144895591571199 ], [ -73.411447933220899, -41.145078898281902 ], [ -73.411454946002294, -41.145253737019701 ], [ -73.411405374451604, -41.1454307469645 ], [ -73.4113986486947, -41.145541788072698 ], [ -73.411309367557095, -41.145620260178802 ], [ -73.411158307143197, -41.145693954935403 ], [ -73.411006289094999, -41.145753392639897 ], [ -73.410861378464602, -41.145848292357201 ], [ -73.410786720869197, -41.145933350713797 ], [ -73.410745071815299, -41.1460171417447 ], [ -73.410745452717904, -41.146163645971399 ], [ -73.410770130339998, -41.146319939590803 ], [ -73.410798732568495, -41.146393888588896 ], [ -73.410835092166593, -41.1464425239107 ], [ -73.4108354024318, -41.146517558348798 ], [ -73.410809502492, -41.146554288724097 ], [ -73.410746837329, -41.146606723211299 ], [ -73.410717898020906, -41.146668585320697 ], [ -73.410636822423001, -41.146939718296501 ], [ -73.410661188927307, -41.147020977525202 ], [ -73.410739579566993, -41.147132326044897 ], [ -73.410749800026906, -41.147214127069702 ], [ -73.410715976281693, -41.147344076113299 ], [ -73.410643470888402, -41.1474612137647 ], [ -73.410521966653604, -41.147623114650699 ], [ -73.410450009937406, -41.147818851325198 ], [ -73.410407304080195, -41.148027760315998 ], [ -73.410389780832205, -41.148189245880502 ], [ -73.410413260966607, -41.148327717146898 ], [ -73.410454885558096, -41.148454770779502 ], [ -73.410433054452497, -41.148552095920799 ], [ -73.410384293240696, -41.148600423880303 ], [ -73.410379888501495, -41.148675639193897 ], [ -73.410397624988803, -41.148728563814998 ], [ -73.410559463144494, -41.148815268921702 ], [ -73.410489898933903, -41.149046650524099 ], [ -73.410481336030102, -41.149075566220198 ] ] ] } },
{ "type": "Feature", "properties": { "id": "monoparte.2", "Name": null, "description": null, "timestamp": null, "begin": null, "end": null, "altitudeMode": null, "tessellate": -1, "extrude": 0, "visibility": -1, "drawOrder": null, "icon": null, "REG": "Los Lagos", "COM": "Fresia", "LOC": "Fresia", "ZONA": "ZR-1", "NOM": "Protección de Cauces Naturales de Agua", "UPERM": "Equipamiento de áreas verdes a escala comunal. Deportes a escala vecinal, en aquellos puntos que no representen riesgos de inundación y/o sean habilitados mediante obras de mejoramiento.", "UPROH": "Todo otro uso no indicados como permitido", "P_DO": "19/01/2004", "N_DOC": "63", "T_DO": "Resolución", "OBS": null }, "geometry": { "type": "Polygon", "coordinates": [ [ [ -73.410295248600406, -41.150566547604598 ], [ -73.410636089094893, -41.149685435224796 ], [ -73.410612322740207, -41.1492610850894 ], [ -73.410436134270597, -41.149228183563899 ], [ -73.410432088763699, -41.149241844472897 ], [ -73.410422560196693, -41.149381581134897 ], [ -73.410429811068894, -41.149559984624098 ], [ -73.4104492232524, -41.149637860088703 ], [ -73.410383417798201, -41.149854802032202 ], [ -73.410131082152105, -41.150532751348202 ], [ -73.410295248600406, -41.150566547604598 ] ] ] } },
{ "type": "Feature", "properties": { "id": "monoparte.3", "Name": null, "description": null, "timestamp": null, "begin": null, "end": null, "altitudeMode": null, "tessellate": -1, "extrude": 0, "visibility": -1, "drawOrder": null, "icon": null, "REG": "Los Lagos", "COM": "Fresia", "LOC": "Fresia", "ZONA": "ZU-3", "NOM": "Zona ZU-3", "UPERM": "Residencial; equipamiento de escala mediana, menos y básica; actividades productivas. (ver detalles en ordenanza)", "UPROH": "Todos aquellos no señalados como permitidos", "P_DO": "19/01/2004", "N_DOC": "63", "T_DO": "Resolución", "OBS": null }, "geometry": { "type": "Polygon", "coordinates": [ [ [ -73.410295248600406, -41.150566547604598 ], [ -73.410867586629493, -41.150684369028603 ], [ -73.411828494842197, -41.150912541369799 ], [ -73.412901040084293, -41.151160245168299 ], [ -73.414520421148794, -41.151456497425698 ], [ -73.414570466422703, -41.151286614853397 ], [ -73.414573792996194, -41.151276023101701 ], [ -73.4147067692261, -41.150852545377496 ], [ -73.414877289299497, -41.150224185748399 ], [ -73.414119751905105, -41.150067445982302 ], [ -73.413212200127305, -41.149859281082797 ], [ -73.410612322740207, -41.1492610850894 ], [ -73.410636089094893, -41.149685435224796 ], [ -73.410295248600406, -41.150566547604598 ] ] ] } },
{ "type": "Feature", "properties": { "id": "monoparte.4", "Name": null, "description": null, "timestamp": null, "begin": null, "end": null, "altitudeMode": null, "tessellate": -1, "extrude": 0, "visibility": -1, "drawOrder": null, "icon": null, "REG": "Los Lagos", "COM": "Fresia", "LOC": "Fresia", "ZONA": "ZR-2", "NOM": "Restricción de Cementerio", "UPERM": "Areas verdes a escala comunal", "UPROH": "Todo otro uso no indicados como permitido", "P_DO": "19/01/2004", "N_DOC": "63", "T_DO": "Resolución", "OBS": null }, "geometry": { "type": "Polygon", "coordinates": [ [ [ -73.409333892025302, -41.160024981000802 ], [ -73.408719627548805, -41.160501199194002 ], [ -73.407912731819295, -41.161113451761501 ], [ -73.407640154595597, -41.1613264083784 ], [ -73.407883357999694, -41.161508629659998 ], [ -73.408384483892902, -41.1618825136715 ], [ -73.409497029651305, -41.162704198940801 ], [ -73.410604504393106, -41.161844186418797 ], [ -73.411184662370104, -41.161394133445803 ], [ -73.410765599079397, -41.161088603697102 ], [ -73.409333892025302, -41.160024981000802 ] ], [ [ -73.408061445878502, -41.161309685840301 ], [ -73.4093517776287, -41.1603540172827 ], [ -73.410228321840094, -41.161013677385299 ], [ -73.408983842976596, -41.161986982787099 ], [ -73.408061445878502, -41.161309685840301 ] ] ] } },
{ "type": "Feature", "properties": { "id": "monoparte.5", "Name": null, "description": null, "timestamp": null, "begin": null, "end": null, "altitudeMode": null, "tessellate": -1, "extrude": 0, "visibility": -1, "drawOrder": null, "icon": null, "REG": "Los Lagos", "COM": "Fresia", "LOC": "Fresia", "ZONA": "ZEx-1", "NOM": "Zona ZEX-1", "UPERM": "Residencial; equipamiento de escala menor y básico; actividades productivas. (ver detalles en ordenanzas)", "UPROH": "Todos aquellos no señalados como permitidos", "P_DO": "19/01/2004", "N_DOC": "63", "T_DO": "Resolución", "OBS": null }, "geometry": { "type": "Polygon", "coordinates": [ [ [ -73.424354638355297, -41.160729242305699 ], [ -73.424651756146901, -41.160782469049202 ], [ -73.425451165718499, -41.160926804681303 ], [ -73.426949986834501, -41.161205015537099 ], [ -73.426947628504394, -41.161204320273498 ], [ -73.427007769519903, -41.161020940723603 ], [ -73.427217911518596, -41.160350537617198 ], [ -73.427534048186402, -41.159335366916601 ], [ -73.427752492199204, -41.158647966130403 ], [ -73.428035432683799, -41.157748428235998 ], [ -73.428303089387995, -41.1569495404189 ], [ -73.428428460951096, -41.156557931704498 ], [ -73.4279593271241, -41.156980153065099 ], [ -73.427407454455107, -41.157490994406103 ], [ -73.427144342576199, -41.157726265483099 ], [ -73.426841575869503, -41.1579344732164 ], [ -73.426487890695199, -41.158158936138797 ], [ -73.426034734663403, -41.158801767634003 ], [ -73.425564184639995, -41.159116493832698 ], [ -73.425510105453398, -41.159436627397703 ], [ -73.425383737344305, -41.160227688491602 ], [ -73.424910356716296, -41.160360266203497 ], [ -73.424349523873104, -41.160528370493502 ], [ -73.424349131732697, -41.160592711058598 ], [ -73.424354638355297, -41.160729242305699 ] ] ] } },
{ "type": "Feature", "properties": { "id": "monoparte.6", "Name": null, "description": null, "timestamp": null, "begin": null, "end": null, "altitudeMode": null, "tessellate": -1, "extrude": 0, "visibility": -1, "drawOrder": null, "icon": null, "REG": "Los Lagos", "COM": "Fresia", "LOC": "Fresia", "ZONA": "ZEx-2", "NOM": "Zona ZEX-2", "UPERM": "Residencial; equipamiento de escala menor, básico; actividades productivas; actividades complementarias a la vialidad y transporte. (ver detalles en ordenanza)", "UPROH": "Todos aquellos no señalados como permitidos", "P_DO": "19/01/2004", "N_DOC": "63", "T_DO": "Resolución", "OBS": null }, "geometry": { "type": "Polygon", "coordinates": [ [ [ -73.410709273337005, -41.156423140958502 ], [ -73.409770878615205, -41.157176844440997 ], [ -73.409162169058007, -41.157676676428601 ], [ -73.408287163320693, -41.158377310509003 ], [ -73.408043659029701, -41.158565328389201 ], [ -73.4072911531362, -41.1591540487209 ], [ -73.406366210103897, -41.159874451312497 ], [ -73.405381746686302, -41.160647753911199 ], [ -73.404216369672497, -41.161544121869603 ], [ -73.403434143478094, -41.162160758653997 ], [ -73.402902701866594, -41.162580169612603 ], [ -73.404057251678395, -41.163342990186202 ], [ -73.405454301058697, -41.164254340497102 ], [ -73.406093452527202, -41.164676548954297 ], [ -73.406567608897106, -41.164988935177497 ], [ -73.407268146562799, -41.164446882210399 ], [ -73.407507143804494, -41.164250103510597 ], [ -73.408346715071602, -41.163607416258699 ], [ -73.409244968311199, -41.162899933102402 ], [ -73.409497029651305, -41.162704198940801 ], [ -73.408384483892902, -41.1618825136715 ], [ -73.407883357999694, -41.161508629659998 ], [ -73.407640154595597, -41.1613264083784 ], [ -73.407912731819295, -41.161113451761501 ], [ -73.408719627548805, -41.160501199194002 ], [ -73.409333892025302, -41.160024981000802 ], [ -73.410765599079397, -41.161088603697102 ], [ -73.411184662370104, -41.161394133445803 ], [ -73.411945340947, -41.160804031345101 ], [ -73.4134916598465, -41.159538576515203 ], [ -73.414067175172093, -41.159072754285098 ], [ -73.414239445188599, -41.1589320101006 ], [ -73.4152573956667, -41.159106382656397 ], [ -73.416684460448593, -41.159364137472302 ], [ -73.416908755175697, -41.159399356026597 ], [ -73.417796898729605, -41.159555821972603 ], [ -73.418909341489098, -41.159747496305599 ], [ -73.419952595859002, -41.1599227603499 ], [ -73.420955479156902, -41.160097661141698 ], [ -73.422175634040599, -41.1603156553942 ], [ -73.422402155975703, -41.160379446476597 ], [ -73.423991540925897, -41.160664194655098 ], [ -73.423979995326604, -41.160348425015599 ], [ -73.425050072181193, -41.160030284973601 ], [ -73.425232345019694, -41.158992874394698 ], [ -73.425721651318597, -41.1586524124071 ], [ -73.426171479297594, -41.158018644400698 ], [ -73.426812171811207, -41.157585987216599 ], [ -73.426891299857203, -41.157532313051199 ], [ -73.4273951555369, -41.157057273517701 ], [ -73.427918653676102, -41.1565814743647 ], [ -73.428029945870193, -41.156478913010297 ], [ -73.428236829695507, -41.155982549498901 ], [ -73.428405488679104, -41.1555621089746 ], [ -73.4290434908348, -41.155206971019297 ], [ -73.429045988856998, -41.155010325513103 ], [ -73.428505020409403, -41.1546541492175 ], [ -73.428548067660202, -41.154264158377202 ], [ -73.428553781109102, -41.154217055203702 ], [ -73.427893586150702, -41.1541022792861 ], [ -73.427831133629198, -41.1542863435063 ], [ -73.4274098306105, -41.155693303645002 ], [ -73.427071069986297, -41.156769202812001 ], [ -73.426877977429797, -41.157365094368998 ], [ -73.425589346443303, -41.157140732896799 ], [ -73.424399471482005, -41.156931614743698 ], [ -73.423458360677998, -41.1567653259929 ], [ -73.422944642009099, -41.156673118735497 ], [ -73.422398364068002, -41.156565483760602 ], [ -73.422015474553803, -41.156496828280197 ], [ -73.421393901817396, -41.156394467265997 ], [ -73.421284963470995, -41.156738151131698 ], [ -73.421114932302899, -41.157284069153299 ], [ -73.420887396380394, -41.158024697692298 ], [ -73.420591524047694, -41.157975085976197 ], [ -73.4195681672457, -41.157795249982897 ], [ -73.418800183851005, -41.157662767851598 ], [ -73.417998993424206, -41.157523933585303 ], [ -73.417108490798995, -41.157369464839498 ], [ -73.416942177338797, -41.157926679699699 ], [ -73.415306627166004, -41.157629167837698 ], [ -73.413946664055302, -41.1573865674956 ], [ -73.412854023568798, -41.157193251207602 ], [ -73.412888273772694, -41.157057924924601 ], [ -73.413065135823203, -41.156453149174098 ], [ -73.413210972210393, -41.1559496255772 ], [ -73.413487610176801, -41.155000332081997 ], [ -73.413968166481098, -41.153333248784897 ], [ -73.414015367807096, -41.153172844714199 ], [ -73.414520421148794, -41.151456497425698 ], [ -73.412901040084293, -41.151160245168299 ], [ -73.412758522958399, -41.1516779364268 ], [ -73.412719547689605, -41.1518015312339 ], [ -73.412493349439103, -41.1525398292071 ], [ -73.412340972207005, -41.153028117257698 ], [ -73.412040602068501, -41.154070042344998 ], [ -73.4119221312599, -41.1544766219913 ], [ -73.411664260455197, -41.155388859029102 ], [ -73.411569105817307, -41.155732005296699 ], [ -73.410709273337005, -41.156423140958502 ] ] ] } },
{ "type": "Feature", "properties": { "id": "monoparte.7", "Name": null, "description": null, "timestamp": null, "begin": null, "end": null, "altitudeMode": null, "tessellate": -1, "extrude": 0, "visibility": -1, "drawOrder": null, "icon": null, "REG": "Los Lagos", "COM": "Fresia", "LOC": "Fresia", "ZONA": "ZU-1", "NOM": "Zona ZU-1", "UPERM": "Residencial; Equipamiento de escala mediana, menor y básico; actividades productivas; actividades complementarias a la vialidad y transporte. (ver detalles en ordenanza).", "UPROH": "Todos aquellos no señalados como permitidos", "P_DO": "19/01/2004", "N_DOC": "63", "T_DO": "Resolución", "OBS": null }, "geometry": { "type": "Polygon", "coordinates": [ [ [ -73.416739362664003, -41.1521194815097 ], [ -73.418596410927506, -41.152471274317698 ], [ -73.420907744718804, -41.1528827220708 ], [ -73.420644168617599, -41.153743380655897 ], [ -73.420282680712006, -41.154975885693503 ], [ -73.4224563869994, -41.155378298193803 ], [ -73.422334518592194, -41.155815394844801 ], [ -73.423502281003806, -41.156024194385999 ], [ -73.423670496472297, -41.155503120265998 ], [ -73.424181773696205, -41.153824887668399 ], [ -73.424355277280895, -41.153265489931201 ], [ -73.424606665352798, -41.152458580386302 ], [ -73.423937049879697, -41.152344383421898 ], [ -73.424072889924204, -41.151904364932697 ], [ -73.423543023796995, -41.151817545509097 ], [ -73.422745263286899, -41.1516725364637 ], [ -73.422623532238006, -41.152088186004903 ], [ -73.422152213852399, -41.151993152281896 ], [ -73.420475899453507, -41.151673456040697 ], [ -73.419127637721999, -41.151427488265703 ], [ -73.417000690441995, -41.151026787963197 ], [ -73.416851387991002, -41.151489948389901 ], [ -73.416931102938804, -41.151503562785898 ], [ -73.416740059356798, -41.1521076977047 ], [ -73.416739362664003, -41.1521194815097 ] ] ] } },
{ "type": "Feature", "properties": { "id": "monoparte.8", "Name": null, "description": null, "timestamp": null, "begin": null, "end": null, "altitudeMode": null, "tessellate": -1, "extrude": 0, "visibility": -1, "drawOrder": null, "icon": null, "REG": "Los Lagos", "COM": "Fresia", "LOC": "Fresia", "ZONA": "ZE-1", "NOM": "Zona de equipamiento deportivo ZE-1", "UPERM": "Equipamiento de escala mediana (ver detalles en ordenanza)", "UPROH": "Todos aquellos no señalados como permitidos", "P_DO": "19/01/2004", "N_DOC": "63", "T_DO": "Resolución", "OBS": null }, "geometry": { "type": "Polygon", "coordinates": [ [ [ -73.414015367807096, -41.153172844714199 ], [ -73.4144060043308, -41.1532481118983 ], [ -73.415873465030899, -41.152852259575802 ], [ -73.416133183501501, -41.152073953347397 ], [ -73.416134064879998, -41.152016740673503 ], [ -73.416275552522904, -41.151589617977699 ], [ -73.415552923685993, -41.1514601359005 ], [ -73.414573792996194, -41.151276023101701 ], [ -73.414570466422703, -41.151286614853397 ], [ -73.414520421148794, -41.151456497425698 ], [ -73.414015367807096, -41.153172844714199 ] ] ] } },
{ "type": "Feature", "properties": { "id": "monoparte.9", "Name": null, "description": null, "timestamp": null, "begin": null, "end": null, "altitudeMode": null, "tessellate": -1, "extrude": 0, "visibility": -1, "drawOrder": null, "icon": null, "REG": "Los Lagos", "COM": "Fresia", "LOC": "Fresia", "ZONA": "ZR-1", "NOM": "Protección de Cauces Naturales de Agua", "UPERM": "Equipamiento de áreas verdes a escala comunal. Deportes a escala vecinal, en aquellos puntos que no representen riesgos de inundación y/o sean habilitados mediante obras de mejoramiento.", "UPROH": "Todo otro uso no indicados como permitido", "P_DO": "19/01/2004", "N_DOC": "63", "T_DO": "Resolución", "OBS": null }, "geometry": { "type": "Polygon", "coordinates": [ [ [ -73.430156436132293, -41.149672031983002 ], [ -73.430263892289901, -41.149804880016099 ], [ -73.429952880052696, -41.150743027906998 ], [ -73.429801434339197, -41.1512092644912 ], [ -73.429698934776098, -41.151325187929203 ], [ -73.429353226269598, -41.151667280423801 ], [ -73.429215562333695, -41.151822676502 ], [ -73.429165342180298, -41.1519459651226 ], [ -73.429120912911898, -41.1520550351173 ], [ -73.428884476056794, -41.152662129121701 ], [ -73.428689105059107, -41.1531771097887 ], [ -73.428637206825499, -41.1535293234382 ], [ -73.428553781109102, -41.154217055203702 ], [ -73.428548067660202, -41.154264158377202 ], [ -73.428505020409403, -41.1546541492175 ], [ -73.429045988856998, -41.155010325513103 ], [ -73.4290434908348, -41.155206971019297 ], [ -73.428405488679104, -41.1555621089746 ], [ -73.428236829695507, -41.155982549498901 ], [ -73.428029945870193, -41.156478913010297 ], [ -73.427918653676102, -41.1565814743647 ], [ -73.4273951555369, -41.157057273517701 ], [ -73.426891299857203, -41.157532313051199 ], [ -73.426812171811207, -41.157585987216599 ], [ -73.426171479297594, -41.158018644400698 ], [ -73.425721651318597, -41.1586524124071 ], [ -73.425232345019694, -41.158992874394698 ], [ -73.425050072181193, -41.160030284973601 ], [ -73.423979995326604, -41.160348425015599 ], [ -73.423991540925897, -41.160664194655098 ], [ -73.424354638355297, -41.160729242305699 ], [ -73.424349131732697, -41.160592711058598 ], [ -73.424349523873104, -41.160528370493502 ], [ -73.424910356716296, -41.160360266203497 ], [ -73.425383737344305, -41.160227688491602 ], [ -73.425510105453398, -41.159436627397703 ], [ -73.425564184639995, -41.159116493832698 ], [ -73.426034734663403, -41.158801767634003 ], [ -73.426487890695199, -41.158158936138797 ], [ -73.426841575869503, -41.1579344732164 ], [ -73.427144342576199, -41.157726265483099 ], [ -73.427407454455107, -41.157490994406103 ], [ -73.4279593271241, -41.156980153065099 ], [ -73.428428460951096, -41.156557931704498 ], [ -73.428450201432199, -41.156490023346798 ], [ -73.428521358017093, -41.156259762436498 ], [ -73.428612086183506, -41.155976929158001 ], [ -73.428713115019207, -41.155724174291798 ], [ -73.429465049422802, -41.155305680587801 ], [ -73.429457948362895, -41.154920003363998 ], [ -73.428888692177495, -41.154541690244201 ], [ -73.428911636924695, -41.154286222917598 ], [ -73.428923797819195, -41.1541508130598 ], [ -73.429032993340002, -41.153246054398302 ], [ -73.429270361382095, -41.152629393996101 ], [ -73.429508917906503, -41.152021529630801 ], [ -73.429536648572395, -41.151950868147203 ], [ -73.429561577946004, -41.1518998765969 ], [ -73.430140869499994, -41.151305775988497 ], [ -73.430223069193701, -41.151052455124102 ], [ -73.430382213190896, -41.1505687869195 ], [ -73.430464059802006, -41.1502868906095 ], [ -73.430679787833995, -41.149606736855802 ], [ -73.430846360260304, -41.149085716139403 ], [ -73.430991813372898, -41.148606724910699 ], [ -73.430284537227493, -41.1484757905083 ], [ -73.430237210143105, -41.148467270986998 ], [ -73.429881587647202, -41.149354376660703 ], [ -73.430156436132293, -41.149672031983002 ] ] ] } },
{ "type": "Feature", "properties": { "id": "monoparte.10", "Name": null, "description": null, "timestamp": null, "begin": null, "end": null, "altitudeMode": null, "tessellate": -1, "extrude": 0, "visibility": -1, "drawOrder": null, "icon": null, "REG": "Los Lagos", "COM": "Fresia", "LOC": "Fresia", "ZONA": "ZEx-1", "NOM": "Zona ZEX-1", "UPERM": "Residencial; equipamiento de escala menor y básico; actividades productivas. (ver detalles en ordenanzas)", "UPROH": "Todos aquellos no señalados como permitidos", "P_DO": "19/01/2004", "N_DOC": "63", "T_DO": "Resolución", "OBS": null }, "geometry": { "type": "Polygon", "coordinates": [ [ [ -73.411945208929694, -41.145637822511397 ], [ -73.412779535448706, -41.145787417752302 ], [ -73.414072330009802, -41.146030827487301 ], [ -73.414211232272507, -41.146057656265697 ], [ -73.413941225741794, -41.146937010967001 ], [ -73.413864909504198, -41.1471615060264 ], [ -73.414703827140499, -41.147310358703997 ], [ -73.415362551147993, -41.147404182750897 ], [ -73.416053671396099, -41.147511053069003 ], [ -73.416184478217502, -41.147534617418302 ], [ -73.4169600558441, -41.147538176557099 ], [ -73.417722739240304, -41.147537460792002 ], [ -73.419242906629805, -41.147805426348697 ], [ -73.420876819499199, -41.148072691227704 ], [ -73.422793546977999, -41.148395045975398 ], [ -73.424377131539899, -41.1486259586598 ], [ -73.425872946064402, -41.148898942631803 ], [ -73.427715852958102, -41.149235968137901 ], [ -73.428836189771502, -41.1494363454024 ], [ -73.429729755065097, -41.149596155285202 ], [ -73.430156436132293, -41.149672031983002 ], [ -73.429881587647202, -41.149354376660703 ], [ -73.430237210143105, -41.148467270986998 ], [ -73.429133386523702, -41.148268562705901 ], [ -73.4286175557246, -41.148172172761498 ], [ -73.427399873984896, -41.147950337815601 ], [ -73.425835175959904, -41.147667517474197 ], [ -73.424842791260204, -41.147496064695801 ], [ -73.424003354246807, -41.147349212874801 ], [ -73.423651918980596, -41.146492551132901 ], [ -73.423328448987604, -41.145714034600097 ], [ -73.423035858923598, -41.145100423968003 ], [ -73.422039512948302, -41.144930289980302 ], [ -73.420460485672294, -41.144648542199299 ], [ -73.419152263912494, -41.144409967511898 ], [ -73.418091466215103, -41.144218452461402 ], [ -73.415072208364194, -41.143667362495499 ], [ -73.413504421812206, -41.143376152134898 ], [ -73.413029702443495, -41.143287637786997 ], [ -73.412993522581502, -41.1433607700503 ], [ -73.412616867314398, -41.144157852410999 ], [ -73.412101667539602, -41.145285451068503 ], [ -73.411949701297999, -41.145627204100599 ], [ -73.411945208929694, -41.145637822511397 ] ] ] } },
{ "type": "Feature", "properties": { "id": "monoparte.11", "Name": null, "description": null, "timestamp": null, "begin": null, "end": null, "altitudeMode": null, "tessellate": -1, "extrude": 0, "visibility": -1, "drawOrder": null, "icon": null, "REG": "Los Lagos", "COM": "Fresia", "LOC": "Fresia", "ZONA": "ZU-3", "NOM": "Zona ZU-3", "UPERM": "Residencial; equipamiento de escala mediana, menos y básica; actividades productivas. (ver detalles en ordenanza)", "UPROH": "Todos aquellos no señalados como permitidos", "P_DO": "19/01/2004", "N_DOC": "63", "T_DO": "Resolución", "OBS": null }, "geometry": { "type": "Polygon", "coordinates": [ [ [ -73.429165342180298, -41.1519459651226 ], [ -73.429215562333695, -41.151822676502 ], [ -73.429353226269598, -41.151667280423801 ], [ -73.429698934776098, -41.151325187929203 ], [ -73.429801434339197, -41.1512092644912 ], [ -73.429952880052696, -41.150743027906998 ], [ -73.430263892289901, -41.149804880016099 ], [ -73.430156436132293, -41.149672031983002 ], [ -73.429729755065097, -41.149596155285202 ], [ -73.428836189771502, -41.1494363454024 ], [ -73.428620803810006, -41.150125120629198 ], [ -73.428179256535302, -41.1515001045289 ], [ -73.428117081180801, -41.151559677211402 ], [ -73.428063317788798, -41.151744002956498 ], [ -73.429165342180298, -41.1519459651226 ] ] ] } },
{ "type": "Feature", "properties": { "id": "monoparte.12", "Name": null, "description": null, "timestamp": null, "begin": null, "end": null, "altitudeMode": null, "tessellate": -1, "extrude": 0, "visibility": -1, "drawOrder": null, "icon": null, "REG": "Los Lagos", "COM": "Fresia", "LOC": "Fresia", "ZONA": "ZU-2", "NOM": "Zona ZU-2", "UPERM": "Residencial; equipamiento de escala mediana, menos y básico; actividades productivas; actividades complementarias a la vialidad y transporte. (ver detalles en ordenanza)", "UPROH": "Todos aquellos no señalados como permitidos", "P_DO": "19/01/2004", "N_DOC": "63", "T_DO": "Resolución", "OBS": null }, "geometry": { "type": "Polygon", "coordinates": [ [ [ -73.410481336030102, -41.149075566220198 ], [ -73.410436134270597, -41.149228183563899 ], [ -73.410612322740207, -41.1492610850894 ], [ -73.413212200127305, -41.149859281082797 ], [ -73.414119751905105, -41.150067445982302 ], [ -73.414877289299497, -41.150224185748399 ], [ -73.4147067692261, -41.150852545377496 ], [ -73.414573792996194, -41.151276023101701 ], [ -73.415552923685993, -41.1514601359005 ], [ -73.416275552522904, -41.151589617977699 ], [ -73.416134064879998, -41.152016740673503 ], [ -73.416133183501501, -41.152073953347397 ], [ -73.415873465030899, -41.152852259575802 ], [ -73.4144060043308, -41.1532481118983 ], [ -73.414015367807096, -41.153172844714199 ], [ -73.413968166481098, -41.153333248784897 ], [ -73.413487610176801, -41.155000332081997 ], [ -73.413210972210393, -41.1559496255772 ], [ -73.413065135823203, -41.156453149174098 ], [ -73.412888273772694, -41.157057924924601 ], [ -73.412854023568798, -41.157193251207602 ], [ -73.413946664055302, -41.1573865674956 ], [ -73.415306627166004, -41.157629167837698 ], [ -73.416942177338797, -41.157926679699699 ], [ -73.417108490798995, -41.157369464839498 ], [ -73.417998993424206, -41.157523933585303 ], [ -73.418800183851005, -41.157662767851598 ], [ -73.4195681672457, -41.157795249982897 ], [ -73.420591524047694, -41.157975085976197 ], [ -73.420887396380394, -41.158024697692298 ], [ -73.421114932302899, -41.157284069153299 ], [ -73.421284963470995, -41.156738151131698 ], [ -73.421393901817396, -41.156394467265997 ], [ -73.422015474553803, -41.156496828280197 ], [ -73.422398364068002, -41.156565483760602 ], [ -73.422944642009099, -41.156673118735497 ], [ -73.423458360677998, -41.1567653259929 ], [ -73.424399471482005, -41.156931614743698 ], [ -73.425589346443303, -41.157140732896799 ], [ -73.426877977429797, -41.157365094368998 ], [ -73.427071069986297, -41.156769202812001 ], [ -73.4274098306105, -41.155693303645002 ], [ -73.427831133629198, -41.1542863435063 ], [ -73.427893586150702, -41.1541022792861 ], [ -73.428553781109102, -41.154217055203702 ], [ -73.428637206825499, -41.1535293234382 ], [ -73.428689105059107, -41.1531771097887 ], [ -73.428884476056794, -41.152662129121701 ], [ -73.429120912911898, -41.1520550351173 ], [ -73.429165342180298, -41.1519459651226 ], [ -73.428063317788798, -41.151744002956498 ], [ -73.428117081180801, -41.151559677211402 ], [ -73.428179256535302, -41.1515001045289 ], [ -73.428620803810006, -41.150125120629198 ], [ -73.428836189771502, -41.1494363454024 ], [ -73.427715852958102, -41.149235968137901 ], [ -73.425872946064402, -41.148898942631803 ], [ -73.424377131539899, -41.1486259586598 ], [ -73.422793546977999, -41.148395045975398 ], [ -73.420876819499199, -41.148072691227704 ], [ -73.419242906629805, -41.147805426348697 ], [ -73.417722739240304, -41.147537460792002 ], [ -73.4169600558441, -41.147538176557099 ], [ -73.416184478217502, -41.147534617418302 ], [ -73.416053671396099, -41.147511053069003 ], [ -73.415362551147993, -41.147404182750897 ], [ -73.414703827140499, -41.147310358703997 ], [ -73.413864909504198, -41.1471615060264 ], [ -73.413941225741794, -41.146937010967001 ], [ -73.414211232272507, -41.146057656265697 ], [ -73.414072330009802, -41.146030827487301 ], [ -73.412779535448706, -41.145787417752302 ], [ -73.411945208929694, -41.145637822511397 ], [ -73.411831387323105, -41.1459069137127 ], [ -73.411789738522799, -41.145990705998898 ], [ -73.411599615936893, -41.146609092093001 ], [ -73.411524862565301, -41.146833525715003 ], [ -73.411363603175204, -41.1473185804712 ], [ -73.411227284378697, -41.1477526468611 ], [ -73.411106234622096, -41.148132522206701 ], [ -73.411017886700293, -41.148400956700002 ], [ -73.410697250585898, -41.1484370823162 ], [ -73.410738919381004, -41.148646923362698 ], [ -73.410584341431303, -41.149102535655402 ], [ -73.410481336030102, -41.149075566220198 ] ], [ [ -73.423670496472297, -41.155503120265998 ], [ -73.423502281003806, -41.156024194385999 ], [ -73.422334518592194, -41.155815394844801 ], [ -73.4224563869994, -41.155378298193803 ], [ -73.420282680712006, -41.154975885693503 ], [ -73.420644168617599, -41.153743380655897 ], [ -73.420907744718804, -41.1528827220708 ], [ -73.418596410927506, -41.152471274317698 ], [ -73.416739362664003, -41.1521194815097 ], [ -73.416740059356798, -41.1521076977047 ], [ -73.416931102938804, -41.151503562785898 ], [ -73.416851387991002, -41.151489948389901 ], [ -73.417000690441995, -41.151026787963197 ], [ -73.419127637721999, -41.151427488265703 ], [ -73.420475899453507, -41.151673456040697 ], [ -73.422152213852399, -41.151993152281896 ], [ -73.422623532238006, -41.152088186004903 ], [ -73.422745263286899, -41.1516725364637 ], [ -73.423543023796995, -41.151817545509097 ], [ -73.424072889924204, -41.151904364932697 ], [ -73.423937049879697, -41.152344383421898 ], [ -73.424606665352798, -41.152458580386302 ], [ -73.424355277280895, -41.153265489931201 ], [ -73.424181773696205, -41.153824887668399 ], [ -73.423670496472297, -41.155503120265998 ] ] ] } },
{ "type": "Feature", "properties": { "id": "monoparte.13", "Name": null, "description": null, "timestamp": null, "begin": null, "end": null, "altitudeMode": null, "tessellate": -1, "extrude": 0, "visibility": -1, "drawOrder": null, "icon": null, "REG": "Los Lagos", "COM": "Fresia", "LOC": "Fresia", "ZONA": "ZU-3", "NOM": "Zona ZU-3", "UPERM": "Residencial; equipamiento de escala mediana, menos y básica; actividades productivas. (ver detalles en ordenanza)", "UPROH": "Todos aquellos no señalados como permitidos", "P_DO": "19/01/2004", "N_DOC": "63", "T_DO": "Resolución", "OBS": null }, "geometry": { "type": "Polygon", "coordinates": [ [ [ -73.429508917906503, -41.152021529630801 ], [ -73.430815790280406, -41.152240144883699 ], [ -73.433009278047905, -41.152655890193799 ], [ -73.433869199896407, -41.1528128746072 ], [ -73.434900158881305, -41.153001072784697 ], [ -73.436558669026596, -41.153298274301903 ], [ -73.436703601850596, -41.152848926169803 ], [ -73.436807522544697, -41.152520907912397 ], [ -73.436799789758894, -41.152499764263197 ], [ -73.436534801233094, -41.152309868955903 ], [ -73.435892162764702, -41.151848656172596 ], [ -73.435443358322402, -41.151503846086499 ], [ -73.435401046143795, -41.151484037371198 ], [ -73.435238466955596, -41.151456955850598 ], [ -73.434407345726598, -41.151303666349001 ], [ -73.433078449905807, -41.151055686600301 ], [ -73.431227810476699, -41.150722025143097 ], [ -73.430382213190896, -41.1505687869195 ], [ -73.430223069193701, -41.151052455124102 ], [ -73.430140869499994, -41.151305775988497 ], [ -73.429561577946004, -41.1518998765969 ], [ -73.429536648572395, -41.151950868147203 ], [ -73.429508917906503, -41.152021529630801 ] ] ] } },
{ "type": "Feature", "properties": { "id": "monoparte.14", "Name": null, "description": null, "timestamp": null, "begin": null, "end": null, "altitudeMode": null, "tessellate": -1, "extrude": 0, "visibility": -1, "drawOrder": null, "icon": null, "REG": "Los Lagos", "COM": "Fresia", "LOC": "Fresia", "ZONA": "ZE-1", "NOM": "Zona de equipamiento deportivo ZE-1", "UPERM": "Equipamiento de escala mediana (ver detalles en ordenanza)", "UPROH": "Todos aquellos no señalados como permitidos", "P_DO": "19/01/2004", "N_DOC": "63", "T_DO": "Resolución", "OBS": null }, "geometry": { "type": "Polygon", "coordinates": [ [ [ -73.431187488266801, -41.1546963990248 ], [ -73.4309002311565, -41.1556127678029 ], [ -73.432255588361002, -41.1560786945697 ], [ -73.432755539206198, -41.154519189344903 ], [ -73.432758134585299, -41.154511467972597 ], [ -73.431324320085693, -41.154259888311699 ], [ -73.431187488266801, -41.1546963990248 ] ] ] } },
{ "type": "Feature", "properties": { "id": "monoparte.15", "Name": null, "description": null, "timestamp": null, "begin": null, "end": null, "altitudeMode": null, "tessellate": -1, "extrude": 0, "visibility": -1, "drawOrder": null, "icon": null, "REG": "Los Lagos", "COM": "Fresia", "LOC": "Fresia", "ZONA": "ZEx-1", "NOM": "Zona ZEX-1", "UPERM": "Residencial; equipamiento de escala menor y básico; actividades productivas. (ver detalles en ordenanzas)", "UPROH": "Todos aquellos no señalados como permitidos", "P_DO": "19/01/2004", "N_DOC": "63", "T_DO": "Resolución", "OBS": null }, "geometry": { "type": "Polygon", "coordinates": [ [ [ -73.432758134585299, -41.154511467972597 ], [ -73.432755539206198, -41.154519189344903 ], [ -73.432255588361002, -41.1560786945697 ], [ -73.4309002311565, -41.1556127678029 ], [ -73.431187488266801, -41.1546963990248 ], [ -73.429910313457, -41.154467037515097 ], [ -73.428911636924695, -41.154286222917598 ], [ -73.428888692177495, -41.154541690244201 ], [ -73.429457948362895, -41.154920003363998 ], [ -73.429465049422802, -41.155305680587801 ], [ -73.428713115019207, -41.155724174291798 ], [ -73.428612086183506, -41.155976929158001 ], [ -73.429021151601702, -41.1561064969329 ], [ -73.429160190877397, -41.156158317889599 ], [ -73.429811152855194, -41.15636909453 ], [ -73.431223832696205, -41.1568435460348 ], [ -73.432175222240005, -41.157161848922598 ], [ -73.432498416892898, -41.157373333677299 ], [ -73.4333943529073, -41.157943917337398 ], [ -73.434310612051704, -41.1585351519348 ], [ -73.434488987874701, -41.158375796772702 ], [ -73.435091931089104, -41.157828407239698 ], [ -73.435209500450597, -41.157468892390099 ], [ -73.435392121803503, -41.156859097245402 ], [ -73.435670493425405, -41.156033572638798 ], [ -73.4359153060729, -41.155271285135903 ], [ -73.436039731626394, -41.154873385850699 ], [ -73.436196745074497, -41.154397992570402 ], [ -73.436487287524898, -41.153519583824597 ], [ -73.436558669026596, -41.153298274301903 ], [ -73.434900158881305, -41.153001072784697 ], [ -73.433869199896407, -41.1528128746072 ], [ -73.433849894397994, -41.152871420922999 ], [ -73.433465467130006, -41.1540405249442 ], [ -73.433285834096395, -41.154601362325799 ], [ -73.432758134585299, -41.154511467972597 ] ] ] } },
{ "type": "Feature", "properties": { "id": "monoparte.16", "Name": null, "description": null, "timestamp": null, "begin": null, "end": null, "altitudeMode": null, "tessellate": -1, "extrude": 0, "visibility": -1, "drawOrder": null, "icon": null, "REG": "Los Lagos", "COM": "Fresia", "LOC": "Fresia", "ZONA": "ZU-2", "NOM": "Zona ZU-2", "UPERM": "Residencial; equipamiento de escala mediana, menos y básico; actividades productivas; actividades complementarias a la vialidad y transporte. (ver detalles en ordenanza)", "UPROH": "Todos aquellos no señalados como permitidos", "P_DO": "19/01/2004", "N_DOC": "63", "T_DO": "Resolución", "OBS": null }, "geometry": { "type": "Polygon", "coordinates": [ [ [ -73.428911636924695, -41.154286222917598 ], [ -73.429910313457, -41.154467037515097 ], [ -73.431187488266801, -41.1546963990248 ], [ -73.431324320085693, -41.154259888311699 ], [ -73.432758134585299, -41.154511467972597 ], [ -73.433285834096395, -41.154601362325799 ], [ -73.433465467130006, -41.1540405249442 ], [ -73.433849894397994, -41.152871420922999 ], [ -73.433869199896407, -41.1528128746072 ], [ -73.433009278047905, -41.152655890193799 ], [ -73.430815790280406, -41.152240144883699 ], [ -73.429508917906503, -41.152021529630801 ], [ -73.429270361382095, -41.152629393996101 ], [ -73.429032993340002, -41.153246054398302 ], [ -73.428923797819195, -41.1541508130598 ], [ -73.428911636924695, -41.154286222917598 ] ] ] } },
{ "type": "Feature", "properties": { "id": "monoparte.17", "Name": null, "description": null, "timestamp": null, "begin": null, "end": null, "altitudeMode": null, "tessellate": -1, "extrude": 0, "visibility": -1, "drawOrder": null, "icon": null, "REG": "Los Lagos", "COM": "Fresia", "LOC": "Fresia", "ZONA": "ZE-2", "NOM": "Zona equipamiento cementerio ZE-2", "UPERM": "Equipamiento mediano: Obras específicas y propias de cementerios", "UPROH": "Todos aquellos no señalados como permitidos", "P_DO": "19/01/2004", "N_DOC": "63", "T_DO": "Resolución", "OBS": null }, "geometry": { "type": "Polygon", "coordinates": [ [ [ -73.408061445878502, -41.161309685840301 ], [ -73.408983842976596, -41.161986982787099 ], [ -73.410228321840094, -41.161013677385299 ], [ -73.4093517776287, -41.1603540172827 ], [ -73.408061445878502, -41.161309685840301 ] ] ] } }
]
}
