{
"type": "FeatureCollection",
"name": "IPT_10_PRC_Palena",
"crs": { "type": "name", "properties": { "name": "urn:ogc:def:crs:OGC:1.3:CRS84" } },
"features": [
{ "type": "Feature", "properties": { "id": "monoparte.1", "Name": null, "description": null, "timestamp": null, "begin": null, "end": null, "altitudeMode": null, "tessellate": -1, "extrude": 0, "visibility": -1, "drawOrder": null, "icon": null, "REG": "Los Lagos", "COM": "Palena", "LOC": "Palena", "ZONA": "Z2", "NOM": "Zona Z2", "UPERM": "Vivienda, Equipamiento de escala comunal y vecinal", "UPROH": "Cementerios, plantas y botaderos de basura. Industria y almacenamiento inofensivos; y terminales rodoviarios", "P_DO": "23/01/1989", "N_DOC": "227", "T_DO": "Decreto", "OBS": null }, "geometry": { "type": "Polygon", "coordinates": [ [ [ -71.802852738306697, -43.6167380312462 ], [ -71.802835752587995, -43.616775772373899 ], [ -71.8028224709022, -43.616811831681098 ], [ -71.802822470446799, -43.616862314778103 ], [ -71.802852354853897, -43.616898374647398 ], [ -71.802922085964994, -43.6169272217927 ], [ -71.802995138174694, -43.616953665377402 ], [ -71.803157844316203, -43.616996936142399 ], [ -71.8032807029157, -43.617061843288297 ], [ -71.803307267068007, -43.617117134236103 ], [ -71.803274062549804, -43.617160405492399 ], [ -71.803204331762302, -43.617191656564103 ], [ -71.803078151251896, -43.617227715087097 ], [ -71.802918765909197, -43.617254158492699 ], [ -71.802815829718298, -43.617270986441 ], [ -71.802563469943607, -43.617266178556598 ], [ -71.802374200362607, -43.617261370967697 ], [ -71.802165006351501, -43.617232523373403 ], [ -71.801985697859394, -43.617158000944499 ], [ -71.801852877637401, -43.617105114328602 ], [ -71.801597197376495, -43.617064247170198 ], [ -71.801471017344298, -43.617061843302203 ], [ -71.801348156847496, -43.617090690354203 ], [ -71.8012684646297, -43.617153192874497 ], [ -71.801178810096005, -43.617201271902601 ], [ -71.801085836151699, -43.617220503746701 ], [ -71.800959656360405, -43.617206080425497 ], [ -71.800846757744495, -43.617167616782503 ], [ -71.800806911440603, -43.617189252503699 ], [ -71.800840117509395, -43.617273390719902 ], [ -71.800840116881304, -43.617328680834802 ], [ -71.800866680701802, -43.6173719516798 ], [ -71.800886604380096, -43.617434454020199 ], [ -71.800893245138496, -43.617489745153499 ], [ -71.800886604645001, -43.617547439066399 ], [ -71.800853399228302, -43.617609941293701 ], [ -71.800810232777906, -43.617679654718899 ], [ -71.800767065334995, -43.617732541357299 ], [ -71.800604359212201, -43.617766196491402 ], [ -71.800431691982595, -43.617809466526701 ], [ -71.800209217326497, -43.617871968949203 ], [ -71.799990062364898, -43.617879180501497 ], [ -71.799847279793894, -43.617891200377599 ], [ -71.799531830196997, -43.617876776708599 ], [ -71.799385726846197, -43.617869564708201 ], [ -71.799256226454006, -43.617869564489503 ], [ -71.799169892002297, -43.617924855282297 ], [ -71.799106802644701, -43.617980144536098 ], [ -71.799053674680493, -43.6180378385179 ], [ -71.799023789522394, -43.618095532874797 ], [ -71.798977302310306, -43.618136399368801 ], [ -71.798914212620005, -43.618194092480103 ], [ -71.798841160833106, -43.618227746985802 ], [ -71.798681774981205, -43.6182686136302 ], [ -71.798515749530694, -43.618283037130901 ], [ -71.798366325549196, -43.618295056698798 ], [ -71.798253427133005, -43.618299864407298 ], [ -71.798104004191302, -43.618304671736801 ], [ -71.797977824239297, -43.618311883435503 ], [ -71.797864925918404, -43.618333519352902 ], [ -71.797662374385595, -43.618374384816001 ], [ -71.797599284393399, -43.618408039445001 ], [ -71.797493027124602, -43.618439290239102 ], [ -71.797360206602406, -43.618494580047802 ], [ -71.797194180054802, -43.618545061900697 ], [ -71.797038114640003, -43.618602754569899 ], [ -71.796915256202396, -43.618646025043397 ], [ -71.796805678896504, -43.618715737859901 ], [ -71.796676177449598, -43.618751795889402 ], [ -71.796533394754107, -43.6187517954437 ], [ -71.7964372931214, -43.6187344050742 ], [ -71.796289223252401, -43.618722640024401 ], [ -71.796170045421206, -43.618692572752202 ], [ -71.796123105094395, -43.618683369450302 ], [ -71.796087255537202, -43.618785738955303 ], [ -71.796069187491995, -43.618836427511198 ], [ -71.796321221823305, -43.618870372602203 ], [ -71.796790150438397, -43.618874725161703 ], [ -71.796868304802402, -43.6188747248721 ], [ -71.797168899720006, -43.618879077292199 ], [ -71.797487530506899, -43.618870373204402 ], [ -71.797878303658706, -43.618861668637301 ], [ -71.798281100462106, -43.618835555081397 ], [ -71.798647827063903, -43.618839906903503 ], [ -71.7990145524535, -43.618839907045398 ], [ -71.799321159418596, -43.618857316530701 ], [ -71.799453421072599, -43.618883429612502 ], [ -71.799766040364304, -43.618905191445002 ], [ -71.800391277477203, -43.618996589112797 ], [ -71.800854194229501, -43.619061873518703 ], [ -71.801437347335593, -43.619148918575299 ], [ -71.801527526983804, -43.619240316234098 ], [ -71.801665800621194, -43.619414406190202 ], [ -71.801840145543906, -43.619653778518199 ], [ -71.802074609209001, -43.619853980571001 ], [ -71.802327108997005, -43.620088999477098 ], [ -71.802621691499596, -43.620293552619103 ], [ -71.802898238792395, -43.620467639147897 ], [ -71.803319071937494, -43.6207461775479 ], [ -71.803463357996904, -43.620837572019397 ], [ -71.803860143306593, -43.621146573355198 ], [ -71.804220857049899, -43.621464277525199 ], [ -71.804599606509896, -43.621869020953099 ], [ -71.804905366825096, -43.622142921909798 ], [ -71.805399169264106, -43.6221689192664 ], [ -71.805564959931004, -43.622356444376997 ], [ -71.805678940448303, -43.622498963439099 ], [ -71.805803283677307, -43.622573972944998 ], [ -71.806051968976405, -43.622716491596798 ], [ -71.806331739283607, -43.622859009519999 ], [ -71.806673882455001, -43.623014526889001 ], [ -71.806777300906106, -43.623061534240101 ], [ -71.806963814966593, -43.623166547125997 ], [ -71.807202138273198, -43.623024029758298 ], [ -71.807461186081298, -43.6229115165455 ], [ -71.8078963844698, -43.622716491218199 ], [ -71.808259051088598, -43.622566472675601 ], [ -71.808518098584798, -43.622461458849799 ], [ -71.808686293860205, -43.622390840043103 ], [ -71.808480330068505, -43.622293601963399 ], [ -71.807975337122599, -43.622128650971902 ], [ -71.807722840713097, -43.622043945797202 ], [ -71.807408759499097, -43.621950324815003 ], [ -71.807199371727805, -43.621878994411702 ], [ -71.806953032838294, -43.621771998211599 ], [ -71.806780595802707, -43.621629336671703 ], [ -71.806706695172494, -43.621535715509701 ], [ -71.806602001010901, -43.621370761973701 ], [ -71.806528100064099, -43.621183517918602 ], [ -71.806472673911202, -43.621107728051101 ], [ -71.806386454999696, -43.620982897702604 ], [ -71.806349504746606, -43.620911566203702 ], [ -71.806238652206602, -43.620809026943903 ], [ -71.806195542553496, -43.620746611690898 ], [ -71.806103165683794, -43.620666363247501 ], [ -71.806023105454202, -43.620595030933103 ], [ -71.805936886975502, -43.620501407518603 ], [ -71.805850668733001, -43.620438992229197 ], [ -71.805656115549098, -43.6201821783254 ], [ -71.805569432440805, -43.6200462141096 ], [ -71.805612774561993, -43.619962544456897 ], [ -71.805728352553402, -43.619857956222802 ], [ -71.8057427989134, -43.619669697620701 ], [ -71.806089532664402, -43.619523273568603 ], [ -71.806219556741297, -43.6194291441563 ], [ -71.806537395331802, -43.619094458799303 ], [ -71.806927469538294, -43.618864362215902 ], [ -71.807447568843202, -43.618895738786399 ], [ -71.807837643092995, -43.618927115604997 ], [ -71.808401084204505, -43.618937574953698 ], [ -71.809267915315502, -43.618948033620001 ], [ -71.8103832379946, -43.618950893917102 ], [ -71.810406929173993, -43.618847990788602 ], [ -71.810435047641505, -43.618725851527799 ], [ -71.810466133188598, -43.6185908244655 ], [ -71.810486857961394, -43.618403287744002 ], [ -71.810507580720198, -43.618238254606098 ], [ -71.810600837961005, -43.618080723065397 ], [ -71.810642286231598, -43.617878180640901 ], [ -71.8107044574067, -43.617630629007998 ], [ -71.810756266116201, -43.617450590849501 ], [ -71.810787352088397, -43.6172930565236 ], [ -71.810818437672197, -43.617128020413901 ], [ -71.810828800071207, -43.616962983725401 ], [ -71.810849524038204, -43.616497878270501 ], [ -71.810852098882293, -43.616432609186297 ], [ -71.810655271173104, -43.616398117538402 ], [ -71.810494837312405, -43.6163529477328 ], [ -71.810352229257902, -43.616305627557999 ], [ -71.810227447721005, -43.616243250431403 ], [ -71.8100581005327, -43.6161615151631 ], [ -71.809814479159201, -43.616047515504398 ], [ -71.809746145663595, -43.615995893353102 ], [ -71.809556001862006, -43.6158754402719 ], [ -71.809466872305507, -43.6158001575293 ], [ -71.809330206423894, -43.6157313271231 ], [ -71.809226221998898, -43.615679704491299 ], [ -71.809128179258096, -43.6156517420158 ], [ -71.809030136283198, -43.6156431380616 ], [ -71.808911295349404, -43.615677553156601 ], [ -71.808789485602802, -43.615705515332401 ], [ -71.808679557787798, -43.615731326886198 ], [ -71.808578544099106, -43.615752836037501 ], [ -71.808483472447193, -43.615761440031498 ], [ -71.808382458427403, -43.615731326983003 ], [ -71.808328980924898, -43.6156969119249 ], [ -71.808189344255993, -43.615634534021503 ], [ -71.8081388374124, -43.615625930240498 ], [ -71.808076445693303, -43.615597968283303 ], [ -71.807990286694803, -43.615544193839703 ], [ -71.8079397800973, -43.615483967026698 ], [ -71.807862533720794, -43.615395777794099 ], [ -71.807734780840505, -43.615204342482102 ], [ -71.807618912127893, -43.615008603827 ], [ -71.807529782694004, -43.6148730918827 ], [ -71.807479275110893, -43.614750486258401 ], [ -71.807431739266605, -43.614617124821102 ], [ -71.8073901453742, -43.614475159361596 ], [ -71.807321813258795, -43.614343948526503 ], [ -71.807274276250297, -43.614283720452597 ], [ -71.807214857289495, -43.6142170397748 ], [ -71.807149494831805, -43.614197680301899 ], [ -71.807081162661405, -43.614227794632797 ], [ -71.807033625594002, -43.614257908418601 ], [ -71.806974206176903, -43.614305230103497 ], [ -71.806873192068693, -43.614324589498899 ], [ -71.806757323002699, -43.614326740614104 ], [ -71.806635512099504, -43.6143374955697 ], [ -71.806481020639396, -43.6143181368125 ], [ -71.806359209302698, -43.614292324327799 ], [ -71.806273051038104, -43.614260059913804 ], [ -71.806177979446005, -43.614245002362502 ], [ -71.806097762566495, -43.614266512523898 ], [ -71.8060531971893, -43.614292324818301 ], [ -71.806008632368901, -43.614341797600297 ], [ -71.805922473766998, -43.614434290192001 ], [ -71.805907617800798, -43.614492367182898 ], [ -71.805874937948801, -43.614533235864101 ], [ -71.805824431056493, -43.614580557716401 ], [ -71.805782835957203, -43.6146321813493 ], [ -71.805756098042394, -43.614673050804903 ], [ -71.805729358361305, -43.614735428958703 ], [ -71.805663996828599, -43.614763392349602 ], [ -71.805601606050701, -43.614815015284599 ], [ -71.805491678587103, -43.614866638834101 ], [ -71.805393635675898, -43.614905356382799 ], [ -71.805242115455002, -43.614959131118702 ], [ -71.805141101517705, -43.614982791790702 ], [ -71.805004435358796, -43.6149870940935 ], [ -71.804849454443499, -43.615020750147103 ], [ -71.8049035616352, -43.6151752663922 ], [ -71.804933620532495, -43.615244906605497 ], [ -71.804954662761901, -43.615308018231502 ], [ -71.804999751821299, -43.615360249172198 ], [ -71.805029811786795, -43.6154320654977 ], [ -71.805026804991599, -43.6155343507086 ], [ -71.805038829045898, -43.615621401004198 ], [ -71.805020793415693, -43.6156910409237 ], [ -71.804984722115506, -43.615751976078499 ], [ -71.804828413005595, -43.615897784534504 ], [ -71.8047622812296, -43.615978305827099 ], [ -71.804669097616099, -43.616045769825 ], [ -71.804566895462699, -43.616128466843101 ], [ -71.804470704867299, -43.616182872781003 ], [ -71.804347461037096, -43.6162851557851 ], [ -71.804122015076601, -43.616435315720203 ], [ -71.804025824055799, -43.616461431137502 ], [ -71.803890556125197, -43.6165288939345 ], [ -71.803770318951806, -43.616583299793803 ], [ -71.803626032405305, -43.616644233653503 ], [ -71.803448682153501, -43.6166986390717 ], [ -71.803328444443807, -43.616702991764697 ], [ -71.803096985379298, -43.616737810995602 ], [ -71.802892581030505, -43.616739986986197 ], [ -71.802852738306697, -43.6167380312462 ] ], [ [ -71.805005992005704, -43.616197264366697 ], [ -71.805367172483201, -43.615873020825703 ], [ -71.805685010571807, -43.615935777473801 ], [ -71.806349581667703, -43.616008994008297 ], [ -71.806826339222397, -43.6160508317192 ], [ -71.807331990741901, -43.616040372213803 ], [ -71.807982114762197, -43.616029912858799 ], [ -71.808242164959694, -43.616061291850102 ], [ -71.808155481160696, -43.616364615163697 ], [ -71.809108996880198, -43.616469209475497 ], [ -71.809036760192399, -43.616657477943001 ], [ -71.810004723482194, -43.616647018261197 ], [ -71.810004722702601, -43.616688856114799 ], [ -71.810004722609605, -43.617211820924702 ], [ -71.809961381984493, -43.617347791309598 ], [ -71.809903592367704, -43.617577894780297 ], [ -71.809845804460593, -43.617734781973702 ], [ -71.809686885137097, -43.61791258793 ], [ -71.809585754174293, -43.618090393075498 ], [ -71.809527965322104, -43.618257738680001 ], [ -71.809556860087, -43.618466919401001 ], [ -71.809773568489902, -43.618634264184202 ], [ -71.809874698562993, -43.618749312868701 ], [ -71.809802462395098, -43.618791149373202 ], [ -71.8096724370685, -43.618791148691002 ], [ -71.8094557290041, -43.618801608160801 ], [ -71.809080102343898, -43.618812066949701 ], [ -71.808632239448201, -43.618707477428103 ], [ -71.808314400474003, -43.618602886756001 ], [ -71.807996561983003, -43.6185819690362 ], [ -71.807490910340903, -43.6185819693832 ], [ -71.807115283592793, -43.6185715099883 ], [ -71.806508500770306, -43.618540133216896 ], [ -71.806147321216798, -43.618466919973798 ], [ -71.806017296585495, -43.618466919606597 ], [ -71.805728351585799, -43.619324555482798 ], [ -71.805468303084297, -43.619303637422703 ], [ -71.804933755643702, -43.619303637445803 ], [ -71.804384763032701, -43.619251342974302 ], [ -71.803936899205993, -43.619240883653397 ], [ -71.803489036808102, -43.619230425239003 ], [ -71.803070067921595, -43.6191362943703 ], [ -71.802795570351705, -43.619136294352501 ], [ -71.801596453721203, -43.619084000072498 ], [ -71.801451981649393, -43.619042164367102 ], [ -71.801466427904799, -43.618874820672502 ], [ -71.801509769443498, -43.618623804818199 ], [ -71.801524217322907, -43.6183518700702 ], [ -71.801582006151804, -43.618048556385197 ], [ -71.801625347859499, -43.617797536856301 ], [ -71.8016975836819, -43.617577894688999 ], [ -71.801885397435498, -43.617567434819499 ], [ -71.802968937364, -43.617619731504703 ], [ -71.803243434194101, -43.617619731140699 ], [ -71.803604613510103, -43.617379168910901 ], [ -71.804196949646396, -43.617075851147 ], [ -71.8046737068113, -43.617065391538397 ], [ -71.804673706185298, -43.616950339289303 ], [ -71.8048470735189, -43.616511046519101 ], [ -71.805005992005704, -43.616197264366697 ] ], [ [ -71.806733442605406, -43.622896922742001 ], [ -71.806665056981203, -43.622905922946799 ], [ -71.806578021890502, -43.622554896241297 ], [ -71.807411075439603, -43.6224063844586 ], [ -71.807485677788605, -43.622379382329299 ], [ -71.807541628177603, -43.622698907146102 ], [ -71.807541628327201, -43.622743910603702 ], [ -71.807379991322193, -43.622784414355102 ], [ -71.806733442605406, -43.622896922742001 ] ] ] } },
{ "type": "Feature", "properties": { "id": "monoparte.2", "Name": null, "description": null, "timestamp": null, "begin": null, "end": null, "altitudeMode": null, "tessellate": -1, "extrude": 0, "visibility": -1, "drawOrder": null, "icon": null, "REG": "Los Lagos", "COM": "Palena", "LOC": "Palena", "ZONA": "R3", "NOM": "Protección de infraestructura", "UPERM": "Edificaciones que auterice el Servicio respectivo", "UPROH": "Todos los no mencionados precedentemente", "P_DO": "23/01/1989", "N_DOC": "227", "T_DO": "Decreto", "OBS": null }, "geometry": { "type": "Polygon", "coordinates": [ [ [ -71.806578021890502, -43.622554896241297 ], [ -71.806665056981203, -43.622905922946799 ], [ -71.806733442605406, -43.622896922742001 ], [ -71.807379991322193, -43.622784414355102 ], [ -71.807541628327201, -43.622743910603702 ], [ -71.807541628177603, -43.622698907146102 ], [ -71.807485677788605, -43.622379382329299 ], [ -71.807411075439603, -43.6224063844586 ], [ -71.806578021890502, -43.622554896241297 ] ] ] } },
{ "type": "Feature", "properties": { "id": "monoparte.3", "Name": null, "description": null, "timestamp": null, "begin": null, "end": null, "altitudeMode": null, "tessellate": -1, "extrude": 0, "visibility": -1, "drawOrder": null, "icon": null, "REG": "Los Lagos", "COM": "Palena", "LOC": "Palena", "ZONA": "R1", "NOM": "Riesgo para los asentamientos humanos, por fuertes pendientes y posibles rodados", "UPERM": "Áreas verdes y forestación", "UPROH": "Todos los no mencionados precedentemente", "P_DO": "23/01/1989", "N_DOC": "227", "T_DO": "Decreto", "OBS": null }, "geometry": { "type": "Polygon", "coordinates": [ [ [ -71.795447676557799, -43.618922779810198 ], [ -71.7954621180929, -43.618928390367103 ], [ -71.795721165385601, -43.6190484131766 ], [ -71.795928402888194, -43.619145931362297 ], [ -71.796032021891307, -43.619168434961203 ], [ -71.796156364454603, -43.6191984407753 ], [ -71.796270345320593, -43.619198440863698 ], [ -71.796508668679095, -43.619235948053301 ], [ -71.796860972528293, -43.619295958702899 ], [ -71.797130382403793, -43.619333466050797 ], [ -71.797389429726394, -43.619310961961098 ], [ -71.797689924316202, -43.619295958659698 ], [ -71.798145846988803, -43.6192209451822 ], [ -71.798384169996297, -43.619160934272401 ], [ -71.798788283782201, -43.619100922389201 ], [ -71.798985160692894, -43.619078418120601 ], [ -71.799233845783604, -43.619093421469799 ], [ -71.799513616603306, -43.619108424140897 ], [ -71.800052434879305, -43.619138429405197 ], [ -71.800570528905993, -43.6191759369039 ], [ -71.8014616512191, -43.619258451616702 ], [ -71.801461651898606, -43.619303460495601 ], [ -71.801378756502103, -43.619941074146098 ], [ -71.801337308569103, -43.620068596302403 ], [ -71.801420203977699, -43.620076097249701 ], [ -71.801938298087805, -43.6201361074517 ], [ -71.802062641528593, -43.620136107764303 ], [ -71.802238793144795, -43.620188616283599 ], [ -71.8023216879796, -43.620751209686198 ], [ -71.802435668813303, -43.621741359392203 ], [ -71.802477117179194, -43.621913883744199 ], [ -71.802746526368296, -43.621936386835003 ], [ -71.802995211565204, -43.621966391802601 ], [ -71.803295705672994, -43.622003896976899 ], [ -71.803575477344594, -43.622018898622898 ], [ -71.803844886144205, -43.622056403584502 ], [ -71.804197190047006, -43.622086407778397 ], [ -71.804829266338004, -43.6221389157134 ], [ -71.804905366825096, -43.622142921909798 ], [ -71.804599606509896, -43.621869020953099 ], [ -71.804220857049899, -43.621464277525199 ], [ -71.803860143306593, -43.621146573355198 ], [ -71.803463357996904, -43.620837572019397 ], [ -71.803319071937494, -43.6207461775479 ], [ -71.802898238792395, -43.620467639147897 ], [ -71.802621691499596, -43.620293552619103 ], [ -71.802327108997005, -43.620088999477098 ], [ -71.802074609209001, -43.619853980571001 ], [ -71.801840145543906, -43.619653778518199 ], [ -71.801665800621194, -43.619414406190202 ], [ -71.801527526983804, -43.619240316234098 ], [ -71.801437347335593, -43.619148918575299 ], [ -71.800854194229501, -43.619061873518703 ], [ -71.800391277477203, -43.618996589112797 ], [ -71.799766040364304, -43.618905191445002 ], [ -71.799453421072599, -43.618883429612502 ], [ -71.799321159418596, -43.618857316530701 ], [ -71.7990145524535, -43.618839907045398 ], [ -71.798647827063903, -43.618839906903503 ], [ -71.798281100462106, -43.618835555081397 ], [ -71.797878303658706, -43.618861668637301 ], [ -71.797487530506899, -43.618870373204402 ], [ -71.797168899720006, -43.618879077292199 ], [ -71.796868304802402, -43.6188747248721 ], [ -71.796790150438397, -43.618874725161703 ], [ -71.796321221823305, -43.618870372602203 ], [ -71.796069187491995, -43.618836427511198 ], [ -71.796062710081998, -43.618835555152202 ], [ -71.795762115122301, -43.618809440858499 ], [ -71.795671936910196, -43.618813793478203 ], [ -71.795491580219306, -43.6188790779238 ], [ -71.795447676557799, -43.618922779810198 ] ] ] } },
{ "type": "Feature", "properties": { "id": "monoparte.4", "Name": null, "description": null, "timestamp": null, "begin": null, "end": null, "altitudeMode": null, "tessellate": -1, "extrude": 0, "visibility": -1, "drawOrder": null, "icon": null, "REG": "Los Lagos", "COM": "Palena", "LOC": "Palena", "ZONA": "R2", "NOM": "Riesgo para los asentamientos humanos por inundación", "UPERM": "Equipamiento de áreas verdes", "UPROH": "Todos los no mencionados precedentemente", "P_DO": "23/01/1989", "N_DOC": "227", "T_DO": "Decreto", "OBS": null }, "geometry": { "type": "Polygon", "coordinates": [ [ [ -71.789951813992403, -43.615973953914597 ], [ -71.789991046063605, -43.615973953692098 ], [ -71.790048158801696, -43.615945662327299 ], [ -71.790117295879298, -43.6159173707536 ], [ -71.790216491723598, -43.615886903447702 ], [ -71.790294647181099, -43.6158455550664 ], [ -71.790351759585207, -43.615808558888801 ], [ -71.790453962034704, -43.615797677267899 ], [ -71.790598247824093, -43.615825968509498 ], [ -71.7907455396073, -43.615858612293103 ], [ -71.790844735543004, -43.615893432156398 ], [ -71.790877801117006, -43.615893432826901 ], [ -71.791001045277298, -43.615939133776301 ], [ -71.791160359627298, -43.615965248289498 ], [ -71.791283603966804, -43.615965248517803 ], [ -71.791364764726694, -43.6159652487746 ], [ -71.791509050448298, -43.615952190787198 ], [ -71.791608246162198, -43.6159391334131 ], [ -71.791698424918593, -43.6159108425623 ], [ -71.791767561763706, -43.6158716700605 ], [ -71.791866758497406, -43.615795500889398 ], [ -71.791911847917603, -43.615730213191199 ], [ -71.791938901744203, -43.615667102180197 ], [ -71.791959942858796, -43.615625753035197 ], [ -71.792005032677395, -43.6156192245044 ], [ -71.792050121169893, -43.615619224489699 ], [ -71.792092204806494, -43.615675807121299 ], [ -71.792170359738193, -43.6157628576333 ], [ -71.792239496475702, -43.615847730874997 ], [ -71.792335686710302, -43.615908665786698 ], [ -71.7924258654635, -43.615995715716501 ], [ -71.792501014190094, -43.616026183512098 ], [ -71.792597204592596, -43.616039240721797 ], [ -71.792684377029403, -43.616039240730302 ], [ -71.792822650567999, -43.615997892036702 ], [ -71.792915835201399, -43.615963072062399 ], [ -71.793084167807393, -43.615897784965199 ], [ -71.793258512784007, -43.615825968858097 ], [ -71.793378750500494, -43.615765033837903 ], [ -71.793480953639303, -43.615730213452501 ], [ -71.793547084588596, -43.615706274523099 ], [ -71.793820625011193, -43.615695393499202 ], [ -71.794121220493906, -43.615754152752999 ], [ -71.794346666702694, -43.615825968935297 ], [ -71.794454881018694, -43.615876022399597 ], [ -71.794554077106596, -43.615952190698899 ], [ -71.7945751190652, -43.616028359467798 ], [ -71.794524017473506, -43.616095822898998 ], [ -71.794397768182804, -43.616182872525798 ], [ -71.794331636398695, -43.616198106400297 ], [ -71.794223422619496, -43.616313446887702 ], [ -71.794199375633298, -43.616437492277797 ], [ -71.794175327855797, -43.616615942747998 ], [ -71.794214405339204, -43.616707343852703 ], [ -71.7943226186038, -43.616813978691098 ], [ -71.794451874645205, -43.6168683838563 ], [ -71.794656279311198, -43.616924965977702 ], [ -71.7948246129979, -43.616948903621399 ], [ -71.795122201584405, -43.616942374952799 ], [ -71.795230415588605, -43.616942374945097 ], [ -71.795341636453003, -43.616959785314997 ], [ -71.795470891753595, -43.617016366405998 ], [ -71.795567082272399, -43.617062067198297 ], [ -71.795660266214199, -43.617112119094699 ], [ -71.795738421154397, -43.617175229296699 ], [ -71.795837617473097, -43.617262277282897 ], [ -71.795915772087298, -43.617327563535397 ], [ -71.795993927604101, -43.617421139872903 ], [ -71.796102140697897, -43.6175343015042 ], [ -71.796204343027597, -43.617614820914497 ], [ -71.796324581883596, -43.617664872651702 ], [ -71.796501933055794, -43.617743215406698 ], [ -71.796548854687003, -43.617759805553099 ], [ -71.796631188357196, -43.617788915239402 ], [ -71.796805533198196, -43.617841143299003 ], [ -71.797118152533798, -43.617915134091099 ], [ -71.797337586290794, -43.617945600324198 ], [ -71.797544997446707, -43.6179651853273 ], [ -71.797665235472294, -43.617978242643701 ], [ -71.797797497043803, -43.617932543280702 ], [ -71.797842585922297, -43.617869433949302 ], [ -71.797902705389703, -43.617804148527803 ], [ -71.797947793708602, -43.617704044345601 ], [ -71.798025949169798, -43.617566944779199 ], [ -71.798077049828805, -43.617514715685097 ], [ -71.798224341874203, -43.6174711920658 ], [ -71.798425739951497, -43.617469016152199 ], [ -71.798579043484196, -43.617464663452203 ], [ -71.798804489511895, -43.617436373446097 ], [ -71.798939757032201, -43.617421140163799 ], [ -71.799008893864894, -43.617375439291202 ], [ -71.799129131745502, -43.617349324982897 ], [ -71.799228328374895, -43.617312330335402 ], [ -71.799372613961495, -43.617203520098599 ], [ -71.799438745087301, -43.617092533813697 ], [ -71.7994748163987, -43.616953256627603 ], [ -71.799525917190195, -43.616870560555597 ], [ -71.799528923162796, -43.616783511368602 ], [ -71.799564994524602, -43.616726930263297 ], [ -71.799610083689302, -43.616661643156199 ], [ -71.799664191088596, -43.6165767709956 ], [ -71.799721304769704, -43.6165201891165 ], [ -71.799838536464904, -43.6164614305195 ], [ -71.799973804533906, -43.616420082006798 ], [ -71.800097048577697, -43.616444020446899 ], [ -71.800196244916904, -43.616507131310797 ], [ -71.800268387457294, -43.616539774505398 ], [ -71.800439726185203, -43.6165789470882 ], [ -71.800602047366695, -43.616561536890799 ], [ -71.800701243689204, -43.616541951200503 ], [ -71.800833505766207, -43.616461430551198 ], [ -71.800887612610197, -43.616467959504803 ], [ -71.8009417197879, -43.616539775208302 ], [ -71.801064964389596, -43.616631176435703 ], [ -71.801188207328195, -43.616679053347802 ], [ -71.801284398352095, -43.616696462740798 ], [ -71.801362552500194, -43.616711696146901 ], [ -71.801551927703997, -43.616674700994601 ], [ -71.801690200809404, -43.616598532822302 ], [ -71.801828475080399, -43.616537598516402 ], [ -71.801990796801604, -43.616537598359201 ], [ -71.802086986458605, -43.616572418237702 ], [ -71.802177164838199, -43.616611590170798 ], [ -71.802369545937907, -43.616681229486097 ], [ -71.802486777911497, -43.616713872537197 ], [ -71.802715229617604, -43.616731282483798 ], [ -71.802732512133701, -43.6167321306487 ], [ -71.802852738306697, -43.6167380312462 ], [ -71.802892581030505, -43.616739986986197 ], [ -71.803096985379298, -43.616737810995602 ], [ -71.803328444443807, -43.616702991764697 ], [ -71.803448682153501, -43.6166986390717 ], [ -71.803626032405305, -43.616644233653503 ], [ -71.803770318951806, -43.616583299793803 ], [ -71.803890556125197, -43.6165288939345 ], [ -71.804025824055799, -43.616461431137502 ], [ -71.804122015076601, -43.616435315720203 ], [ -71.804347461037096, -43.6162851557851 ], [ -71.804470704867299, -43.616182872781003 ], [ -71.804566895462699, -43.616128466843101 ], [ -71.804669097616099, -43.616045769825 ], [ -71.8047622812296, -43.615978305827099 ], [ -71.804828413005595, -43.615897784534504 ], [ -71.804984722115506, -43.615751976078499 ], [ -71.805020793415693, -43.6156910409237 ], [ -71.805038829045898, -43.615621401004198 ], [ -71.805026804991599, -43.6155343507086 ], [ -71.805029811786795, -43.6154320654977 ], [ -71.804999751821299, -43.615360249172198 ], [ -71.804954662761901, -43.615308018231502 ], [ -71.804933620532495, -43.615244906605497 ], [ -71.8049035616352, -43.6151752663922 ], [ -71.804849454443499, -43.615020750147103 ], [ -71.805004435358796, -43.6149870940935 ], [ -71.805141101517705, -43.614982791790702 ], [ -71.805242115455002, -43.614959131118702 ], [ -71.805393635675898, -43.614905356382799 ], [ -71.805491678587103, -43.614866638834101 ], [ -71.805601606050701, -43.614815015284599 ], [ -71.805663996828599, -43.614763392349602 ], [ -71.805729358361305, -43.614735428958703 ], [ -71.805756098042394, -43.614673050804903 ], [ -71.805782835957203, -43.6146321813493 ], [ -71.805824431056493, -43.614580557716401 ], [ -71.805874937948801, -43.614533235864101 ], [ -71.805907617800798, -43.614492367182898 ], [ -71.805922473766998, -43.614434290192001 ], [ -71.806008632368901, -43.614341797600297 ], [ -71.8060531971893, -43.614292324818301 ], [ -71.806097762566495, -43.614266512523898 ], [ -71.806177979446005, -43.614245002362502 ], [ -71.806273051038104, -43.614260059913804 ], [ -71.806359209302698, -43.614292324327799 ], [ -71.806481020639396, -43.6143181368125 ], [ -71.806635512099504, -43.6143374955697 ], [ -71.806757323002699, -43.614326740614104 ], [ -71.806873192068693, -43.614324589498899 ], [ -71.806974206176903, -43.614305230103497 ], [ -71.807033625594002, -43.614257908418601 ], [ -71.807081162661405, -43.614227794632797 ], [ -71.807149494831805, -43.614197680301899 ], [ -71.807214857289495, -43.6142170397748 ], [ -71.807274276250297, -43.614283720452597 ], [ -71.807321813258795, -43.614343948526503 ], [ -71.8073901453742, -43.614475159361596 ], [ -71.807431739266605, -43.614617124821102 ], [ -71.807479275110893, -43.614750486258401 ], [ -71.807529782694004, -43.6148730918827 ], [ -71.807618912127893, -43.615008603827 ], [ -71.807734780840505, -43.615204342482102 ], [ -71.807862533720794, -43.615395777794099 ], [ -71.8079397800973, -43.615483967026698 ], [ -71.807990286694803, -43.615544193839703 ], [ -71.808076445693303, -43.615597968283303 ], [ -71.8081388374124, -43.615625930240498 ], [ -71.808189344255993, -43.615634534021503 ], [ -71.808328980924898, -43.6156969119249 ], [ -71.808382458427403, -43.615731326983003 ], [ -71.808483472447193, -43.615761440031498 ], [ -71.808578544099106, -43.615752836037501 ], [ -71.808679557787798, -43.615731326886198 ], [ -71.808789485602802, -43.615705515332401 ], [ -71.808911295349404, -43.615677553156601 ], [ -71.809030136283198, -43.6156431380616 ], [ -71.809128179258096, -43.6156517420158 ], [ -71.809226221998898, -43.615679704491299 ], [ -71.809330206423894, -43.6157313271231 ], [ -71.809466872305507, -43.6158001575293 ], [ -71.809556001862006, -43.6158754402719 ], [ -71.809746145663595, -43.615995893353102 ], [ -71.809814479159201, -43.616047515504398 ], [ -71.8100581005327, -43.6161615151631 ], [ -71.810227447721005, -43.616243250431403 ], [ -71.810352229257902, -43.616305627557999 ], [ -71.810494837312405, -43.6163529477328 ], [ -71.810655271173104, -43.616398117538402 ], [ -71.810852098882293, -43.616432609186297 ], [ -71.810859885563303, -43.616235317510899 ], [ -71.810714818334802, -43.6162203136277 ], [ -71.810611200399194, -43.616205309813402 ], [ -71.810549029251703, -43.616145295544896 ], [ -71.810403961882201, -43.616062776121197 ], [ -71.810300343098902, -43.615995260462 ], [ -71.810238172146299, -43.615920242449498 ], [ -71.8100723818863, -43.615837722812998 ], [ -71.809958401151604, -43.61576270426 ], [ -71.809854782633906, -43.615650176581497 ], [ -71.809699353657507, -43.615567656327002 ], [ -71.809554287788501, -43.615500140240997 ], [ -71.809409221080102, -43.615447626657399 ], [ -71.8093056021237, -43.615402615439997 ], [ -71.809222707241204, -43.615395113891097 ], [ -71.809108726241504, -43.615402615913602 ], [ -71.808922211577993, -43.615477633907403 ], [ -71.808818592826597, -43.615530147237401 ], [ -71.808673526395594, -43.615567656821597 ], [ -71.808487012854997, -43.615507641960903 ], [ -71.808341946124102, -43.615425121681 ], [ -71.808238327232104, -43.615335098782801 ], [ -71.808134708751098, -43.615237573993703 ], [ -71.808072537484307, -43.615170057477002 ], [ -71.808000003664901, -43.6150350229926 ], [ -71.807979279751294, -43.614975007644098 ], [ -71.807948194067706, -43.614877482373501 ], [ -71.807875661244907, -43.614794961175598 ], [ -71.807844575460095, -43.614719942132403 ], [ -71.807803127798095, -43.614622416720501 ], [ -71.807740956965105, -43.614517388375603 ], [ -71.807668423174505, -43.614397357235198 ], [ -71.807626976338597, -43.614284827261599 ], [ -71.807564804771005, -43.614187300618298 ], [ -71.807471547393007, -43.614112280705697 ], [ -71.807336843151205, -43.614059766382503 ], [ -71.807305757613307, -43.614014754320998 ], [ -71.807274671875604, -43.613932231523698 ], [ -71.807316119591206, -43.613789692775299 ], [ -71.807347204530402, -43.613662157460098 ], [ -71.807347204548606, -43.6135646297327 ], [ -71.807295395345605, -43.613504612896698 ], [ -71.807212500666793, -43.6134145875169 ], [ -71.807139967702199, -43.613347068504801 ], [ -71.807046710003306, -43.613302056287999 ], [ -71.806891282217194, -43.613257042862003 ], [ -71.806725491690003, -43.613272047841903 ], [ -71.806642596912098, -43.613347068564202 ], [ -71.806632235042002, -43.613504613083499 ], [ -71.806684044524104, -43.613707169565799 ], [ -71.806746214901196, -43.6138872190824 ], [ -71.806725492075998, -43.614014754429597 ], [ -71.806673681950201, -43.614052264161103 ], [ -71.806476806089194, -43.6140372601077 ], [ -71.806331739426298, -43.613984746183498 ], [ -71.806124502108702, -43.613932231439399 ], [ -71.805948349762602, -43.613947235935598 ], [ -71.805678941001005, -43.6140072518387 ], [ -71.805658217117099, -43.614134787021698 ], [ -71.805647855474106, -43.6143298394678 ], [ -71.805616769088104, -43.614502385071297 ], [ -71.805544236060499, -43.614599910653602 ], [ -71.805378445360404, -43.614674929776697 ], [ -71.8049121612531, -43.6148324706705 ], [ -71.804725646460994, -43.614877482776798 ], [ -71.804611666197502, -43.6148624785286 ], [ -71.804528771301094, -43.614907490568903 ], [ -71.804528771479696, -43.614990011111999 ], [ -71.804601304536803, -43.615147551400703 ], [ -71.804725646543304, -43.615395114101801 ], [ -71.80480854228, -43.615582659950803 ], [ -71.804777455823995, -43.615657678496099 ], [ -71.804725646707496, -43.615732697142903 ], [ -71.804186828266495, -43.616145295799001 ], [ -71.804041761853696, -43.616220313825501 ], [ -71.803948505114803, -43.616287829450499 ], [ -71.803824162106395, -43.616362847212301 ], [ -71.803720543549801, -43.616415359515301 ], [ -71.803554753119997, -43.616475373310998 ], [ -71.803451135024005, -43.616490376433902 ], [ -71.803274982492397, -43.616512882206699 ], [ -71.803140277858205, -43.616497878184397 ], [ -71.803015934515201, -43.616497878125202 ], [ -71.802653268573906, -43.616460369625301 ], [ -71.802487478227604, -43.6164153595779 ], [ -71.802218069480602, -43.616355345057698 ], [ -71.802073003053906, -43.616272825791697 ], [ -71.801896850510502, -43.616242818737902 ], [ -71.801803594537304, -43.616272826368899 ], [ -71.801648165643599, -43.616287829140099 ], [ -71.801565270419601, -43.616392854221402 ], [ -71.801451289627494, -43.6164753727492 ], [ -71.801337309016304, -43.616475373318401 ], [ -71.801212966614003, -43.616400356114603 ], [ -71.801223328309504, -43.616310334490798 ], [ -71.801161157431096, -43.616175302618103 ], [ -71.801067899532597, -43.6161227909503 ], [ -71.800922833723803, -43.616107787173398 ], [ -71.800788128461903, -43.616145295587202 ], [ -71.800674147690501, -43.616205309784498 ], [ -71.800611977377002, -43.616310334748 ], [ -71.800529081561507, -43.616370348379398 ], [ -71.800404738641603, -43.616325338347401 ], [ -71.800280396136998, -43.616235317452102 ], [ -71.800176777656006, -43.616190306922498 ], [ -71.800104244516007, -43.616137794228599 ], [ -71.799948816289998, -43.616122790223301 ], [ -71.799824472691299, -43.616137793862599 ], [ -71.799731216039504, -43.616182805191599 ], [ -71.799565425698503, -43.616220313238401 ], [ -71.799482530310698, -43.616287829688702 ], [ -71.799389273576395, -43.616392854130297 ], [ -71.799337464460393, -43.616460369454302 ], [ -71.799306378435404, -43.6165803972238 ], [ -71.799285654954602, -43.616692923157402 ], [ -71.7992131218911, -43.616895468819301 ], [ -71.799171673875705, -43.617015495665797 ], [ -71.799088779393799, -43.617075509118301 ], [ -71.798995521892195, -43.617090511822703 ], [ -71.798840093846593, -43.617150525066798 ], [ -71.798684665433001, -43.617225541679602 ], [ -71.798487789152702, -43.617293056118598 ], [ -71.7982909141069, -43.617323063060397 ], [ -71.798176933181907, -43.617315561397803 ], [ -71.798052589570403, -43.617300557767898 ], [ -71.797917884959205, -43.617330564596102 ], [ -71.797803905006901, -43.617405581280003 ], [ -71.797679562642699, -43.6175631146832 ], [ -71.797544857780295, -43.617623127319902 ], [ -71.797441238012894, -43.6176156259747 ], [ -71.797202914575706, -43.617525606412002 ], [ -71.797006039816097, -43.617503102231403 ], [ -71.796819525344702, -43.617450590805703 ], [ -71.7966848200914, -43.6174055810353 ], [ -71.796601926090602, -43.6173755748408 ], [ -71.796487944880397, -43.617285554549198 ], [ -71.796394687754898, -43.617210538185297 ], [ -71.796311792826202, -43.617098013950198 ], [ -71.796228897707195, -43.617022996789601 ], [ -71.796104555211002, -43.616902970492603 ], [ -71.795938764281104, -43.616842957262101 ], [ -71.795565736233499, -43.616745435055101 ], [ -71.795296327328899, -43.616715428430702 ], [ -71.7950269179629, -43.616715428329698 ], [ -71.794830042897601, -43.616692923089801 ], [ -71.794726424161198, -43.616662916585398 ], [ -71.794622805187203, -43.616602902842303 ], [ -71.794591718665302, -43.616512882010198 ], [ -71.794716061290003, -43.616347843840302 ], [ -71.794767871761394, -43.616280327867898 ], [ -71.795037280799704, -43.616197808027898 ], [ -71.795161622702096, -43.616152797993799 ], [ -71.795306689236099, -43.616092783104001 ], [ -71.795254880515699, -43.616002761732801 ], [ -71.795182346654798, -43.615935245938601 ], [ -71.795089090276306, -43.615867729353504 ], [ -71.794954384936005, -43.615747700537199 ], [ -71.794798956938095, -43.615672682396301 ], [ -71.794415567029503, -43.615522645283797 ], [ -71.794125433528393, -43.615470132388403 ], [ -71.793783492266101, -43.615470132466903 ], [ -71.793628062753896, -43.615492637816899 ], [ -71.793265397785106, -43.615582660427997 ], [ -71.793006350300203, -43.615702689189597 ], [ -71.792902730849093, -43.615755202514499 ], [ -71.792757664229697, -43.615800213478302 ], [ -71.792633321347907, -43.615785209309301 ], [ -71.792550426454397, -43.615710191240602 ], [ -71.792519341486894, -43.615627671575098 ], [ -71.792467531967304, -43.615552652518602 ], [ -71.792488254973094, -43.615410117928803 ], [ -71.792405360333902, -43.615327597053103 ], [ -71.792353550444702, -43.615282586008597 ], [ -71.792208485003499, -43.6152900872979 ], [ -71.792063417944505, -43.615290087552999 ], [ -71.791949437348705, -43.615372608323 ], [ -71.791887265519406, -43.615410117910798 ], [ -71.791773284582405, -43.615522645671 ], [ -71.791638580151897, -43.6156801845069 ], [ -71.7915556855327, -43.615755202392997 ], [ -71.791348447592597, -43.615770205723102 ], [ -71.791244829003702, -43.615755202319498 ], [ -71.791130848191301, -43.615747700802999 ], [ -71.790965057904799, -43.615687685698198 ], [ -71.7906542007307, -43.615605166143098 ], [ -71.790540220542596, -43.615560155070703 ], [ -71.790405515486, -43.615567656676298 ], [ -71.790301897194595, -43.615597664046703 ], [ -71.790167191667294, -43.615650177022403 ], [ -71.789980678267796, -43.615710191095701 ], [ -71.789959954588298, -43.615875231525202 ], [ -71.789951813992403, -43.615973953914597 ] ] ] } },
{ "type": "Feature", "properties": { "id": "monoparte.5", "Name": null, "description": null, "timestamp": null, "begin": null, "end": null, "altitudeMode": null, "tessellate": -1, "extrude": 0, "visibility": -1, "drawOrder": null, "icon": null, "REG": "Los Lagos", "COM": "Palena", "LOC": "Palena", "ZONA": "Z1", "NOM": "Zona Z1", "UPERM": "Vivienda, equipamiento escala regional, comunal y  vecinal", "UPROH": "Cementerios, plantas y botaderos de basura. Industria y almacenamiento inofensivos; y terminales rodoviarios", "P_DO": "23/01/1989", "N_DOC": "227", "T_DO": "Decreto", "OBS": null }, "geometry": { "type": "Polygon", "coordinates": [ [ [ -71.804673706185298, -43.616950339289303 ], [ -71.8046737068113, -43.617065391538397 ], [ -71.804196949646396, -43.617075851147 ], [ -71.803604613510103, -43.617379168910901 ], [ -71.803243434194101, -43.617619731140699 ], [ -71.802968937364, -43.617619731504703 ], [ -71.801885397435498, -43.617567434819499 ], [ -71.8016975836819, -43.617577894688999 ], [ -71.801625347859499, -43.617797536856301 ], [ -71.801582006151804, -43.618048556385197 ], [ -71.801524217322907, -43.6183518700702 ], [ -71.801509769443498, -43.618623804818199 ], [ -71.801466427904799, -43.618874820672502 ], [ -71.801451981649393, -43.619042164367102 ], [ -71.801596453721203, -43.619084000072498 ], [ -71.802795570351705, -43.619136294352501 ], [ -71.803070067921595, -43.6191362943703 ], [ -71.803489036808102, -43.619230425239003 ], [ -71.803936899205993, -43.619240883653397 ], [ -71.804384763032701, -43.619251342974302 ], [ -71.804933755643702, -43.619303637445803 ], [ -71.805468303084297, -43.619303637422703 ], [ -71.805728351585799, -43.619324555482798 ], [ -71.806017296585495, -43.618466919606597 ], [ -71.806147321216798, -43.618466919973798 ], [ -71.806508500770306, -43.618540133216896 ], [ -71.807115283592793, -43.6185715099883 ], [ -71.807490910340903, -43.6185819693832 ], [ -71.807996561983003, -43.6185819690362 ], [ -71.808314400474003, -43.618602886756001 ], [ -71.808632239448201, -43.618707477428103 ], [ -71.809080102343898, -43.618812066949701 ], [ -71.8094557290041, -43.618801608160801 ], [ -71.8096724370685, -43.618791148691002 ], [ -71.809802462395098, -43.618791149373202 ], [ -71.809874698562993, -43.618749312868701 ], [ -71.809773568489902, -43.618634264184202 ], [ -71.809556860087, -43.618466919401001 ], [ -71.809527965322104, -43.618257738680001 ], [ -71.809585754174293, -43.618090393075498 ], [ -71.809686885137097, -43.61791258793 ], [ -71.809845804460593, -43.617734781973702 ], [ -71.809903592367704, -43.617577894780297 ], [ -71.809961381984493, -43.617347791309598 ], [ -71.810004722609605, -43.617211820924702 ], [ -71.810004722702601, -43.616688856114799 ], [ -71.810004723482194, -43.616647018261197 ], [ -71.809036760192399, -43.616657477943001 ], [ -71.809108996880198, -43.616469209475497 ], [ -71.808155481160696, -43.616364615163697 ], [ -71.808242164959694, -43.616061291850102 ], [ -71.807982114762197, -43.616029912858799 ], [ -71.807331990741901, -43.616040372213803 ], [ -71.806826339222397, -43.6160508317192 ], [ -71.806349581667703, -43.616008994008297 ], [ -71.805685010571807, -43.615935777473801 ], [ -71.805367172483201, -43.615873020825703 ], [ -71.805005992005704, -43.616197264366697 ], [ -71.8048470735189, -43.616511046519101 ], [ -71.804673706185298, -43.616950339289303 ] ] ] } },
{ "type": "Feature", "properties": { "id": "monoparte.6", "Name": null, "description": null, "timestamp": null, "begin": null, "end": null, "altitudeMode": null, "tessellate": -1, "extrude": 0, "visibility": -1, "drawOrder": null, "icon": null, "REG": "Los Lagos", "COM": "Palena", "LOC": "Palena", "ZONA": "R1", "NOM": "Riesgo para los asentamientos humanos, por fuertes pendientes y posibles rodados", "UPERM": "Áreas verdes y forestación", "UPROH": "Todos los no mencionados precedentemente", "P_DO": "23/01/1989", "N_DOC": "227", "T_DO": "Decreto", "OBS": null }, "geometry": { "type": "Polygon", "coordinates": [ [ [ -71.808686293860205, -43.622390840043103 ], [ -71.809036193308401, -43.622243929465 ], [ -71.809243431020406, -43.622138914952302 ], [ -71.809005106785193, -43.622033900457403 ], [ -71.808383394343807, -43.6218088693794 ], [ -71.807585528502102, -43.621471319852603 ], [ -71.807399013849505, -43.621411311433498 ], [ -71.807181414885093, -43.621231284550802 ], [ -71.807098519789903, -43.621133769143299 ], [ -71.8069949001071, -43.620931237441702 ], [ -71.806818748293907, -43.6207362069864 ], [ -71.806694405630097, -43.620578681673102 ], [ -71.806559701120406, -43.620496168402497 ], [ -71.806342101469795, -43.620293634558003 ], [ -71.806124501499298, -43.620076097636399 ], [ -71.806114139506306, -43.619993583201897 ], [ -71.806383549495095, -43.620001084947603 ], [ -71.806715129662095, -43.620031089938898 ], [ -71.806756576891203, -43.619986081856197 ], [ -71.806766939235402, -43.6198360563357 ], [ -71.806777301029697, -43.619663525482999 ], [ -71.806839472793996, -43.619445986682202 ], [ -71.806912006057601, -43.619415980853901 ], [ -71.8074300995101, -43.619438485134097 ], [ -71.810144915606102, -43.619483493381502 ], [ -71.810300343109006, -43.619468490758798 ], [ -71.810300343278101, -43.619370973019301 ], [ -71.810341790925193, -43.619115925491798 ], [ -71.8103832379946, -43.618950893917102 ], [ -71.809267915315502, -43.618948033620001 ], [ -71.808401084204505, -43.618937574953698 ], [ -71.807837643092995, -43.618927115604997 ], [ -71.807447568843202, -43.618895738786399 ], [ -71.806927469538294, -43.618864362215902 ], [ -71.806537395331802, -43.619094458799303 ], [ -71.806219556741297, -43.6194291441563 ], [ -71.806089532664402, -43.619523273568603 ], [ -71.8057427989134, -43.619669697620701 ], [ -71.805728352553402, -43.619857956222802 ], [ -71.805612774561993, -43.619962544456897 ], [ -71.805569432440805, -43.6200462141096 ], [ -71.805656115549098, -43.6201821783254 ], [ -71.805850668733001, -43.620438992229197 ], [ -71.805936886975502, -43.620501407518603 ], [ -71.806023105454202, -43.620595030933103 ], [ -71.806103165683794, -43.620666363247501 ], [ -71.806195542553496, -43.620746611690898 ], [ -71.806238652206602, -43.620809026943903 ], [ -71.806349504746606, -43.620911566203702 ], [ -71.806386454999696, -43.620982897702604 ], [ -71.806472673911202, -43.621107728051101 ], [ -71.806528100064099, -43.621183517918602 ], [ -71.806602001010901, -43.621370761973701 ], [ -71.806706695172494, -43.621535715509701 ], [ -71.806780595802707, -43.621629336671703 ], [ -71.806953032838294, -43.621771998211599 ], [ -71.807199371727805, -43.621878994411702 ], [ -71.807408759499097, -43.621950324815003 ], [ -71.807722840713097, -43.622043945797202 ], [ -71.807975337122599, -43.622128650971902 ], [ -71.808480330068505, -43.622293601963399 ], [ -71.808686293860205, -43.622390840043103 ] ] ] } },
{ "type": "Feature", "properties": { "id": "monoparte.7", "Name": null, "description": null, "timestamp": null, "begin": null, "end": null, "altitudeMode": null, "tessellate": -1, "extrude": 0, "visibility": -1, "drawOrder": null, "icon": null, "REG": "Los Lagos", "COM": "Palena", "LOC": "Palena", "ZONA": "R4", "NOM": "Protección de estero", "UPERM": "Protección de estero", "UPROH": "No se permite ningún tipo de edificación", "P_DO": "23/01/1989", "N_DOC": "227", "T_DO": "Decreto", "OBS": null }, "geometry": { "type": "Polygon", "coordinates": [ [ [ -71.796152304061593, -43.618599991020197 ], [ -71.796123105094395, -43.618683369450302 ], [ -71.796170045421206, -43.618692572752202 ], [ -71.796289223252401, -43.618722640024401 ], [ -71.7964372931214, -43.6187344050742 ], [ -71.796533394754107, -43.6187517954437 ], [ -71.796676177449598, -43.618751795889402 ], [ -71.796805678896504, -43.618715737859901 ], [ -71.796915256202396, -43.618646025043397 ], [ -71.797038114640003, -43.618602754569899 ], [ -71.797194180054802, -43.618545061900697 ], [ -71.797360206602406, -43.618494580047802 ], [ -71.797493027124602, -43.618439290239102 ], [ -71.797599284393399, -43.618408039445001 ], [ -71.797662374385595, -43.618374384816001 ], [ -71.797864925918404, -43.618333519352902 ], [ -71.797977824239297, -43.618311883435503 ], [ -71.798104004191302, -43.618304671736801 ], [ -71.798253427133005, -43.618299864407298 ], [ -71.798366325549196, -43.618295056698798 ], [ -71.798515749530694, -43.618283037130901 ], [ -71.798681774981205, -43.6182686136302 ], [ -71.798841160833106, -43.618227746985802 ], [ -71.798914212620005, -43.618194092480103 ], [ -71.798977302310306, -43.618136399368801 ], [ -71.799023789522394, -43.618095532874797 ], [ -71.799053674680493, -43.6180378385179 ], [ -71.799106802644701, -43.617980144536098 ], [ -71.799169892002297, -43.617924855282297 ], [ -71.799256226454006, -43.617869564489503 ], [ -71.799385726846197, -43.617869564708201 ], [ -71.799531830196997, -43.617876776708599 ], [ -71.799847279793894, -43.617891200377599 ], [ -71.799990062364898, -43.617879180501497 ], [ -71.800209217326497, -43.617871968949203 ], [ -71.800431691982595, -43.617809466526701 ], [ -71.800604359212201, -43.617766196491402 ], [ -71.800767065334995, -43.617732541357299 ], [ -71.800810232777906, -43.617679654718899 ], [ -71.800853399228302, -43.617609941293701 ], [ -71.800886604645001, -43.617547439066399 ], [ -71.800893245138496, -43.617489745153499 ], [ -71.800886604380096, -43.617434454020199 ], [ -71.800866680701802, -43.6173719516798 ], [ -71.800840116881304, -43.617328680834802 ], [ -71.800840117509395, -43.617273390719902 ], [ -71.800806911440603, -43.617189252503699 ], [ -71.800846757744495, -43.617167616782503 ], [ -71.800959656360405, -43.617206080425497 ], [ -71.801085836151699, -43.617220503746701 ], [ -71.801178810096005, -43.617201271902601 ], [ -71.8012684646297, -43.617153192874497 ], [ -71.801348156847496, -43.617090690354203 ], [ -71.801471017344298, -43.617061843302203 ], [ -71.801597197376495, -43.617064247170198 ], [ -71.801852877637401, -43.617105114328602 ], [ -71.801985697859394, -43.617158000944499 ], [ -71.802165006351501, -43.617232523373403 ], [ -71.802374200362607, -43.617261370967697 ], [ -71.802563469943607, -43.617266178556598 ], [ -71.802815829718298, -43.617270986441 ], [ -71.802918765909197, -43.617254158492699 ], [ -71.803078151251896, -43.617227715087097 ], [ -71.803204331762302, -43.617191656564103 ], [ -71.803274062549804, -43.617160405492399 ], [ -71.803307267068007, -43.617117134236103 ], [ -71.8032807029157, -43.617061843288297 ], [ -71.803157844316203, -43.616996936142399 ], [ -71.802995138174694, -43.616953665377402 ], [ -71.802922085964994, -43.6169272217927 ], [ -71.802852354853897, -43.616898374647398 ], [ -71.802822470446799, -43.616862314778103 ], [ -71.8028224709022, -43.616811831681098 ], [ -71.802835752587995, -43.616775772373899 ], [ -71.802852738306697, -43.6167380312462 ], [ -71.802732512133701, -43.6167321306487 ], [ -71.802716915343396, -43.616768827478303 ], [ -71.802716916222494, -43.616878953873602 ], [ -71.802754945233104, -43.616947783251099 ], [ -71.802883292155499, -43.617016612278299 ], [ -71.803054420665205, -43.617064792363401 ], [ -71.803173261451903, -43.617126737899 ], [ -71.803120971512499, -43.617154270114398 ], [ -71.802945088063098, -43.617192125286898 ], [ -71.802664627012007, -43.617223098626198 ], [ -71.802503004591102, -43.617212774389699 ], [ -71.802346135637507, -43.617185242709901 ], [ -71.802198774668099, -43.617164594002702 ], [ -71.802065673568194, -43.617116414395397 ], [ -71.801984862658898, -43.617085440853998 ], [ -71.801799472310606, -43.617044143773903 ], [ -71.801671124594705, -43.617013170906901 ], [ -71.801466720772098, -43.6169890808807 ], [ -71.801385909414506, -43.616992522218297 ], [ -71.801195765263799, -43.617061351012197 ], [ -71.801072171937605, -43.617123296701102 ], [ -71.800977100112405, -43.617140503673397 ], [ -71.800877274411604, -43.617109531012503 ], [ -71.800801216725702, -43.6170819991993 ], [ -71.800706144965105, -43.617085441266902 ], [ -71.800691884578697, -43.617123297129297 ], [ -71.800715652239802, -43.617236864511902 ], [ -71.800758435326202, -43.617395169943002 ], [ -71.800772695439605, -43.6175293851432 ], [ -71.800710898571694, -43.617632628183401 ], [ -71.800663363261506, -43.6176876899981 ], [ -71.800487480481394, -43.617718662632001 ], [ -71.800378147236799, -43.617725545896199 ], [ -71.800221278308101, -43.6177771671885 ], [ -71.800107193067802, -43.617815021959203 ], [ -71.799840991448406, -43.617794374224303 ], [ -71.799341863394602, -43.617778887738297 ], [ -71.799220646966006, -43.617809860274299 ], [ -71.799127952498495, -43.617874386101299 ], [ -71.799081604625002, -43.617889872627103 ], [ -71.799010300223799, -43.617977628366297 ], [ -71.798906909783597, -43.6180937752342 ], [ -71.798849866426806, -43.618150557556703 ], [ -71.798657346442496, -43.6182047599955 ], [ -71.798568216512507, -43.618212502478002 ], [ -71.798425609034695, -43.618225407641098 ], [ -71.798272304791197, -43.618225407825101 ], [ -71.798115436743302, -43.618222826438299 ], [ -71.798001350252903, -43.61823573201 ], [ -71.797812394906799, -43.618266704702599 ], [ -71.797684048256997, -43.618297676477702 ], [ -71.797580656653494, -43.618338973593403 ], [ -71.797427353652395, -43.618393175078403 ], [ -71.797209876716096, -43.618462861975701 ], [ -71.797113615759699, -43.618488672563899 ], [ -71.796981704184304, -43.618532550143499 ], [ -71.7968355316209, -43.618597075318498 ], [ -71.796764226609397, -43.6186332094316 ], [ -71.796675097606894, -43.618664181456801 ], [ -71.796523969135507, -43.618675578580799 ], [ -71.796415623984203, -43.6186638135514 ], [ -71.796265748888999, -43.618631131423101 ], [ -71.796198936110301, -43.618608908339901 ], [ -71.796152304061593, -43.618599991020197 ] ] ] } },
{ "type": "Feature", "properties": { "id": "monoparte.8", "Name": null, "description": null, "timestamp": null, "begin": null, "end": null, "altitudeMode": null, "tessellate": -1, "extrude": 0, "visibility": -1, "drawOrder": null, "icon": null, "REG": "Los Lagos", "COM": "Palena", "LOC": "Palena", "ZONA": "Z2", "NOM": "Zona Z2", "UPERM": "Vivienda, Equipamiento de escala comunal y vecinal", "UPROH": "Cementerios, plantas y botaderos de basura. Industria y almacenamiento inofensivos; y terminales rodoviarios", "P_DO": "23/01/1989", "N_DOC": "227", "T_DO": "Decreto", "OBS": null }, "geometry": { "type": "Polygon", "coordinates": [ [ [ -71.796152304061593, -43.618599991020197 ], [ -71.796198936110301, -43.618608908339901 ], [ -71.796265748888999, -43.618631131423101 ], [ -71.796415623984203, -43.6186638135514 ], [ -71.796523969135507, -43.618675578580799 ], [ -71.796675097606894, -43.618664181456801 ], [ -71.796764226609397, -43.6186332094316 ], [ -71.7968355316209, -43.618597075318498 ], [ -71.796981704184304, -43.618532550143499 ], [ -71.797113615759699, -43.618488672563899 ], [ -71.797209876716096, -43.618462861975701 ], [ -71.797427353652395, -43.618393175078403 ], [ -71.797580656653494, -43.618338973593403 ], [ -71.797684048256997, -43.618297676477702 ], [ -71.797812394906799, -43.618266704702599 ], [ -71.798001350252903, -43.61823573201 ], [ -71.798115436743302, -43.618222826438299 ], [ -71.798272304791197, -43.618225407825101 ], [ -71.798425609034695, -43.618225407641098 ], [ -71.798568216512507, -43.618212502478002 ], [ -71.798657346442496, -43.6182047599955 ], [ -71.798849866426806, -43.618150557556703 ], [ -71.798906909783597, -43.6180937752342 ], [ -71.799010300223799, -43.617977628366297 ], [ -71.799081604625002, -43.617889872627103 ], [ -71.799127952498495, -43.617874386101299 ], [ -71.799220646966006, -43.617809860274299 ], [ -71.799341863394602, -43.617778887738297 ], [ -71.799840991448406, -43.617794374224303 ], [ -71.800107193067802, -43.617815021959203 ], [ -71.800221278308101, -43.6177771671885 ], [ -71.800378147236799, -43.617725545896199 ], [ -71.800487480481394, -43.617718662632001 ], [ -71.800663363261506, -43.6176876899981 ], [ -71.800710898571694, -43.617632628183401 ], [ -71.800772695439605, -43.6175293851432 ], [ -71.800758435326202, -43.617395169943002 ], [ -71.800715652239802, -43.617236864511902 ], [ -71.800691884578697, -43.617123297129297 ], [ -71.800706144965105, -43.617085441266902 ], [ -71.800801216725702, -43.6170819991993 ], [ -71.800877274411604, -43.617109531012503 ], [ -71.800977100112405, -43.617140503673397 ], [ -71.801072171937605, -43.617123296701102 ], [ -71.801195765263799, -43.617061351012197 ], [ -71.801385909414506, -43.616992522218297 ], [ -71.801466720772098, -43.6169890808807 ], [ -71.801671124594705, -43.617013170906901 ], [ -71.801799472310606, -43.617044143773903 ], [ -71.801984862658898, -43.617085440853998 ], [ -71.802065673568194, -43.617116414395397 ], [ -71.802198774668099, -43.617164594002702 ], [ -71.802346135637507, -43.617185242709901 ], [ -71.802503004591102, -43.617212774389699 ], [ -71.802664627012007, -43.617223098626198 ], [ -71.802945088063098, -43.617192125286898 ], [ -71.803120971512499, -43.617154270114398 ], [ -71.803173261451903, -43.617126737899 ], [ -71.803054420665205, -43.617064792363401 ], [ -71.802883292155499, -43.617016612278299 ], [ -71.802754945233104, -43.616947783251099 ], [ -71.802716916222494, -43.616878953873602 ], [ -71.802716915343396, -43.616768827478303 ], [ -71.802732512133701, -43.6167321306487 ], [ -71.802715229617604, -43.616731282483798 ], [ -71.802486777911497, -43.616713872537197 ], [ -71.802369545937907, -43.616681229486097 ], [ -71.802177164838199, -43.616611590170798 ], [ -71.802086986458605, -43.616572418237702 ], [ -71.801990796801604, -43.616537598359201 ], [ -71.801828475080399, -43.616537598516402 ], [ -71.801690200809404, -43.616598532822302 ], [ -71.801551927703997, -43.616674700994601 ], [ -71.801362552500194, -43.616711696146901 ], [ -71.801284398352095, -43.616696462740798 ], [ -71.801188207328195, -43.616679053347802 ], [ -71.801064964389596, -43.616631176435703 ], [ -71.8009417197879, -43.616539775208302 ], [ -71.800887612610197, -43.616467959504803 ], [ -71.800833505766207, -43.616461430551198 ], [ -71.800701243689204, -43.616541951200503 ], [ -71.800602047366695, -43.616561536890799 ], [ -71.800439726185203, -43.6165789470882 ], [ -71.800268387457294, -43.616539774505398 ], [ -71.800196244916904, -43.616507131310797 ], [ -71.800097048577697, -43.616444020446899 ], [ -71.799973804533906, -43.616420082006798 ], [ -71.799838536464904, -43.6164614305195 ], [ -71.799721304769704, -43.6165201891165 ], [ -71.799664191088596, -43.6165767709956 ], [ -71.799610083689302, -43.616661643156199 ], [ -71.799564994524602, -43.616726930263297 ], [ -71.799528923162796, -43.616783511368602 ], [ -71.799525917190195, -43.616870560555597 ], [ -71.7994748163987, -43.616953256627603 ], [ -71.799438745087301, -43.617092533813697 ], [ -71.799372613961495, -43.617203520098599 ], [ -71.799228328374895, -43.617312330335402 ], [ -71.799129131745502, -43.617349324982897 ], [ -71.799008893864894, -43.617375439291202 ], [ -71.798939757032201, -43.617421140163799 ], [ -71.798804489511895, -43.617436373446097 ], [ -71.798579043484196, -43.617464663452203 ], [ -71.798425739951497, -43.617469016152199 ], [ -71.798224341874203, -43.6174711920658 ], [ -71.798077049828805, -43.617514715685097 ], [ -71.798025949169798, -43.617566944779199 ], [ -71.797947793708602, -43.617704044345601 ], [ -71.797902705389703, -43.617804148527803 ], [ -71.797842585922297, -43.617869433949302 ], [ -71.797797497043803, -43.617932543280702 ], [ -71.797665235472294, -43.617978242643701 ], [ -71.797544997446707, -43.6179651853273 ], [ -71.797337586290794, -43.617945600324198 ], [ -71.797118152533798, -43.617915134091099 ], [ -71.796805533198196, -43.617841143299003 ], [ -71.796631188357196, -43.617788915239402 ], [ -71.796548854687003, -43.617759805553099 ], [ -71.796503028895501, -43.617875215326301 ], [ -71.796362705638799, -43.6180558158526 ], [ -71.796274354093299, -43.618251466577298 ], [ -71.796152304061593, -43.618599991020197 ] ] ] } },
{ "type": "Feature", "properties": { "id": "monoparte.9", "Name": null, "description": null, "timestamp": null, "begin": null, "end": null, "altitudeMode": null, "tessellate": -1, "extrude": 0, "visibility": -1, "drawOrder": null, "icon": null, "REG": "Los Lagos", "COM": "Palena", "LOC": "Palena", "ZONA": "R4", "NOM": "Protección de estero", "UPERM": "Protección de estero", "UPROH": "No se permite ningún tipo de edificación", "P_DO": "23/01/1989", "N_DOC": "227", "T_DO": "Decreto", "OBS": null }, "geometry": { "type": "Polygon", "coordinates": [ [ [ -71.796123105094395, -43.618683369450302 ], [ -71.796152304061593, -43.618599991020197 ], [ -71.796008009501406, -43.61856470947 ], [ -71.795850515926602, -43.618493682439002 ], [ -71.7957214234128, -43.618430132642402 ], [ -71.795563929950006, -43.618344152058803 ], [ -71.795486474920196, -43.618297423748501 ], [ -71.795367710112004, -43.618235742047297 ], [ -71.795290253545105, -43.6181759296325 ], [ -71.795243780639197, -43.618116117089997 ], [ -71.795224062336501, -43.618046456282897 ], [ -71.795128990421802, -43.6179862320692 ], [ -71.795010150266805, -43.617930308725803 ], [ -71.794802180463904, -43.617934611182903 ], [ -71.794707109329593, -43.617990533729902 ], [ -71.794505081213799, -43.618080869882903 ], [ -71.794380299755503, -43.618145396217898 ], [ -71.794421893983895, -43.618218525014498 ], [ -71.794522907412698, -43.618184110952299 ], [ -71.794612037579498, -43.618136791870398 ], [ -71.794796238664404, -43.618042154007199 ], [ -71.794938846869897, -43.618016344025399 ], [ -71.795022035139596, -43.618024947209101 ], [ -71.795093338897004, -43.618076568541397 ], [ -71.795146816999804, -43.618171205761698 ], [ -71.795206236391607, -43.618214223185198 ], [ -71.795259714220705, -43.618278748772497 ], [ -71.795360728015297, -43.618334671413599 ], [ -71.795473626672802, -43.618399196854 ], [ -71.7955627558391, -43.618463722266199 ], [ -71.795675653858098, -43.618519644596397 ], [ -71.795806377987105, -43.618592773937401 ], [ -71.795919275405495, -43.618631489292099 ], [ -71.796123105094395, -43.618683369450302 ] ] ] } },
{ "type": "Feature", "properties": { "id": "monoparte.10", "Name": null, "description": null, "timestamp": null, "begin": null, "end": null, "altitudeMode": null, "tessellate": -1, "extrude": 0, "visibility": -1, "drawOrder": null, "icon": null, "REG": "Los Lagos", "COM": "Palena", "LOC": "Palena", "ZONA": "ZE", "NOM": "Zona ZE", "UPERM": "Vivienda, Equipamiento de escala comunal y vecinal de todo tipo. Industria y almacenamiento, inofensivos y terminales rodoviarios.", "UPROH": "Todos los no indicados precedentemente.", "P_DO": "23/01/1989", "N_DOC": "227", "T_DO": "Decreto", "OBS": null }, "geometry": { "type": "Polygon", "coordinates": [ [ [ -71.796123105094395, -43.618683369450302 ], [ -71.795919275405495, -43.618631489292099 ], [ -71.795806377987105, -43.618592773937401 ], [ -71.795675653858098, -43.618519644596397 ], [ -71.7955627558391, -43.618463722266199 ], [ -71.795473626672802, -43.618399196854 ], [ -71.795360728015297, -43.618334671413599 ], [ -71.795259714220705, -43.618278748772497 ], [ -71.795206236391607, -43.618214223185198 ], [ -71.795146816999804, -43.618171205761698 ], [ -71.795093338897004, -43.618076568541397 ], [ -71.795022035139596, -43.618024947209101 ], [ -71.794938846869897, -43.618016344025399 ], [ -71.794796238664404, -43.618042154007199 ], [ -71.794612037579498, -43.618136791870398 ], [ -71.794522907412698, -43.618184110952299 ], [ -71.794421893983895, -43.618218525014498 ], [ -71.794380299755503, -43.618145396217898 ], [ -71.794505081213799, -43.618080869882903 ], [ -71.794707109329593, -43.617990533729902 ], [ -71.794802180463904, -43.617934611182903 ], [ -71.795010150266805, -43.617930308725803 ], [ -71.795128990421802, -43.6179862320692 ], [ -71.795224062336501, -43.618046456282897 ], [ -71.795243780639197, -43.618116117089997 ], [ -71.795290253545105, -43.6181759296325 ], [ -71.795367710112004, -43.618235742047297 ], [ -71.795486474920196, -43.618297423748501 ], [ -71.795563929950006, -43.618344152058803 ], [ -71.7957214234128, -43.618430132642402 ], [ -71.795850515926602, -43.618493682439002 ], [ -71.796008009501406, -43.61856470947 ], [ -71.796152304061593, -43.618599991020197 ], [ -71.796274354093299, -43.618251466577298 ], [ -71.796362705638799, -43.6180558158526 ], [ -71.796503028895501, -43.617875215326301 ], [ -71.796548854687003, -43.617759805553099 ], [ -71.796501933055794, -43.617743215406698 ], [ -71.796324581883596, -43.617664872651702 ], [ -71.796204343027597, -43.617614820914497 ], [ -71.796102140697897, -43.6175343015042 ], [ -71.795993927604101, -43.617421139872903 ], [ -71.795915772087298, -43.617327563535397 ], [ -71.795837617473097, -43.617262277282897 ], [ -71.795738421154397, -43.617175229296699 ], [ -71.795660266214199, -43.617112119094699 ], [ -71.795567082272399, -43.617062067198297 ], [ -71.795470891753595, -43.617016366405998 ], [ -71.795341636453003, -43.616959785314997 ], [ -71.795230415588605, -43.616942374945097 ], [ -71.795122201584405, -43.616942374952799 ], [ -71.7948246129979, -43.616948903621399 ], [ -71.794656279311198, -43.616924965977702 ], [ -71.794451874645205, -43.6168683838563 ], [ -71.7943226186038, -43.616813978691098 ], [ -71.794214405339204, -43.616707343852703 ], [ -71.794175327855797, -43.616615942747998 ], [ -71.794199375633298, -43.616437492277797 ], [ -71.794223422619496, -43.616313446887702 ], [ -71.794331636398695, -43.616198106400297 ], [ -71.794397768182804, -43.616182872525798 ], [ -71.794524017473506, -43.616095822898998 ], [ -71.7945751190652, -43.616028359467798 ], [ -71.794554077106596, -43.615952190698899 ], [ -71.794454881018694, -43.615876022399597 ], [ -71.794346666702694, -43.615825968935297 ], [ -71.794121220493906, -43.615754152752999 ], [ -71.793820625011193, -43.615695393499202 ], [ -71.793547084588596, -43.615706274523099 ], [ -71.793480953639303, -43.615730213452501 ], [ -71.793378750500494, -43.615765033837903 ], [ -71.793258512784007, -43.615825968858097 ], [ -71.793084167807393, -43.615897784965199 ], [ -71.792915835201399, -43.615963072062399 ], [ -71.792822650567999, -43.615997892036702 ], [ -71.792684377029403, -43.616039240730302 ], [ -71.792597204592596, -43.616039240721797 ], [ -71.792501014190094, -43.616026183512098 ], [ -71.7924258654635, -43.615995715716501 ], [ -71.792335686710302, -43.615908665786698 ], [ -71.792239496475702, -43.615847730874997 ], [ -71.792170359738193, -43.6157628576333 ], [ -71.792092204806494, -43.615675807121299 ], [ -71.792050121169893, -43.615619224489699 ], [ -71.792005032677395, -43.6156192245044 ], [ -71.791959942858796, -43.615625753035197 ], [ -71.791938901744203, -43.615667102180197 ], [ -71.791911847917603, -43.615730213191199 ], [ -71.791866758497406, -43.615795500889398 ], [ -71.791767561763706, -43.6158716700605 ], [ -71.791698424918593, -43.6159108425623 ], [ -71.791608246162198, -43.6159391334131 ], [ -71.791509050448298, -43.615952190787198 ], [ -71.791364764726694, -43.6159652487746 ], [ -71.791283603966804, -43.615965248517803 ], [ -71.791160359627298, -43.615965248289498 ], [ -71.791001045277298, -43.615939133776301 ], [ -71.790877801117006, -43.615893432826901 ], [ -71.790844735543004, -43.615893432156398 ], [ -71.7907455396073, -43.615858612293103 ], [ -71.790598247824093, -43.615825968509498 ], [ -71.790453962034704, -43.615797677267899 ], [ -71.790351759585207, -43.615808558888801 ], [ -71.790294647181099, -43.6158455550664 ], [ -71.790216491723598, -43.615886903447702 ], [ -71.790117295879298, -43.6159173707536 ], [ -71.790048158801696, -43.615945662327299 ], [ -71.789991046063605, -43.615973953692098 ], [ -71.789951813992403, -43.615973953914597 ], [ -71.789877058750704, -43.616880465585901 ], [ -71.789897783155993, -43.6172255414007 ], [ -71.789845973381503, -43.617698143606901 ], [ -71.789731993019601, -43.618320771047699 ], [ -71.789731992748102, -43.618500806745601 ], [ -71.790861438751406, -43.6185308128507 ], [ -71.791286276457896, -43.618553317156099 ], [ -71.791524600075107, -43.618583323082703 ], [ -71.791752560922106, -43.618613329673899 ], [ -71.792198122216803, -43.618665839046102 ], [ -71.792840559520201, -43.618748355631098 ], [ -71.7932861208335, -43.618808367033402 ], [ -71.793472635475098, -43.618830871677098 ], [ -71.793524444176697, -43.6188083670407 ], [ -71.793586615923005, -43.618688344132998 ], [ -71.793586615619205, -43.618538314726003 ], [ -71.793586615878198, -43.618395786187897 ], [ -71.794187604819598, -43.618418290648599 ], [ -71.794270500994102, -43.618455798525197 ], [ -71.794415566779193, -43.618508308874901 ], [ -71.794633166873993, -43.618590824459403 ], [ -71.795037280513895, -43.6187633587055 ], [ -71.795447676557799, -43.618922779810198 ], [ -71.795491580219306, -43.6188790779238 ], [ -71.795671936910196, -43.618813793478203 ], [ -71.795762115122301, -43.618809440858499 ], [ -71.796062710081998, -43.618835555152202 ], [ -71.796069187491995, -43.618836427511198 ], [ -71.796087255537202, -43.618785738955303 ], [ -71.796123105094395, -43.618683369450302 ] ] ] } }
]
}
