{
"type": "FeatureCollection",
"name": "IPT_10_PRC_Quinchao_Achao",
"crs": { "type": "name", "properties": { "name": "urn:ogc:def:crs:OGC:1.3:CRS84" } },
"features": [
{ "type": "Feature", "properties": { "id": "monoparte.1", "Name": null, "description": null, "timestamp": null, "begin": null, "end": null, "altitudeMode": null, "tessellate": -1, "extrude": 0, "visibility": -1, "drawOrder": null, "icon": null, "REG": "Los Lagos", "COM": "Quinchao", "LOC": "Achao", "ZONA": "ZR-1", "NOM": "Resguardo de terrenos de playas fiscales", "UPERM": "Equipamiento de escala comunal de áreas verdes definido en el artículo 21 de la presente Ordenanza Local.", "UPROH": "Todos aquellos no señalados como permitidos.", "P_DO": "27/08/1999", "N_DOC": "Resolució", "T_DO": null, "OBS": null }, "geometry": { "type": "Polygon", "coordinates": [ [ [ -73.494064440768298, -42.468619093630203 ], [ -73.494005059679907, -42.468661476801003 ], [ -73.494645904085601, -42.4685971993392 ], [ -73.496042410416706, -42.468238226259203 ], [ -73.4960062870136, -42.468237864361399 ], [ -73.495700308916099, -42.468278476877103 ], [ -73.495274449811305, -42.468352385978299 ], [ -73.494860742234494, -42.468416287611298 ], [ -73.494727004311798, -42.468435835961898 ], [ -73.494562882778695, -42.468480400327998 ], [ -73.494340666044195, -42.4685224816062 ], [ -73.4941951154685, -42.468556786483802 ], [ -73.494064440768298, -42.468619093630203 ] ] ] } },
{ "type": "Feature", "properties": { "id": "monoparte.2", "Name": null, "description": null, "timestamp": null, "begin": null, "end": null, "altitudeMode": null, "tessellate": -1, "extrude": 0, "visibility": -1, "drawOrder": null, "icon": null, "REG": "Los Lagos", "COM": "Quinchao", "LOC": "Achao", "ZONA": "ZR-1", "NOM": "Resguardo de terrenos de playas fiscales", "UPERM": "Equipamiento de escala comunal de áreas verdes definido en el artículo 21 de la presente Ordenanza Local.", "UPROH": "Todos aquellos no señalados como permitidos.", "P_DO": "27/08/1999", "N_DOC": "Resolució", "T_DO": null, "OBS": null }, "geometry": { "type": "Polygon", "coordinates": [ [ [ -73.490098029126202, -42.468946378931797 ], [ -73.490138962712905, -42.4690686445864 ], [ -73.489196399109602, -42.469296215816598 ], [ -73.489035286577106, -42.469293009575502 ], [ -73.488546893208806, -42.4693026473348 ], [ -73.488040606825606, -42.469332041820998 ], [ -73.4873431612763, -42.469387991155401 ], [ -73.487292843466307, -42.469404258158399 ], [ -73.486990209582501, -42.469401837093599 ], [ -73.4868828148104, -42.469429872165499 ], [ -73.486793993003104, -42.469447649319903 ], [ -73.486661609537805, -42.469486191861101 ], [ -73.486458974690194, -42.469532255267303 ], [ -73.4862789494005, -42.469534551579201 ], [ -73.486209379198101, -42.4695515732069 ], [ -73.486038829972202, -42.469596377446898 ], [ -73.486006403768897, -42.469592884528602 ], [ -73.485992549668097, -42.469579134847798 ], [ -73.485680520644706, -42.469715245251699 ], [ -73.485706530303801, -42.469718988994799 ], [ -73.485751790843494, -42.4697219786798 ], [ -73.485639677951198, -42.469774019018402 ], [ -73.485569427396598, -42.4697815376568 ], [ -73.485467089320693, -42.469790315440697 ], [ -73.485107716697598, -42.469804407353699 ], [ -73.485016214702398, -42.469874696571999 ], [ -73.485006098179795, -42.469913207669698 ], [ -73.485047362677307, -42.470040226882297 ], [ -73.485094322860306, -42.4700669715874 ], [ -73.485204438859, -42.470076946811901 ], [ -73.485241923457806, -42.470061183943201 ], [ -73.485317572448807, -42.470039160794201 ], [ -73.485381746631703, -42.470036644324701 ], [ -73.485438483283701, -42.4700201264518 ], [ -73.485509074002294, -42.470017358293198 ], [ -73.485583499843898, -42.470058537832202 ], [ -73.487353671817203, -42.469750622408299 ], [ -73.488377339327002, -42.469577056851001 ], [ -73.488707297746402, -42.469511701495797 ], [ -73.489503971088197, -42.469313682786101 ], [ -73.490731565831894, -42.469022511562102 ], [ -73.491724825987404, -42.468873932140198 ], [ -73.492626247523006, -42.468790887035098 ], [ -73.493847065268696, -42.468673282481497 ], [ -73.493803040329794, -42.468653184992 ], [ -73.493744264292403, -42.468641201111303 ], [ -73.493653742202994, -42.468635229011603 ], [ -73.493345377844093, -42.468642578313101 ], [ -73.4928924805794, -42.468698483035503 ], [ -73.492567587652402, -42.468744594757098 ], [ -73.492492283599901, -42.468771373784001 ], [ -73.492447703345306, -42.468777889331697 ], [ -73.492402442185707, -42.468774902330097 ], [ -73.492350083828796, -42.468762665674802 ], [ -73.491697571459795, -42.468816876875799 ], [ -73.491442925224007, -42.468855462242999 ], [ -73.4909207964958, -42.468933136152202 ], [ -73.490906260853905, -42.468909884558201 ], [ -73.490811023560198, -42.468927916716197 ], [ -73.490805626859697, -42.468942421609398 ], [ -73.490722542938002, -42.468950448165302 ], [ -73.490421861624696, -42.468166606564999 ], [ -73.490339120083206, -42.4681793831314 ], [ -73.490406109188399, -42.468395913207502 ], [ -73.490395657168705, -42.468429674193999 ], [ -73.490399400183506, -42.468481935575703 ], [ -73.490432846700401, -42.468499679305197 ], [ -73.490472370583802, -42.468512420702098 ], [ -73.490560655184694, -42.468756701586599 ], [ -73.490510337611994, -42.468772969992997 ], [ -73.490534693489394, -42.468843478893298 ], [ -73.490098029126202, -42.468946378931797 ] ] ] } },
{ "type": "Feature", "properties": { "id": "monoparte.3", "Name": null, "description": null, "timestamp": null, "begin": null, "end": null, "altitudeMode": null, "tessellate": -1, "extrude": 0, "visibility": -1, "drawOrder": null, "icon": null, "REG": "Los Lagos", "COM": "Quinchao", "LOC": "Achao", "ZONA": "ZR-1", "NOM": "Resguardo de terrenos de playas fiscales", "UPERM": "Equipamiento de escala comunal de áreas verdes definido en el artículo 21 de la presente Ordenanza Local.", "UPROH": "Todos aquellos no señalados como permitidos.", "P_DO": "27/08/1999", "N_DOC": "Resolució", "T_DO": null, "OBS": null }, "geometry": { "type": "Polygon", "coordinates": [ [ [ -73.496290627143694, -42.468164750948297 ], [ -73.496251793071906, -42.468180074382197 ], [ -73.496453610295205, -42.468140239963702 ], [ -73.497772629226603, -42.467778698878298 ], [ -73.497788691106805, -42.467765473244398 ], [ -73.497711297080201, -42.4677849217261 ], [ -73.497444848538507, -42.467838277546903 ], [ -73.497330364048906, -42.467857071913002 ], [ -73.497173004427097, -42.467906138787697 ], [ -73.496964649100207, -42.467961973179797 ], [ -73.496786674668897, -42.467992792350799 ], [ -73.496290627143694, -42.468164750948297 ] ] ] } },
{ "type": "Feature", "properties": { "id": "monoparte.4", "Name": null, "description": null, "timestamp": null, "begin": null, "end": null, "altitudeMode": null, "tessellate": -1, "extrude": 0, "visibility": -1, "drawOrder": null, "icon": null, "REG": "Los Lagos", "COM": "Quinchao", "LOC": "Achao", "ZONA": "ZR-1", "NOM": "Resguardo de terrenos de playas fiscales", "UPERM": "Equipamiento de escala comunal de áreas verdes definido en el artículo 21 de la presente Ordenanza Local.", "UPROH": "Todos aquellos no señalados como permitidos.", "P_DO": "27/08/1999", "N_DOC": "Resolució", "T_DO": null, "OBS": null }, "geometry": { "type": "Polygon", "coordinates": [ [ [ -73.484077339858899, -42.469650419629097 ], [ -73.484594802667502, -42.469957113193999 ], [ -73.484586693956999, -42.4699427536356 ], [ -73.484494158537501, -42.469773674133499 ], [ -73.484415590452002, -42.469687422787899 ], [ -73.484304086734198, -42.469590551891898 ], [ -73.484129685078898, -42.469514012252802 ], [ -73.483803720653299, -42.469455325229298 ], [ -73.482635433969406, -42.469316497270398 ], [ -73.482480050233306, -42.469280897706298 ], [ -73.482297629374898, -42.469204670391399 ], [ -73.482080149643295, -42.469088128618502 ], [ -73.481844080340807, -42.468936580881703 ], [ -73.481704697228096, -42.468787201132301 ], [ -73.481624861835897, -42.4686831309591 ], [ -73.481581357699994, -42.468637191720902 ], [ -73.481358406106907, -42.468556595952897 ], [ -73.481071708877707, -42.468484451024899 ], [ -73.4807402765246, -42.468461702402301 ], [ -73.480407572284605, -42.468421135216701 ], [ -73.480212082734297, -42.4683871043487 ], [ -73.480021646172403, -42.468311187299797 ], [ -73.479845554353503, -42.468210885801099 ], [ -73.479718192562302, -42.468150792105 ], [ -73.479864598088994, -42.468243252078302 ], [ -73.480060883494005, -42.468378494768103 ], [ -73.480108181140395, -42.468409992985002 ], [ -73.480213234174997, -42.4684392290429 ], [ -73.480650014935804, -42.468607929859502 ], [ -73.480774999414194, -42.468645913031501 ], [ -73.481003679639102, -42.468694127782904 ], [ -73.481670808579906, -42.468844272182999 ], [ -73.481698176200197, -42.4688670213135 ], [ -73.481959730629498, -42.469195042020601 ], [ -73.482152965286801, -42.469287521492099 ], [ -73.482333027812899, -42.469375753059701 ], [ -73.482572883793395, -42.469490226282403 ], [ -73.483146784461098, -42.469596372569399 ], [ -73.483646357533601, -42.469653021114503 ], [ -73.484077339858899, -42.469650419629097 ] ] ] } },
{ "type": "Feature", "properties": { "id": "monoparte.5", "Name": null, "description": null, "timestamp": null, "begin": null, "end": null, "altitudeMode": null, "tessellate": -1, "extrude": 0, "visibility": -1, "drawOrder": null, "icon": null, "REG": "Los Lagos", "COM": "Quinchao", "LOC": "Achao", "ZONA": "ZR-1", "NOM": "Resguardo de terrenos de playas fiscales", "UPERM": "Equipamiento de escala comunal de áreas verdes definido en el artículo 21 de la presente Ordenanza Local.", "UPROH": "Todos aquellos no señalados como permitidos.", "P_DO": "27/08/1999", "N_DOC": "Resolució", "T_DO": null, "OBS": null }, "geometry": { "type": "Polygon", "coordinates": [ [ [ -73.477488685413505, -42.467648068017297 ], [ -73.477338821504205, -42.467689667211303 ], [ -73.477164044319693, -42.467720329726802 ], [ -73.477051318039202, -42.467718786981401 ], [ -73.477011634373397, -42.467726295100597 ], [ -73.476974919164206, -42.467775375877402 ], [ -73.476906118174199, -42.467825712443997 ], [ -73.476793427670302, -42.467937321193403 ], [ -73.476598860436994, -42.4681414650139 ], [ -73.476612974381595, -42.468320507044503 ], [ -73.476630602821899, -42.468284106594503 ], [ -73.476720755740004, -42.468194820069201 ], [ -73.476816647544894, -42.468095779573098 ], [ -73.476991552187698, -42.467931710602301 ], [ -73.477165439292506, -42.4677533872566 ], [ -73.477337007758905, -42.467722850335697 ], [ -73.477411978619301, -42.467691329687803 ], [ -73.477469734700506, -42.4676890689177 ], [ -73.477622729765898, -42.467668786989499 ], [ -73.477738239421399, -42.467664265304698 ], [ -73.478040187996996, -42.467657209465301 ], [ -73.478247573969, -42.467677676464596 ], [ -73.478379308741296, -42.467686895675897 ], [ -73.478374870006206, -42.467666975476298 ], [ -73.478236383562503, -42.467642620124799 ], [ -73.478048495156102, -42.467602332117998 ], [ -73.477829369678602, -42.467575177349502 ], [ -73.477692580133294, -42.4675745772347 ], [ -73.477614485592497, -42.467607411503202 ], [ -73.477560455775503, -42.467639303720802 ], [ -73.477488685413505, -42.467648068017297 ] ] ] } },
{ "type": "Feature", "properties": { "id": "monoparte.6", "Name": null, "description": null, "timestamp": null, "begin": null, "end": null, "altitudeMode": null, "tessellate": -1, "extrude": 0, "visibility": -1, "drawOrder": null, "icon": null, "REG": "Los Lagos", "COM": "Quinchao", "LOC": "Achao", "ZONA": "ZR-1", "NOM": "Resguardo de terrenos de playas fiscales", "UPERM": "Equipamiento de escala comunal de áreas verdes definido en el artículo 21 de la presente Ordenanza Local.", "UPROH": "Todos aquellos no señalados como permitidos.", "P_DO": "27/08/1999", "N_DOC": "Resolució", "T_DO": null, "OBS": null }, "geometry": { "type": "Polygon", "coordinates": [ [ [ -73.501084064629495, -42.466361113712701 ], [ -73.500986851159894, -42.466441168727897 ], [ -73.501144885920297, -42.466401599325401 ], [ -73.501139834115406, -42.466420855752297 ], [ -73.500947390522697, -42.466518950223197 ], [ -73.500768802855404, -42.4666307930691 ], [ -73.5005607965455, -42.466691385791897 ], [ -73.500491914852702, -42.466717917373501 ], [ -73.500324455433201, -42.466805500316198 ], [ -73.500147850251295, -42.466855327567899 ], [ -73.499979026028299, -42.466923906069503 ], [ -73.499779820704802, -42.467017500869801 ], [ -73.499626556700505, -42.467123581091002 ], [ -73.499646148538204, -42.467127575017102 ], [ -73.499961882311297, -42.467043689156803 ], [ -73.500076364254994, -42.467024891360403 ], [ -73.500073356781698, -42.4670726533136 ], [ -73.500051440674895, -42.467125923801802 ], [ -73.499432805232203, -42.467293190384702 ], [ -73.499336891576903, -42.467301727878301 ], [ -73.499262615264797, -42.467342763925302 ], [ -73.4991802168785, -42.467360298031899 ], [ -73.499034672128204, -42.467394608830098 ], [ -73.498959031917593, -42.467416641592301 ], [ -73.498632164301299, -42.467524783951397 ], [ -73.498403879063304, -42.4675718773222 ], [ -73.498284682266302, -42.467614679335902 ], [ -73.498171221048494, -42.467647727303799 ], [ -73.498125675490101, -42.467666227924497 ], [ -73.498302456892603, -42.467629226792198 ], [ -73.498814736523201, -42.467504263810497 ], [ -73.499243933691005, -42.467387331232302 ], [ -73.499325650182797, -42.467360294634702 ], [ -73.499388456624899, -42.467338766460699 ], [ -73.499579261205199, -42.467307439437 ], [ -73.500273876727903, -42.467122889742001 ], [ -73.500345951564299, -42.467320156011702 ], [ -73.500758495643097, -42.467060942971997 ], [ -73.500936743420596, -42.466944348877803 ], [ -73.500998525667598, -42.466908567125401 ], [ -73.501059965615596, -42.466868035077098 ], [ -73.5012864774245, -42.4667066622169 ], [ -73.5016358689182, -42.4664642242452 ], [ -73.501869477231097, -42.4663120993199 ], [ -73.501880263852797, -42.466283088787698 ], [ -73.501913307083797, -42.466205558654202 ], [ -73.501975706287098, -42.466088758744803 ], [ -73.502009090456099, -42.466015979797902 ], [ -73.502055307774299, -42.465942695738498 ], [ -73.502090673143499, -42.465882539974899 ], [ -73.501783182726399, -42.465880987604798 ], [ -73.501734577479795, -42.465921015807801 ], [ -73.501605622863593, -42.466007084290297 ], [ -73.501532372942606, -42.4660623753038 ], [ -73.501420620601607, -42.4661191805912 ], [ -73.501084064629495, -42.466361113712701 ] ] ] } },
{ "type": "Feature", "properties": { "id": "monoparte.7", "Name": null, "description": null, "timestamp": null, "begin": null, "end": null, "altitudeMode": null, "tessellate": -1, "extrude": 0, "visibility": -1, "drawOrder": null, "icon": null, "REG": "Los Lagos", "COM": "Quinchao", "LOC": "Achao", "ZONA": "ZR-3", "NOM": "Restricción por fuertes pendientes", "UPERM": "Equipamiento de escala comunal de áreas verdes definido en el artículo 21 de la presente Ordenanza Local.", "UPROH": "Todos aquellos no señalados como permitidos.", "P_DO": "27/08/1999", "N_DOC": "Resolució", "T_DO": null, "OBS": null }, "geometry": { "type": "Polygon", "coordinates": [ [ [ -73.477622729765898, -42.467668786989499 ], [ -73.477469734700506, -42.4676890689177 ], [ -73.477411978619301, -42.467691329687803 ], [ -73.477337007758905, -42.467722850335697 ], [ -73.477165439292506, -42.4677533872566 ], [ -73.476991552187698, -42.467931710602301 ], [ -73.476816647544894, -42.468095779573098 ], [ -73.476720755740004, -42.468194820069201 ], [ -73.476630602821899, -42.468284106594503 ], [ -73.476612974381595, -42.468320507044503 ], [ -73.476680712055696, -42.469179758191899 ], [ -73.477223578582993, -42.468756559064701 ], [ -73.477261142289194, -42.468719355710597 ], [ -73.477320577778897, -42.468425212721399 ], [ -73.477881168041094, -42.468165050593797 ], [ -73.479369905372707, -42.468398577261297 ], [ -73.479696325599406, -42.468576368114903 ], [ -73.4802346646063, -42.468680348410501 ], [ -73.480299303498498, -42.468796925512798 ], [ -73.480298155396696, -42.469118564148197 ], [ -73.480396197159706, -42.4693648524404 ], [ -73.4807213098765, -42.469411671902002 ], [ -73.4808753773342, -42.4693163049388 ], [ -73.480947147720698, -42.4693075384968 ], [ -73.481013019372597, -42.469328779413502 ], [ -73.481073840163006, -42.469391906091197 ], [ -73.481094128069202, -42.469450665742201 ], [ -73.481133856275207, -42.469556307529501 ], [ -73.481213692117294, -42.469660378020997 ], [ -73.481449806309101, -42.469925077460097 ], [ -73.481600566349002, -42.470008502406898 ], [ -73.482064220678296, -42.470192821004403 ], [ -73.483152021631398, -42.470668313505399 ], [ -73.483358513700907, -42.4707435968186 ], [ -73.483579775458793, -42.470800433411 ], [ -73.483752057711101, -42.4708472797344 ], [ -73.483784569389499, -42.470851960199901 ], [ -73.483924338924993, -42.470894124935299 ], [ -73.483999460368295, -42.470819714979001 ], [ -73.483924290812894, -42.4707809737913 ], [ -73.4835615609082, -42.470658217132197 ], [ -73.483420518036795, -42.470598236249202 ], [ -73.482970304929907, -42.470264510379401 ], [ -73.482578843284202, -42.470077367275501 ], [ -73.482110942800006, -42.469833663629103 ], [ -73.481631627437295, -42.469542761538897 ], [ -73.481538293828095, -42.469474953204703 ], [ -73.481164919695004, -42.469090566658998 ], [ -73.480799572350804, -42.468705864411199 ], [ -73.480749109235006, -42.468638045281899 ], [ -73.480650014935804, -42.468607929859502 ], [ -73.480213234174997, -42.4684392290429 ], [ -73.480108181140395, -42.468409992985002 ], [ -73.480060883494005, -42.468378494768103 ], [ -73.479864598088994, -42.468243252078302 ], [ -73.479718192562302, -42.468150792105 ], [ -73.479670737274105, -42.468128400619797 ], [ -73.479439344477996, -42.468042174935597 ], [ -73.479127312613102, -42.467953151583302 ], [ -73.478849489639998, -42.467892565129198 ], [ -73.478668349571507, -42.467834148298401 ], [ -73.478461023925405, -42.467746978273397 ], [ -73.4783867084966, -42.467720110640798 ], [ -73.478379308741296, -42.467686895675897 ], [ -73.478247573969, -42.467677676464596 ], [ -73.478040187996996, -42.467657209465301 ], [ -73.477738239421399, -42.467664265304698 ], [ -73.477622729765898, -42.467668786989499 ] ] ] } },
{ "type": "Feature", "properties": { "id": "monoparte.8", "Name": null, "description": null, "timestamp": null, "begin": null, "end": null, "altitudeMode": null, "tessellate": -1, "extrude": 0, "visibility": -1, "drawOrder": null, "icon": null, "REG": "Los Lagos", "COM": "Quinchao", "LOC": "Achao", "ZONA": "ZR-3", "NOM": "Restricción por fuertes pendientes", "UPERM": "Equipamiento de escala comunal de áreas verdes definido en el artículo 21 de la presente Ordenanza Local.", "UPROH": "Todos aquellos no señalados como permitidos.", "P_DO": "27/08/1999", "N_DOC": "Resolució", "T_DO": null, "OBS": null }, "geometry": { "type": "Polygon", "coordinates": [ [ [ -73.500572819025805, -42.467822373549502 ], [ -73.500127347587906, -42.468340156276199 ], [ -73.499920651135298, -42.468598416002401 ], [ -73.499295438806996, -42.469301929498698 ], [ -73.499199256589606, -42.469418865664203 ], [ -73.49911234839, -42.469736279038798 ], [ -73.499086228640493, -42.469774411502797 ], [ -73.499013835973003, -42.470110763457697 ], [ -73.497137834049596, -42.470513275982903 ], [ -73.497029818566304, -42.470622338384899 ], [ -73.496987965181603, -42.470666862878197 ], [ -73.496908969637602, -42.470731905229897 ], [ -73.496866433331306, -42.470766928160501 ], [ -73.496716846996094, -42.4708347455866 ], [ -73.496649664367993, -42.470849325312898 ], [ -73.496649800528303, -42.470849646785901 ], [ -73.496522200006197, -42.4708998396897 ], [ -73.496366450754095, -42.470971472407797 ], [ -73.496288363010606, -42.471004319168898 ], [ -73.496209849229601, -42.471031226831002 ], [ -73.496132613149697, -42.4710759506941 ], [ -73.496039759612003, -42.471127244176401 ], [ -73.495948183644501, -42.471196353846203 ], [ -73.4958852868522, -42.471216691646902 ], [ -73.495837226689304, -42.471331734443197 ], [ -73.495815290539099, -42.471362373813399 ], [ -73.495635473561293, -42.471434950626602 ], [ -73.495498262943897, -42.471489089080798 ], [ -73.4955411528274, -42.4714907950043 ], [ -73.495655985283904, -42.471476753346401 ], [ -73.4957711595614, -42.471467461871903 ], [ -73.495936649506007, -42.471441900471298 ], [ -73.495980208971105, -42.471421130668197 ], [ -73.4961244019254, -42.471367819200999 ], [ -73.496200049225706, -42.471345788906397 ], [ -73.496274672945702, -42.471309504895402 ], [ -73.496552210937097, -42.471141370848599 ], [ -73.496964513494106, -42.4709679388206 ], [ -73.497230917874106, -42.470824063128497 ], [ -73.497682965766302, -42.470487078190999 ], [ -73.498213217219899, -42.470432876075897 ], [ -73.498736088168698, -42.470455191406003 ], [ -73.499307411948905, -42.470704287281301 ], [ -73.499232607777799, -42.470469012500701 ], [ -73.499377696815401, -42.470248909456799 ], [ -73.499569131042193, -42.470136563367703 ], [ -73.499579332961005, -42.469740721834498 ], [ -73.499742988909901, -42.469510359584604 ], [ -73.499756126111393, -42.4694719228875 ], [ -73.500888967195294, -42.468222516582003 ], [ -73.500942984665599, -42.468190613866 ], [ -73.501016456429795, -42.4682055892156 ], [ -73.501162546146404, -42.4682236626901 ], [ -73.501225436775499, -42.468203321347303 ], [ -73.501276044343399, -42.468123909039299 ], [ -73.501315644240904, -42.4680032420627 ], [ -73.501326064758004, -42.467812258391 ], [ -73.501384692464697, -42.467732530418303 ], [ -73.501388875733198, -42.467678767277803 ], [ -73.501422586519098, -42.467588109174201 ], [ -73.501458429068705, -42.467527144319199 ], [ -73.501545650368101, -42.467285494541102 ], [ -73.501661704683897, -42.467221372863598 ], [ -73.501719478693602, -42.467129767640103 ], [ -73.501788257743002, -42.467079417095 ], [ -73.501849869084694, -42.467041260194101 ], [ -73.502409664915703, -42.466435594262798 ], [ -73.502355487031096, -42.4662411983456 ], [ -73.502547911088399, -42.466120470281197 ], [ -73.502640751832899, -42.466069172973199 ], [ -73.502741186172997, -42.466011619975802 ], [ -73.502859369308496, -42.465977190447603 ], [ -73.503048036293393, -42.465916164651297 ], [ -73.503091352363498, -42.4658875867432 ], [ -73.502207589053796, -42.465883130449498 ], [ -73.502120484174498, -42.465962928991999 ], [ -73.502001689242206, -42.466324930519001 ], [ -73.501978906111006, -42.466343692806198 ], [ -73.501894084822496, -42.466394674852097 ], [ -73.501534574327593, -42.466652996895 ], [ -73.500928346510406, -42.4672843061431 ], [ -73.500572819025805, -42.467822373549502 ] ] ] } },
{ "type": "Feature", "properties": { "id": "monoparte.9", "Name": null, "description": null, "timestamp": null, "begin": null, "end": null, "altitudeMode": null, "tessellate": -1, "extrude": 0, "visibility": -1, "drawOrder": null, "icon": null, "REG": "Los Lagos", "COM": "Quinchao", "LOC": "Achao", "ZONA": "ZE-2", "NOM": "Zona especial de costanera y embarcadero", "UPERM": "Equipamiento de escala comunal de áreas verdes definido en el artículo 21 de la presente Ordenanza Local.", "UPROH": "Todos aquellos no señalados como permitidos.", "P_DO": "27/08/1999", "N_DOC": "Resolució", "T_DO": null, "OBS": null }, "geometry": { "type": "Polygon", "coordinates": [ [ [ -73.485640094399301, -42.470095547507903 ], [ -73.485966197123204, -42.470087500836399 ], [ -73.486124134198405, -42.470158727570997 ], [ -73.489756885503894, -42.469551670003902 ], [ -73.489726440995398, -42.469463533429902 ], [ -73.490736192303501, -42.469185677240702 ], [ -73.491771761553906, -42.469043773532299 ], [ -73.492769346755907, -42.468933128666599 ], [ -73.493958591770195, -42.468803035421203 ], [ -73.494017362148398, -42.468949612283602 ], [ -73.497974767486298, -42.467936478841601 ], [ -73.500360117939294, -42.467324530740299 ], [ -73.500367847083695, -42.467306398881099 ], [ -73.500345951564299, -42.467320156011702 ], [ -73.500273876727903, -42.467122889742001 ], [ -73.499579261205199, -42.467307439437 ], [ -73.499388456624899, -42.467338766460699 ], [ -73.499325650182797, -42.467360294634702 ], [ -73.499243933691005, -42.467387331232302 ], [ -73.498814736523201, -42.467504263810497 ], [ -73.498302456892603, -42.467629226792198 ], [ -73.498125675490101, -42.467666227924497 ], [ -73.498002392348795, -42.467716303078902 ], [ -73.497913575613396, -42.467734088669097 ], [ -73.497788691106805, -42.467765473244398 ], [ -73.497772629226603, -42.467778698878298 ], [ -73.496453610295205, -42.468140239963702 ], [ -73.496251793071906, -42.468180074382197 ], [ -73.496102884225607, -42.4682388320619 ], [ -73.496042410416706, -42.468238226259203 ], [ -73.494645904085601, -42.4685971993392 ], [ -73.494005059679907, -42.468661476801003 ], [ -73.493972610429594, -42.468684637328003 ], [ -73.493889527449596, -42.468692666152499 ], [ -73.493847065268696, -42.468673282481497 ], [ -73.492626247523006, -42.468790887035098 ], [ -73.491724825987404, -42.468873932140198 ], [ -73.490731565831894, -42.469022511562102 ], [ -73.489503971088197, -42.469313682786101 ], [ -73.488707297746402, -42.469511701495797 ], [ -73.488377339327002, -42.469577056851001 ], [ -73.487353671817203, -42.469750622408299 ], [ -73.485583499843898, -42.470058537832202 ], [ -73.485589482911195, -42.470061847874398 ], [ -73.485640094399301, -42.470095547507903 ] ] ] } },
{ "type": "Feature", "properties": { "id": "monoparte.10", "Name": null, "description": null, "timestamp": null, "begin": null, "end": null, "altitudeMode": null, "tessellate": -1, "extrude": 0, "visibility": -1, "drawOrder": null, "icon": null, "REG": "Los Lagos", "COM": "Quinchao", "LOC": "Achao", "ZONA": "ZU-2", "NOM": "Zona consolidada ZU-2", "UPERM": "Vivienda, equipamiento de salud, educación, cultura, turismo, comercio minorista, servicios publicos (regional), actividades productivas, terminal rodoviario. Mayor detalle en Ordenanza.", "UPROH": "Todos aquellos no señalados como permitidos.", "P_DO": "27/08/1999", "N_DOC": "Resolució", "T_DO": null, "OBS": null }, "geometry": { "type": "Polygon", "coordinates": [ [ [ -73.483999460368295, -42.470819714979001 ], [ -73.483924338924993, -42.470894124935299 ], [ -73.483913343592604, -42.470890807811003 ], [ -73.483736773480302, -42.471085785909402 ], [ -73.484126869704298, -42.471394056359898 ], [ -73.485096162414493, -42.473023575862399 ], [ -73.485143186099293, -42.473680800896503 ], [ -73.485356578746405, -42.473739927762701 ], [ -73.485501403822198, -42.473740204356702 ], [ -73.485669444557104, -42.473727658736799 ], [ -73.485727036494694, -42.473722334493097 ], [ -73.485698723781894, -42.473656959557701 ], [ -73.485689461662403, -42.473347640124899 ], [ -73.485529274903001, -42.473177641109402 ], [ -73.4855304281012, -42.4727440406771 ], [ -73.485671873020195, -42.472562212055799 ], [ -73.485813741315894, -42.472566177706398 ], [ -73.485832654216495, -42.472560671348702 ], [ -73.485828234542794, -42.472498907962503 ], [ -73.485932150841293, -42.472242321966597 ], [ -73.486032028290794, -42.472019244956599 ], [ -73.486152857727802, -42.4718191684169 ], [ -73.486314189487402, -42.471555565570497 ], [ -73.486331742084204, -42.471531055727297 ], [ -73.486422426395706, -42.471516778439998 ], [ -73.486486601990705, -42.471514261281598 ], [ -73.486568521297698, -42.471534870407297 ], [ -73.486669034412301, -42.4715904822312 ], [ -73.486717166452706, -42.471588594247699 ], [ -73.486880046888999, -42.471391631222303 ], [ -73.486921377882496, -42.471294722547903 ], [ -73.486885889207002, -42.471248470964198 ], [ -73.486864745148694, -42.471177835282603 ], [ -73.486906501126896, -42.471086865741803 ], [ -73.486358357875901, -42.470846327394497 ], [ -73.486305977719795, -42.470788827441098 ], [ -73.486272987322295, -42.470665056773001 ], [ -73.486163603865705, -42.470597881780101 ], [ -73.486121317974707, -42.4704566100351 ], [ -73.486062191004294, -42.470417241074301 ], [ -73.486051194050305, -42.470375984466102 ], [ -73.485920295411105, -42.470345385143098 ], [ -73.485782650646499, -42.470332916732701 ], [ -73.485402653052404, -42.470306130540301 ], [ -73.484936965910904, -42.470318435061699 ], [ -73.484735945738294, -42.470207207964698 ], [ -73.484715654228197, -42.470148450034699 ], [ -73.484686612337697, -42.470113131804801 ], [ -73.484486895779099, -42.470324170505698 ], [ -73.483999460368295, -42.470819714979001 ] ] ] } },
{ "type": "Feature", "properties": { "id": "monoparte.11", "Name": null, "description": null, "timestamp": null, "begin": null, "end": null, "altitudeMode": null, "tessellate": -1, "extrude": 0, "visibility": -1, "drawOrder": null, "icon": null, "REG": "Los Lagos", "COM": "Quinchao", "LOC": "Achao", "ZONA": "ZU-2", "NOM": "Zona consolidada ZU-2", "UPERM": "Vivienda, equipamiento de salud, educación, cultura, turismo, comercio minorista, servicios publicos (regional), actividades productivas, terminal rodoviario. Mayor detalle en Ordenanza.", "UPROH": "Todos aquellos no señalados como permitidos.", "P_DO": "27/08/1999", "N_DOC": "Resolució", "T_DO": null, "OBS": null }, "geometry": { "type": "Polygon", "coordinates": [ [ [ -73.495664948330599, -42.468527834801201 ], [ -73.494017362148398, -42.468949612283602 ], [ -73.493958591770195, -42.468803035421203 ], [ -73.492769346755907, -42.468933128666599 ], [ -73.491771761553906, -42.469043773532299 ], [ -73.491540648232302, -42.469075443187698 ], [ -73.492754193750699, -42.471976949930898 ], [ -73.492823476694497, -42.472045693628203 ], [ -73.492979068682899, -42.472420730384997 ], [ -73.495427532740507, -42.472461501750701 ], [ -73.495458916143093, -42.472001700172299 ], [ -73.495416251574994, -42.471967644913398 ], [ -73.495361731918806, -42.471880456120701 ], [ -73.495358325037401, -42.471832946370803 ], [ -73.495253120170901, -42.471712017442101 ], [ -73.495220963334205, -42.471600127437597 ], [ -73.495369972014799, -42.4715466276608 ], [ -73.495400781306202, -42.471527551233599 ], [ -73.495635473561293, -42.471434950626602 ], [ -73.495815290539099, -42.471362373813399 ], [ -73.495837226689304, -42.471331734443197 ], [ -73.4958852868522, -42.471216691646902 ], [ -73.495948183644501, -42.471196353846203 ], [ -73.496039759612003, -42.471127244176401 ], [ -73.496132613149697, -42.4710759506941 ], [ -73.496209849229601, -42.471031226831002 ], [ -73.496288363010606, -42.471004319168898 ], [ -73.496366450754095, -42.470971472407797 ], [ -73.496522200006197, -42.4708998396897 ], [ -73.496649800528303, -42.470849646785901 ], [ -73.495664948330599, -42.468527834801201 ] ] ] } },
{ "type": "Feature", "properties": { "id": "monoparte.12", "Name": null, "description": null, "timestamp": null, "begin": null, "end": null, "altitudeMode": null, "tessellate": -1, "extrude": 0, "visibility": -1, "drawOrder": null, "icon": null, "REG": "Los Lagos", "COM": "Quinchao", "LOC": "Achao", "ZONA": "ZR-2", "NOM": "Protección de vertientes y cauces naturales de agua", "UPERM": "Equipamiento de escala comunal de áreas verdes definido en el artículo 21 de la presente Ordenanza Local.", "UPROH": "Todos aquellos no señalados como permitidos.", "P_DO": "27/08/1999", "N_DOC": "Resolució", "T_DO": null, "OBS": null }, "geometry": { "type": "Polygon", "coordinates": [ [ [ -73.484686612337697, -42.470113131804801 ], [ -73.484715654228197, -42.470148450034699 ], [ -73.484735945738294, -42.470207207964698 ], [ -73.484936965910904, -42.470318435061699 ], [ -73.485402653052404, -42.470306130540301 ], [ -73.485782650646499, -42.470332916732701 ], [ -73.485920295411105, -42.470345385143098 ], [ -73.486051194050305, -42.470375984466102 ], [ -73.486062191004294, -42.470417241074301 ], [ -73.486121317974707, -42.4704566100351 ], [ -73.486163603865705, -42.470597881780101 ], [ -73.486272987322295, -42.470665056773001 ], [ -73.486305977719795, -42.470788827441098 ], [ -73.486358357875901, -42.470846327394497 ], [ -73.486906501126896, -42.471086865741803 ], [ -73.486864745148694, -42.471177835282603 ], [ -73.486885889207002, -42.471248470964198 ], [ -73.486921377882496, -42.471294722547903 ], [ -73.486880046888999, -42.471391631222303 ], [ -73.486717166452706, -42.471588594247699 ], [ -73.486669034412301, -42.4715904822312 ], [ -73.486568521297698, -42.471534870407297 ], [ -73.486486601990705, -42.471514261281598 ], [ -73.486422426395706, -42.471516778439998 ], [ -73.486331742084204, -42.471531055727297 ], [ -73.486314189487402, -42.471555565570497 ], [ -73.486152857727802, -42.4718191684169 ], [ -73.486032028290794, -42.472019244956599 ], [ -73.485932150841293, -42.472242321966597 ], [ -73.485828234542794, -42.472498907962503 ], [ -73.485832654216495, -42.472560671348702 ], [ -73.485813741315894, -42.472566177706398 ], [ -73.485671873020195, -42.472562212055799 ], [ -73.4855304281012, -42.4727440406771 ], [ -73.485529274903001, -42.473177641109402 ], [ -73.485689461662403, -42.473347640124899 ], [ -73.485698723781894, -42.473656959557701 ], [ -73.485814370434994, -42.473923992467299 ], [ -73.485913058699694, -42.474043994620096 ], [ -73.486201222217503, -42.474113687269302 ], [ -73.486513653812906, -42.474072846909003 ], [ -73.487149694986897, -42.474057425558001 ], [ -73.487243801968404, -42.474472996728501 ], [ -73.487240444678207, -42.4745160074796 ], [ -73.487200280929699, -42.474584283540501 ], [ -73.4873941919289, -42.475315150153598 ], [ -73.487563431555998, -42.475415162012098 ], [ -73.487914837470896, -42.475416592370202 ], [ -73.487620379384694, -42.4752157543994 ], [ -73.487536585881699, -42.474831938467197 ], [ -73.487490891996501, -42.474643157341198 ], [ -73.487540615216602, -42.474438721150797 ], [ -73.487456084662796, -42.474269330162898 ], [ -73.487433663214802, -42.474180878235302 ], [ -73.487388339311195, -42.473884884477002 ], [ -73.486445915765799, -42.473868254643897 ], [ -73.486088315864194, -42.473929923979902 ], [ -73.486008464947602, -42.473825857629201 ], [ -73.485934884863596, -42.473584570908898 ], [ -73.4859034890126, -42.473258253055498 ], [ -73.485770459423705, -42.4731979599864 ], [ -73.485742568060502, -42.473145455209398 ], [ -73.4857267925793, -42.472812568905397 ], [ -73.485800214041802, -42.472714403039397 ], [ -73.4860083623214, -42.472700284019503 ], [ -73.486110791330006, -42.472332985528602 ], [ -73.486189259139493, -42.472192932702796 ], [ -73.486273197906996, -42.472016933149099 ], [ -73.486337745134705, -42.471907203405202 ], [ -73.486409039607494, -42.471779343383197 ], [ -73.486486283954306, -42.471734624835598 ], [ -73.486542862384297, -42.471738361428898 ], [ -73.486575800936905, -42.471748980148 ], [ -73.486668291978702, -42.471804906627398 ], [ -73.486710101944297, -42.471827088925203 ], [ -73.4868443496716, -42.471792045747897 ], [ -73.486916493009502, -42.471676061915701 ], [ -73.487089095649793, -42.471502538617898 ], [ -73.487161663399803, -42.471392494684402 ], [ -73.487179778198694, -42.471308407367196 ], [ -73.4871354180477, -42.471250593186099 ], [ -73.4871029047777, -42.471245913743402 ], [ -73.487084310837602, -42.471210910161702 ], [ -73.487097378880804, -42.4711687096272 ], [ -73.487221053407296, -42.471098348692898 ], [ -73.487299996706, -42.471077385248996 ], [ -73.4873130645815, -42.4710351846973 ], [ -73.487302491715695, -42.470999866480398 ], [ -73.487275026490593, -42.470953300254699 ], [ -73.487087548506807, -42.4709189669897 ], [ -73.486989586521901, -42.4708989884492 ], [ -73.486881051995496, -42.470843691552901 ], [ -73.486685499041201, -42.470696520481503 ], [ -73.486461207656106, -42.470484966976102 ], [ -73.486424869845806, -42.4704268378458 ], [ -73.486378386124898, -42.470339329448201 ], [ -73.486149049600897, -42.470169661088498 ], [ -73.486142778427705, -42.470155612223301 ], [ -73.486124134198405, -42.470158727570997 ], [ -73.485966197123204, -42.470087500836399 ], [ -73.485640094399301, -42.470095547507903 ], [ -73.485650298685101, -42.470102342018897 ], [ -73.485774948893393, -42.470135569021899 ], [ -73.485847239418106, -42.470156555393601 ], [ -73.485919869961606, -42.4701822930245 ], [ -73.485942182921903, -42.4702242970125 ], [ -73.485996241359004, -42.470260292240198 ], [ -73.486130708281294, -42.4703407766509 ], [ -73.486088167063599, -42.470375795791199 ], [ -73.485999300991494, -42.470303051307397 ], [ -73.485753018260795, -42.470188836515099 ], [ -73.485574989766306, -42.470129117593601 ], [ -73.485503717832998, -42.470122383225998 ], [ -73.485413460096495, -42.470142597942399 ], [ -73.485350560481805, -42.4701629309534 ], [ -73.485321448110696, -42.470205760443001 ], [ -73.485130624510504, -42.470237065331403 ], [ -73.485038561991004, -42.470187075667702 ], [ -73.4848726037701, -42.470116162819899 ], [ -73.484799132701795, -42.470101177014698 ], [ -73.484717640636902, -42.470086505645803 ], [ -73.484714197275807, -42.470083982824598 ], [ -73.484686612337697, -42.470113131804801 ] ] ] } },
{ "type": "Feature", "properties": { "id": "monoparte.13", "Name": null, "description": null, "timestamp": null, "begin": null, "end": null, "altitudeMode": null, "tessellate": -1, "extrude": 0, "visibility": -1, "drawOrder": null, "icon": null, "REG": "Los Lagos", "COM": "Quinchao", "LOC": "Achao", "ZONA": "ZE-3", "NOM": "Zona especial de equipamiento educacional", "UPERM": "Equipamiento de escala comunal de áreas verdes definido en el artículo 21 de la presente Ordenanza Local.", "UPROH": "Todos aquellos no señalados como permitidos.", "P_DO": "27/08/1999", "N_DOC": "Resolució", "T_DO": null, "OBS": null }, "geometry": { "type": "Polygon", "coordinates": [ [ [ -73.488442011006796, -42.471418991718402 ], [ -73.488634411160106, -42.472217773007998 ], [ -73.489466569861804, -42.472155337043702 ], [ -73.489317938060594, -42.471315499641399 ], [ -73.488442011006796, -42.471418991718402 ] ] ] } },
{ "type": "Feature", "properties": { "id": "monoparte.14", "Name": null, "description": null, "timestamp": null, "begin": null, "end": null, "altitudeMode": null, "tessellate": -1, "extrude": 0, "visibility": -1, "drawOrder": null, "icon": null, "REG": "Los Lagos", "COM": "Quinchao", "LOC": "Achao", "ZONA": "ZU-I", "NOM": "Zona consolidada ZU-I", "UPERM": "Sin información.", "UPROH": "Sin información.", "P_DO": "27/08/1999", "N_DOC": "Resolució", "T_DO": null, "OBS": null }, "geometry": { "type": "Polygon", "coordinates": [ [ [ -73.502509612306994, -42.471326619273903 ], [ -73.503457522931399, -42.467959032118003 ], [ -73.503665381569704, -42.467216739312803 ], [ -73.502400933956594, -42.467210143841598 ], [ -73.502202109798503, -42.467241791238301 ], [ -73.501967017153802, -42.467328465186199 ], [ -73.501761957294406, -42.467497332323397 ], [ -73.501683103800801, -42.467631455010697 ], [ -73.501649819798004, -42.467728052182402 ], [ -73.501624557405606, -42.467824332748201 ], [ -73.500578572159895, -42.471742477052103 ], [ -73.502509612306994, -42.471326619273903 ] ] ] } },
{ "type": "Feature", "properties": { "id": "monoparte.15", "Name": null, "description": null, "timestamp": null, "begin": null, "end": null, "altitudeMode": null, "tessellate": -1, "extrude": 0, "visibility": -1, "drawOrder": null, "icon": null, "REG": "Los Lagos", "COM": "Quinchao", "LOC": "Achao", "ZONA": "Zona difusa", "NOM": "Zona difusa", "UPERM": "Zona difusa", "UPROH": "Sin información.", "P_DO": "27/08/1999", "N_DOC": "Resolució", "T_DO": null, "OBS": null }, "geometry": { "type": "Polygon", "coordinates": [ [ [ -73.484610520390902, -42.473468671002898 ], [ -73.485930509013201, -42.474902552395001 ], [ -73.487284004596802, -42.474899847152003 ], [ -73.487200280929699, -42.474584283540501 ], [ -73.487240444678207, -42.4745160074796 ], [ -73.487243801968404, -42.474472996728501 ], [ -73.487149694986897, -42.474057425558001 ], [ -73.486513653812906, -42.474072846909003 ], [ -73.486201222217503, -42.474113687269302 ], [ -73.485913058699694, -42.474043994620096 ], [ -73.485814370434994, -42.473923992467299 ], [ -73.485727036494694, -42.473722334493097 ], [ -73.485669444557104, -42.473727658736799 ], [ -73.485501403822198, -42.473740204356702 ], [ -73.485356578746405, -42.473739927762701 ], [ -73.485036489277405, -42.473651236881601 ], [ -73.484652596584198, -42.473457848570199 ], [ -73.484610520390902, -42.473468671002898 ] ] ] } },
{ "type": "Feature", "properties": { "id": "monoparte.16", "Name": null, "description": null, "timestamp": null, "begin": null, "end": null, "altitudeMode": null, "tessellate": -1, "extrude": 0, "visibility": -1, "drawOrder": null, "icon": null, "REG": "Los Lagos", "COM": "Quinchao", "LOC": "Achao", "ZONA": "Zona difusa", "NOM": "Zona difusa", "UPERM": "Zona difusa", "UPROH": "Sin información.", "P_DO": "27/08/1999", "N_DOC": "Resolució", "T_DO": null, "OBS": null }, "geometry": { "type": "Polygon", "coordinates": [ [ [ -73.4868443496716, -42.471792045747897 ], [ -73.486710101944297, -42.471827088925203 ], [ -73.486668291978702, -42.471804906627398 ], [ -73.486575800936905, -42.471748980148 ], [ -73.486542862384297, -42.471738361428898 ], [ -73.486486283954306, -42.471734624835598 ], [ -73.486409039607494, -42.471779343383197 ], [ -73.486337745134705, -42.471907203405202 ], [ -73.486273197906996, -42.472016933149099 ], [ -73.486189259139493, -42.472192932702796 ], [ -73.486110791330006, -42.472332985528602 ], [ -73.4860083623214, -42.472700284019503 ], [ -73.485800214041802, -42.472714403039397 ], [ -73.4857267925793, -42.472812568905397 ], [ -73.485742568060502, -42.473145455209398 ], [ -73.485770459423705, -42.4731979599864 ], [ -73.4859034890126, -42.473258253055498 ], [ -73.485934884863596, -42.473584570908898 ], [ -73.485969371914607, -42.473697659745902 ], [ -73.486008464947602, -42.473825857629201 ], [ -73.486088315864194, -42.473929923979902 ], [ -73.486445915765799, -42.473868254643897 ], [ -73.487388339311195, -42.473884884477002 ], [ -73.487433663214802, -42.474180878235302 ], [ -73.487452535420502, -42.474255326750601 ], [ -73.487456084662796, -42.474269330162898 ], [ -73.487540615216602, -42.474438721150797 ], [ -73.487490891996501, -42.474643157341198 ], [ -73.487536585881699, -42.474831938467197 ], [ -73.487551642064602, -42.474900901400098 ], [ -73.489928662163905, -42.474900520369502 ], [ -73.4936620692134, -42.474908750136898 ], [ -73.493654831605596, -42.474807792296197 ], [ -73.492628609037197, -42.473734438469002 ], [ -73.4916397434299, -42.472957379865697 ], [ -73.490704506199194, -42.472928592297897 ], [ -73.490680176557703, -42.472915132931099 ], [ -73.489873556115896, -42.472895702588303 ], [ -73.489916876612796, -42.474174420005397 ], [ -73.489916550882697, -42.4741744399943 ], [ -73.488587953920103, -42.474255985418601 ], [ -73.488631836626595, -42.472968259527903 ], [ -73.488491405306902, -42.472467558090301 ], [ -73.488168823685498, -42.472456393759899 ], [ -73.488072134534804, -42.472454232723898 ], [ -73.487937886229403, -42.472489277375502 ], [ -73.4877327153999, -42.472544970983897 ], [ -73.487677836760597, -42.472564989691499 ], [ -73.487150670857702, -42.4729549082261 ], [ -73.487149981503904, -42.472954843433499 ], [ -73.487158268377101, -42.472948655282501 ], [ -73.486907060907498, -42.471691225520097 ], [ -73.4868443496716, -42.471792045747897 ] ] ] } },
{ "type": "Feature", "properties": { "id": "monoparte.17", "Name": null, "description": null, "timestamp": null, "begin": null, "end": null, "altitudeMode": null, "tessellate": -1, "extrude": 0, "visibility": -1, "drawOrder": null, "icon": null, "REG": "Los Lagos", "COM": "Quinchao", "LOC": "Achao", "ZONA": "ZU-1", "NOM": "Zona consolidada ZU-1", "UPERM": "Vivienda, equipamiento de salud, educación, cultura, turismo, comercio minorista, servicios públicos (regional), equipamiento según el artículo 21 de la presente Ordenanza (comunal, local). Mayor detalle en Ordenanza.", "UPROH": "Todos aquellos no señalados como permitidos.", "P_DO": "27/08/1999", "N_DOC": "Resolució", "T_DO": null, "OBS": null }, "geometry": { "type": "Polygon", "coordinates": [ [ [ -73.488587953920103, -42.474255985418601 ], [ -73.489916876612796, -42.474174420005397 ], [ -73.489873556115896, -42.472895702588303 ], [ -73.490719699203197, -42.472916085120801 ], [ -73.491363828965305, -42.472587066813198 ], [ -73.491864895757701, -42.472394683456301 ], [ -73.492977033340793, -42.472422468772997 ], [ -73.492981596488207, -42.472420772446299 ], [ -73.492979068682899, -42.472420730384997 ], [ -73.492823476694497, -42.472045693628203 ], [ -73.492754193750699, -42.471976949930898 ], [ -73.491540648232302, -42.469075443187698 ], [ -73.490736192303501, -42.469185677240702 ], [ -73.489726440995398, -42.469463533429902 ], [ -73.489756885503894, -42.469551670003902 ], [ -73.486142778427705, -42.470155612223301 ], [ -73.486149049600897, -42.470169661088498 ], [ -73.486378386124898, -42.470339329448201 ], [ -73.486424869845806, -42.4704268378458 ], [ -73.486461207656106, -42.470484966976102 ], [ -73.486685499041201, -42.470696520481503 ], [ -73.486881051995496, -42.470843691552901 ], [ -73.486989586521901, -42.4708989884492 ], [ -73.487087548506807, -42.4709189669897 ], [ -73.487275026490593, -42.470953300254699 ], [ -73.487302491715695, -42.470999866480398 ], [ -73.4873130645815, -42.4710351846973 ], [ -73.487299996706, -42.471077385248996 ], [ -73.487221053407296, -42.471098348692898 ], [ -73.487097378880804, -42.4711687096272 ], [ -73.487084310837602, -42.471210910161702 ], [ -73.4871029047777, -42.471245913743402 ], [ -73.4871354180477, -42.471250593186099 ], [ -73.487179778198694, -42.471308407367196 ], [ -73.487161663399803, -42.471392494684402 ], [ -73.487089095649793, -42.471502538617898 ], [ -73.486916493009502, -42.471676061915701 ], [ -73.486907060907498, -42.471691225520097 ], [ -73.487158268377101, -42.472948655282501 ], [ -73.487149981503904, -42.472954843433499 ], [ -73.487150670857702, -42.4729549082261 ], [ -73.487677836760597, -42.472564989691499 ], [ -73.4877327153999, -42.472544970983897 ], [ -73.487937886229403, -42.472489277375502 ], [ -73.488072134534804, -42.472454232723898 ], [ -73.488168823685498, -42.472456393759899 ], [ -73.488491405306902, -42.472467558090301 ], [ -73.488631836626595, -42.472968259527903 ], [ -73.488587953920103, -42.474255985418601 ] ], [ [ -73.488442011006796, -42.471418991718402 ], [ -73.489317938060594, -42.471315499641399 ], [ -73.489466569861804, -42.472155337043702 ], [ -73.488634411160106, -42.472217773007998 ], [ -73.488442011006796, -42.471418991718402 ] ] ] } },
{ "type": "Feature", "properties": { "id": "monoparte.18", "Name": null, "description": null, "timestamp": null, "begin": null, "end": null, "altitudeMode": null, "tessellate": -1, "extrude": 0, "visibility": -1, "drawOrder": null, "icon": null, "REG": "Los Lagos", "COM": "Quinchao", "LOC": "Achao", "ZONA": "ZEx-2", "NOM": "Zona de extensión urbana de segunda prioridad", "UPERM": "Vivienda, equipamiento de salud, educación, cultura, turismo, comercio minorista, servicios públicos (regional), equipamiento según el artículo 21 de la presente Ordenanza (comunal, local), actividades productivas. Ver Ordenanza.", "UPROH": "Todos aquellos no señalados como permitidos.", "P_DO": "27/08/1999", "N_DOC": "Resolució", "T_DO": null, "OBS": null }, "geometry": { "type": "Polygon", "coordinates": [ [ [ -73.4983435923575, -42.473331162334901 ], [ -73.498022904226303, -42.474916006992203 ], [ -73.498014388503606, -42.474915994338502 ], [ -73.498023330343599, -42.474921945124898 ], [ -73.499761243375801, -42.474925053509203 ], [ -73.500098093516897, -42.473627047119798 ], [ -73.4983435923575, -42.473331162334901 ] ] ] } },
{ "type": "Feature", "properties": { "id": "monoparte.19", "Name": null, "description": null, "timestamp": null, "begin": null, "end": null, "altitudeMode": null, "tessellate": -1, "extrude": 0, "visibility": -1, "drawOrder": null, "icon": null, "REG": "Los Lagos", "COM": "Quinchao", "LOC": "Achao", "ZONA": "ZEx-2", "NOM": "Zona de extensión urbana de segunda prioridad", "UPERM": "Vivienda, equipamiento de salud, educación, cultura, turismo, comercio minorista, servicios públicos (regional), equipamiento según el artículo 21 de la presente Ordenanza (comunal, local), actividades productivas. Ver Ordenanza.", "UPROH": "Todos aquellos no señalados como permitidos.", "P_DO": "27/08/1999", "N_DOC": "Resolució", "T_DO": null, "OBS": null }, "geometry": { "type": "Polygon", "coordinates": [ [ [ -73.483329016913899, -42.471703648787802 ], [ -73.482844926100796, -42.471758752040301 ], [ -73.481583867857793, -42.471808167608799 ], [ -73.481248981276906, -42.471849874115399 ], [ -73.480992124237005, -42.471902815881499 ], [ -73.479678083497305, -42.472561741065398 ], [ -73.479309268052504, -42.472669089761098 ], [ -73.479180605626894, -42.47275988634 ], [ -73.478946099607796, -42.472990611603997 ], [ -73.476980138721004, -42.472977522494297 ], [ -73.477168911431903, -42.475371454094201 ], [ -73.480007526532603, -42.475383581961999 ], [ -73.481460226882703, -42.4737020771978 ], [ -73.481756310731996, -42.472892447541497 ], [ -73.482683765708501, -42.4724749564079 ], [ -73.482838638850794, -42.472278312869598 ], [ -73.483191891163997, -42.471930962804102 ], [ -73.4832345024776, -42.471851872650497 ], [ -73.483329016913899, -42.471703648787802 ] ] ] } },
{ "type": "Feature", "properties": { "id": "monoparte.20", "Name": null, "description": null, "timestamp": null, "begin": null, "end": null, "altitudeMode": null, "tessellate": -1, "extrude": 0, "visibility": -1, "drawOrder": null, "icon": null, "REG": "Los Lagos", "COM": "Quinchao", "LOC": "Achao", "ZONA": "ZEx-3", "NOM": "Zona de extensión urbana de tercera prioridad", "UPERM": "Vivienda, equipamiento de salud, educación, cultura, turismo, comercio minorista, (regional), equipamiento según el artículo 21 de la presente Ordenanza (comunal, local), actividades productivas, y de vialidad. Ver Ordenanza.", "UPROH": "Todos aquellos no señalados como permitidos.", "P_DO": "27/08/1999", "N_DOC": "Resolució", "T_DO": null, "OBS": null }, "geometry": { "type": "Polygon", "coordinates": [ [ [ -73.500098093516897, -42.473627047119798 ], [ -73.499761243375801, -42.474925053509203 ], [ -73.498023330343599, -42.474921945124898 ], [ -73.498014388503606, -42.474915994338502 ], [ -73.493646024909694, -42.474909380462798 ], [ -73.493643461652397, -42.474908709567103 ], [ -73.489928662163905, -42.474900520369502 ], [ -73.487551642064602, -42.474900901400098 ], [ -73.487620379384694, -42.4752157543994 ], [ -73.487914837470896, -42.475416592370202 ], [ -73.494508631475099, -42.475443238829499 ], [ -73.501370837899103, -42.475464012110301 ], [ -73.501467185874404, -42.475102895613801 ], [ -73.501795519686496, -42.473913277343499 ], [ -73.500098093516897, -42.473627047119798 ] ] ] } },
{ "type": "Feature", "properties": { "id": "monoparte.21", "Name": null, "description": null, "timestamp": null, "begin": null, "end": null, "altitudeMode": null, "tessellate": -1, "extrude": 0, "visibility": -1, "drawOrder": null, "icon": null, "REG": "Los Lagos", "COM": "Quinchao", "LOC": "Achao", "ZONA": "ZEx-3", "NOM": "Zona de extensión urbana de tercera prioridad", "UPERM": "Vivienda, equipamiento de salud, educación, cultura, turismo, comercio minorista, (regional), equipamiento según el artículo 21 de la presente Ordenanza (comunal, local), actividades productivas, y de vialidad. Ver Ordenanza.", "UPROH": "Todos aquellos no señalados como permitidos.", "P_DO": "27/08/1999", "N_DOC": "Resolució", "T_DO": null, "OBS": null }, "geometry": { "type": "Polygon", "coordinates": [ [ [ -73.482649501462205, -42.473345793159098 ], [ -73.482402790089907, -42.474058202837199 ], [ -73.481278308480597, -42.4753889873923 ], [ -73.484607268797106, -42.475403082896101 ], [ -73.487563431555998, -42.475415162012098 ], [ -73.4873941919289, -42.475315150153598 ], [ -73.487284004596802, -42.474899847152003 ], [ -73.485930509013201, -42.474902552395001 ], [ -73.484610520390902, -42.473468671002898 ], [ -73.483996950987304, -42.473626483049102 ], [ -73.483546992072306, -42.472959246497702 ], [ -73.482649501462205, -42.473345793159098 ] ] ] } },
{ "type": "Feature", "properties": { "id": "monoparte.22", "Name": null, "description": null, "timestamp": null, "begin": null, "end": null, "altitudeMode": null, "tessellate": -1, "extrude": 0, "visibility": -1, "drawOrder": null, "icon": null, "REG": "Los Lagos", "COM": "Quinchao", "LOC": "Achao", "ZONA": "ZEx-1", "NOM": "Zona de extensión urbana de primera prioridad", "UPERM": "Vivienda, equipamiento de salud, educación, cultura, turismo, comercio minorista, servicios públicos equipamiento según el artículo 21 de la presente Ordenanza (comunal, local), actividades productivas. Mayor detalle en Ordenanza.", "UPROH": "Todos aquellos no señalados como permitidos.", "P_DO": "27/08/1999", "N_DOC": "Resolució", "T_DO": null, "OBS": null }, "geometry": { "type": "Polygon", "coordinates": [ [ [ -73.502509612306994, -42.471326619273903 ], [ -73.500578572159895, -42.471742477052103 ], [ -73.500579489173404, -42.471739038562397 ], [ -73.498605433822405, -42.472159556420998 ], [ -73.4983516148625, -42.473330846829001 ], [ -73.4983519047138, -42.473332564094697 ], [ -73.501795519686496, -42.473913277343499 ], [ -73.502498761012106, -42.471365165268601 ], [ -73.502509612306994, -42.471326619273903 ] ] ] } },
{ "type": "Feature", "properties": { "id": "monoparte.23", "Name": null, "description": null, "timestamp": null, "begin": null, "end": null, "altitudeMode": null, "tessellate": -1, "extrude": 0, "visibility": -1, "drawOrder": null, "icon": null, "REG": "Los Lagos", "COM": "Quinchao", "LOC": "Achao", "ZONA": "ZEx-1", "NOM": "Zona de extensión urbana de primera prioridad", "UPERM": "Vivienda, equipamiento de salud, educación, cultura, turismo, comercio minorista, servicios públicos equipamiento según el artículo 21 de la presente Ordenanza (comunal, local), actividades productivas. Mayor detalle en Ordenanza.", "UPROH": "Todos aquellos no señalados como permitidos.", "P_DO": "27/08/1999", "N_DOC": "Resolució", "T_DO": null, "OBS": null }, "geometry": { "type": "Polygon", "coordinates": [ [ [ -73.476680712055696, -42.469179758191899 ], [ -73.476980138721004, -42.472977522494297 ], [ -73.478946099607796, -42.472990611603997 ], [ -73.479180605626894, -42.47275988634 ], [ -73.479309268052504, -42.472669089761098 ], [ -73.479678083497305, -42.472561741065398 ], [ -73.480992124237005, -42.471902815881499 ], [ -73.481168015732095, -42.471866562127303 ], [ -73.481248981276906, -42.471849874115399 ], [ -73.481583867857793, -42.471808167608799 ], [ -73.482586388893296, -42.471768884163097 ], [ -73.482844926100796, -42.471758752040301 ], [ -73.483329016913899, -42.471703648787802 ], [ -73.483639559674103, -42.471216630255398 ], [ -73.483734924996298, -42.471087827429201 ], [ -73.483913343592604, -42.470890807811003 ], [ -73.483784569389499, -42.470851960199901 ], [ -73.483752057711101, -42.4708472797344 ], [ -73.483579775458793, -42.470800433411 ], [ -73.483358513700907, -42.4707435968186 ], [ -73.483152021631398, -42.470668313505399 ], [ -73.482064220678296, -42.470192821004403 ], [ -73.481600566349002, -42.470008502406898 ], [ -73.481449806309101, -42.469925077460097 ], [ -73.481213692117294, -42.469660378020997 ], [ -73.481133856275207, -42.469556307529501 ], [ -73.481094128069202, -42.469450665742201 ], [ -73.481073840163006, -42.469391906091197 ], [ -73.481013019372597, -42.469328779413502 ], [ -73.480947147720698, -42.4693075384968 ], [ -73.4808753773342, -42.4693163049388 ], [ -73.4807213098765, -42.469411671902002 ], [ -73.480396197159706, -42.4693648524404 ], [ -73.480298155396696, -42.469118564148197 ], [ -73.480299303498498, -42.468796925512798 ], [ -73.4802346646063, -42.468680348410501 ], [ -73.479696325599406, -42.468576368114903 ], [ -73.479369905372707, -42.468398577261297 ], [ -73.477881168041094, -42.468165050593797 ], [ -73.477320577778897, -42.468425212721399 ], [ -73.477261142289194, -42.468719355710597 ], [ -73.477223578582993, -42.468756559064701 ], [ -73.476680712055696, -42.469179758191899 ] ], [ [ -73.482631449614502, -42.471338326607601 ], [ -73.482592784688293, -42.471707772691097 ], [ -73.482347866101506, -42.471692473243401 ], [ -73.4823479165035, -42.471691783402299 ], [ -73.481768754473407, -42.471693725403298 ], [ -73.481492645843005, -42.471747422602903 ], [ -73.481405551630701, -42.471726197746001 ], [ -73.481404988924496, -42.4717365638922 ], [ -73.481167512223394, -42.471784079347003 ], [ -73.481165751975396, -42.471495808194298 ], [ -73.481173797593797, -42.471338269687401 ], [ -73.479255001174593, -42.4710989778795 ], [ -73.4799535985875, -42.470878662487799 ], [ -73.480493637562901, -42.470736018924597 ], [ -73.481121838572506, -42.470611359002902 ], [ -73.481303718320405, -42.470589940496097 ], [ -73.481448621437906, -42.470591410403202 ], [ -73.481665492391301, -42.470654378563601 ], [ -73.481922907766602, -42.470744343712703 ], [ -73.482631449614502, -42.471338326607601 ] ] ] } },
{ "type": "Feature", "properties": { "id": "monoparte.24", "Name": null, "description": null, "timestamp": null, "begin": null, "end": null, "altitudeMode": null, "tessellate": -1, "extrude": 0, "visibility": -1, "drawOrder": null, "icon": null, "REG": "Los Lagos", "COM": "Quinchao", "LOC": "Achao", "ZONA": "ZR-4a", "NOM": "Faja de restricción perimetral de cementerios", "UPERM": "La función principal de esta faja es aislar el camposanato de cualquier otra actividad urbana adyacente.", "UPROH": "Sin información.", "P_DO": "27/08/1999", "N_DOC": "Resolució", "T_DO": null, "OBS": null }, "geometry": { "type": "Polygon", "coordinates": [ [ [ -73.482347866101506, -42.471692473243401 ], [ -73.482592784688293, -42.471707772691097 ], [ -73.482631449614502, -42.471338326607601 ], [ -73.482388482861495, -42.471134644741298 ], [ -73.482347866101506, -42.471692473243401 ] ] ] } },
{ "type": "Feature", "properties": { "id": "monoparte.25", "Name": null, "description": null, "timestamp": null, "begin": null, "end": null, "altitudeMode": null, "tessellate": -1, "extrude": 0, "visibility": -1, "drawOrder": null, "icon": null, "REG": "Los Lagos", "COM": "Quinchao", "LOC": "Achao", "ZONA": "ZR-4a", "NOM": "Faja de restricción perimetral de cementerios", "UPERM": "La función principal de esta faja es aislar el camposanato de cualquier otra actividad urbana adyacente.", "UPROH": "Sin información.", "P_DO": "27/08/1999", "N_DOC": "Resolució", "T_DO": null, "OBS": null }, "geometry": { "type": "Polygon", "coordinates": [ [ [ -73.481165751975396, -42.471495808194298 ], [ -73.481167512223394, -42.471784079347003 ], [ -73.481404988924496, -42.4717365638922 ], [ -73.4814341658236, -42.471199431797501 ], [ -73.480458290276403, -42.471051851044898 ], [ -73.479714363203001, -42.470954110462003 ], [ -73.479255001174593, -42.4710989778795 ], [ -73.481173797593797, -42.471338269687401 ], [ -73.481165751975396, -42.471495808194298 ] ] ] } },
{ "type": "Feature", "properties": { "id": "monoparte.26", "Name": null, "description": null, "timestamp": null, "begin": null, "end": null, "altitudeMode": null, "tessellate": -1, "extrude": 0, "visibility": -1, "drawOrder": null, "icon": null, "REG": "Los Lagos", "COM": "Quinchao", "LOC": "Achao", "ZONA": "ZR-4", "NOM": "Restricción de cementerios", "UPERM": "Equipamiento de escala comunal de áreas verdes definido en el artículo 21 de la presente Ordenanza Local.", "UPROH": "Todos aquellos no señalados como permitidos.", "P_DO": "27/08/1999", "N_DOC": "Resolució", "T_DO": null, "OBS": null }, "geometry": { "type": "Polygon", "coordinates": [ [ [ -73.481405551630701, -42.471726197746001 ], [ -73.481492645843005, -42.471747422602903 ], [ -73.481768754473407, -42.471693725403298 ], [ -73.4823479165035, -42.471691783402299 ], [ -73.482388482861495, -42.471134644741298 ], [ -73.481922907766602, -42.470744343712703 ], [ -73.481665492391301, -42.470654378563601 ], [ -73.481448621437906, -42.470591410403202 ], [ -73.481303718320405, -42.470589940496097 ], [ -73.481121838572506, -42.470611359002902 ], [ -73.480493637562901, -42.470736018924597 ], [ -73.4799535985875, -42.470878662487799 ], [ -73.479714363203001, -42.470954110462003 ], [ -73.480458290276403, -42.471051851044898 ], [ -73.4814341658236, -42.471199431797501 ], [ -73.481405551630701, -42.471726197746001 ] ] ] } },
{ "type": "Feature", "properties": { "id": "monoparte.27", "Name": null, "description": null, "timestamp": null, "begin": null, "end": null, "altitudeMode": null, "tessellate": -1, "extrude": 0, "visibility": -1, "drawOrder": null, "icon": null, "REG": "Los Lagos", "COM": "Quinchao", "LOC": "Achao", "ZONA": "ZP-1", "NOM": "Protección de captaciones de agua", "UPERM": "Zona constituida por la captación de agua de la Empresa Sanitaria, actualmente existente y sus diversas instalaciones.", "UPROH": "Todos aquellos no señalados como permitidos.", "P_DO": "27/08/1999", "N_DOC": "Resolució", "T_DO": null, "OBS": null }, "geometry": { "type": "Polygon", "coordinates": [ [ [ -73.482389417281297, -42.474074030099899 ], [ -73.482402790089907, -42.474058202837199 ], [ -73.482551136246002, -42.473629839909698 ], [ -73.482161146950006, -42.473536446917301 ], [ -73.482083168969794, -42.473660993655301 ], [ -73.482037638190405, -42.473834294053503 ], [ -73.481995618766604, -42.473921699600098 ], [ -73.482389417281297, -42.474074030099899 ] ] ] } },
{ "type": "Feature", "properties": { "id": "monoparte.28", "Name": null, "description": null, "timestamp": null, "begin": null, "end": null, "altitudeMode": null, "tessellate": -1, "extrude": 0, "visibility": -1, "drawOrder": null, "icon": null, "REG": "Los Lagos", "COM": "Quinchao", "LOC": "Achao", "ZONA": "ZU-4", "NOM": "Zona consolidada ZU-4", "UPERM": "Vivienda, equipamiento de salud, educación, cultura, turismo, comercio minorista, (regional), equipamiento según el artículo 21 de la presente Ordenanza (comunal, local), actividades productivas, y de vialidad. Ver Ordenanza.", "UPROH": "Todos aquellos no señalados como permitidos.", "P_DO": "27/08/1999", "N_DOC": "Resolució", "T_DO": null, "OBS": null }, "geometry": { "type": "Polygon", "coordinates": [ [ [ -73.482389417281297, -42.474074030099899 ], [ -73.481995618766604, -42.473921699600098 ], [ -73.482037638190405, -42.473834294053503 ], [ -73.482083168969794, -42.473660993655301 ], [ -73.482161146950006, -42.473536446917301 ], [ -73.482551136246002, -42.473629839909698 ], [ -73.482649501462205, -42.473345793159098 ], [ -73.483546992072306, -42.472959246497702 ], [ -73.483996950987304, -42.473626483049102 ], [ -73.484652596584198, -42.473457848570199 ], [ -73.485036489277405, -42.473651236881601 ], [ -73.485143186099293, -42.473680800896503 ], [ -73.485096162414493, -42.473023575862399 ], [ -73.484126869704298, -42.471394056359898 ], [ -73.483736773480302, -42.471085785909402 ], [ -73.483734924996298, -42.471087827429201 ], [ -73.483639559674103, -42.471216630255398 ], [ -73.4832345024776, -42.471851872650497 ], [ -73.483191891163997, -42.471930962804102 ], [ -73.482838638850794, -42.472278312869598 ], [ -73.482683765708501, -42.4724749564079 ], [ -73.481756310731996, -42.472892447541497 ], [ -73.481460226882703, -42.4737020771978 ], [ -73.480007526532603, -42.475383581961999 ], [ -73.481278308480597, -42.4753889873923 ], [ -73.482389417281297, -42.474074030099899 ] ] ] } },
{ "type": "Feature", "properties": { "id": "monoparte.29", "Name": null, "description": null, "timestamp": null, "begin": null, "end": null, "altitudeMode": null, "tessellate": -1, "extrude": 0, "visibility": -1, "drawOrder": null, "icon": null, "REG": "Los Lagos", "COM": "Quinchao", "LOC": "Achao", "ZONA": "ZU-3", "NOM": "Zona consolidada ZU-3", "UPERM": "Vivienda, equipamiento de salud, educación, cultura, turismo, comercio minorista, (regional), equipamiento según el artículo 21 de la presente Ordenanza (comunal, local), actividades productivas, y de vialidad. Ver Ordenanza.", "UPROH": "Todos aquellos no señalados como permitidos.", "P_DO": "27/08/1999", "N_DOC": "Resolució", "T_DO": null, "OBS": null }, "geometry": { "type": "Polygon", "coordinates": [ [ [ -73.483924290812894, -42.4707809737913 ], [ -73.483999460368295, -42.470819714979001 ], [ -73.484486895779099, -42.470324170505698 ], [ -73.484714197275807, -42.470083982824598 ], [ -73.484632750051304, -42.470024323752298 ], [ -73.484594802667502, -42.469957113193999 ], [ -73.484077339858899, -42.469650419629097 ], [ -73.483646357533601, -42.469653021114503 ], [ -73.483146784461098, -42.469596372569399 ], [ -73.482572883793395, -42.469490226282403 ], [ -73.482333027812899, -42.469375753059701 ], [ -73.482152965286801, -42.469287521492099 ], [ -73.481959730629498, -42.469195042020601 ], [ -73.481698176200197, -42.4688670213135 ], [ -73.481670808579906, -42.468844272182999 ], [ -73.481003679639102, -42.468694127782904 ], [ -73.480774999414194, -42.468645913031501 ], [ -73.480749109235006, -42.468638045281899 ], [ -73.480799572350804, -42.468705864411199 ], [ -73.481164919695004, -42.469090566658998 ], [ -73.481538293828095, -42.469474953204703 ], [ -73.481631627437295, -42.469542761538897 ], [ -73.482110942800006, -42.469833663629103 ], [ -73.482578843284202, -42.470077367275501 ], [ -73.482970304929907, -42.470264510379401 ], [ -73.483420518036795, -42.470598236249202 ], [ -73.4835615609082, -42.470658217132197 ], [ -73.483924290812894, -42.4707809737913 ] ] ] } },
{ "type": "Feature", "properties": { "id": "monoparte.30", "Name": null, "description": null, "timestamp": null, "begin": null, "end": null, "altitudeMode": null, "tessellate": -1, "extrude": 0, "visibility": -1, "drawOrder": null, "icon": null, "REG": "Los Lagos", "COM": "Quinchao", "LOC": "Achao", "ZONA": "ZU-3", "NOM": "Zona consolidada ZU-3", "UPERM": "Vivienda, equipamiento de salud, educación, cultura, turismo, comercio minorista, (regional), equipamiento según el artículo 21 de la presente Ordenanza (comunal, local), actividades productivas, y de vialidad. Ver Ordenanza.", "UPROH": "Todos aquellos no señalados como permitidos.", "P_DO": "27/08/1999", "N_DOC": "Resolució", "T_DO": null, "OBS": null }, "geometry": { "type": "Polygon", "coordinates": [ [ [ -73.501661704683897, -42.467221372863598 ], [ -73.501545650368101, -42.467285494541102 ], [ -73.501458429068705, -42.467527144319199 ], [ -73.501422586519098, -42.467588109174201 ], [ -73.501388875733198, -42.467678767277803 ], [ -73.501384692464697, -42.467732530418303 ], [ -73.501326064758004, -42.467812258391 ], [ -73.501315644240904, -42.4680032420627 ], [ -73.501276044343399, -42.468123909039299 ], [ -73.501225436775499, -42.468203321347303 ], [ -73.501162546146404, -42.4682236626901 ], [ -73.501016456429795, -42.4682055892156 ], [ -73.500942984665599, -42.468190613866 ], [ -73.500888967195294, -42.468222516582003 ], [ -73.499756126111393, -42.4694719228875 ], [ -73.499742988909901, -42.469510359584604 ], [ -73.499579332961005, -42.469740721834498 ], [ -73.499569131042193, -42.470136563367703 ], [ -73.499377696815401, -42.470248909456799 ], [ -73.499232607777799, -42.470469012500701 ], [ -73.499307411948905, -42.470704287281301 ], [ -73.498736088168698, -42.470455191406003 ], [ -73.498213217219899, -42.470432876075897 ], [ -73.497682965766302, -42.470487078190999 ], [ -73.497230917874106, -42.470824063128497 ], [ -73.496964513494106, -42.4709679388206 ], [ -73.496552210937097, -42.471141370848599 ], [ -73.496274672945702, -42.471309504895402 ], [ -73.496200049225706, -42.471345788906397 ], [ -73.4961244019254, -42.471367819200999 ], [ -73.495980208971105, -42.471421130668197 ], [ -73.495936649506007, -42.471441900471298 ], [ -73.4957711595614, -42.471467461871903 ], [ -73.495655985283904, -42.471476753346401 ], [ -73.4955411528274, -42.4714907950043 ], [ -73.495498262943897, -42.471489089080798 ], [ -73.495400781306202, -42.471527551233599 ], [ -73.495369972014799, -42.4715466276608 ], [ -73.495220963334205, -42.471600127437597 ], [ -73.495253120170901, -42.471712017442101 ], [ -73.495358325037401, -42.471832946370803 ], [ -73.495361731918806, -42.471880456120701 ], [ -73.495416251574994, -42.471967644913398 ], [ -73.495458916143093, -42.472001700172299 ], [ -73.495427532740507, -42.472461501750701 ], [ -73.492981596488207, -42.472420772446299 ], [ -73.492977033340793, -42.472422468772997 ], [ -73.491864895757701, -42.472394683456301 ], [ -73.491363828965305, -42.472587066813198 ], [ -73.490719699203197, -42.472916085120801 ], [ -73.490680176557703, -42.472915132931099 ], [ -73.490704506199194, -42.472928592297897 ], [ -73.4916397434299, -42.472957379865697 ], [ -73.492628609037197, -42.473734438469002 ], [ -73.493654831605596, -42.474807792296197 ], [ -73.4936620692134, -42.474908750136898 ], [ -73.493643461652397, -42.474908709567103 ], [ -73.493646024909694, -42.474909380462798 ], [ -73.498022904226303, -42.474916006992203 ], [ -73.4983435923575, -42.473331162334901 ], [ -73.4983519047138, -42.473332564094697 ], [ -73.4983516148625, -42.473330846829001 ], [ -73.498605433822405, -42.472159556420998 ], [ -73.500579489173404, -42.471739038562397 ], [ -73.501624557405606, -42.467824332748201 ], [ -73.501649819798004, -42.467728052182402 ], [ -73.501683103800801, -42.467631455010697 ], [ -73.501761957294406, -42.467497332323397 ], [ -73.501967017153802, -42.467328465186199 ], [ -73.502202109798503, -42.467241791238301 ], [ -73.502400933956594, -42.467210143841598 ], [ -73.503665381569704, -42.467216739312803 ], [ -73.504036231770996, -42.465892344186997 ], [ -73.503091352363498, -42.4658875867432 ], [ -73.503048036293393, -42.465916164651297 ], [ -73.502859369308496, -42.465977190447603 ], [ -73.502741186172997, -42.466011619975802 ], [ -73.502640751832899, -42.466069172973199 ], [ -73.502547911088399, -42.466120470281197 ], [ -73.502355487031096, -42.4662411983456 ], [ -73.502409664915703, -42.466435594262798 ], [ -73.501849869084694, -42.467041260194101 ], [ -73.501788257743002, -42.467079417095 ], [ -73.501719478693602, -42.467129767640103 ], [ -73.501661704683897, -42.467221372863598 ] ] ] } },
{ "type": "Feature", "properties": { "id": "monoparte.31", "Name": null, "description": null, "timestamp": null, "begin": null, "end": null, "altitudeMode": null, "tessellate": -1, "extrude": 0, "visibility": -1, "drawOrder": null, "icon": null, "REG": "Los Lagos", "COM": "Quinchao", "LOC": "Achao", "ZONA": "ZU-3", "NOM": "Zona consolidada ZU-3", "UPERM": "Vivienda, equipamiento de salud, educación, cultura, turismo, comercio minorista, (regional), equipamiento según el artículo 21 de la presente Ordenanza (comunal, local), actividades productivas, y de vialidad. Ver Ordenanza.", "UPROH": "Todos aquellos no señalados como permitidos.", "P_DO": "27/08/1999", "N_DOC": "Resolució", "T_DO": null, "OBS": null }, "geometry": { "type": "Polygon", "coordinates": [ [ [ -73.495664948330599, -42.468527834801201 ], [ -73.496649664367993, -42.470849325312898 ], [ -73.496716846996094, -42.4708347455866 ], [ -73.496866433331306, -42.470766928160501 ], [ -73.496908969637602, -42.470731905229897 ], [ -73.496987965181603, -42.470666862878197 ], [ -73.497029818566304, -42.470622338384899 ], [ -73.497137834049596, -42.470513275982903 ], [ -73.499013835973003, -42.470110763457697 ], [ -73.499086228640493, -42.469774411502797 ], [ -73.49911234839, -42.469736279038798 ], [ -73.499199256589606, -42.469418865664203 ], [ -73.499295438806996, -42.469301929498698 ], [ -73.499920651135298, -42.468598416002401 ], [ -73.500127347587906, -42.468340156276199 ], [ -73.500572819025805, -42.467822373549502 ], [ -73.500928346510406, -42.4672843061431 ], [ -73.501534574327593, -42.466652996895 ], [ -73.501894084822496, -42.466394674852097 ], [ -73.501978906111006, -42.466343692806198 ], [ -73.502001689242206, -42.466324930519001 ], [ -73.502120484174498, -42.465962928991999 ], [ -73.502207589053796, -42.465883130449498 ], [ -73.502090673143499, -42.465882539974899 ], [ -73.502055307774299, -42.465942695738498 ], [ -73.502009090456099, -42.466015979797902 ], [ -73.501975706287098, -42.466088758744803 ], [ -73.501913307083797, -42.466205558654202 ], [ -73.501880263852797, -42.466283088787698 ], [ -73.501869477231097, -42.4663120993199 ], [ -73.5016358689182, -42.4664642242452 ], [ -73.5012864774245, -42.4667066622169 ], [ -73.501059965615596, -42.466868035077098 ], [ -73.500998525667598, -42.466908567125401 ], [ -73.500936743420596, -42.466944348877803 ], [ -73.500758495643097, -42.467060942971997 ], [ -73.500367847083695, -42.467306398881099 ], [ -73.500360117939294, -42.467324530740299 ], [ -73.497974767486298, -42.467936478841601 ], [ -73.495664948330599, -42.468527834801201 ] ] ] } }
]
}
