{
"type": "FeatureCollection",
"name": "IPT_10_PRC_Queilen",
"crs": { "type": "name", "properties": { "name": "urn:ogc:def:crs:OGC:1.3:CRS84" } },
"features": [
{ "type": "Feature", "properties": { "id": "monoparte.1", "Name": null, "description": null, "timestamp": null, "begin": null, "end": null, "altitudeMode": null, "tessellate": -1, "extrude": 0, "visibility": -1, "drawOrder": null, "icon": null, "REG": "Los Lagos", "COM": "Queilen", "LOC": "Queilen", "ZONA": "ZPL-2", "NOM": "Zona ZPL-2", "UPERM": "Actividad de playa, venta de artesanía y refresco, vialidad y áreas verdes con vegetación nativa. Mayor detalle en ordenanza.", "UPROH": "Todo uso no indicado como permitido", "P_DO": "06/06/1997", "N_DOC": "683", "T_DO": "Decreto", "OBS": null }, "geometry": { "type": "Polygon", "coordinates": [ [ [ -73.476419493516204, -42.895073316080897 ], [ -73.476425236015004, -42.895219590681101 ], [ -73.476506097554804, -42.895798848366802 ], [ -73.476565525997898, -42.896082372304903 ], [ -73.476607256362499, -42.896255822066998 ], [ -73.476642334009597, -42.896404520617999 ], [ -73.476797836909896, -42.896873658313801 ], [ -73.477029318669594, -42.897586366412 ], [ -73.477151556077104, -42.897931745994597 ], [ -73.4772035607443, -42.898179829347399 ], [ -73.4771861689198, -42.898409193650799 ], [ -73.477117927533598, -42.898540501351299 ], [ -73.477053757583406, -42.898660930231799 ], [ -73.476779875545802, -42.898832839688403 ], [ -73.476740802463894, -42.898857364929903 ], [ -73.477872541533898, -42.898395396241199 ], [ -73.477557878867202, -42.8978538888 ], [ -73.477456975860207, -42.8976910953591 ], [ -73.477440615866101, -42.897465435970602 ], [ -73.477399451050601, -42.897328887505203 ], [ -73.477343755961698, -42.8972310208854 ], [ -73.477338848179002, -42.8971633235033 ], [ -73.477315527632499, -42.897042749687799 ], [ -73.477310361595201, -42.896971489044198 ], [ -73.477296794181598, -42.896918423628897 ], [ -73.477252084076099, -42.896837992478801 ], [ -73.477242071703202, -42.896766921745503 ], [ -73.477185087252494, -42.896651240468302 ], [ -73.4772155913532, -42.8965178381615 ], [ -73.477123425482503, -42.896140312724 ], [ -73.477113456591894, -42.895645224395302 ], [ -73.477069740939299, -42.894684566474801 ], [ -73.477129732911493, -42.894081923767303 ], [ -73.477227964909503, -42.893649294869697 ], [ -73.477297433534503, -42.8929986392139 ], [ -73.477439776805497, -42.892459468644198 ], [ -73.477505602521006, -42.892294905657003 ], [ -73.477506815950406, -42.892132874749997 ], [ -73.4775257733194, -42.892036847975703 ], [ -73.477602977153595, -42.8916717414128 ], [ -73.477708616302095, -42.891162595063697 ], [ -73.477805629564202, -42.890891996761503 ], [ -73.477941406084696, -42.890619879142399 ], [ -73.477605515732094, -42.890518932625497 ], [ -73.477095111773707, -42.891737697701302 ], [ -73.477021392908995, -42.891726293763 ], [ -73.476919175803403, -42.891791042952804 ], [ -73.476860372712395, -42.8919184082065 ], [ -73.476739195863104, -42.892459130098104 ], [ -73.476612199618103, -42.893053677876502 ], [ -73.476582014368802, -42.893240665568101 ], [ -73.476551828918204, -42.893427652358 ], [ -73.476531792146901, -42.893553498536498 ], [ -73.4764823429865, -42.893877020431901 ], [ -73.476446124357906, -42.894450145261999 ], [ -73.476419493516204, -42.895073316080897 ] ] ] } },
{ "type": "Feature", "properties": { "id": "monoparte.2", "Name": null, "description": null, "timestamp": null, "begin": null, "end": null, "altitudeMode": null, "tessellate": -1, "extrude": 0, "visibility": -1, "drawOrder": null, "icon": null, "REG": "Los Lagos", "COM": "Queilen", "LOC": "Queilen", "ZONA": "ZC", "NOM": "ZC Zona cementerio", "UPERM": "Cementerio", "UPROH": "Todo uso no indicado como permitido", "P_DO": "06/06/1997", "N_DOC": "683", "T_DO": "Decreto", "OBS": null }, "geometry": { "type": "Polygon", "coordinates": [ [ [ -73.468906866384799, -42.887323340228697 ], [ -73.469104981536105, -42.8873751439722 ], [ -73.469324059821702, -42.887604784892197 ], [ -73.469404474540298, -42.8877088345358 ], [ -73.470257926546395, -42.887132144338302 ], [ -73.470099308027102, -42.886936051946897 ], [ -73.469922259110703, -42.886806006946401 ], [ -73.468906866384799, -42.887323340228697 ] ] ] } },
{ "type": "Feature", "properties": { "id": "monoparte.3", "Name": null, "description": null, "timestamp": null, "begin": null, "end": null, "altitudeMode": null, "tessellate": -1, "extrude": 0, "visibility": -1, "drawOrder": null, "icon": null, "REG": "Los Lagos", "COM": "Queilen", "LOC": "Queilen", "ZONA": "ZV", "NOM": "Zona ZV", "UPERM": "Paso peatonal, juegos infantiles, vialidad áreas verdes y estacionamientos.", "UPROH": "Todo uso no indicado como permitido", "P_DO": "06/06/1997", "N_DOC": "683", "T_DO": "Decreto", "OBS": null }, "geometry": { "type": "Polygon", "coordinates": [ [ [ -73.472573008498401, -42.8896822934461 ], [ -73.472419250891093, -42.889616849106503 ], [ -73.471961072555601, -42.889463270706898 ], [ -73.471592628187906, -42.890101804222297 ], [ -73.472194668899306, -42.890273573819798 ], [ -73.472573008498401, -42.8896822934461 ] ] ] } },
{ "type": "Feature", "properties": { "id": "monoparte.4", "Name": null, "description": null, "timestamp": null, "begin": null, "end": null, "altitudeMode": null, "tessellate": -1, "extrude": 0, "visibility": -1, "drawOrder": null, "icon": null, "REG": "Los Lagos", "COM": "Queilen", "LOC": "Queilen", "ZONA": "ZRA", "NOM": "ZRA Zona restricción aeródromo", "UPERM": "No se autoriza construcción alguna, salvo las complementarias al Aeródromo existente. Mayor detalle en ordenanza.", "UPROH": "Todo uso no indicado como permitido", "P_DO": "06/06/1997", "N_DOC": "683", "T_DO": "Decreto", "OBS": null }, "geometry": { "type": "Polygon", "coordinates": [ [ [ -73.471016404531497, -42.8923870226349 ], [ -73.471307980397398, -42.892846971087103 ], [ -73.471577476831996, -42.8938845523721 ], [ -73.471797479624598, -42.894685859878301 ], [ -73.472120430132506, -42.895566509940103 ], [ -73.472521579978505, -42.896408366718397 ], [ -73.473101106134195, -42.897028848254898 ], [ -73.473910912484399, -42.897473562688504 ], [ -73.474513111205795, -42.897735833496597 ], [ -73.4750388467628, -42.898060647849903 ], [ -73.475560736209601, -42.898312085560399 ], [ -73.475686024836193, -42.898364348082602 ], [ -73.475898607192207, -42.898481081327297 ], [ -73.476053033552702, -42.898600091659802 ], [ -73.476251078802093, -42.898717393753898 ], [ -73.476427413855504, -42.898803386596903 ], [ -73.476591216408707, -42.898850566637101 ], [ -73.476779875545802, -42.898832839688403 ], [ -73.477053757583406, -42.898660930231799 ], [ -73.477117927533598, -42.898540501351299 ], [ -73.4771861689198, -42.898409193650799 ], [ -73.4772035607443, -42.898179829347399 ], [ -73.477151556077104, -42.897931745994597 ], [ -73.477029318669594, -42.897586366412 ], [ -73.476797836909896, -42.896873658313801 ], [ -73.476642334009597, -42.896404520617999 ], [ -73.476607256362499, -42.896255822066998 ], [ -73.476565525997898, -42.896082372304903 ], [ -73.476506097554804, -42.895798848366802 ], [ -73.476425236015004, -42.895219590681101 ], [ -73.476419493516204, -42.895073316080897 ], [ -73.475733922941302, -42.895026248184699 ], [ -73.475667593125294, -42.894925812732701 ], [ -73.474426158952596, -42.893045993172798 ], [ -73.474069225819406, -42.892440160658602 ], [ -73.473968692716696, -42.892349289775098 ], [ -73.473358210604999, -42.89268763215 ], [ -73.471434042498302, -42.890094988397699 ], [ -73.469766763023301, -42.889745344449999 ], [ -73.469829563327394, -42.890478959697496 ], [ -73.4700467009379, -42.890927829941099 ], [ -73.471016404531497, -42.8923870226349 ] ] ] } },
{ "type": "Feature", "properties": { "id": "monoparte.5", "Name": null, "description": null, "timestamp": null, "begin": null, "end": null, "altitudeMode": null, "tessellate": -1, "extrude": 0, "visibility": -1, "drawOrder": null, "icon": null, "REG": "Los Lagos", "COM": "Queilen", "LOC": "Queilen", "ZONA": "ZI", "NOM": "Zona ZI", "UPERM": "Actividades productivas inofensivas y no molestas,actividades complementarias a vialidad y transporte de carga, vialidad y áreas verdes. Mayor detalle en ordenanza", "UPROH": "Todo uso no indicado como permitido", "P_DO": "06/06/1997", "N_DOC": "683", "T_DO": "Decreto", "OBS": null }, "geometry": { "type": "Polygon", "coordinates": [ [ [ -73.476748229821297, -42.882737784982503 ], [ -73.476675256957805, -42.882875431554901 ], [ -73.476682484830306, -42.882975196788401 ], [ -73.476686959267795, -42.883036956516499 ], [ -73.476691261614803, -42.883096340731399 ], [ -73.476745390939001, -42.883172829800301 ], [ -73.476682841887197, -42.883382524172397 ], [ -73.476622755360196, -42.883492073601701 ], [ -73.476641857895501, -42.883755739295196 ], [ -73.4766379660296, -42.883970281258101 ], [ -73.476621801839201, -42.884149572926901 ], [ -73.476598013037702, -42.884357748590098 ], [ -73.476587409349605, -42.884479651862698 ], [ -73.476624740619101, -42.8845925302548 ], [ -73.476768668263105, -42.8847012320308 ], [ -73.476826413577797, -42.8848276040192 ], [ -73.476865812101096, -42.884968986586102 ], [ -73.477029361491802, -42.885348480053104 ], [ -73.477125354853698, -42.885466205482501 ], [ -73.477193945843098, -42.885742225336003 ], [ -73.477284896629001, -42.885924465499301 ], [ -73.477451551352701, -42.886346714500199 ], [ -73.477567172209007, -42.886458460198902 ], [ -73.477629202951505, -42.8865184108327 ], [ -73.477713442338796, -42.886608012017298 ], [ -73.477703357279495, -42.886737040902403 ], [ -73.477749350662194, -42.886835286788099 ], [ -73.477755548320204, -42.886920799660501 ], [ -73.4777772782179, -42.886995823664499 ], [ -73.477950906680505, -42.886997038032298 ], [ -73.477931646675898, -42.886878524396202 ], [ -73.477891559864901, -42.886468466920597 ], [ -73.477898005304198, -42.886168544501899 ], [ -73.477906737878598, -42.885953812836902 ], [ -73.477944328625796, -42.885690306857903 ], [ -73.478058042063594, -42.885471460681501 ], [ -73.478128794026105, -42.885218566209801 ], [ -73.478210532316098, -42.884893777946097 ], [ -73.478203871253598, -42.884578409164199 ], [ -73.478081473153694, -42.884118695533601 ], [ -73.478031956238794, -42.883882425164998 ], [ -73.477986642118594, -42.883592392012297 ], [ -73.477977832376098, -42.883247331905203 ], [ -73.477990665061697, -42.882865691542598 ], [ -73.478013950633496, -42.882293071875999 ], [ -73.478039365866195, -42.882196791873902 ], [ -73.478063919054904, -42.882088634375499 ], [ -73.478167399244995, -42.881840412759999 ], [ -73.478148463578293, -42.8815791221393 ], [ -73.478144489213506, -42.881412530836698 ], [ -73.478138792262897, -42.881222185392303 ], [ -73.478071408760201, -42.880962793581297 ], [ -73.478010910003405, -42.880798417612098 ], [ -73.477997569891699, -42.880614326442398 ], [ -73.477988102823204, -42.8804836815249 ], [ -73.478035918759403, -42.880249551985997 ], [ -73.478096111574501, -42.880074489226502 ], [ -73.478156826909895, -42.879898430905399 ], [ -73.477871152955998, -42.8798173836229 ], [ -73.477764515996995, -42.879954961016303 ], [ -73.477770712186199, -42.880040473989901 ], [ -73.477712998638594, -42.880138019712099 ], [ -73.477577767478607, -42.880238604139898 ], [ -73.477494215058798, -42.8803371623397 ], [ -73.477405314655599, -42.880540743901101 ], [ -73.477360520599902, -42.880637783168901 ], [ -73.4773531074772, -42.880714301345698 ], [ -73.477324146944497, -42.881029875052 ], [ -73.477245410852106, -42.881194943894698 ], [ -73.477109489493898, -42.881286025800598 ], [ -73.476927923338806, -42.881283612130197 ], [ -73.476821969056004, -42.881430690027699 ], [ -73.476858822983402, -42.881581701368603 ], [ -73.476948733067701, -42.881749690040103 ], [ -73.477123576840995, -42.881838123783098 ], [ -73.477175416578802, -42.882017132159802 ], [ -73.477022309864793, -42.882094595646798 ], [ -73.476930512162994, -42.8821017650857 ], [ -73.4767857385133, -42.8821824742244 ], [ -73.476718285762104, -42.882324470976798 ], [ -73.476700314837899, -42.882478820679999 ], [ -73.476701148526203, -42.882557397946897 ], [ -73.476746363492396, -42.882644955544897 ], [ -73.476748229821297, -42.882737784982503 ] ] ] } },
{ "type": "Feature", "properties": { "id": "monoparte.6", "Name": null, "description": null, "timestamp": null, "begin": null, "end": null, "altitudeMode": null, "tessellate": -1, "extrude": 0, "visibility": -1, "drawOrder": null, "icon": null, "REG": "Los Lagos", "COM": "Queilen", "LOC": "Queilen", "ZONA": "ZT", "NOM": "Zona ZT", "UPERM": "Vivienda, equipamiento, vialidad y áreas verdes. Mayor detalle en ordenanza", "UPROH": "Todo uso no indicado como permitido", "P_DO": "06/06/1997", "N_DOC": "683", "T_DO": "Decreto", "OBS": null }, "geometry": { "type": "Polygon", "coordinates": [ [ [ -73.476832933190195, -42.889134797457402 ], [ -73.476706157628698, -42.889397032999703 ], [ -73.4766031691954, -42.889451091971303 ], [ -73.476430821787204, -42.889695460501898 ], [ -73.476555895786305, -42.889812047875601 ], [ -73.4767492267992, -42.889868985531102 ], [ -73.476603297886101, -42.890202243428597 ], [ -73.477207484377104, -42.890381049088397 ], [ -73.477009631192104, -42.891115344554599 ], [ -73.476571265886506, -42.890989594661697 ], [ -73.476454625898796, -42.8912800180494 ], [ -73.476342319318704, -42.891516910307502 ], [ -73.476258938067204, -42.891491201068199 ], [ -73.475980311160399, -42.892321715781797 ], [ -73.475838278957099, -42.892261772421797 ], [ -73.475633156068596, -42.893454907219201 ], [ -73.475861450005397, -42.893475740452097 ], [ -73.475667593125294, -42.894925812732701 ], [ -73.475733922941302, -42.895026248184699 ], [ -73.476419493516204, -42.895073316080897 ], [ -73.476446124357906, -42.894450145261999 ], [ -73.4764823429865, -42.893877020431901 ], [ -73.476531792146901, -42.893553498536498 ], [ -73.476551828918204, -42.893427652358 ], [ -73.476582014368802, -42.893240665568101 ], [ -73.476612199618103, -42.893053677876502 ], [ -73.476739195863104, -42.892459130098104 ], [ -73.476860372712395, -42.8919184082065 ], [ -73.476919175803403, -42.891791042952804 ], [ -73.477021392908995, -42.891726293763 ], [ -73.477095111773707, -42.891737697701302 ], [ -73.477605515732094, -42.890518932625497 ], [ -73.477631730869206, -42.890456333982002 ], [ -73.477497244607804, -42.890424881163099 ], [ -73.477503037127605, -42.890361766614198 ], [ -73.477512863813502, -42.890247040522503 ], [ -73.477599341933001, -42.889759606450397 ], [ -73.477619918066097, -42.8896501761281 ], [ -73.477704979094597, -42.889250459235399 ], [ -73.477812098627396, -42.888697423401098 ], [ -73.4778953658451, -42.8882730033732 ], [ -73.477898710976007, -42.888211889800303 ], [ -73.477920940350401, -42.888125262825397 ], [ -73.477926043754096, -42.88805264714 ], [ -73.477941345535896, -42.887977725770398 ], [ -73.477954063801405, -42.887902904753197 ], [ -73.477945143324604, -42.887815593530597 ], [ -73.477961789992506, -42.887723467396398 ], [ -73.477977091682405, -42.8876485460247 ], [ -73.4779784244772, -42.887166355557298 ], [ -73.477950906680505, -42.886997038032298 ], [ -73.4777772782179, -42.886995823664499 ], [ -73.477794434236799, -42.887055056090396 ], [ -73.477750628165495, -42.887121090165301 ], [ -73.477739510236901, -42.887235866901101 ], [ -73.477742732040696, -42.887414398921898 ], [ -73.477718430191203, -42.887615448100703 ], [ -73.477675263002595, -42.887824383373903 ], [ -73.477657035844302, -42.887975170725703 ], [ -73.477618911491703, -42.888119591077903 ], [ -73.477605727442096, -42.888205864414097 ], [ -73.477529354253406, -42.888358929550201 ], [ -73.477537617903295, -42.888472947614801 ], [ -73.477487219052406, -42.8885821169319 ], [ -73.477482692226502, -42.888653758361897 ], [ -73.477496515639103, -42.888710387144499 ], [ -73.4774853971971, -42.8888251638677 ], [ -73.477405924314496, -42.8889354734169 ], [ -73.477329551153503, -42.889088539318998 ], [ -73.477290391413206, -42.889218707507297 ], [ -73.4772282340695, -42.889299752238301 ], [ -73.477058406561497, -42.889251023680302 ], [ -73.476832933190195, -42.889134797457402 ] ] ] } },
{ "type": "Feature", "properties": { "id": "monoparte.7", "Name": null, "description": null, "timestamp": null, "begin": null, "end": null, "altitudeMode": null, "tessellate": -1, "extrude": 0, "visibility": -1, "drawOrder": null, "icon": null, "REG": "Los Lagos", "COM": "Queilen", "LOC": "Queilen", "ZONA": "ZA", "NOM": "ZA Zona  restricción agua potable.", "UPERM": "Instalaciones de  planta de agua potable y alcantarillado.", "UPROH": "Todo uso no indicado como permitido", "P_DO": "06/06/1997", "N_DOC": "683", "T_DO": "Decreto", "OBS": null }, "geometry": { "type": "Polygon", "coordinates": [ [ [ -73.475546602119294, -42.891500203634799 ], [ -73.475660636630494, -42.891531468649397 ], [ -73.475758949675793, -42.891337031656597 ], [ -73.475659160948595, -42.891306262069399 ], [ -73.475546602119294, -42.891500203634799 ] ] ] } },
{ "type": "Feature", "properties": { "id": "monoparte.8", "Name": null, "description": null, "timestamp": null, "begin": null, "end": null, "altitudeMode": null, "tessellate": -1, "extrude": 0, "visibility": -1, "drawOrder": null, "icon": null, "REG": "Los Lagos", "COM": "Queilen", "LOC": "Queilen", "ZONA": "ZA", "NOM": "ZA Zona  restricción agua potable.", "UPERM": "Instalaciones de  planta de agua potable y alcantarillado.", "UPROH": "Todo uso no indicado como permitido", "P_DO": "06/06/1997", "N_DOC": "683", "T_DO": "Decreto", "OBS": null }, "geometry": { "type": "Polygon", "coordinates": [ [ [ -73.473968692716696, -42.892349289775098 ], [ -73.474069225819406, -42.892440160658602 ], [ -73.474774002613898, -42.891033319423997 ], [ -73.474586802378795, -42.8909982493577 ], [ -73.473927784282097, -42.892231786134602 ], [ -73.473968692716696, -42.892349289775098 ] ] ] } },
{ "type": "Feature", "properties": { "id": "monoparte.9", "Name": null, "description": null, "timestamp": null, "begin": null, "end": null, "altitudeMode": null, "tessellate": -1, "extrude": 0, "visibility": -1, "drawOrder": null, "icon": null, "REG": "Los Lagos", "COM": "Queilen", "LOC": "Queilen", "ZONA": "ZH 2", "NOM": "Zona ZH 2", "UPERM": "Vivienda, equipamiento, vialidad y áreas verdes. Mayor detalle en ordenanza", "UPROH": "Todo uso no indicado como permitido", "P_DO": "06/06/1997", "N_DOC": "683", "T_DO": "Decreto", "OBS": null }, "geometry": { "type": "Polygon", "coordinates": [ [ [ -73.468957483095593, -42.884502418646399 ], [ -73.468794274360803, -42.884579461378401 ], [ -73.468552011573394, -42.884588936464297 ], [ -73.468474487652003, -42.884591968376299 ], [ -73.468311294732501, -42.8846197899909 ], [ -73.468166453155305, -42.884632600176801 ], [ -73.468030784896897, -42.884637905583503 ], [ -73.467896955638906, -42.884708550155402 ], [ -73.467754327116893, -42.884801647903402 ], [ -73.467558177737402, -42.884866488284203 ], [ -73.467395703384298, -42.884949068813 ], [ -73.467314532858296, -42.885080877213298 ], [ -73.4672887563692, -42.885172404519501 ], [ -73.467130680789694, -42.885226227400999 ], [ -73.466957345286005, -42.885337817240099 ], [ -73.466785384215299, -42.885468410244599 ], [ -73.466579400887596, -42.885576511337497 ], [ -73.4664413918035, -42.885639076948401 ], [ -73.466390439188999, -42.885686517098101 ], [ -73.4664569086776, -42.885744198128201 ], [ -73.466639584033302, -42.885851398996699 ], [ -73.4667749605388, -42.886003325719699 ], [ -73.466778873750698, -42.886006428307198 ], [ -73.466929594710805, -42.886125914100802 ], [ -73.467260725600696, -42.886270187828202 ], [ -73.467548058667802, -42.886341943224302 ], [ -73.467553612693294, -42.8863335340086 ], [ -73.467557233578603, -42.886334438604301 ], [ -73.4676325591997, -42.886220396891702 ], [ -73.467728310763803, -42.886146694924697 ], [ -73.467896217900005, -42.886049608825203 ], [ -73.467899206492504, -42.886045680887797 ], [ -73.467905392660697, -42.886042103282897 ], [ -73.467972043813901, -42.885954518953298 ], [ -73.468124949225796, -42.885897737846904 ], [ -73.468122582379095, -42.885894518113403 ], [ -73.468134123936096, -42.885890232288403 ], [ -73.468297078059095, -42.8858345480213 ], [ -73.468541408988798, -42.885741618973199 ], [ -73.4688792094571, -42.885597391160402 ], [ -73.469205151711506, -42.885513178113101 ], [ -73.469404033215596, -42.885463711788503 ], [ -73.469441919357294, -42.885539648623102 ], [ -73.469341233945698, -42.885603139971401 ], [ -73.469271617901498, -42.885701039934503 ], [ -73.469223622650901, -42.885768532912699 ], [ -73.469112368660603, -42.885909856302703 ], [ -73.4689535202873, -42.886064951556698 ], [ -73.468687109243007, -42.886188521480697 ], [ -73.468195094163704, -42.886440019292998 ], [ -73.468033234715904, -42.8865535442363 ], [ -73.467828761321101, -42.886733927768603 ], [ -73.468124037923005, -42.886913264977601 ], [ -73.468383060353105, -42.887135391837802 ], [ -73.468601190255498, -42.887240010892199 ], [ -73.468906866384799, -42.887323340228697 ], [ -73.469922259110703, -42.886806006946401 ], [ -73.470099308027102, -42.886936051946897 ], [ -73.470257926546395, -42.887132144338302 ], [ -73.469404474540298, -42.8877088345358 ], [ -73.469256533098203, -42.887923084284502 ], [ -73.469552096934393, -42.888524572722602 ], [ -73.469534776971102, -42.888553835533401 ], [ -73.469639199674603, -42.889090168930501 ], [ -73.469801844464897, -42.888981496131201 ], [ -73.470078759096594, -42.888689573471602 ], [ -73.470138281944699, -42.8887063009605 ], [ -73.470687285968495, -42.888077898790002 ], [ -73.471333707034105, -42.888281285425997 ], [ -73.471580733819295, -42.888471715668402 ], [ -73.472041703010206, -42.8889324775948 ], [ -73.472539156687702, -42.889091664130298 ], [ -73.472707137258396, -42.889085088375602 ], [ -73.472656592114802, -42.8882750654357 ], [ -73.472971382230895, -42.888316339329798 ], [ -73.473391158052806, -42.888353502835102 ], [ -73.473545890198693, -42.8883653096781 ], [ -73.473756124695697, -42.888416630751102 ], [ -73.474208949695196, -42.888539029021203 ], [ -73.474694905758199, -42.888072281734502 ], [ -73.474551260394705, -42.887989468628703 ], [ -73.474476426925193, -42.887962622900297 ], [ -73.474462162625898, -42.887933405129999 ], [ -73.474499387018298, -42.887720535248 ], [ -73.474465268579706, -42.887584899825001 ], [ -73.474399346987198, -42.8872897175196 ], [ -73.474309415095405, -42.886998452794003 ], [ -73.474208493795302, -42.886779082390397 ], [ -73.474098564584395, -42.886714901331402 ], [ -73.473841292353697, -42.886573116138599 ], [ -73.473665683701398, -42.886496618658903 ], [ -73.472807140090794, -42.887334193356097 ], [ -73.472505644888201, -42.887823311156303 ], [ -73.472500815280895, -42.888025086216302 ], [ -73.472277609373293, -42.887962360166703 ], [ -73.4721421175107, -42.887824737272098 ], [ -73.472019814686305, -42.887701485734901 ], [ -73.471555738643502, -42.887275980339297 ], [ -73.472014432321402, -42.886564238531001 ], [ -73.472190930533699, -42.886429291589799 ], [ -73.471996979199702, -42.886267157653201 ], [ -73.472081081952695, -42.886198358288297 ], [ -73.472125237596302, -42.886137077189098 ], [ -73.472844819791803, -42.885337700562403 ], [ -73.472497949883902, -42.885050319871603 ], [ -73.472204929513097, -42.885365508367499 ], [ -73.472062671191296, -42.885525914186303 ], [ -73.471803667388698, -42.885863590989601 ], [ -73.471620599216195, -42.886019637849103 ], [ -73.470827457368898, -42.885467059325599 ], [ -73.471041875480594, -42.8851880731061 ], [ -73.470924258814193, -42.885225864212003 ], [ -73.470824881085903, -42.885329801351503 ], [ -73.470706123065099, -42.885434496733197 ], [ -73.470472622938203, -42.885565120937002 ], [ -73.470401800859406, -42.885660794551299 ], [ -73.470390153665704, -42.8857684455011 ], [ -73.470097055675794, -42.885343986018 ], [ -73.469671183985398, -42.8853677935249 ], [ -73.469667059878802, -42.885310784297403 ], [ -73.469648606201204, -42.885190018303099 ], [ -73.469612316832098, -42.885091389432397 ], [ -73.469549429548096, -42.8848937516372 ], [ -73.469522831668002, -42.8847947436171 ], [ -73.469502832095799, -42.884652599553299 ], [ -73.469414483272502, -42.884505982370797 ], [ -73.468957483095593, -42.884502418646399 ] ] ] } },
{ "type": "Feature", "properties": { "id": "monoparte.10", "Name": null, "description": null, "timestamp": null, "begin": null, "end": null, "altitudeMode": null, "tessellate": -1, "extrude": 0, "visibility": -1, "drawOrder": null, "icon": null, "REG": "Los Lagos", "COM": "Queilen", "LOC": "Queilen", "ZONA": "ZRP", "NOM": "ZRP Zona de restricción de pendientes", "UPERM": "No se autoriza construcción alguna.", "UPROH": "Todo uso no indicado como permitido", "P_DO": "06/06/1997", "N_DOC": "683", "T_DO": "Decreto", "OBS": null }, "geometry": { "type": "Polygon", "coordinates": [ [ [ -73.475936983026202, -42.888841168541703 ], [ -73.476216077541594, -42.888937429821603 ], [ -73.476300716087195, -42.888898382746603 ], [ -73.476400605754307, -42.888801566675603 ], [ -73.476431624595193, -42.888693156226402 ], [ -73.476480476327197, -42.888562608590398 ], [ -73.476550775289496, -42.888459805879798 ], [ -73.476593550783093, -42.888379520010801 ], [ -73.476646928632206, -42.888177331829802 ], [ -73.476702889226601, -42.888010773545801 ], [ -73.476772670845307, -42.887900844206698 ], [ -73.476874623802701, -42.887832532137899 ], [ -73.476836255642993, -42.887705401868303 ], [ -73.476793241489901, -42.887514136348997 ], [ -73.476787349223699, -42.887373227182302 ], [ -73.475805595164104, -42.887504592926703 ], [ -73.475900251241001, -42.887663463399299 ], [ -73.475964075591506, -42.887739572998498 ], [ -73.475990169092597, -42.887831453316302 ], [ -73.476026985502799, -42.887937205278199 ], [ -73.475976584346498, -42.888046374934298 ], [ -73.475927215595206, -42.888169796752599 ], [ -73.475847740581997, -42.888280105313299 ], [ -73.475760639996693, -42.888419297796602 ], [ -73.475709721738298, -42.888521340828397 ], [ -73.475690974608895, -42.888665001493003 ], [ -73.475726758651604, -42.888756502259 ], [ -73.475936983026202, -42.888841168541703 ] ] ] } },
{ "type": "Feature", "properties": { "id": "monoparte.11", "Name": null, "description": null, "timestamp": null, "begin": null, "end": null, "altitudeMode": null, "tessellate": -1, "extrude": 0, "visibility": -1, "drawOrder": null, "icon": null, "REG": "Los Lagos", "COM": "Queilen", "LOC": "Queilen", "ZONA": "ZRP", "NOM": "ZRP Zona de restricción de pendientes", "UPERM": "No se autoriza construcción alguna.", "UPROH": "Todo uso no indicado como permitido", "P_DO": "06/06/1997", "N_DOC": "683", "T_DO": "Decreto", "OBS": null }, "geometry": { "type": "Polygon", "coordinates": [ [ [ -73.468439379550503, -42.887517584304497 ], [ -73.469211977572897, -42.8879876093904 ], [ -73.469255793594002, -42.887921578159201 ], [ -73.469256533098203, -42.887923084284502 ], [ -73.469404474540298, -42.8877088345358 ], [ -73.469324059821702, -42.887604784892197 ], [ -73.469104981536105, -42.8873751439722 ], [ -73.468906866384799, -42.887323340228697 ], [ -73.468601190255498, -42.887240010892199 ], [ -73.468383060353105, -42.887135391837802 ], [ -73.468124037923005, -42.886913264977601 ], [ -73.467828761321101, -42.886733927768603 ], [ -73.467935561141402, -42.887001311647097 ], [ -73.468058037213794, -42.8870822789575 ], [ -73.468218345823502, -42.887283252714802 ], [ -73.468439379550503, -42.887517584304497 ] ] ] } },
{ "type": "Feature", "properties": { "id": "monoparte.12", "Name": null, "description": null, "timestamp": null, "begin": null, "end": null, "altitudeMode": null, "tessellate": -1, "extrude": 0, "visibility": -1, "drawOrder": null, "icon": null, "REG": "Los Lagos", "COM": "Queilen", "LOC": "Queilen", "ZONA": "ZRP", "NOM": "ZRP Zona de restricción de pendientes", "UPERM": "No se autoriza construcción alguna.", "UPROH": "Todo uso no indicado como permitido", "P_DO": "06/06/1997", "N_DOC": "683", "T_DO": "Decreto", "OBS": null }, "geometry": { "type": "Polygon", "coordinates": [ [ [ -73.475779355742006, -42.8860692083394 ], [ -73.475975868339603, -42.886233022575198 ], [ -73.476272783183106, -42.886307146294897 ], [ -73.476575775636306, -42.886331006458697 ], [ -73.476793617212607, -42.886386788412402 ], [ -73.476904862409398, -42.886446746794 ], [ -73.476919200969803, -42.886510501340602 ], [ -73.476945295201702, -42.886602381412899 ], [ -73.477048915175104, -42.886691223690299 ], [ -73.477130571990102, -42.886745194485599 ], [ -73.477206670097104, -42.886856553557003 ], [ -73.477234314148205, -42.886969811317798 ], [ -73.477239478292802, -42.887041072093602 ], [ -73.477189596369996, -42.887157368693501 ], [ -73.477117749338007, -42.887238793062203 ], [ -73.477005074615306, -42.887293232841103 ], [ -73.477114983709995, -42.887394334098197 ], [ -73.477161493200498, -42.887499706760003 ], [ -73.477199861857798, -42.887626836898903 ], [ -73.477194423575995, -42.887820000921003 ], [ -73.477172580299595, -42.887920906159103 ], [ -73.477166109065905, -42.888099817126403 ], [ -73.477143750445094, -42.888193595788501 ], [ -73.477129136965104, -42.888394266099901 ], [ -73.477118534239807, -42.888516168448099 ], [ -73.476832933190195, -42.889134797457402 ], [ -73.477058406561497, -42.889251023680302 ], [ -73.4772282340695, -42.889299752238301 ], [ -73.477290391413206, -42.889218707507297 ], [ -73.477329551153503, -42.889088539318998 ], [ -73.477405924314496, -42.8889354734169 ], [ -73.4774853971971, -42.8888251638677 ], [ -73.477496515639103, -42.888710387144499 ], [ -73.477482692226502, -42.888653758361897 ], [ -73.477487219052406, -42.8885821169319 ], [ -73.477537617903295, -42.888472947614801 ], [ -73.477529354253406, -42.888358929550201 ], [ -73.477605727442096, -42.888205864414097 ], [ -73.477618911491703, -42.888119591077903 ], [ -73.477657035844302, -42.887975170725703 ], [ -73.477675263002595, -42.887824383373903 ], [ -73.477718430191203, -42.887615448100703 ], [ -73.477742732040696, -42.887414398921898 ], [ -73.477739510236901, -42.887235866901101 ], [ -73.477750628165495, -42.887121090165301 ], [ -73.477794434236799, -42.887055056090396 ], [ -73.4777772782179, -42.886995823664499 ], [ -73.477755548320204, -42.886920799660501 ], [ -73.477749350662194, -42.886835286788099 ], [ -73.477703357279495, -42.886737040902403 ], [ -73.477713442338796, -42.886608012017298 ], [ -73.477629202951505, -42.8865184108327 ], [ -73.477567172209007, -42.886458460198902 ], [ -73.477429657818504, -42.886595907665203 ], [ -73.477332749729399, -42.886599705250902 ], [ -73.477158197034996, -42.886470764906001 ], [ -73.477170348821204, -42.886370240331502 ], [ -73.477194256129593, -42.886297839462998 ], [ -73.477090120315395, -42.886201871661697 ], [ -73.476855479747897, -42.886182480529399 ], [ -73.476633110988502, -42.886198340116401 ], [ -73.476477028191994, -42.886190162841999 ], [ -73.476221972699904, -42.8861572776161 ], [ -73.476101554876195, -42.8861048237722 ], [ -73.475956593579298, -42.885981869037998 ], [ -73.475808534269405, -42.885816157581701 ], [ -73.475648895627799, -42.885609807861101 ], [ -73.475630147451895, -42.885753468580901 ], [ -73.475708822685306, -42.885900459762802 ], [ -73.475779355742006, -42.8860692083394 ] ] ] } },
{ "type": "Feature", "properties": { "id": "monoparte.13", "Name": null, "description": null, "timestamp": null, "begin": null, "end": null, "altitudeMode": null, "tessellate": -1, "extrude": 0, "visibility": -1, "drawOrder": null, "icon": null, "REG": "Los Lagos", "COM": "Queilen", "LOC": "Queilen", "ZONA": "ZRP", "NOM": "ZRP Zona de restricción de pendientes", "UPERM": "No se autoriza construcción alguna.", "UPROH": "Todo uso no indicado como permitido", "P_DO": "06/06/1997", "N_DOC": "683", "T_DO": "Decreto", "OBS": null }, "geometry": { "type": "Polygon", "coordinates": [ [ [ -73.475089516471101, -42.883387770649499 ], [ -73.475157463822796, -42.883520888907498 ], [ -73.475275926727406, -42.883680614672201 ], [ -73.475377075500603, -42.883869603764303 ], [ -73.475559759334502, -42.883976789927303 ], [ -73.4756832694694, -42.884072000246199 ], [ -73.475746691218305, -42.884276759475703 ], [ -73.4759717518657, -42.884432308693697 ], [ -73.475998875956506, -42.8845384403973 ], [ -73.476096931064603, -42.884684672115696 ], [ -73.476233350011796, -42.884958034444502 ], [ -73.4762547959605, -42.884985779511602 ], [ -73.476366156314, -42.885181514377102 ], [ -73.476447930176306, -42.885371261539497 ], [ -73.476559291859601, -42.8855669952504 ], [ -73.476439509827102, -42.8856574440507 ], [ -73.476324772076595, -42.885683378714297 ], [ -73.476236525109201, -42.885672543400403 ], [ -73.4759788906062, -42.885604026625501 ], [ -73.475791155988205, -42.885561357229903 ], [ -73.476027288266195, -42.885750417466198 ], [ -73.476245246648006, -42.8859419754505 ], [ -73.476430917549905, -42.8859561405813 ], [ -73.476685851923094, -42.885853249656698 ], [ -73.477008618717804, -42.885747700230098 ], [ -73.477193945843098, -42.885742225336003 ], [ -73.477125354853698, -42.885466205482501 ], [ -73.477029361491802, -42.885348480053104 ], [ -73.476865812101096, -42.884968986586102 ], [ -73.476826413577797, -42.8848276040192 ], [ -73.476768668263105, -42.8847012320308 ], [ -73.476624740619101, -42.8845925302548 ], [ -73.476587409349605, -42.884479651862698 ], [ -73.476598013037702, -42.884357748590098 ], [ -73.476621801839201, -42.884149572926901 ], [ -73.476195800495503, -42.884074551681898 ], [ -73.475957746314506, -42.884030280496098 ], [ -73.475817884649402, -42.884000027422601 ], [ -73.475747261265397, -42.883919420424299 ], [ -73.475595454159503, -42.883836037861897 ], [ -73.475532475609896, -42.883749175627202 ], [ -73.475463045359405, -42.883573236885901 ], [ -73.475472743674601, -42.883483527812999 ], [ -73.475570506166406, -42.883491608750496 ], [ -73.475834504581201, -42.883558686092101 ], [ -73.475993525419696, -42.883629875364001 ], [ -73.476216718456101, -42.883692594716997 ], [ -73.476371869299797, -42.883710337022798 ], [ -73.476641857895501, -42.883755739295196 ], [ -73.476622755360196, -42.883492073601701 ], [ -73.476682841887197, -42.883382524172397 ], [ -73.476745390939001, -42.883172829800301 ], [ -73.476691261614803, -42.883096340731399 ], [ -73.476686959267795, -42.883036956516499 ], [ -73.476052376716396, -42.8828772052535 ], [ -73.4758309074072, -42.8828382387875 ], [ -73.475689328028494, -42.882784232068502 ], [ -73.475518030891806, -42.882767121278697 ], [ -73.475430828110703, -42.882681207852698 ], [ -73.475346970047298, -42.882529654912702 ], [ -73.475185705252102, -42.882315626247397 ], [ -73.475117961811307, -42.882165626137699 ], [ -73.474988120389298, -42.882117114426997 ], [ -73.474902400540998, -42.882074020409298 ], [ -73.474692718411205, -42.8819964757568 ], [ -73.474602927700801, -42.8819642610923 ], [ -73.474617160278399, -42.882098491145697 ], [ -73.474626448813297, -42.882226762007697 ], [ -73.474618937340097, -42.882391421044197 ], [ -73.474598124268596, -42.882506578129799 ], [ -73.474578857907503, -42.882643112241396 ], [ -73.474655978020493, -42.882768726621698 ], [ -73.474721343444102, -42.882866215133802 ], [ -73.474730116358003, -42.882987359404403 ], [ -73.474763831924307, -42.883050355376497 ], [ -73.474838371382603, -42.883140338655501 ], [ -73.474980743018506, -42.883227665183703 ], [ -73.475089516471101, -42.883387770649499 ] ] ] } },
{ "type": "Feature", "properties": { "id": "monoparte.14", "Name": null, "description": null, "timestamp": null, "begin": null, "end": null, "altitudeMode": null, "tessellate": -1, "extrude": 0, "visibility": -1, "drawOrder": null, "icon": null, "REG": "Los Lagos", "COM": "Queilen", "LOC": "Queilen", "ZONA": "ZRP", "NOM": "ZRP Zona de restricción de pendientes", "UPERM": "No se autoriza construcción alguna.", "UPROH": "Todo uso no indicado como permitido", "P_DO": "06/06/1997", "N_DOC": "683", "T_DO": "Decreto", "OBS": null }, "geometry": { "type": "Polygon", "coordinates": [ [ [ -73.466081772980701, -42.885394399195199 ], [ -73.466266012348001, -42.885562927239697 ], [ -73.466381153324207, -42.885368403953102 ], [ -73.466434048085404, -42.885159092446202 ], [ -73.466403849035103, -42.885010199734303 ], [ -73.466368081274595, -42.884918696177699 ], [ -73.466293034971002, -42.884821580335903 ], [ -73.465762952925701, -42.884613617605801 ], [ -73.465484827299306, -42.8843958046116 ], [ -73.465392883204601, -42.8841993009394 ], [ -73.465415679985796, -42.883976873509297 ], [ -73.465425275829901, -42.883840717880503 ], [ -73.465321581971807, -42.883616088046203 ], [ -73.465179127478095, -42.883392971979497 ], [ -73.465112652976103, -42.883145447978102 ], [ -73.465033913494494, -42.882862671156602 ], [ -73.465032274595799, -42.882705516060099 ], [ -73.465053106984499, -42.8825903607623 ], [ -73.465101464475595, -42.882452690380497 ], [ -73.465005607967399, -42.882277525671299 ], [ -73.465016384921199, -42.882272948628099 ], [ -73.465014782641504, -42.882270021265299 ], [ -73.464872055949897, -42.882330639139703 ], [ -73.464586544971596, -42.882481148854303 ], [ -73.464464690559595, -42.882543081710899 ], [ -73.464449313934196, -42.882706856428797 ], [ -73.464411160590799, -42.882851274608498 ], [ -73.464439385494501, -42.883107439468098 ], [ -73.464457829305701, -42.8832282067766 ], [ -73.464615119569501, -42.883522207306697 ], [ -73.464744791831507, -42.883702944723197 ], [ -73.464735194477299, -42.8838391003639 ], [ -73.464688894991099, -42.8840052754677 ], [ -73.464733414614699, -42.8842179255494 ], [ -73.464822267119999, -42.884371673533202 ], [ -73.465023379851104, -42.884599643626601 ], [ -73.465222856631499, -42.884670457267099 ], [ -73.465277488769004, -42.884754078987299 ], [ -73.465400471801104, -42.8848421743809 ], [ -73.465552525165293, -42.884929134375703 ], [ -73.465597983016707, -42.885020260371299 ], [ -73.465755703935301, -42.885185607681898 ], [ -73.466081772980701, -42.885394399195199 ] ] ] } },
{ "type": "Feature", "properties": { "id": "monoparte.15", "Name": null, "description": null, "timestamp": null, "begin": null, "end": null, "altitudeMode": null, "tessellate": -1, "extrude": 0, "visibility": -1, "drawOrder": null, "icon": null, "REG": "Los Lagos", "COM": "Queilen", "LOC": "Queilen", "ZONA": "ZRP", "NOM": "ZRP Zona de restricción de pendientes", "UPERM": "No se autoriza construcción alguna.", "UPROH": "Todo uso no indicado como permitido", "P_DO": "06/06/1997", "N_DOC": "683", "T_DO": "Decreto", "OBS": null }, "geometry": { "type": "Polygon", "coordinates": [ [ [ -73.469667059878802, -42.885310784297403 ], [ -73.469671183985398, -42.8853677935249 ], [ -73.470097055675794, -42.885343986018 ], [ -73.470390153665704, -42.8857684455011 ], [ -73.470401800859406, -42.885660794551299 ], [ -73.470472622938203, -42.885565120937002 ], [ -73.470706123065099, -42.885434496733197 ], [ -73.470824881085903, -42.885329801351503 ], [ -73.470924258814193, -42.885225864212003 ], [ -73.471041875480594, -42.8851880731061 ], [ -73.471076213675701, -42.885177040107202 ], [ -73.471166930958901, -42.885087734296803 ], [ -73.471162805515405, -42.8850307251831 ], [ -73.470955695457903, -42.884988805084703 ], [ -73.470509414473895, -42.884999120805801 ], [ -73.470134881817998, -42.884792238141898 ], [ -73.470046531371196, -42.884645622426 ], [ -73.470046425878394, -42.884509846018901 ], [ -73.470199717392404, -42.884210849137403 ], [ -73.470354037437104, -42.883926104451199 ], [ -73.470410011159402, -42.883759548620802 ], [ -73.4704940262164, -42.883577602960997 ], [ -73.470420931679598, -42.883373219139699 ], [ -73.470339695889507, -42.883190592306804 ], [ -73.470310520019694, -42.883055954173301 ], [ -73.470261448254405, -42.882914946779202 ], [ -73.470163925273795, -42.882775835862802 ], [ -73.469991250212999, -42.882403835944302 ], [ -73.4699411488305, -42.882248576035998 ], [ -73.469991557075005, -42.882139409597499 ], [ -73.470040808618407, -42.8820837109132 ], [ -73.4699568170183, -42.882062158710497 ], [ -73.469817135478806, -42.882146233207898 ], [ -73.469798375245205, -42.882289893549 ], [ -73.469873011374006, -42.882515656011101 ], [ -73.470003831090494, -42.882846416567901 ], [ -73.470021873980897, -42.883095832373101 ], [ -73.470035277395596, -42.883281112341102 ], [ -73.470029815902706, -42.883474277121202 ], [ -73.469983531044704, -42.883640453723203 ], [ -73.469912194596603, -42.883729000388797 ], [ -73.469770036638494, -42.883913220214303 ], [ -73.469588600754307, -42.884091829605197 ], [ -73.469418296040004, -42.884155662156701 ], [ -73.469135830618399, -42.884281053123402 ], [ -73.469036966527, -42.884392114496698 ], [ -73.468957483095593, -42.884502418646399 ], [ -73.469414483272502, -42.884505982370797 ], [ -73.469502832095799, -42.884652599553299 ], [ -73.469522831668002, -42.8847947436171 ], [ -73.469549429548096, -42.8848937516372 ], [ -73.469612316832098, -42.885091389432397 ], [ -73.469648606201204, -42.885190018303099 ], [ -73.469667059878802, -42.885310784297403 ] ] ] } },
{ "type": "Feature", "properties": { "id": "monoparte.16", "Name": null, "description": null, "timestamp": null, "begin": null, "end": null, "altitudeMode": null, "tessellate": -1, "extrude": 0, "visibility": -1, "drawOrder": null, "icon": null, "REG": "Los Lagos", "COM": "Queilen", "LOC": "Queilen", "ZONA": "ZRQ", "NOM": "ZRQ Zona de protección de quebradas naturales.", "UPERM": "No se autoriza construcción alguna.", "UPROH": "Todo uso no indicado como permitido", "P_DO": "06/06/1997", "N_DOC": "683", "T_DO": "Decreto", "OBS": null }, "geometry": { "type": "Polygon", "coordinates": [ [ [ -73.476300716087195, -42.888898382746603 ], [ -73.476216077541594, -42.888937429821603 ], [ -73.475936983026202, -42.888841168541703 ], [ -73.475726758651604, -42.888756502259 ], [ -73.475690974608895, -42.888665001493003 ], [ -73.475709721738298, -42.888521340828397 ], [ -73.475760639996693, -42.888419297796602 ], [ -73.475847740581997, -42.888280105313299 ], [ -73.475927215595206, -42.888169796752599 ], [ -73.475976584346498, -42.888046374934298 ], [ -73.476026985502799, -42.887937205278199 ], [ -73.475990169092597, -42.887831453316302 ], [ -73.475964075591506, -42.887739572998498 ], [ -73.475900251241001, -42.887663463399299 ], [ -73.475805595164104, -42.887504592926703 ], [ -73.475569399844304, -42.887463820681397 ], [ -73.4752587764998, -42.887468842024802 ], [ -73.474844997280499, -42.887928121010198 ], [ -73.474694905758199, -42.888072281734502 ], [ -73.474208949695196, -42.888539029021203 ], [ -73.474538560824698, -42.888661901471899 ], [ -73.474809510629598, -42.888779923685703 ], [ -73.4750743831801, -42.888948207929303 ], [ -73.475345335206597, -42.889066228763397 ], [ -73.475420917192693, -42.889170463366497 ], [ -73.475617320834502, -42.889198501984502 ], [ -73.475865794877194, -42.889274524192203 ], [ -73.475983240440797, -42.889419996304802 ], [ -73.476176150499398, -42.889533925675003 ], [ -73.476430821787204, -42.889695460501898 ], [ -73.4766031691954, -42.889451091971303 ], [ -73.476706157628698, -42.889397032999703 ], [ -73.476832933190195, -42.889134797457402 ], [ -73.477118534239807, -42.888516168448099 ], [ -73.477129136965104, -42.888394266099901 ], [ -73.477143750445094, -42.888193595788501 ], [ -73.477166109065905, -42.888099817126403 ], [ -73.477172580299595, -42.887920906159103 ], [ -73.477194423575995, -42.887820000921003 ], [ -73.477199861857798, -42.887626836898903 ], [ -73.477161493200498, -42.887499706760003 ], [ -73.477114983709995, -42.887394334098197 ], [ -73.477005074615306, -42.887293232841103 ], [ -73.476955588445506, -42.887280879281299 ], [ -73.476860744726693, -42.887313180837701 ], [ -73.476787349223699, -42.887373227182302 ], [ -73.476793241489901, -42.887514136348997 ], [ -73.476836255642993, -42.887705401868303 ], [ -73.476874623802701, -42.887832532137899 ], [ -73.476772670845307, -42.887900844206698 ], [ -73.476702889226601, -42.888010773545801 ], [ -73.476646928632206, -42.888177331829802 ], [ -73.476593550783093, -42.888379520010801 ], [ -73.476550775289496, -42.888459805879798 ], [ -73.476480476327197, -42.888562608590398 ], [ -73.476431624595193, -42.888693156226402 ], [ -73.476400605754307, -42.888801566675603 ], [ -73.476300716087195, -42.888898382746603 ] ] ] } },
{ "type": "Feature", "properties": { "id": "monoparte.17", "Name": null, "description": null, "timestamp": null, "begin": null, "end": null, "altitudeMode": null, "tessellate": -1, "extrude": 0, "visibility": -1, "drawOrder": null, "icon": null, "REG": "Los Lagos", "COM": "Queilen", "LOC": "Queilen", "ZONA": "ZRQ", "NOM": "ZRQ Zona de protección de quebradas naturales.", "UPERM": "No se autoriza construcción alguna.", "UPROH": "Todo uso no indicado como permitido", "P_DO": "06/06/1997", "N_DOC": "683", "T_DO": "Decreto", "OBS": null }, "geometry": { "type": "Polygon", "coordinates": [ [ [ -73.475808534269405, -42.885816157581701 ], [ -73.475956593579298, -42.885981869037998 ], [ -73.476101554876195, -42.8861048237722 ], [ -73.476221972699904, -42.8861572776161 ], [ -73.476477028191994, -42.886190162841999 ], [ -73.476633110988502, -42.886198340116401 ], [ -73.476855479747897, -42.886182480529399 ], [ -73.477090120315395, -42.886201871661697 ], [ -73.477194256129593, -42.886297839462998 ], [ -73.477170348821204, -42.886370240331502 ], [ -73.477158197034996, -42.886470764906001 ], [ -73.477332749729399, -42.886599705250902 ], [ -73.477429657818504, -42.886595907665203 ], [ -73.477567172209007, -42.886458460198902 ], [ -73.477451551352701, -42.886346714500199 ], [ -73.477284896629001, -42.885924465499301 ], [ -73.477193945843098, -42.885742225336003 ], [ -73.477008618717804, -42.885747700230098 ], [ -73.476685851923094, -42.885853249656698 ], [ -73.476430917549905, -42.8859561405813 ], [ -73.476245246648006, -42.8859419754505 ], [ -73.476027288266195, -42.885750417466198 ], [ -73.475791155988205, -42.885561357229903 ], [ -73.475684044342501, -42.885558406343598 ], [ -73.475648895627799, -42.885609807861101 ], [ -73.475808534269405, -42.885816157581701 ] ] ] } },
{ "type": "Feature", "properties": { "id": "monoparte.18", "Name": null, "description": null, "timestamp": null, "begin": null, "end": null, "altitudeMode": null, "tessellate": -1, "extrude": 0, "visibility": -1, "drawOrder": null, "icon": null, "REG": "Los Lagos", "COM": "Queilen", "LOC": "Queilen", "ZONA": "ZRQ", "NOM": "ZRQ Zona de protección de quebradas naturales.", "UPERM": "No se autoriza construcción alguna.", "UPROH": "Todo uso no indicado como permitido", "P_DO": "06/06/1997", "N_DOC": "683", "T_DO": "Decreto", "OBS": null }, "geometry": { "type": "Polygon", "coordinates": [ [ [ -73.467652779092703, -42.8867193697522 ], [ -73.467828761321101, -42.886733927768603 ], [ -73.468033234715904, -42.8865535442363 ], [ -73.468195094163704, -42.886440019292998 ], [ -73.468687109243007, -42.886188521480697 ], [ -73.4689535202873, -42.886064951556698 ], [ -73.469112368660603, -42.885909856302703 ], [ -73.469223622650901, -42.885768532912699 ], [ -73.469271617901498, -42.885701039934503 ], [ -73.469341233945698, -42.885603139971401 ], [ -73.469441919357294, -42.885539648623102 ], [ -73.469404033215596, -42.885463711788503 ], [ -73.469205151711506, -42.885513178113101 ], [ -73.4688792094571, -42.885597391160402 ], [ -73.468541408988798, -42.885741618973199 ], [ -73.468297078059095, -42.8858345480213 ], [ -73.468134123936096, -42.885890232288403 ], [ -73.468122582379095, -42.885894518113403 ], [ -73.468124949225796, -42.885897737846904 ], [ -73.467972043813901, -42.885954518953298 ], [ -73.467905392660697, -42.886042103282897 ], [ -73.467899206492504, -42.886045680887797 ], [ -73.467896217900005, -42.886049608825203 ], [ -73.467728310763803, -42.886146694924697 ], [ -73.4676325591997, -42.886220396891702 ], [ -73.467557233578603, -42.886334438604301 ], [ -73.467616293198205, -42.886349186827402 ], [ -73.467742373441098, -42.886480037359 ], [ -73.467591443039396, -42.8865431096253 ], [ -73.467652779092703, -42.8867193697522 ] ] ] } },
{ "type": "Feature", "properties": { "id": "monoparte.19", "Name": null, "description": null, "timestamp": null, "begin": null, "end": null, "altitudeMode": null, "tessellate": -1, "extrude": 0, "visibility": -1, "drawOrder": null, "icon": null, "REG": "Los Lagos", "COM": "Queilen", "LOC": "Queilen", "ZONA": "ZRQ", "NOM": "ZRQ Zona de protección de quebradas naturales.", "UPERM": "No se autoriza construcción alguna.", "UPROH": "Todo uso no indicado como permitido", "P_DO": "06/06/1997", "N_DOC": "683", "T_DO": "Decreto", "OBS": null }, "geometry": { "type": "Polygon", "coordinates": [ [ [ -73.473209168898094, -42.885448497851499 ], [ -73.473157109209097, -42.885456490753597 ], [ -73.473024676495598, -42.885417011304803 ], [ -73.472964109730299, -42.885419382423002 ], [ -73.472844819791803, -42.885337700562403 ], [ -73.472125237596302, -42.886137077189098 ], [ -73.472081081952695, -42.886198358288297 ], [ -73.471996979199702, -42.886267157653201 ], [ -73.472190930533699, -42.886429291589799 ], [ -73.472014432321402, -42.886564238531001 ], [ -73.471555738643502, -42.887275980339297 ], [ -73.472019814686305, -42.887701485734901 ], [ -73.4721421175107, -42.887824737272098 ], [ -73.472277609373293, -42.887962360166703 ], [ -73.472500815280895, -42.888025086216302 ], [ -73.472505644888201, -42.887823311156303 ], [ -73.472807140090794, -42.887334193356097 ], [ -73.472795839456396, -42.887289971602499 ], [ -73.472862240916001, -42.8871444449085 ], [ -73.472903170680397, -42.887038625654597 ], [ -73.472939849050704, -42.886929994551998 ], [ -73.472918107590701, -42.886853426885601 ], [ -73.472829705833703, -42.886862843269299 ], [ -73.472784690630306, -42.886912247908597 ], [ -73.472665106673603, -42.886994348026498 ], [ -73.472567170344107, -42.887039868584402 ], [ -73.472475327890706, -42.887001776965903 ], [ -73.472429360873505, -42.8869261574959 ], [ -73.472364663636398, -42.886815540035698 ], [ -73.472373291871193, -42.886710984453799 ], [ -73.472362376459898, -42.886616127786702 ], [ -73.472416495057502, -42.886524680193702 ], [ -73.472484017879097, -42.886450572993802 ], [ -73.472562409775705, -42.886414750591598 ], [ -73.472700078370195, -42.886358741666697 ], [ -73.472750420444498, -42.886326994550103 ], [ -73.472849814679904, -42.886245684729197 ], [ -73.473567305201001, -42.885753083348398 ], [ -73.473586016366994, -42.885508183919001 ], [ -73.473634805015706, -42.8853990793272 ], [ -73.473713913662095, -42.8852054130829 ], [ -73.473734867855697, -42.885103352145997 ], [ -73.473725502038306, -42.885085853748897 ], [ -73.473662834365399, -42.885115105626099 ], [ -73.473302421202803, -42.885394227131698 ], [ -73.473209168898094, -42.885448497851499 ] ] ] } },
{ "type": "Feature", "properties": { "id": "monoparte.20", "Name": null, "description": null, "timestamp": null, "begin": null, "end": null, "altitudeMode": null, "tessellate": -1, "extrude": 0, "visibility": -1, "drawOrder": null, "icon": null, "REG": "Los Lagos", "COM": "Queilen", "LOC": "Queilen", "ZONA": "ZRQ", "NOM": "ZRQ Zona de protección de quebradas naturales.", "UPERM": "No se autoriza construcción alguna.", "UPROH": "Todo uso no indicado como permitido", "P_DO": "06/06/1997", "N_DOC": "683", "T_DO": "Decreto", "OBS": null }, "geometry": { "type": "Polygon", "coordinates": [ [ [ -73.476195800495503, -42.884074551681898 ], [ -73.476621801839201, -42.884149572926901 ], [ -73.4766379660296, -42.883970281258101 ], [ -73.476641857895501, -42.883755739295196 ], [ -73.476371869299797, -42.883710337022798 ], [ -73.476216718456101, -42.883692594716997 ], [ -73.475993525419696, -42.883629875364001 ], [ -73.475834504581201, -42.883558686092101 ], [ -73.475570506166406, -42.883491608750496 ], [ -73.475472743674601, -42.883483527812999 ], [ -73.475463045359405, -42.883573236885901 ], [ -73.475532475609896, -42.883749175627202 ], [ -73.475595454159503, -42.883836037861897 ], [ -73.475747261265397, -42.883919420424299 ], [ -73.475817884649402, -42.884000027422601 ], [ -73.475957746314506, -42.884030280496098 ], [ -73.476195800495503, -42.884074551681898 ] ] ] } },
{ "type": "Feature", "properties": { "id": "monoparte.21", "Name": null, "description": null, "timestamp": null, "begin": null, "end": null, "altitudeMode": null, "tessellate": -1, "extrude": 0, "visibility": -1, "drawOrder": null, "icon": null, "REG": "Los Lagos", "COM": "Queilen", "LOC": "Queilen", "ZONA": "ZRQ", "NOM": "ZRQ Zona de protección de quebradas naturales.", "UPERM": "No se autoriza construcción alguna.", "UPROH": "Todo uso no indicado como permitido", "P_DO": "06/06/1997", "N_DOC": "683", "T_DO": "Decreto", "OBS": null }, "geometry": { "type": "Polygon", "coordinates": [ [ [ -73.476052376716396, -42.8828772052535 ], [ -73.476686959267795, -42.883036956516499 ], [ -73.476682484830306, -42.882975196788401 ], [ -73.476675256957805, -42.882875431554901 ], [ -73.476748229821297, -42.882737784982503 ], [ -73.476473808479497, -42.882705659009602 ], [ -73.476305205768199, -42.882658666544998 ], [ -73.476079494064294, -42.882628204660399 ], [ -73.475880529358605, -42.882564535892897 ], [ -73.475748623051999, -42.882487519781002 ], [ -73.475579504148499, -42.882433401486701 ], [ -73.475403475648605, -42.882350967415597 ], [ -73.475285330981293, -42.8822626924673 ], [ -73.475117961811307, -42.882165626137699 ], [ -73.475185705252102, -42.882315626247397 ], [ -73.475346970047298, -42.882529654912702 ], [ -73.475430828110703, -42.882681207852698 ], [ -73.475518030891806, -42.882767121278697 ], [ -73.475689328028494, -42.882784232068502 ], [ -73.4758309074072, -42.8828382387875 ], [ -73.476052376716396, -42.8828772052535 ] ] ] } },
{ "type": "Feature", "properties": { "id": "monoparte.22", "Name": null, "description": null, "timestamp": null, "begin": null, "end": null, "altitudeMode": null, "tessellate": -1, "extrude": 0, "visibility": -1, "drawOrder": null, "icon": null, "REG": "Los Lagos", "COM": "Queilen", "LOC": "Queilen", "ZONA": "ZPL-3", "NOM": "Zona ZPL-3", "UPERM": "Secado de algas, patio de construcción de embarcaciones, paseos, deportes, actividades de playa, vialidad y áreas verdes. Mayor detalle en ordenanza.", "UPROH": "Todo uso no indicado como permitido", "P_DO": "06/06/1997", "N_DOC": "683", "T_DO": "Decreto", "OBS": null }, "geometry": { "type": "Polygon", "coordinates": [ [ [ -73.469766763023301, -42.889745344449999 ], [ -73.469639199674603, -42.889090168930501 ], [ -73.469534776971102, -42.888553835533401 ], [ -73.469552096934393, -42.888524572722602 ], [ -73.469256533098203, -42.887923084284502 ], [ -73.469255793594002, -42.887921578159201 ], [ -73.469211977572897, -42.8879876093904 ], [ -73.468439379550503, -42.887517584304497 ], [ -73.468218345823502, -42.887283252714802 ], [ -73.468058037213794, -42.8870822789575 ], [ -73.467935561141402, -42.887001311647097 ], [ -73.467828761321101, -42.886733927768603 ], [ -73.467652779092703, -42.8867193697522 ], [ -73.467591443039396, -42.8865431096253 ], [ -73.467742373441098, -42.886480037359 ], [ -73.467616293198205, -42.886349186827402 ], [ -73.467557233578603, -42.886334438604301 ], [ -73.467553612693294, -42.8863335340086 ], [ -73.467548058667802, -42.886341943224302 ], [ -73.467260725600696, -42.886270187828202 ], [ -73.466929594710805, -42.886125914100802 ], [ -73.466778873750698, -42.886006428307198 ], [ -73.4667749605388, -42.886003325719699 ], [ -73.466639584033302, -42.885851398996699 ], [ -73.4664569086776, -42.885744198128201 ], [ -73.466390439188999, -42.885686517098101 ], [ -73.466259906617296, -42.885573241437697 ], [ -73.466266012348001, -42.885562927239697 ], [ -73.466081772980701, -42.885394399195199 ], [ -73.465755703935301, -42.885185607681898 ], [ -73.465597983016707, -42.885020260371299 ], [ -73.465552525165293, -42.884929134375703 ], [ -73.465400471801104, -42.8848421743809 ], [ -73.465277488769004, -42.884754078987299 ], [ -73.465222856631499, -42.884670457267099 ], [ -73.465023379851104, -42.884599643626601 ], [ -73.464822267119999, -42.884371673533202 ], [ -73.464733414614699, -42.8842179255494 ], [ -73.464688894991099, -42.8840052754677 ], [ -73.464735194477299, -42.8838391003639 ], [ -73.464744791831507, -42.883702944723197 ], [ -73.464615119569501, -42.883522207306697 ], [ -73.464457829305701, -42.8832282067766 ], [ -73.464439385494501, -42.883107439468098 ], [ -73.464411160590799, -42.882851274608498 ], [ -73.464449313934196, -42.882706856428797 ], [ -73.464464690559595, -42.882543081710899 ], [ -73.4642673733197, -42.882636547337697 ], [ -73.463410569995006, -42.883084508817497 ], [ -73.462286581906994, -42.883667959483503 ], [ -73.461970957055499, -42.883805347023397 ], [ -73.461967699724596, -42.883894803531803 ], [ -73.461977175431002, -42.883958749974298 ], [ -73.461998401973602, -42.884050823726803 ], [ -73.462038751058699, -42.884138577305997 ], [ -73.462063792884607, -42.884216209395902 ], [ -73.462150322992102, -42.884337890611398 ], [ -73.462208509659604, -42.884403508078101 ], [ -73.4622253622871, -42.884435008606602 ], [ -73.462254476909393, -42.884501762327702 ], [ -73.462321627894596, -42.884624200243501 ], [ -73.462422694785801, -42.884745314407297 ], [ -73.462555363977501, -42.884833034600298 ], [ -73.462643396122203, -42.884908206319999 ], [ -73.462691120604802, -42.884963512897798 ], [ -73.462779925161797, -42.885049373602499 ], [ -73.462892184822095, -42.8851235988189 ], [ -73.463121504754398, -42.885203970630798 ], [ -73.463410982267604, -42.885242686499801 ], [ -73.463592577638906, -42.885267751089998 ], [ -73.463794068107504, -42.885299184904497 ], [ -73.464090966379302, -42.885373341193599 ], [ -73.464180500009803, -42.885402001709998 ], [ -73.464469511289906, -42.885501477067898 ], [ -73.464682800217105, -42.885628923429799 ], [ -73.464842228650795, -42.885683437496603 ], [ -73.464983305881006, -42.885752961122698 ], [ -73.465117992725297, -42.885801294886399 ], [ -73.465234329554406, -42.885864638267599 ], [ -73.4653086018523, -42.8859510648929 ], [ -73.465401016693406, -42.886086807129203 ], [ -73.465567610353105, -42.886173198810397 ], [ -73.465821889611206, -42.886195419043702 ], [ -73.465885652586806, -42.8862036460525 ], [ -73.466074155210293, -42.886257021964497 ], [ -73.466131318836602, -42.886308384723698 ], [ -73.466192344875296, -42.886413194565698 ], [ -73.466245435731594, -42.886475435724499 ], [ -73.466333217052096, -42.8865470409567 ], [ -73.466463772738507, -42.886591962110003 ], [ -73.466694390343207, -42.886690141949501 ], [ -73.466912791129602, -42.886820956710501 ], [ -73.467101089156301, -42.886938656240702 ], [ -73.467209283190897, -42.887023755344799 ], [ -73.467366498561503, -42.887181974236597 ], [ -73.4674706217763, -42.887277951508999 ], [ -73.467662995005298, -42.887384770591801 ], [ -73.467914029985707, -42.887496442198099 ], [ -73.468000783964001, -42.887553793650802 ], [ -73.468185786597104, -42.887693058729702 ], [ -73.468313211224398, -42.887909611855498 ], [ -73.468378830779102, -42.888010667452598 ], [ -73.468425326200702, -42.888116044320803 ], [ -73.468786636457907, -42.888623595041501 ], [ -73.468865505295597, -42.888706266111797 ], [ -73.468844937946997, -42.888824985046497 ], [ -73.4688814853438, -42.888927177423 ], [ -73.4689440666358, -42.889053364301198 ], [ -73.469023245447303, -42.889207486317602 ], [ -73.469053917691099, -42.889295615797998 ], [ -73.469076238487204, -42.889469827756599 ], [ -73.469103097301499, -42.889572399019201 ], [ -73.469111861276204, -42.889693544078398 ], [ -73.469194392479395, -42.8898939861255 ], [ -73.469319972170396, -42.890353585918099 ], [ -73.469345026134704, -42.8904312149253 ], [ -73.469442301908103, -42.890566763594499 ], [ -73.469475553481502, -42.890690523184503 ], [ -73.469515198054694, -42.890835472079502 ], [ -73.4695273667609, -42.891070824979799 ], [ -73.469557267470805, -42.891148265233802 ], [ -73.469615778864593, -42.891285330162802 ], [ -73.469699862307806, -42.891507149575901 ], [ -73.469749615506501, -42.891858946559999 ], [ -73.469727759057605, -42.891959850938697 ], [ -73.469745701567106, -42.892073490081103 ], [ -73.469784831023503, -42.8922113122441 ], [ -73.469843549300805, -42.892284051643898 ], [ -73.469923662303401, -42.892316649483199 ], [ -73.470094813483996, -42.892331392889901 ], [ -73.470273905062299, -42.892388702363 ], [ -73.470389486161494, -42.892441350653897 ], [ -73.4705594564618, -42.892574054000498 ], [ -73.4705778618235, -42.892626930975901 ], [ -73.470777511183201, -42.892903461647698 ], [ -73.470863583976893, -42.893054753803099 ], [ -73.470947139827004, -42.893456619693197 ], [ -73.471037888032697, -42.894238030571998 ], [ -73.471063400530696, -42.894433819425402 ], [ -73.471069903910603, -42.894590783851598 ], [ -73.471062954294297, -42.894830458020799 ], [ -73.471055122454203, -42.894923666139597 ], [ -73.471005847667499, -42.895182862602901 ], [ -73.470972549669895, -42.895327091911298 ], [ -73.470923681991195, -42.895457638749001 ], [ -73.470906157154602, -42.895551226157501 ], [ -73.470899872696194, -42.895665814004602 ], [ -73.471022791165296, -42.895954003289297 ], [ -73.471131633016199, -42.896181999405002 ], [ -73.471250114124402, -42.896341728426599 ], [ -73.471524243722996, -42.896570402328599 ], [ -73.471857436588806, -42.896782470310697 ], [ -73.472155230066505, -42.896935179946098 ], [ -73.472434413023507, -42.897099336545701 ], [ -73.472550577067807, -42.8972269962428 ], [ -73.472744797184703, -42.897358746883498 ], [ -73.473071212859594, -42.897571077459197 ], [ -73.473305495417094, -42.897719123750299 ], [ -73.473485896076596, -42.8977942427804 ], [ -73.473656863449193, -42.897873305170997 ], [ -73.4739221751082, -42.897912940083998 ], [ -73.474094892320096, -42.897949054524602 ], [ -73.474215848811397, -42.898008635085603 ], [ -73.474683584862802, -42.898279743008203 ], [ -73.4747708770754, -42.898344214804098 ], [ -73.474880852120293, -42.898386358742897 ], [ -73.475126840474104, -42.898494638272297 ], [ -73.475338588444501, -42.898532795392498 ], [ -73.475571786257504, -42.898598696207003 ], [ -73.475789672559301, -42.898654478026003 ], [ -73.476048910821305, -42.898744370483598 ], [ -73.476309760944403, -42.898923528278303 ], [ -73.476395848351501, -42.898998170136601 ], [ -73.476740802463894, -42.898857364929903 ], [ -73.476779875545802, -42.898832839688403 ], [ -73.476591216408707, -42.898850566637101 ], [ -73.476427413855504, -42.898803386596903 ], [ -73.476251078802093, -42.898717393753898 ], [ -73.476053033552702, -42.898600091659802 ], [ -73.475898607192207, -42.898481081327297 ], [ -73.475686024836193, -42.898364348082602 ], [ -73.475560736209601, -42.898312085560399 ], [ -73.4750388467628, -42.898060647849903 ], [ -73.474513111205795, -42.897735833496597 ], [ -73.473910912484399, -42.897473562688504 ], [ -73.473101106134195, -42.897028848254898 ], [ -73.472521579978505, -42.896408366718397 ], [ -73.472120430132506, -42.895566509940103 ], [ -73.471797479624598, -42.894685859878301 ], [ -73.471577476831996, -42.8938845523721 ], [ -73.471307980397398, -42.892846971087103 ], [ -73.471016404531497, -42.8923870226349 ], [ -73.4700467009379, -42.890927829941099 ], [ -73.469829563327394, -42.890478959697496 ], [ -73.469766763023301, -42.889745344449999 ] ] ] } },
{ "type": "Feature", "properties": { "id": "monoparte.23", "Name": null, "description": null, "timestamp": null, "begin": null, "end": null, "altitudeMode": null, "tessellate": -1, "extrude": 0, "visibility": -1, "drawOrder": null, "icon": null, "REG": "Los Lagos", "COM": "Queilen", "LOC": "Queilen", "ZONA": "ZD", "NOM": "Zona ZD", "UPERM": "Equipamientos, vialidad y áreas verdes. Mayor detalle en ordenanza.", "UPROH": "Todo uso no indicado como permitido", "P_DO": "06/06/1997", "N_DOC": "683", "T_DO": "Decreto", "OBS": null }, "geometry": { "type": "Polygon", "coordinates": [ [ [ -73.471162805515405, -42.8850307251831 ], [ -73.471166930958901, -42.885087734296803 ], [ -73.471076213675701, -42.885177040107202 ], [ -73.471041875480594, -42.8851880731061 ], [ -73.470827457368898, -42.885467059325599 ], [ -73.471620599216195, -42.886019637849103 ], [ -73.471803667388698, -42.885863590989601 ], [ -73.472062671191296, -42.885525914186303 ], [ -73.472204929513097, -42.885365508367499 ], [ -73.472497949883902, -42.885050319871603 ], [ -73.471497683878198, -42.884321239443103 ], [ -73.471406026070895, -42.8845094396615 ], [ -73.471319524731996, -42.884768902106501 ], [ -73.471255441217593, -42.884890515556698 ], [ -73.471162805515405, -42.8850307251831 ] ] ] } },
{ "type": "Feature", "properties": { "id": "monoparte.24", "Name": null, "description": null, "timestamp": null, "begin": null, "end": null, "altitudeMode": null, "tessellate": -1, "extrude": 0, "visibility": -1, "drawOrder": null, "icon": null, "REG": "Los Lagos", "COM": "Queilen", "LOC": "Queilen", "ZONA": "ZEH-3", "NOM": "Zona ZEH-3", "UPERM": "Vivienda, equipamiento, vialidad y áreas verdes. Mayor detalle en ordenanza", "UPROH": "Todo uso no indicado como permitido", "P_DO": "06/06/1997", "N_DOC": "683", "T_DO": "Decreto", "OBS": null }, "geometry": { "type": "Polygon", "coordinates": [ [ [ -73.465016384921199, -42.882272948628099 ], [ -73.465005607967399, -42.882277525671299 ], [ -73.465101464475595, -42.882452690380497 ], [ -73.465053106984499, -42.8825903607623 ], [ -73.465032274595799, -42.882705516060099 ], [ -73.465033913494494, -42.882862671156602 ], [ -73.465112652976103, -42.883145447978102 ], [ -73.465179127478095, -42.883392971979497 ], [ -73.465321581971807, -42.883616088046203 ], [ -73.465425275829901, -42.883840717880503 ], [ -73.465415679985796, -42.883976873509297 ], [ -73.465392883204601, -42.8841993009394 ], [ -73.465484827299306, -42.8843958046116 ], [ -73.465762952925701, -42.884613617605801 ], [ -73.466293034971002, -42.884821580335903 ], [ -73.466368081274595, -42.884918696177699 ], [ -73.466403849035103, -42.885010199734303 ], [ -73.466434048085404, -42.885159092446202 ], [ -73.466381153324207, -42.885368403953102 ], [ -73.466266012348001, -42.885562927239697 ], [ -73.466259906617296, -42.885573241437697 ], [ -73.466390439188999, -42.885686517098101 ], [ -73.4664413918035, -42.885639076948401 ], [ -73.466579400887596, -42.885576511337497 ], [ -73.466785384215299, -42.885468410244599 ], [ -73.466957345286005, -42.885337817240099 ], [ -73.467130680789694, -42.885226227400999 ], [ -73.4672887563692, -42.885172404519501 ], [ -73.467314532858296, -42.885080877213298 ], [ -73.467395703384298, -42.884949068813 ], [ -73.467558177737402, -42.884866488284203 ], [ -73.467754327116893, -42.884801647903402 ], [ -73.467896955638906, -42.884708550155402 ], [ -73.468030784896897, -42.884637905583503 ], [ -73.468166453155305, -42.884632600176801 ], [ -73.468311294732501, -42.8846197899909 ], [ -73.468474487652003, -42.884591968376299 ], [ -73.468552011573394, -42.884588936464297 ], [ -73.468794274360803, -42.884579461378401 ], [ -73.468957483095593, -42.884502418646399 ], [ -73.469036966527, -42.884392114496698 ], [ -73.469135830618399, -42.884281053123402 ], [ -73.469418296040004, -42.884155662156701 ], [ -73.469588600754307, -42.884091829605197 ], [ -73.469770036638494, -42.883913220214303 ], [ -73.469912194596603, -42.883729000388797 ], [ -73.469983531044704, -42.883640453723203 ], [ -73.470029815902706, -42.883474277121202 ], [ -73.470035277395596, -42.883281112341102 ], [ -73.470021873980897, -42.883095832373101 ], [ -73.470003831090494, -42.882846416567901 ], [ -73.469873011374006, -42.882515656011101 ], [ -73.469798375245205, -42.882289893549 ], [ -73.469817135478806, -42.882146233207898 ], [ -73.4699568170183, -42.882062158710497 ], [ -73.470040808618407, -42.8820837109132 ], [ -73.469991557075005, -42.882139409597499 ], [ -73.4699411488305, -42.882248576035998 ], [ -73.469991250212999, -42.882403835944302 ], [ -73.470163925273795, -42.882775835862802 ], [ -73.470261448254405, -42.882914946779202 ], [ -73.470310520019694, -42.883055954173301 ], [ -73.470339695889507, -42.883190592306804 ], [ -73.470420931679598, -42.883373219139699 ], [ -73.4704940262164, -42.883577602960997 ], [ -73.470410011159402, -42.883759548620802 ], [ -73.470354037437104, -42.883926104451199 ], [ -73.470199717392404, -42.884210849137403 ], [ -73.470046425878394, -42.884509846018901 ], [ -73.470046531371196, -42.884645622426 ], [ -73.470134881817998, -42.884792238141898 ], [ -73.470509414473895, -42.884999120805801 ], [ -73.470955695457903, -42.884988805084703 ], [ -73.471162805515405, -42.8850307251831 ], [ -73.471255441217593, -42.884890515556698 ], [ -73.471319524731996, -42.884768902106501 ], [ -73.471406026070895, -42.8845094396615 ], [ -73.471497683878198, -42.884321239443103 ], [ -73.472497949883902, -42.885050319871603 ], [ -73.472844819791803, -42.885337700562403 ], [ -73.472964109730299, -42.885419382423002 ], [ -73.473024676495598, -42.885417011304803 ], [ -73.473157109209097, -42.885456490753597 ], [ -73.473209168898094, -42.885448497851499 ], [ -73.473302421202803, -42.885394227131698 ], [ -73.473662834365399, -42.885115105626099 ], [ -73.473725502038306, -42.885085853748897 ], [ -73.473734867855697, -42.885103352145997 ], [ -73.473713913662095, -42.8852054130829 ], [ -73.473634805015706, -42.8853990793272 ], [ -73.473586016366994, -42.885508183919001 ], [ -73.473567305201001, -42.885753083348398 ], [ -73.472849814679904, -42.886245684729197 ], [ -73.472750420444498, -42.886326994550103 ], [ -73.472700078370195, -42.886358741666697 ], [ -73.472562409775705, -42.886414750591598 ], [ -73.472484017879097, -42.886450572993802 ], [ -73.472416495057502, -42.886524680193702 ], [ -73.472362376459898, -42.886616127786702 ], [ -73.472373291871193, -42.886710984453799 ], [ -73.472364663636398, -42.886815540035698 ], [ -73.472429360873505, -42.8869261574959 ], [ -73.472475327890706, -42.887001776965903 ], [ -73.472567170344107, -42.887039868584402 ], [ -73.472665106673603, -42.886994348026498 ], [ -73.472784690630306, -42.886912247908597 ], [ -73.472829705833703, -42.886862843269299 ], [ -73.472918107590701, -42.886853426885601 ], [ -73.472939849050704, -42.886929994551998 ], [ -73.472903170680397, -42.887038625654597 ], [ -73.472862240916001, -42.8871444449085 ], [ -73.472795839456396, -42.887289971602499 ], [ -73.472807140090794, -42.887334193356097 ], [ -73.473665683701398, -42.886496618658903 ], [ -73.473841292353697, -42.886573116138599 ], [ -73.474098564584395, -42.886714901331402 ], [ -73.474208493795302, -42.886779082390397 ], [ -73.474309415095405, -42.886998452794003 ], [ -73.474399346987198, -42.8872897175196 ], [ -73.474465268579706, -42.887584899825001 ], [ -73.474499387018298, -42.887720535248 ], [ -73.474462162625898, -42.887933405129999 ], [ -73.474476426925193, -42.887962622900297 ], [ -73.474551260394705, -42.887989468628703 ], [ -73.474694905758199, -42.888072281734502 ], [ -73.474844997280499, -42.887928121010198 ], [ -73.4752587764998, -42.887468842024802 ], [ -73.475569399844304, -42.887463820681397 ], [ -73.475805595164104, -42.887504592926703 ], [ -73.476787349223699, -42.887373227182302 ], [ -73.476860744726693, -42.887313180837701 ], [ -73.476955588445506, -42.887280879281299 ], [ -73.477005074615306, -42.887293232841103 ], [ -73.477117749338007, -42.887238793062203 ], [ -73.477189596369996, -42.887157368693501 ], [ -73.477239478292802, -42.887041072093602 ], [ -73.477234314148205, -42.886969811317798 ], [ -73.477206670097104, -42.886856553557003 ], [ -73.477130571990102, -42.886745194485599 ], [ -73.477048915175104, -42.886691223690299 ], [ -73.476945295201702, -42.886602381412899 ], [ -73.476919200969803, -42.886510501340602 ], [ -73.476904862409398, -42.886446746794 ], [ -73.476793617212607, -42.886386788412402 ], [ -73.476575775636306, -42.886331006458697 ], [ -73.476272783183106, -42.886307146294897 ], [ -73.475975868339603, -42.886233022575198 ], [ -73.475779355742006, -42.8860692083394 ], [ -73.475708822685306, -42.885900459762802 ], [ -73.475630147451895, -42.885753468580901 ], [ -73.475648895627799, -42.885609807861101 ], [ -73.475684044342501, -42.885558406343598 ], [ -73.475791155988205, -42.885561357229903 ], [ -73.4759788906062, -42.885604026625501 ], [ -73.476236525109201, -42.885672543400403 ], [ -73.476324772076595, -42.885683378714297 ], [ -73.476439509827102, -42.8856574440507 ], [ -73.476559291859601, -42.8855669952504 ], [ -73.476447930176306, -42.885371261539497 ], [ -73.476366156314, -42.885181514377102 ], [ -73.4762547959605, -42.884985779511602 ], [ -73.476233350011796, -42.884958034444502 ], [ -73.476096931064603, -42.884684672115696 ], [ -73.475998875956506, -42.8845384403973 ], [ -73.4759717518657, -42.884432308693697 ], [ -73.475746691218305, -42.884276759475703 ], [ -73.4756832694694, -42.884072000246199 ], [ -73.475559759334502, -42.883976789927303 ], [ -73.475377075500603, -42.883869603764303 ], [ -73.475275926727406, -42.883680614672201 ], [ -73.475157463822796, -42.883520888907498 ], [ -73.475089516471101, -42.883387770649499 ], [ -73.474980743018506, -42.883227665183703 ], [ -73.474838371382603, -42.883140338655501 ], [ -73.474763831924307, -42.883050355376497 ], [ -73.474730116358003, -42.882987359404403 ], [ -73.474721343444102, -42.882866215133802 ], [ -73.474655978020493, -42.882768726621698 ], [ -73.474578857907503, -42.882643112241396 ], [ -73.474598124268596, -42.882506578129799 ], [ -73.474618937340097, -42.882391421044197 ], [ -73.474626448813297, -42.882226762007697 ], [ -73.474617160278399, -42.882098491145697 ], [ -73.474602927700801, -42.8819642610923 ], [ -73.474489427761597, -42.881940120719001 ], [ -73.474362684433501, -42.881934364872002 ], [ -73.474212230538598, -42.8819366832412 ], [ -73.474154090539301, -42.881938959942197 ], [ -73.4740054436365, -42.881966219168902 ], [ -73.473936839075293, -42.881958186270502 ], [ -73.473770560589102, -42.881943258573003 ], [ -73.473495887023901, -42.881907561873597 ], [ -73.472628213020599, -42.881680688725602 ], [ -73.472296776549996, -42.882404722810399 ], [ -73.471403833686495, -42.882218134864203 ], [ -73.470577148864905, -42.8814771487597 ], [ -73.470466895091207, -42.881378322415799 ], [ -73.469730839751705, -42.880718546770503 ], [ -73.469258253663995, -42.880297533689301 ], [ -73.468548985629496, -42.880500360004397 ], [ -73.4682552980575, -42.880604748193903 ], [ -73.467953208196505, -42.880727329328302 ], [ -73.467706422964099, -42.880808442607403 ], [ -73.467523135858301, -42.880894219349599 ], [ -73.467333458643495, -42.880958806221997 ], [ -73.467255472714101, -42.881022599319003 ], [ -73.467190195815206, -42.881077625995196 ], [ -73.467095170193403, -42.881157500542599 ], [ -73.466635959000598, -42.881593514294998 ], [ -73.466614566583502, -42.881633655135403 ], [ -73.466542921663006, -42.881650748533197 ], [ -73.466424628595206, -42.8816946782161 ], [ -73.466296129575198, -42.881731859949603 ], [ -73.465852283112, -42.881910001398303 ], [ -73.465479564772394, -42.882063921863597 ], [ -73.465131585185802, -42.882224021118802 ], [ -73.465016384921199, -42.882272948628099 ] ] ] } },
{ "type": "Feature", "properties": { "id": "monoparte.25", "Name": null, "description": null, "timestamp": null, "begin": null, "end": null, "altitudeMode": null, "tessellate": -1, "extrude": 0, "visibility": -1, "drawOrder": null, "icon": null, "REG": "Los Lagos", "COM": "Queilen", "LOC": "Queilen", "ZONA": "ZH 1", "NOM": "Zona ZH 1", "UPERM": "Vivienda, equipamiento, vialidad, actividades productivas inofensivas y áreas verdes. Mayor detalle en ordenanza", "UPROH": "Todo uso no indicado como permitido", "P_DO": "06/06/1997", "N_DOC": "683", "T_DO": "Decreto", "OBS": null }, "geometry": { "type": "Polygon", "coordinates": [ [ [ -73.469639199674603, -42.889090168930501 ], [ -73.469766763023301, -42.889745344449999 ], [ -73.471434042498302, -42.890094988397699 ], [ -73.473358210604999, -42.89268763215 ], [ -73.473968692716696, -42.892349289775098 ], [ -73.473927784282097, -42.892231786134602 ], [ -73.474586802378795, -42.8909982493577 ], [ -73.474774002613898, -42.891033319423997 ], [ -73.474069225819406, -42.892440160658602 ], [ -73.474426158952596, -42.893045993172798 ], [ -73.475667593125294, -42.894925812732701 ], [ -73.475861450005397, -42.893475740452097 ], [ -73.475633156068596, -42.893454907219201 ], [ -73.475838278957099, -42.892261772421797 ], [ -73.475980311160399, -42.892321715781797 ], [ -73.476258938067204, -42.891491201068199 ], [ -73.476342319318704, -42.891516910307502 ], [ -73.476454625898796, -42.8912800180494 ], [ -73.476571265886506, -42.890989594661697 ], [ -73.477009631192104, -42.891115344554599 ], [ -73.477207484377104, -42.890381049088397 ], [ -73.476603297886101, -42.890202243428597 ], [ -73.4767492267992, -42.889868985531102 ], [ -73.476555895786305, -42.889812047875601 ], [ -73.476430821787204, -42.889695460501898 ], [ -73.476176150499398, -42.889533925675003 ], [ -73.475983240440797, -42.889419996304802 ], [ -73.475865794877194, -42.889274524192203 ], [ -73.475617320834502, -42.889198501984502 ], [ -73.475420917192693, -42.889170463366497 ], [ -73.475345335206597, -42.889066228763397 ], [ -73.4750743831801, -42.888948207929303 ], [ -73.474809510629598, -42.888779923685703 ], [ -73.474538560824698, -42.888661901471899 ], [ -73.474208949695196, -42.888539029021203 ], [ -73.473756124695697, -42.888416630751102 ], [ -73.473545890198693, -42.8883653096781 ], [ -73.473391158052806, -42.888353502835102 ], [ -73.472971382230895, -42.888316339329798 ], [ -73.472656592114802, -42.8882750654357 ], [ -73.472707137258396, -42.889085088375602 ], [ -73.472539156687702, -42.889091664130298 ], [ -73.472041703010206, -42.8889324775948 ], [ -73.471580733819295, -42.888471715668402 ], [ -73.471333707034105, -42.888281285425997 ], [ -73.470687285968495, -42.888077898790002 ], [ -73.470138281944699, -42.8887063009605 ], [ -73.470078759096594, -42.888689573471602 ], [ -73.469801844464897, -42.888981496131201 ], [ -73.469639199674603, -42.889090168930501 ] ], [ [ -73.471592628187906, -42.890101804222297 ], [ -73.471961072555601, -42.889463270706898 ], [ -73.472419250891093, -42.889616849106503 ], [ -73.472573008498401, -42.8896822934461 ], [ -73.472194668899306, -42.890273573819798 ], [ -73.471592628187906, -42.890101804222297 ] ], [ [ -73.475546602119294, -42.891500203634799 ], [ -73.475659160948595, -42.891306262069399 ], [ -73.475758949675793, -42.891337031656597 ], [ -73.475660636630494, -42.891531468649397 ], [ -73.475546602119294, -42.891500203634799 ] ] ] } },
{ "type": "Feature", "properties": { "id": "monoparte.26", "Name": null, "description": null, "timestamp": null, "begin": null, "end": null, "altitudeMode": null, "tessellate": -1, "extrude": 0, "visibility": -1, "drawOrder": null, "icon": null, "REG": "Los Lagos", "COM": "Queilen", "LOC": "Queilen", "ZONA": "ZPL-1", "NOM": "Zona ZPL-1", "UPERM": "Actividad portuaria, artesanía pesquera, áreas verdes, vialidad y estacionamiento. Mayor detalle en ordenanza.", "UPROH": "Todo uso no indicado como permitido", "P_DO": "06/06/1997", "N_DOC": "683", "T_DO": "Decreto", "OBS": null }, "geometry": { "type": "Polygon", "coordinates": [ [ [ -73.477950906680505, -42.886997038032298 ], [ -73.4779784244772, -42.887166355557298 ], [ -73.477977091682405, -42.8876485460247 ], [ -73.477961789992506, -42.887723467396398 ], [ -73.477945143324604, -42.887815593530597 ], [ -73.477954063801405, -42.887902904753197 ], [ -73.477941345535896, -42.887977725770398 ], [ -73.477926043754096, -42.88805264714 ], [ -73.477920940350401, -42.888125262825397 ], [ -73.477898710976007, -42.888211889800303 ], [ -73.4778953658451, -42.8882730033732 ], [ -73.477812098627396, -42.888697423401098 ], [ -73.477704979094597, -42.889250459235399 ], [ -73.477619918066097, -42.8896501761281 ], [ -73.477599341933001, -42.889759606450397 ], [ -73.477512863813502, -42.890247040522503 ], [ -73.477503037127605, -42.890361766614198 ], [ -73.477497244607804, -42.890424881163099 ], [ -73.477631730869206, -42.890456333982002 ], [ -73.477605515732094, -42.890518932625497 ], [ -73.477941406084696, -42.890619879142399 ], [ -73.477961051165295, -42.890533352554399 ], [ -73.477995878927203, -42.889941224568503 ], [ -73.478042578724398, -42.889691655127699 ], [ -73.478039660068504, -42.889472615649098 ], [ -73.478053105011895, -42.889300577200501 ], [ -73.478058451206294, -42.889195554783598 ], [ -73.4780637961765, -42.889090532413803 ], [ -73.478150638104594, -42.888858445826301 ], [ -73.478198026821005, -42.888618378327003 ], [ -73.478178742218404, -42.888352337914498 ], [ -73.478209929928596, -42.888246302632901 ], [ -73.478190121765095, -42.8881517942418 ], [ -73.478166868894903, -42.888009779375103 ], [ -73.478139320338499, -42.887629721836902 ], [ -73.478073403104105, -42.886183982880901 ], [ -73.478132333885299, -42.885924404963802 ], [ -73.478213662773001, -42.885616307636603 ], [ -73.478373203413895, -42.8853146727999 ], [ -73.478537563511296, -42.885079547462503 ], [ -73.478658505409797, -42.884960465753998 ], [ -73.478798399645498, -42.884745356207198 ], [ -73.478577373256201, -42.884734963939998 ], [ -73.478493651936802, -42.884652488933 ], [ -73.478455414274507, -42.884482476189397 ], [ -73.478335522395298, -42.884258493434402 ], [ -73.478327947187495, -42.884153977436199 ], [ -73.478348279117697, -42.8840769528571 ], [ -73.478282825180301, -42.883888949663501 ], [ -73.478220813544496, -42.883748453006397 ], [ -73.478246490551797, -42.883566406927201 ], [ -73.478251148070996, -42.883451882437399 ], [ -73.478197236649095, -42.883244370533099 ], [ -73.478244622636595, -42.883004302156301 ], [ -73.478291844366794, -42.882583199608199 ], [ -73.4782949608162, -42.882268638679598 ], [ -73.478360085810095, -42.882094574507597 ], [ -73.478438819802705, -42.881929504997103 ], [ -73.478482759940803, -42.881641929171401 ], [ -73.478598186714606, -42.881446836046898 ], [ -73.478642979264094, -42.881349796364397 ], [ -73.478568740379103, -42.881219308167204 ], [ -73.478497943648406, -42.881136327403397 ], [ -73.478471939638993, -42.880956306069201 ], [ -73.478459544954504, -42.880785280311599 ], [ -73.478300215065502, -42.8805533142177 ], [ -73.478273523487005, -42.880363791653302 ], [ -73.478242013503504, -42.880107758378998 ], [ -73.478254770667206, -42.879926217746899 ], [ -73.478156826909895, -42.879898430905399 ], [ -73.478096111574501, -42.880074489226502 ], [ -73.478035918759403, -42.880249551985997 ], [ -73.477988102823204, -42.8804836815249 ], [ -73.477997569891699, -42.880614326442398 ], [ -73.478010910003405, -42.880798417612098 ], [ -73.478071408760201, -42.880962793581297 ], [ -73.478138792262897, -42.881222185392303 ], [ -73.478144489213506, -42.881412530836698 ], [ -73.478148463578293, -42.8815791221393 ], [ -73.478167399244995, -42.881840412759999 ], [ -73.478063919054904, -42.882088634375499 ], [ -73.478039365866195, -42.882196791873902 ], [ -73.478013950633496, -42.882293071875999 ], [ -73.477990665061697, -42.882865691542598 ], [ -73.477977832376098, -42.883247331905203 ], [ -73.477986642118594, -42.883592392012297 ], [ -73.478031956238794, -42.883882425164998 ], [ -73.478081473153694, -42.884118695533601 ], [ -73.478203871253598, -42.884578409164199 ], [ -73.478210532316098, -42.884893777946097 ], [ -73.478128794026105, -42.885218566209801 ], [ -73.478058042063594, -42.885471460681501 ], [ -73.477944328625796, -42.885690306857903 ], [ -73.477906737878598, -42.885953812836902 ], [ -73.477898005304198, -42.886168544501899 ], [ -73.477891559864901, -42.886468466920597 ], [ -73.477931646675898, -42.886878524396202 ], [ -73.477950906680505, -42.886997038032298 ] ] ] } }
]
}
