{
"type": "FeatureCollection",
"name": "IPT_10_PNSECC_Chaiten_Villa_Santa_Lucia",
"crs": { "type": "name", "properties": { "name": "urn:ogc:def:crs:OGC:1.3:CRS84" } },
"features": [
{ "type": "Feature", "properties": { "id": "monoparte.1", "Name": null, "description": null, "timestamp": null, "begin": null, "end": null, "altitudeMode": null, "tessellate": -1, "extrude": 0, "visibility": -1, "drawOrder": null, "icon": null, "REG": "Los Lagos", "COM": "Chaitén", "LOC": "Villa Santa Lucía", "ZONA": "Z-A", "NOM": "Zona Z-A", "UPERM": "Vivienda, comercio, oficina, equipamiento, talleres artesanales inofensivos, áreas verdes y vialidad.", "UPROH": "Todos los no indicados como permitidos.", "P_DO": "07/10/1987", "N_DOC": "128", "T_DO": "Decreto", "OBS": null }, "geometry": { "type": "Polygon", "coordinates": [ [ [ -72.369471554392106, -43.417129934483398 ], [ -72.369380641841403, -43.422240351627202 ], [ -72.370089539731197, -43.422173073202103 ], [ -72.373995487371602, -43.421886249131397 ], [ -72.373972086364603, -43.416593370869698 ], [ -72.372182061556799, -43.4165675518922 ], [ -72.370163015026804, -43.416538395187999 ], [ -72.369516152622097, -43.416461604881597 ], [ -72.369471554392106, -43.417129934483398 ] ] ] } },
{ "type": "Feature", "properties": { "id": "monoparte.2", "Name": null, "description": null, "timestamp": null, "begin": null, "end": null, "altitudeMode": null, "tessellate": -1, "extrude": 0, "visibility": -1, "drawOrder": null, "icon": null, "REG": "Los Lagos", "COM": "Chaitén", "LOC": "Villa Santa Lucía", "ZONA": "Z-A", "NOM": "Zona Z-A", "UPERM": "Vivienda, comercio, oficina, equipamiento, talleres artesanales inofensivos, áreas verdes y vialidad.", "UPROH": "Todos los no indicados como permitidos.", "P_DO": "07/10/1987", "N_DOC": "128", "T_DO": "Decreto", "OBS": null }, "geometry": { "type": "Polygon", "coordinates": [ [ [ -72.366580907788403, -43.414150162750502 ], [ -72.366569441552997, -43.414673131232 ], [ -72.365316660769096, -43.414666448763299 ], [ -72.365315721115095, -43.414910665604403 ], [ -72.365313973129005, -43.4153649962157 ], [ -72.366553127252004, -43.415417230419301 ], [ -72.366542167331502, -43.415917078069199 ], [ -72.365311916519801, -43.415899503585997 ], [ -72.365308450432494, -43.416800443250303 ], [ -72.365650332673695, -43.416690237348497 ], [ -72.366526031080397, -43.416653069599398 ], [ -72.367130659569298, -43.416627403558302 ], [ -72.367394578682294, -43.416616199564203 ], [ -72.367740015782701, -43.416549716428499 ], [ -72.367750346617697, -43.414137241511803 ], [ -72.366580907788403, -43.414150162750502 ] ] ] } },
{ "type": "Feature", "properties": { "id": "monoparte.3", "Name": null, "description": null, "timestamp": null, "begin": null, "end": null, "altitudeMode": null, "tessellate": -1, "extrude": 0, "visibility": -1, "drawOrder": null, "icon": null, "REG": "Los Lagos", "COM": "Chaitén", "LOC": "Villa Santa Lucía", "ZONA": "Z-A", "NOM": "Zona Z-A", "UPERM": "Vivienda, comercio, oficina, equipamiento, talleres artesanales inofensivos, áreas verdes y vialidad.", "UPROH": "Todos los no indicados como permitidos.", "P_DO": "07/10/1987", "N_DOC": "128", "T_DO": "Decreto", "OBS": null }, "geometry": { "type": "Polygon", "coordinates": [ [ [ -72.366634912464605, -43.411320686528803 ], [ -72.366631162717496, -43.411712179222903 ], [ -72.367157208802993, -43.411696149101502 ], [ -72.367171002161399, -43.412531101096903 ], [ -72.3666232113316, -43.412542262903997 ], [ -72.365324695418494, -43.412578982137397 ], [ -72.365321988509905, -43.413282040209097 ], [ -72.366616279638905, -43.413265900663603 ], [ -72.366619917394203, -43.412886092560797 ], [ -72.367760646239105, -43.4128801785916 ], [ -72.3677622787487, -43.412719304352301 ], [ -72.367764311717906, -43.412519007915101 ], [ -72.367772854719703, -43.411677384905303 ], [ -72.367777517761994, -43.411217977508699 ], [ -72.367164191332805, -43.411234010088698 ], [ -72.367230604597495, -43.410808314989701 ], [ -72.366639817576498, -43.4108087398035 ], [ -72.3653310410063, -43.410931074670302 ], [ -72.3653294280399, -43.411349861744299 ], [ -72.366634912464605, -43.411320686528803 ] ] ] } },
{ "type": "Feature", "properties": { "id": "monoparte.4", "Name": null, "description": null, "timestamp": null, "begin": null, "end": null, "altitudeMode": null, "tessellate": -1, "extrude": 0, "visibility": -1, "drawOrder": null, "icon": null, "REG": "Los Lagos", "COM": "Chaitén", "LOC": "Villa Santa Lucía", "ZONA": "Z-D", "NOM": "Zona Z-D", "UPERM": "Sin información", "UPROH": "Sin información", "P_DO": "07/10/1987", "N_DOC": "128", "T_DO": "Decreto", "OBS": null }, "geometry": { "type": "Polygon", "coordinates": [ [ [ -72.367759713278701, -43.412972025311902 ], [ -72.367756875092198, -43.413251665046701 ], [ -72.367752265274206, -43.413705875712601 ], [ -72.367752142216204, -43.413717994531098 ], [ -72.367750346617697, -43.414137241511803 ], [ -72.367740015782701, -43.416549716428499 ], [ -72.367740012387799, -43.416554263324898 ], [ -72.367736008511798, -43.422362021314697 ], [ -72.368178399181005, -43.422354440821501 ], [ -72.369380641841403, -43.422240351627202 ], [ -72.369471554392106, -43.417129934483398 ], [ -72.369516152622097, -43.416461604881597 ], [ -72.369530085144007, -43.413158176512198 ], [ -72.3695106805514, -43.412889662218497 ], [ -72.367759713278701, -43.412972025311902 ] ] ] } },
{ "type": "Feature", "properties": { "id": "monoparte.5", "Name": null, "description": null, "timestamp": null, "begin": null, "end": null, "altitudeMode": null, "tessellate": -1, "extrude": 0, "visibility": -1, "drawOrder": null, "icon": null, "REG": "Los Lagos", "COM": "Chaitén", "LOC": "Villa Santa Lucía", "ZONA": "R-6", "NOM": "Zona R-6", "UPERM": "Sin información", "UPROH": "Sin información", "P_DO": "07/10/1987", "N_DOC": "128", "T_DO": "Decreto", "OBS": null }, "geometry": { "type": "Polygon", "coordinates": [ [ [ -72.373790173337596, -43.4146490655421 ], [ -72.373756442750306, -43.415165545971497 ], [ -72.373999389354594, -43.415631651963601 ], [ -72.374016333703693, -43.4155523469529 ], [ -72.373814106466995, -43.415154760048701 ], [ -72.373817819092196, -43.4148687875023 ], [ -72.373806715505694, -43.414669010527099 ], [ -72.373790173337596, -43.4146490655421 ] ] ] } },
{ "type": "Feature", "properties": { "id": "monoparte.6", "Name": null, "description": null, "timestamp": null, "begin": null, "end": null, "altitudeMode": null, "tessellate": -1, "extrude": 0, "visibility": -1, "drawOrder": null, "icon": null, "REG": "Los Lagos", "COM": "Chaitén", "LOC": "Villa Santa Lucía", "ZONA": "R-6", "NOM": "Zona R-6", "UPERM": "Sin información", "UPROH": "Sin información", "P_DO": "07/10/1987", "N_DOC": "128", "T_DO": "Decreto", "OBS": null }, "geometry": { "type": "Polygon", "coordinates": [ [ [ -72.357783482229195, -43.414488262872503 ], [ -72.357131105097196, -43.414805212662102 ], [ -72.3569140477519, -43.4148463499249 ], [ -72.356387293965298, -43.4149461804369 ], [ -72.356300469950895, -43.414853443226399 ], [ -72.356198788593602, -43.414677659622498 ], [ -72.356192073914301, -43.414666052334397 ], [ -72.356101038837195, -43.414654605832098 ], [ -72.355961723276593, -43.414637087645197 ], [ -72.354804176823507, -43.414683000418997 ], [ -72.353655826892705, -43.414895385587002 ], [ -72.35329911609, -43.414945242908502 ], [ -72.353488730238297, -43.4151089191894 ], [ -72.353991937848306, -43.415064182162197 ], [ -72.354448041249199, -43.415038878334698 ], [ -72.355905676008902, -43.414805487485701 ], [ -72.356010784263404, -43.4149334211642 ], [ -72.356182459424701, -43.415083219677101 ], [ -72.356529631421907, -43.415156395425797 ], [ -72.357015728397997, -43.415082555819097 ], [ -72.357224632524705, -43.414986506655303 ], [ -72.3575415545114, -43.414840793176801 ], [ -72.358391654720194, -43.414553761392703 ], [ -72.358657262555099, -43.414629328667502 ], [ -72.358997334392498, -43.414869459763104 ], [ -72.359500536768294, -43.4151047922239 ], [ -72.359858901813993, -43.415380116041902 ], [ -72.360446966600804, -43.415672503111999 ], [ -72.361037013522903, -43.416000561228898 ], [ -72.362080033902998, -43.416541594667997 ], [ -72.362556563467194, -43.416884896737102 ], [ -72.362899298612106, -43.417172581760497 ], [ -72.363118963889903, -43.417562099161003 ], [ -72.363540938673907, -43.417392449877802 ], [ -72.363281592601695, -43.416994572275698 ], [ -72.362902936824099, -43.416648391873302 ], [ -72.362259323270095, -43.416238542755003 ], [ -72.361617695258204, -43.415864363951997 ], [ -72.360900436582995, -43.415599606776603 ], [ -72.360345652697404, -43.4153181538178 ], [ -72.360121737981601, -43.415110342433103 ], [ -72.359784293237496, -43.414917781603698 ], [ -72.359362654795703, -43.414680051698099 ], [ -72.358976277662904, -43.414488927495498 ], [ -72.358611477527205, -43.414392454974902 ], [ -72.358527940688404, -43.414359177789002 ], [ -72.358542347301196, -43.414352804653397 ], [ -72.358268212652206, -43.414195572458702 ], [ -72.358128372583593, -43.413984864845702 ], [ -72.3578647514328, -43.413825806385297 ], [ -72.357471990498198, -43.413637247028603 ], [ -72.356987988171099, -43.413394194216899 ], [ -72.3567342296964, -43.413237280529898 ], [ -72.356569740261406, -43.4130991815721 ], [ -72.3564592429382, -43.412873737834602 ], [ -72.356382446958605, -43.4127259156893 ], [ -72.356116949388706, -43.412473617799698 ], [ -72.355879899565196, -43.412534509959499 ], [ -72.355978011731295, -43.4126806257716 ], [ -72.356062621129198, -43.412792485278899 ], [ -72.356107688356403, -43.412898360362703 ], [ -72.356133574267204, -43.413011945119003 ], [ -72.356247151459499, -43.413115807254897 ], [ -72.356362308217498, -43.413248209186499 ], [ -72.356535795340903, -43.413371749990397 ], [ -72.356809130033, -43.413528089739899 ], [ -72.357086017281503, -43.413748643190999 ], [ -72.357653451926396, -43.414082148267298 ], [ -72.357742113041695, -43.414137634923897 ], [ -72.358252675630595, -43.414406908019998 ], [ -72.357783482229195, -43.414488262872503 ] ] ] } },
{ "type": "Feature", "properties": { "id": "monoparte.7", "Name": null, "description": null, "timestamp": null, "begin": null, "end": null, "altitudeMode": null, "tessellate": -1, "extrude": 0, "visibility": -1, "drawOrder": null, "icon": null, "REG": "Los Lagos", "COM": "Chaitén", "LOC": "Villa Santa Lucía", "ZONA": "R-6", "NOM": "Zona R-6", "UPERM": "Sin información", "UPROH": "Sin información", "P_DO": "07/10/1987", "N_DOC": "128", "T_DO": "Decreto", "OBS": null }, "geometry": { "type": "Polygon", "coordinates": [ [ [ -72.373790173337596, -43.4146490655421 ], [ -72.373468784120206, -43.414261561926502 ], [ -72.372999684061, -43.413906720059202 ], [ -72.372888332097602, -43.413667023679501 ], [ -72.372500558725505, -43.413392609219699 ], [ -72.371884788700399, -43.412896233462497 ], [ -72.371852532832406, -43.4126684952179 ], [ -72.371814729180102, -43.412340867764698 ], [ -72.371977423391698, -43.412093081644301 ], [ -72.371992000722301, -43.4116495627392 ], [ -72.371778824186194, -43.411341405212099 ], [ -72.371696327190094, -43.410915044836898 ], [ -72.371679684635694, -43.410615378957203 ], [ -72.371609076695293, -43.4104030657601 ], [ -72.371471824518395, -43.410049787097698 ], [ -72.371339267791598, -43.409882161778398 ], [ -72.371239876962605, -43.409756475658803 ], [ -72.370928361434395, -43.4094010076061 ], [ -72.370653795373997, -43.409087698798402 ], [ -72.370659108664896, -43.408830264287197 ], [ -72.370943197028893, -43.408650363198298 ], [ -72.371196854642903, -43.4086285842276 ], [ -72.370568135019795, -43.408147987252001 ], [ -72.370253184989494, -43.407936232649298 ], [ -72.370303566246804, -43.407814474756002 ], [ -72.370297625536196, -43.407707450889802 ], [ -72.370292080925694, -43.407607562365101 ], [ -72.370226630336106, -43.4074880011324 ], [ -72.370055510261494, -43.4074072907747 ], [ -72.369886371796994, -43.4073622541489 ], [ -72.369550864847795, -43.407322125844502 ], [ -72.369229604010798, -43.407254324364999 ], [ -72.369479078913798, -43.4073795792848 ], [ -72.370071836400399, -43.407558392236801 ], [ -72.370008100561904, -43.4077714485163 ], [ -72.370035450551001, -43.4078179661688 ], [ -72.370440897035195, -43.408156138940299 ], [ -72.370969656455401, -43.408587198475502 ], [ -72.370888055565203, -43.4086181928527 ], [ -72.370610188234807, -43.408733591480001 ], [ -72.370581059749696, -43.409091779913503 ], [ -72.370622978749694, -43.409140569491598 ], [ -72.370815716382097, -43.409345706838401 ], [ -72.371393204924203, -43.410036176632303 ], [ -72.371562650319106, -43.410527863209197 ], [ -72.371629493978503, -43.410672395287101 ], [ -72.371617112068904, -43.410890732470001 ], [ -72.371668068905507, -43.411278717032801 ], [ -72.371918865915703, -43.411646510375498 ], [ -72.371918176935296, -43.412075326151502 ], [ -72.371760376364605, -43.4123229677393 ], [ -72.371822234043293, -43.412907162777998 ], [ -72.372825973810706, -43.413681520360399 ], [ -72.372924032414701, -43.413946622111297 ], [ -72.373439308178405, -43.414310174689902 ], [ -72.373790173337596, -43.4146490655421 ] ] ] } },
{ "type": "Feature", "properties": { "id": "monoparte.8", "Name": null, "description": null, "timestamp": null, "begin": null, "end": null, "altitudeMode": null, "tessellate": -1, "extrude": 0, "visibility": -1, "drawOrder": null, "icon": null, "REG": "Los Lagos", "COM": "Chaitén", "LOC": "Villa Santa Lucía", "ZONA": "R-6", "NOM": "Zona R-6", "UPERM": "Sin información", "UPROH": "Sin información", "P_DO": "07/10/1987", "N_DOC": "128", "T_DO": "Decreto", "OBS": null }, "geometry": { "type": "Polygon", "coordinates": [ [ [ -72.371449559820107, -43.414238345635603 ], [ -72.371933621996305, -43.414481335004297 ], [ -72.372226453022193, -43.414458397291398 ], [ -72.372512147348701, -43.4143070303139 ], [ -72.372915435636301, -43.414431936283698 ], [ -72.373195120435, -43.414953878831298 ], [ -72.373208865401494, -43.415201221980801 ], [ -72.372937623458796, -43.415495094491099 ], [ -72.373006739565199, -43.415797974301597 ], [ -72.373972086364603, -43.416593370869698 ], [ -72.373971021593107, -43.416352303350102 ], [ -72.373475189072906, -43.416004692536703 ], [ -72.373268333847307, -43.415810697392899 ], [ -72.373195152654702, -43.415669926156298 ], [ -72.373187751425405, -43.415536741740098 ], [ -72.373257593390406, -43.415382219349503 ], [ -72.373304507738993, -43.415285545680398 ], [ -72.373344547971001, -43.415065201375903 ], [ -72.373288480776594, -43.414761936397397 ], [ -72.373157815415496, -43.414527575343499 ], [ -72.373017800683698, -43.4143601912562 ], [ -72.372778146171598, -43.414281508856 ], [ -72.372499342780699, -43.414203981799901 ], [ -72.372282780236105, -43.414305663704802 ], [ -72.372128294635402, -43.414348339149498 ], [ -72.371959175249401, -43.414362860075599 ], [ -72.371689194641405, -43.414208840169998 ], [ -72.371562762440405, -43.414050582718303 ], [ -72.371554678181198, -43.413669670113201 ], [ -72.371596309211299, -43.413477865707598 ], [ -72.371363739745604, -43.413055934693602 ], [ -72.370744940749802, -43.412662745474101 ], [ -72.370618542849897, -43.412582429731899 ], [ -72.370618297988699, -43.412581934558602 ], [ -72.370324593894793, -43.4123945220934 ], [ -72.370073332032504, -43.412106542924398 ], [ -72.370086177044101, -43.411893733948403 ], [ -72.370082353250595, -43.411640841298897 ], [ -72.370089044185704, -43.411477178842297 ], [ -72.370127437822106, -43.411065117263497 ], [ -72.370206259496697, -43.410866261088998 ], [ -72.370129248130397, -43.410582669216502 ], [ -72.370066664611002, -43.410411806590702 ], [ -72.370057423336405, -43.410245325155003 ], [ -72.369977231598199, -43.409830806236499 ], [ -72.3699764034602, -43.409300791801897 ], [ -72.369713187918506, -43.409120958610004 ], [ -72.369760093788003, -43.409009398284802 ], [ -72.369854563815593, -43.408798168968801 ], [ -72.369864250941902, -43.408383976735003 ], [ -72.369846195012599, -43.408205844464398 ], [ -72.369714954695993, -43.408048917807399 ], [ -72.369414623457004, -43.4077889558056 ], [ -72.368627687574303, -43.407179617936698 ], [ -72.368591219900196, -43.407005702744499 ], [ -72.368583008717096, -43.406053135199997 ], [ -72.368636269215301, -43.405842491815797 ], [ -72.369348376250002, -43.404806541663604 ], [ -72.370044229867403, -43.404392951139599 ], [ -72.370495431014106, -43.403986576305698 ], [ -72.3704978798052, -43.403736373203699 ], [ -72.370351563063494, -43.403454826138599 ], [ -72.370115173992104, -43.403239610440103 ], [ -72.370146661926796, -43.4035126348641 ], [ -72.370156833657205, -43.403542365271299 ], [ -72.370263659147099, -43.403854602252203 ], [ -72.370172400238403, -43.403976403846698 ], [ -72.369575730028799, -43.404410891112299 ], [ -72.369108869721302, -43.404829635891701 ], [ -72.368794070899398, -43.405339181829703 ], [ -72.368605130779102, -43.405761638780199 ], [ -72.368581874929703, -43.405921620209099 ], [ -72.368546009616296, -43.406168355501897 ], [ -72.368493484855307, -43.406693988546301 ], [ -72.368592483796704, -43.407152358780998 ], [ -72.368603404841195, -43.407202919477598 ], [ -72.369323052642699, -43.407791656825403 ], [ -72.369802189748597, -43.408226647065298 ], [ -72.369815653616499, -43.408469233574401 ], [ -72.369813504697703, -43.408783747351201 ], [ -72.369656354607798, -43.409131419933402 ], [ -72.369941468700404, -43.409323113165897 ], [ -72.369930834937307, -43.409837981417397 ], [ -72.370005398001396, -43.410121645685102 ], [ -72.370022032014305, -43.410421312107502 ], [ -72.370164821837093, -43.410874481227502 ], [ -72.3700780430392, -43.411077145645898 ], [ -72.370019749004896, -43.411828890037199 ], [ -72.369998058048594, -43.412108614243301 ], [ -72.370230802891797, -43.412416197748897 ], [ -72.370559043569003, -43.412678083530103 ], [ -72.370560195825604, -43.412678683380797 ], [ -72.371099833746698, -43.412959882641601 ], [ -72.371104191088094, -43.412962152595803 ], [ -72.371332981281796, -43.413198384751396 ], [ -72.371431885572903, -43.413567088421601 ], [ -72.371356994198393, -43.4139838010191 ], [ -72.371449559820107, -43.414238345635603 ] ] ] } },
{ "type": "Feature", "properties": { "id": "monoparte.9", "Name": null, "description": null, "timestamp": null, "begin": null, "end": null, "altitudeMode": null, "tessellate": -1, "extrude": 0, "visibility": -1, "drawOrder": null, "icon": null, "REG": "Los Lagos", "COM": "Chaitén", "LOC": "Villa Santa Lucía", "ZONA": "Z-B", "NOM": "Zona Z-B", "UPERM": "Vivienda, comercio, oficina, equipamiento, talleres artesanales inofensivos, áreas verdes y vialidad.", "UPROH": "Todos los no indicados como permitidos.", "P_DO": "07/10/1987", "N_DOC": "128", "T_DO": "Decreto", "OBS": null }, "geometry": { "type": "Polygon", "coordinates": [ [ [ -72.366616279638905, -43.413265900663603 ], [ -72.365321988509905, -43.413282040209097 ], [ -72.3653193868644, -43.413958138460998 ], [ -72.365318593654294, -43.414164096678299 ], [ -72.365316660769096, -43.414666448763299 ], [ -72.366569441552997, -43.414673131232 ], [ -72.366580907788403, -43.414150162750502 ], [ -72.366616279638905, -43.413265900663603 ] ] ] } },
{ "type": "Feature", "properties": { "id": "monoparte.10", "Name": null, "description": null, "timestamp": null, "begin": null, "end": null, "altitudeMode": null, "tessellate": -1, "extrude": 0, "visibility": -1, "drawOrder": null, "icon": null, "REG": "Los Lagos", "COM": "Chaitén", "LOC": "Villa Santa Lucía", "ZONA": "Z-B", "NOM": "Zona Z-B", "UPERM": "Vivienda, comercio, oficina, equipamiento, talleres artesanales inofensivos, áreas verdes y vialidad.", "UPROH": "Todos los no indicados como permitidos.", "P_DO": "07/10/1987", "N_DOC": "128", "T_DO": "Decreto", "OBS": null }, "geometry": { "type": "Polygon", "coordinates": [ [ [ -72.366616279638905, -43.413265900663603 ], [ -72.367756875092198, -43.413251665046701 ], [ -72.367759713278701, -43.412972025311902 ], [ -72.367760646239105, -43.4128801785916 ], [ -72.366619917394203, -43.412886092560797 ], [ -72.366616279638905, -43.413265900663603 ] ] ] } },
{ "type": "Feature", "properties": { "id": "monoparte.11", "Name": null, "description": null, "timestamp": null, "begin": null, "end": null, "altitudeMode": null, "tessellate": -1, "extrude": 0, "visibility": -1, "drawOrder": null, "icon": null, "REG": "Los Lagos", "COM": "Chaitén", "LOC": "Villa Santa Lucía", "ZONA": "Z-B", "NOM": "Zona Z-B", "UPERM": "Vivienda, comercio, oficina, equipamiento, talleres artesanales inofensivos, áreas verdes y vialidad.", "UPROH": "Todos los no indicados como permitidos.", "P_DO": "07/10/1987", "N_DOC": "128", "T_DO": "Decreto", "OBS": null }, "geometry": { "type": "Polygon", "coordinates": [ [ [ -72.366631162717496, -43.411712179222903 ], [ -72.3666232113316, -43.412542262903997 ], [ -72.367171002161399, -43.412531101096903 ], [ -72.367157208802993, -43.411696149101502 ], [ -72.366631162717496, -43.411712179222903 ] ] ] } },
{ "type": "Feature", "properties": { "id": "monoparte.12", "Name": null, "description": null, "timestamp": null, "begin": null, "end": null, "altitudeMode": null, "tessellate": -1, "extrude": 0, "visibility": -1, "drawOrder": null, "icon": null, "REG": "Los Lagos", "COM": "Chaitén", "LOC": "Villa Santa Lucía", "ZONA": "Z-B", "NOM": "Zona Z-B", "UPERM": "Vivienda, comercio, oficina, equipamiento, talleres artesanales inofensivos, áreas verdes y vialidad.", "UPROH": "Todos los no indicados como permitidos.", "P_DO": "07/10/1987", "N_DOC": "128", "T_DO": "Decreto", "OBS": null }, "geometry": { "type": "Polygon", "coordinates": [ [ [ -72.366631162717496, -43.411712179222903 ], [ -72.366634912464605, -43.411320686528803 ], [ -72.3653294280399, -43.411349861744299 ], [ -72.365327901265601, -43.411746495692398 ], [ -72.366631162717496, -43.411712179222903 ] ] ] } },
{ "type": "Feature", "properties": { "id": "monoparte.13", "Name": null, "description": null, "timestamp": null, "begin": null, "end": null, "altitudeMode": null, "tessellate": -1, "extrude": 0, "visibility": -1, "drawOrder": null, "icon": null, "REG": "Los Lagos", "COM": "Chaitén", "LOC": "Villa Santa Lucía", "ZONA": "Z-B", "NOM": "Zona Z-B", "UPERM": "Vivienda, comercio, oficina, equipamiento, talleres artesanales inofensivos, áreas verdes y vialidad.", "UPROH": "Todos los no indicados como permitidos.", "P_DO": "07/10/1987", "N_DOC": "128", "T_DO": "Decreto", "OBS": null }, "geometry": { "type": "Polygon", "coordinates": [ [ [ -72.352226094447502, -43.414154879154196 ], [ -72.35329911609, -43.414945242908502 ], [ -72.353655826892705, -43.414895385587002 ], [ -72.354804176823507, -43.414683000418997 ], [ -72.355961723276593, -43.414637087645197 ], [ -72.356101038837195, -43.414654605832098 ], [ -72.356192073914301, -43.414666052334397 ], [ -72.356198788593602, -43.414677659622498 ], [ -72.356300469950895, -43.414853443226399 ], [ -72.356387293965298, -43.4149461804369 ], [ -72.3569140477519, -43.4148463499249 ], [ -72.357131105097196, -43.414805212662102 ], [ -72.357783482229195, -43.414488262872503 ], [ -72.357348484728007, -43.414114374592401 ], [ -72.357220196828195, -43.414106794284102 ], [ -72.356486663363597, -43.4138424865518 ], [ -72.355614653316096, -43.413201090471397 ], [ -72.355040473043005, -43.412750132654502 ], [ -72.352869215459194, -43.411127731620198 ], [ -72.352333569903607, -43.411423508645399 ], [ -72.3505329573388, -43.4121130105285 ], [ -72.350966903230002, -43.412655306506998 ], [ -72.3515994453292, -43.413458607320997 ], [ -72.352226094447502, -43.414154879154196 ] ] ] } },
{ "type": "Feature", "properties": { "id": "monoparte.14", "Name": null, "description": null, "timestamp": null, "begin": null, "end": null, "altitudeMode": null, "tessellate": -1, "extrude": 0, "visibility": -1, "drawOrder": null, "icon": null, "REG": "Los Lagos", "COM": "Chaitén", "LOC": "Villa Santa Lucía", "ZONA": "Z-B", "NOM": "Zona Z-B", "UPERM": "Vivienda, comercio, oficina, equipamiento, talleres artesanales inofensivos, áreas verdes y vialidad.", "UPROH": "Todos los no indicados como permitidos.", "P_DO": "07/10/1987", "N_DOC": "128", "T_DO": "Decreto", "OBS": null }, "geometry": { "type": "Polygon", "coordinates": [ [ [ -72.365842611124904, -43.409844013326797 ], [ -72.365379471498699, -43.410036324058197 ], [ -72.359295633850493, -43.412287913642302 ], [ -72.360302143347795, -43.413056345781598 ], [ -72.360472602319803, -43.413285063752497 ], [ -72.3653310410063, -43.410931074670302 ], [ -72.366639817576498, -43.4108087398035 ], [ -72.367230604597495, -43.410808314989701 ], [ -72.367164191332805, -43.411234010088698 ], [ -72.367777517761994, -43.411217977508699 ], [ -72.367781680070195, -43.410807915373098 ], [ -72.367791168599197, -43.409873292619203 ], [ -72.367563675012605, -43.4099390422084 ], [ -72.367558534993805, -43.408673806642597 ], [ -72.366613994132805, -43.409023244994799 ], [ -72.3665797407116, -43.4095840709969 ], [ -72.365842611124904, -43.409844013326797 ] ] ] } },
{ "type": "Feature", "properties": { "id": "monoparte.15", "Name": null, "description": null, "timestamp": null, "begin": null, "end": null, "altitudeMode": null, "tessellate": -1, "extrude": 0, "visibility": -1, "drawOrder": null, "icon": null, "REG": "Los Lagos", "COM": "Chaitén", "LOC": "Villa Santa Lucía", "ZONA": "R-2", "NOM": "Área de resguardo del aeródromo.", "UPERM": "Equipamiento e instalaciones complementarias al aeródromo, equipamiento recreacional y deportivo, vivienda, áreas verdes y vialidad.", "UPROH": "Todos los no indicados como permitidos.", "P_DO": "07/10/1987", "N_DOC": "128", "T_DO": "Decreto", "OBS": null }, "geometry": { "type": "Polygon", "coordinates": [ [ [ -72.360472602319803, -43.413285063752497 ], [ -72.358268212652206, -43.414195572458702 ], [ -72.358542347301196, -43.414352804653397 ], [ -72.358527940688404, -43.414359177789002 ], [ -72.358611477527205, -43.414392454974902 ], [ -72.358976277662904, -43.414488927495498 ], [ -72.359362654795703, -43.414680051698099 ], [ -72.359784293237496, -43.414917781603698 ], [ -72.360121737981601, -43.415110342433103 ], [ -72.360345652697404, -43.4153181538178 ], [ -72.360900436582995, -43.415599606776603 ], [ -72.361617695258204, -43.415864363951997 ], [ -72.362259323270095, -43.416238542755003 ], [ -72.362902936824099, -43.416648391873302 ], [ -72.363281592601695, -43.416994572275698 ], [ -72.363540938673907, -43.417392449877802 ], [ -72.363820292865697, -43.417280137166102 ], [ -72.365308450432494, -43.416800443250303 ], [ -72.365311916519801, -43.415899503585997 ], [ -72.365313870181595, -43.415391721813599 ], [ -72.365313973129005, -43.4153649962157 ], [ -72.365315721115095, -43.414910665604403 ], [ -72.365316660769096, -43.414666448763299 ], [ -72.365318593654294, -43.414164096678299 ], [ -72.3653193868644, -43.413958138460998 ], [ -72.365321988509905, -43.413282040209097 ], [ -72.365324695418494, -43.412578982137397 ], [ -72.365327901265601, -43.411746495692398 ], [ -72.3653294280399, -43.411349861744299 ], [ -72.3653310410063, -43.410931074670302 ], [ -72.360472602319803, -43.413285063752497 ] ] ] } },
{ "type": "Feature", "properties": { "id": "monoparte.16", "Name": null, "description": null, "timestamp": null, "begin": null, "end": null, "altitudeMode": null, "tessellate": -1, "extrude": 0, "visibility": -1, "drawOrder": null, "icon": null, "REG": "Los Lagos", "COM": "Chaitén", "LOC": "Villa Santa Lucía", "ZONA": "Z-E", "NOM": "Zona Z-E", "UPERM": "Sin información", "UPROH": "Sin información", "P_DO": "07/10/1987", "N_DOC": "128", "T_DO": "Decreto", "OBS": null }, "geometry": { "type": "Polygon", "coordinates": [ [ [ -72.367777517761994, -43.411217977508699 ], [ -72.367772854719703, -43.411677384905303 ], [ -72.367764311717906, -43.412519007915101 ], [ -72.3677622787487, -43.412719304352301 ], [ -72.367760646239105, -43.4128801785916 ], [ -72.367759713278701, -43.412972025311902 ], [ -72.3695106805514, -43.412889662218497 ], [ -72.369530085144007, -43.413158176512198 ], [ -72.369516152622097, -43.416461604881597 ], [ -72.370163015026804, -43.416538395187999 ], [ -72.372182061556799, -43.4165675518922 ], [ -72.370559043569003, -43.412678083530103 ], [ -72.370230802891797, -43.412416197748897 ], [ -72.369998058048594, -43.412108614243301 ], [ -72.370019749004896, -43.411828890037199 ], [ -72.3700780430392, -43.411077145645898 ], [ -72.370164821837093, -43.410874481227502 ], [ -72.370022032014305, -43.410421312107502 ], [ -72.370005398001396, -43.410121645685102 ], [ -72.369930834937307, -43.409837981417397 ], [ -72.367791168599197, -43.409873292619203 ], [ -72.367781680070195, -43.410807915373098 ], [ -72.367777517761994, -43.411217977508699 ] ] ] } },
{ "type": "Feature", "properties": { "id": "monoparte.17", "Name": null, "description": null, "timestamp": null, "begin": null, "end": null, "altitudeMode": null, "tessellate": -1, "extrude": 0, "visibility": -1, "drawOrder": null, "icon": null, "REG": "Los Lagos", "COM": "Chaitén", "LOC": "Villa Santa Lucía", "ZONA": "R-3", "NOM": "Área de restricción y eliminación de obstáculos del aeródromo.", "UPERM": "Equipamiento recreacional deportivo, áreas verdes y vialidad.", "UPROH": "Todos los no indicados como permitidos.", "P_DO": "07/10/1987", "N_DOC": "128", "T_DO": "Decreto", "OBS": null }, "geometry": { "type": "Polygon", "coordinates": [ [ [ -72.370559043569003, -43.412678083530103 ], [ -72.372182061556799, -43.4165675518922 ], [ -72.373972086364603, -43.416593370869698 ], [ -72.373006739565199, -43.415797974301597 ], [ -72.372937623458796, -43.415495094491099 ], [ -72.373208865401494, -43.415201221980801 ], [ -72.373195120435, -43.414953878831298 ], [ -72.372915435636301, -43.414431936283698 ], [ -72.372512147348701, -43.4143070303139 ], [ -72.372226453022193, -43.414458397291398 ], [ -72.371933621996305, -43.414481335004297 ], [ -72.371449559820107, -43.414238345635603 ], [ -72.371356994198393, -43.4139838010191 ], [ -72.371431885572903, -43.413567088421601 ], [ -72.371332981281796, -43.413198384751396 ], [ -72.371104191088094, -43.412962152595803 ], [ -72.371099833746698, -43.412959882641601 ], [ -72.370560195825604, -43.412678683380797 ], [ -72.370559043569003, -43.412678083530103 ] ] ] } },
{ "type": "Feature", "properties": { "id": "monoparte.18", "Name": null, "description": null, "timestamp": null, "begin": null, "end": null, "altitudeMode": null, "tessellate": -1, "extrude": 0, "visibility": -1, "drawOrder": null, "icon": null, "REG": "Los Lagos", "COM": "Chaitén", "LOC": "Villa Santa Lucía", "ZONA": "R-3", "NOM": "Área de restricción y eliminación de obstáculos del aeródromo.", "UPERM": "Equipamiento recreacional deportivo, áreas verdes y vialidad.", "UPROH": "Todos los no indicados como permitidos.", "P_DO": "07/10/1987", "N_DOC": "128", "T_DO": "Decreto", "OBS": null }, "geometry": { "type": "Polygon", "coordinates": [ [ [ -72.373814106466995, -43.415154760048701 ], [ -72.374016333703693, -43.4155523469529 ], [ -72.374350110565999, -43.413990197045401 ], [ -72.374968791316206, -43.411726814665002 ], [ -72.375302745820406, -43.409911133047501 ], [ -72.371339267791598, -43.409882161778398 ], [ -72.371471824518395, -43.410049787097698 ], [ -72.371609076695293, -43.4104030657601 ], [ -72.371679684635694, -43.410615378957203 ], [ -72.371696327190094, -43.410915044836898 ], [ -72.371778824186194, -43.411341405212099 ], [ -72.371992000722301, -43.4116495627392 ], [ -72.371977423391698, -43.412093081644301 ], [ -72.371814729180102, -43.412340867764698 ], [ -72.371852532832406, -43.4126684952179 ], [ -72.371884788700399, -43.412896233462497 ], [ -72.372500558725505, -43.413392609219699 ], [ -72.372888332097602, -43.413667023679501 ], [ -72.372999684061, -43.413906720059202 ], [ -72.373468784120206, -43.414261561926502 ], [ -72.373790173337596, -43.4146490655421 ], [ -72.373806715505694, -43.414669010527099 ], [ -72.373817819092196, -43.4148687875023 ], [ -72.373814106466995, -43.415154760048701 ] ] ] } },
{ "type": "Feature", "properties": { "id": "monoparte.19", "Name": null, "description": null, "timestamp": null, "begin": null, "end": null, "altitudeMode": null, "tessellate": -1, "extrude": 0, "visibility": -1, "drawOrder": null, "icon": null, "REG": "Los Lagos", "COM": "Chaitén", "LOC": "Villa Santa Lucía", "ZONA": "R-5", "NOM": "Área de protección del medio ambiente natural", "UPERM": "Equipamiento e instalaciones militares, equipamiento recreacional y deportivo, vivienda, áreas verdes y vialidad.", "UPROH": "Todos los no indicados como permitidos.", "P_DO": "07/10/1987", "N_DOC": "128", "T_DO": "Decreto", "OBS": null }, "geometry": { "type": "Polygon", "coordinates": [ [ [ -72.357015728397997, -43.415082555819097 ], [ -72.356529631421907, -43.415156395425797 ], [ -72.356182459424701, -43.415083219677101 ], [ -72.356010784263404, -43.4149334211642 ], [ -72.355905676008902, -43.414805487485701 ], [ -72.354448041249199, -43.415038878334698 ], [ -72.353991937848306, -43.415064182162197 ], [ -72.353488730238297, -43.4151089191894 ], [ -72.354019735991201, -43.415567280201302 ], [ -72.354922326817999, -43.415933836845298 ], [ -72.356194745263295, -43.415896458574103 ], [ -72.356735047833496, -43.415916315816602 ], [ -72.357109190464698, -43.4164770477594 ], [ -72.357728040247295, -43.417030585542399 ], [ -72.359041937755407, -43.417742347994398 ], [ -72.359874356149703, -43.418611190667399 ], [ -72.362477644020203, -43.417819929167301 ], [ -72.363118963889903, -43.417562099161003 ], [ -72.362899298612106, -43.417172581760497 ], [ -72.362556563467194, -43.416884896737102 ], [ -72.362080033902998, -43.416541594667997 ], [ -72.361037013522903, -43.416000561228898 ], [ -72.360446966600804, -43.415672503111999 ], [ -72.359858901813993, -43.415380116041902 ], [ -72.359500536768294, -43.4151047922239 ], [ -72.358997334392498, -43.414869459763104 ], [ -72.358657262555099, -43.414629328667502 ], [ -72.358391654720194, -43.414553761392703 ], [ -72.3575415545114, -43.414840793176801 ], [ -72.357224632524705, -43.414986506655303 ], [ -72.357015728397997, -43.415082555819097 ] ] ] } },
{ "type": "Feature", "properties": { "id": "monoparte.20", "Name": null, "description": null, "timestamp": null, "begin": null, "end": null, "altitudeMode": null, "tessellate": -1, "extrude": 0, "visibility": -1, "drawOrder": null, "icon": null, "REG": "Los Lagos", "COM": "Chaitén", "LOC": "Villa Santa Lucía", "ZONA": "R-5", "NOM": "Área de protección del medio ambiente natural", "UPERM": "Equipamiento e instalaciones militares, equipamiento recreacional y deportivo, vivienda, áreas verdes y vialidad.", "UPROH": "Todos los no indicados como permitidos.", "P_DO": "07/10/1987", "N_DOC": "128", "T_DO": "Decreto", "OBS": null }, "geometry": { "type": "Polygon", "coordinates": [ [ [ -72.357348484728007, -43.414114374592401 ], [ -72.357783482229195, -43.414488262872503 ], [ -72.358252675630595, -43.414406908019998 ], [ -72.357742113041695, -43.414137634923897 ], [ -72.357653451926396, -43.414082148267298 ], [ -72.357086017281503, -43.413748643190999 ], [ -72.356809130033, -43.413528089739899 ], [ -72.356535795340903, -43.413371749990397 ], [ -72.356362308217498, -43.413248209186499 ], [ -72.356247151459499, -43.413115807254897 ], [ -72.356133574267204, -43.413011945119003 ], [ -72.356107688356403, -43.412898360362703 ], [ -72.356062621129198, -43.412792485278899 ], [ -72.355978011731295, -43.4126806257716 ], [ -72.355879899565196, -43.412534509959499 ], [ -72.355040473043005, -43.412750132654502 ], [ -72.355614653316096, -43.413201090471397 ], [ -72.356486663363597, -43.4138424865518 ], [ -72.357220196828195, -43.414106794284102 ], [ -72.357348484728007, -43.414114374592401 ] ] ] } },
{ "type": "Feature", "properties": { "id": "monoparte.21", "Name": null, "description": null, "timestamp": null, "begin": null, "end": null, "altitudeMode": null, "tessellate": -1, "extrude": 0, "visibility": -1, "drawOrder": null, "icon": null, "REG": "Los Lagos", "COM": "Chaitén", "LOC": "Villa Santa Lucía", "ZONA": "R-5", "NOM": "Área de protección del medio ambiente natural", "UPERM": "Equipamiento e instalaciones militares, equipamiento recreacional y deportivo, vivienda, áreas verdes y vialidad.", "UPROH": "Todos los no indicados como permitidos.", "P_DO": "07/10/1987", "N_DOC": "128", "T_DO": "Decreto", "OBS": null }, "geometry": { "type": "Polygon", "coordinates": [ [ [ -72.370568135019795, -43.408147987252001 ], [ -72.371196854642903, -43.4086285842276 ], [ -72.370943197028893, -43.408650363198298 ], [ -72.370659108664896, -43.408830264287197 ], [ -72.370653795373997, -43.409087698798402 ], [ -72.370928361434395, -43.4094010076061 ], [ -72.371239876962605, -43.409756475658803 ], [ -72.371339267791598, -43.409882161778398 ], [ -72.375302745820406, -43.409911133047501 ], [ -72.375352414593806, -43.409641080183803 ], [ -72.375727717388699, -43.408379438316402 ], [ -72.371517850425704, -43.408534740663598 ], [ -72.371252289869801, -43.408053335626597 ], [ -72.370782506751894, -43.406712342924003 ], [ -72.370766663356804, -43.406426947225697 ], [ -72.370647018270603, -43.406037414441798 ], [ -72.370732996838399, -43.405820479955601 ], [ -72.371049761767694, -43.405346603171402 ], [ -72.371266682564894, -43.404839939784601 ], [ -72.371630387429704, -43.404328943558603 ], [ -72.371639701603996, -43.403614008616799 ], [ -72.371516579385798, -43.4026467490825 ], [ -72.371018964609704, -43.402832414727499 ], [ -72.3710991501667, -43.402853273973399 ], [ -72.371175804710902, -43.402880283267301 ], [ -72.371248044154299, -43.402913131974501 ], [ -72.371315034904896, -43.402951440445101 ], [ -72.371376002845295, -43.402994766050902 ], [ -72.371430247342403, -43.4030426108746 ], [ -72.371477139964199, -43.403094420846898 ], [ -72.371516140072899, -43.403149599691098 ], [ -72.371546798573505, -43.403207509712303 ], [ -72.371568761079303, -43.403267484308998 ], [ -72.371581774176803, -43.403328829587799 ], [ -72.371585688691297, -43.403390838672898 ], [ -72.371580458705097, -43.4034527962366 ], [ -72.371566143290906, -43.403513987451603 ], [ -72.371542909428697, -43.403573706007897 ], [ -72.371511025108504, -43.403631263320797 ], [ -72.371470857266203, -43.403685995794397 ], [ -72.371422869618002, -43.403737270288197 ], [ -72.371367614680395, -43.403784496058002 ], [ -72.371305732737596, -43.403827128387903 ], [ -72.3712379349316, -43.403864675392803 ], [ -72.371165006076595, -43.403896704238498 ], [ -72.371087785083503, -43.403922844420499 ], [ -72.371007164125203, -43.403942794992801 ], [ -72.370924073891302, -43.403956325903103 ], [ -72.370839471358394, -43.403963280155402 ], [ -72.370744089295897, -43.4042692215058 ], [ -72.370452025748307, -43.404599437012301 ], [ -72.370024861087103, -43.404850260075797 ], [ -72.369473998198302, -43.405521614473201 ], [ -72.369113383309099, -43.405794292708798 ], [ -72.369017685660495, -43.406130623535397 ], [ -72.368993827646406, -43.406583944604101 ], [ -72.369008528201306, -43.407143327593303 ], [ -72.369229604010798, -43.407254324364999 ], [ -72.369550864847795, -43.407322125844502 ], [ -72.369886371796994, -43.4073622541489 ], [ -72.370055510261494, -43.4074072907747 ], [ -72.370226630336106, -43.4074880011324 ], [ -72.370292080925694, -43.407607562365101 ], [ -72.370297625536196, -43.407707450889802 ], [ -72.370303566246804, -43.407814474756002 ], [ -72.370253184989494, -43.407936232649298 ], [ -72.370568135019795, -43.408147987252001 ] ] ] } },
{ "type": "Feature", "properties": { "id": "monoparte.22", "Name": null, "description": null, "timestamp": null, "begin": null, "end": null, "altitudeMode": null, "tessellate": -1, "extrude": 0, "visibility": -1, "drawOrder": null, "icon": null, "REG": "Los Lagos", "COM": "Chaitén", "LOC": "Villa Santa Lucía", "ZONA": "R-5", "NOM": "Área de protección del medio ambiente natural", "UPERM": "Equipamiento e instalaciones militares, equipamiento recreacional y deportivo, vivienda, áreas verdes y vialidad.", "UPROH": "Todos los no indicados como permitidos.", "P_DO": "07/10/1987", "N_DOC": "128", "T_DO": "Decreto", "OBS": null }, "geometry": { "type": "Polygon", "coordinates": [ [ [ -72.364345366753398, -43.403757610525602 ], [ -72.361620496518299, -43.406767937674701 ], [ -72.361721229759993, -43.408587355079703 ], [ -72.361825923341001, -43.4104781221479 ], [ -72.361544168663599, -43.410700811399899 ], [ -72.359718210505704, -43.411361991851301 ], [ -72.356297045862107, -43.412427354702501 ], [ -72.356116949388706, -43.412473617799698 ], [ -72.356382446958605, -43.4127259156893 ], [ -72.3564592429382, -43.412873737834602 ], [ -72.356569740261406, -43.4130991815721 ], [ -72.3567342296964, -43.413237280529898 ], [ -72.356987988171099, -43.413394194216899 ], [ -72.357471990498198, -43.413637247028603 ], [ -72.3578647514328, -43.413825806385297 ], [ -72.358128372583593, -43.413984864845702 ], [ -72.358268212652206, -43.414195572458702 ], [ -72.360472602319803, -43.413285063752497 ], [ -72.360302143347795, -43.413056345781598 ], [ -72.359295633850493, -43.412287913642302 ], [ -72.365379471498699, -43.410036324058197 ], [ -72.365842611124904, -43.409844013326797 ], [ -72.3665797407116, -43.4095840709969 ], [ -72.366613994132805, -43.409023244994799 ], [ -72.367558534993805, -43.408673806642597 ], [ -72.367563675012605, -43.4099390422084 ], [ -72.367791168599197, -43.409873292619203 ], [ -72.369930834937307, -43.409837981417397 ], [ -72.369941468700404, -43.409323113165897 ], [ -72.369656354607798, -43.409131419933402 ], [ -72.369813504697703, -43.408783747351201 ], [ -72.369815653616499, -43.408469233574401 ], [ -72.369802189748597, -43.408226647065298 ], [ -72.369323052642699, -43.407791656825403 ], [ -72.368603404841195, -43.407202919477598 ], [ -72.368592483796704, -43.407152358780998 ], [ -72.368493484855307, -43.406693988546301 ], [ -72.368546009616296, -43.406168355501897 ], [ -72.368581874929703, -43.405921620209099 ], [ -72.368605130779102, -43.405761638780199 ], [ -72.368794070899398, -43.405339181829703 ], [ -72.369108869721302, -43.404829635891701 ], [ -72.369575730028799, -43.404410891112299 ], [ -72.370172400238403, -43.403976403846698 ], [ -72.370263659147099, -43.403854602252203 ], [ -72.370156833657205, -43.403542365271299 ], [ -72.370146661926796, -43.4035126348641 ], [ -72.370115173992104, -43.403239610440103 ], [ -72.370147604248203, -43.402940879486799 ], [ -72.371492604967102, -43.402458402431499 ], [ -72.370229320933802, -43.401660564775597 ], [ -72.364345366753398, -43.403757610525602 ] ], [ [ -72.367974225198694, -43.405661294312203 ], [ -72.367925534142103, -43.405826829851698 ], [ -72.367856751798499, -43.405813684078502 ], [ -72.367790948099596, -43.405794037203997 ], [ -72.367729275695496, -43.4057682315999 ], [ -72.367672810610003, -43.405736719941899 ], [ -72.367622542910993, -43.405700052879297 ], [ -72.367579349037598, -43.405658869946002 ], [ -72.367543985287099, -43.405613893449001 ], [ -72.367517068125395, -43.405565907440099 ], [ -72.367499071423097, -43.405515752394301 ], [ -72.367490306767294, -43.405464304181102 ], [ -72.3674909277469, -43.405412462233201 ], [ -72.367500924125395, -43.405361133511597 ], [ -72.367520122129406, -43.405311215390597 ], [ -72.3675481848353, -43.405263580340097 ], [ -72.367584621187305, -43.405219060354398 ], [ -72.367628795213506, -43.405178434976399 ], [ -72.367679934943197, -43.405142413928303 ], [ -72.367737145420307, -43.405111626824997 ], [ -72.367799426548999, -43.405086610944103 ], [ -72.367865690053705, -43.405067805324599 ], [ -72.367934776040997, -43.405055537673803 ], [ -72.368005478838299, -43.405050022706199 ], [ -72.368072501601006, -43.405051096969402 ], [ -72.368138818869099, -43.405058242393402 ], [ -72.368203402014402, -43.405071347953502 ], [ -72.368180649879207, -43.4052299855367 ], [ -72.368149366242207, -43.405284507104497 ], [ -72.368099699099105, -43.405361010905096 ], [ -72.368087790668795, -43.405411387654901 ], [ -72.368052010559595, -43.4054731888072 ], [ -72.368022186734805, -43.405534641461202 ], [ -72.368008026729598, -43.405563818160203 ], [ -72.367974225198694, -43.405661294312203 ] ], [ [ -72.367780252764106, -43.406370512451502 ], [ -72.367776754561405, -43.4067069672599 ], [ -72.367540799866205, -43.406695764251502 ], [ -72.367472015362097, -43.4066826183142 ], [ -72.3674062107644, -43.4066629703484 ], [ -72.367344537654802, -43.4066371654623 ], [ -72.367288073153702, -43.406605653601702 ], [ -72.367237803691395, -43.406568986426798 ], [ -72.367194609414994, -43.406527803364803 ], [ -72.367159245346102, -43.406482825862703 ], [ -72.367132329337693, -43.406434840634397 ], [ -72.367114331364704, -43.406384684669703 ], [ -72.367105566911903, -43.406333237325697 ], [ -72.367106188183101, -43.406281395375302 ], [ -72.367116186219704, -43.406230066642102 ], [ -72.367135383541907, -43.406180148609003 ], [ -72.367163446915299, -43.406132513635903 ], [ -72.367199885272299, -43.406087993715801 ], [ -72.367244060161894, -43.406047368462403 ], [ -72.367295199598104, -43.4060113475959 ], [ -72.367352411024399, -43.405980559756998 ], [ -72.3674146932442, -43.4059555449535 ], [ -72.367480957814195, -43.405936739524499 ], [ -72.367550046104995, -43.405924472036602 ], [ -72.367620749959599, -43.4059189572734 ], [ -72.367687772457302, -43.405920031767302 ], [ -72.367754090649996, -43.4059271773841 ], [ -72.3678186758452, -43.405940282197299 ], [ -72.367795921281598, -43.406098919763998 ], [ -72.367764638175601, -43.406153442108199 ], [ -72.367780252764106, -43.406370512451502 ] ], [ [ -72.366007538800503, -43.407867332931502 ], [ -72.365946116437698, -43.4078726839521 ], [ -72.365884300863001, -43.407870964320203 ], [ -72.365823615856698, -43.407862215570397 ], [ -72.365765555311, -43.407846652989797 ], [ -72.365711549589903, -43.407824660306197 ], [ -72.365662926657905, -43.407796779128297 ], [ -72.365620885439995, -43.407763696224301 ], [ -72.365586460202294, -43.407726224762698 ], [ -72.365560498695302, -43.4076852887491 ], [ -72.365543640883502, -43.407641895740802 ], [ -72.365536301673203, -43.407597114845899 ], [ -72.365538660639899, -43.407552047313899 ], [ -72.365550660785104, -43.4075078040633 ], [ -72.365572006795105, -43.407465474219997 ], [ -72.365602172328906, -43.407426100593803 ], [ -72.365640414503602, -43.407390651340897 ], [ -72.365685792576002, -43.407360000506699 ], [ -72.365737187508799, -43.407334902240699 ], [ -72.365793335644497, -43.407315974498601 ], [ -72.365852853799097, -43.407303683898498 ], [ -72.365914276833294, -43.407298332910003 ], [ -72.365976090590493, -43.407300052581398 ], [ -72.366036775046595, -43.407308801268599 ], [ -72.366094835129999, -43.407324363727099 ], [ -72.366148841755205, -43.407346356204698 ], [ -72.366197463290902, -43.407374237218399 ], [ -72.366239505809801, -43.407407320772997 ], [ -72.366273929962702, -43.407444791169503 ], [ -72.366299891828007, -43.407485727009799 ], [ -72.366316750123403, -43.407529119891002 ], [ -72.366324091178001, -43.407573901580001 ], [ -72.366321731513096, -43.407618968246297 ], [ -72.366309731918193, -43.407663211559502 ], [ -72.3662883863704, -43.407705541524898 ], [ -72.366258222448195, -43.407744916183297 ], [ -72.366219979154096, -43.407780364774297 ], [ -72.366174602296397, -43.407811015783999 ], [ -72.366123205932695, -43.407836114288997 ], [ -72.366067057438698, -43.407855042204403 ], [ -72.366007538800503, -43.407867332931502 ] ] ] } },
{ "type": "Feature", "properties": { "id": "monoparte.23", "Name": null, "description": null, "timestamp": null, "begin": null, "end": null, "altitudeMode": null, "tessellate": -1, "extrude": 0, "visibility": -1, "drawOrder": null, "icon": null, "REG": "Los Lagos", "COM": "Chaitén", "LOC": "Villa Santa Lucía", "ZONA": "Zona Difusa", "NOM": "Sin información", "UPERM": "Sin información", "UPROH": "Sin información", "P_DO": "07/10/1987", "N_DOC": "128", "T_DO": "Decreto", "OBS": null }, "geometry": { "type": "Polygon", "coordinates": [ [ [ -72.365311916519801, -43.415899503585997 ], [ -72.366542167331502, -43.415917078069199 ], [ -72.366553127252004, -43.415417230419301 ], [ -72.365313973129005, -43.4153649962157 ], [ -72.365313870181595, -43.415391721813599 ], [ -72.365311916519801, -43.415899503585997 ] ] ] } },
{ "type": "Feature", "properties": { "id": "monoparte.24", "Name": null, "description": null, "timestamp": null, "begin": null, "end": null, "altitudeMode": null, "tessellate": -1, "extrude": 0, "visibility": -1, "drawOrder": null, "icon": null, "REG": "Los Lagos", "COM": "Chaitén", "LOC": "Villa Santa Lucía", "ZONA": "Zona Difusa", "NOM": "Sin información", "UPERM": "Sin información", "UPROH": "Sin información", "P_DO": "07/10/1987", "N_DOC": "128", "T_DO": "Decreto", "OBS": null }, "geometry": { "type": "Polygon", "coordinates": [ [ [ -72.366580907788403, -43.414150162750502 ], [ -72.367750346617697, -43.414137241511803 ], [ -72.367752142216204, -43.413717994531098 ], [ -72.367752265274206, -43.413705875712601 ], [ -72.367756875092198, -43.413251665046701 ], [ -72.366616279638905, -43.413265900663603 ], [ -72.366580907788403, -43.414150162750502 ] ] ] } },
{ "type": "Feature", "properties": { "id": "monoparte.25", "Name": null, "description": null, "timestamp": null, "begin": null, "end": null, "altitudeMode": null, "tessellate": -1, "extrude": 0, "visibility": -1, "drawOrder": null, "icon": null, "REG": "Los Lagos", "COM": "Chaitén", "LOC": "Villa Santa Lucía", "ZONA": "Zona Difusa", "NOM": "Sin información", "UPERM": "Sin información", "UPROH": "Sin información", "P_DO": "07/10/1987", "N_DOC": "128", "T_DO": "Decreto", "OBS": null }, "geometry": { "type": "Polygon", "coordinates": [ [ [ -72.365324695418494, -43.412578982137397 ], [ -72.3666232113316, -43.412542262903997 ], [ -72.366631162717496, -43.411712179222903 ], [ -72.365327901265601, -43.411746495692398 ], [ -72.365324695418494, -43.412578982137397 ] ] ] } },
{ "type": "Feature", "properties": { "id": "monoparte.26", "Name": null, "description": null, "timestamp": null, "begin": null, "end": null, "altitudeMode": null, "tessellate": -1, "extrude": 0, "visibility": -1, "drawOrder": null, "icon": null, "REG": "Los Lagos", "COM": "Chaitén", "LOC": "Villa Santa Lucía", "ZONA": "R-4", "NOM": "Área de protección de vertientes y cauces naturales de agua.", "UPERM": "Áreas verdes", "UPROH": "Todos los no indicados como permitidos.", "P_DO": "07/10/1987", "N_DOC": "128", "T_DO": "Decreto", "OBS": null }, "geometry": { "type": "Polygon", "coordinates": [ [ [ -72.365884300863001, -43.407870964320203 ], [ -72.365946116437698, -43.4078726839521 ], [ -72.366007538800503, -43.407867332931502 ], [ -72.366067057438698, -43.407855042204403 ], [ -72.366123205932695, -43.407836114288997 ], [ -72.366174602296397, -43.407811015783999 ], [ -72.366219979154096, -43.407780364774297 ], [ -72.366258222448195, -43.407744916183297 ], [ -72.3662883863704, -43.407705541524898 ], [ -72.366309731918193, -43.407663211559502 ], [ -72.366321731513096, -43.407618968246297 ], [ -72.366324091178001, -43.407573901580001 ], [ -72.366316750123403, -43.407529119891002 ], [ -72.366299891828007, -43.407485727009799 ], [ -72.366273929962702, -43.407444791169503 ], [ -72.366239505809801, -43.407407320772997 ], [ -72.366197463290902, -43.407374237218399 ], [ -72.366148841755205, -43.407346356204698 ], [ -72.366094835129999, -43.407324363727099 ], [ -72.366036775046595, -43.407308801268599 ], [ -72.365976090590493, -43.407300052581398 ], [ -72.365914276833294, -43.407298332910003 ], [ -72.365852853799097, -43.407303683898498 ], [ -72.365793335644497, -43.407315974498601 ], [ -72.365737187508799, -43.407334902240699 ], [ -72.365685792576002, -43.407360000506699 ], [ -72.365640414503602, -43.407390651340897 ], [ -72.365602172328906, -43.407426100593803 ], [ -72.365572006795105, -43.407465474219997 ], [ -72.365550660785104, -43.4075078040633 ], [ -72.365538660639899, -43.407552047313899 ], [ -72.365536301673203, -43.407597114845899 ], [ -72.365543640883502, -43.407641895740802 ], [ -72.365560498695302, -43.4076852887491 ], [ -72.365586460202294, -43.407726224762698 ], [ -72.365620885439995, -43.407763696224301 ], [ -72.365662926657905, -43.407796779128297 ], [ -72.365711549589903, -43.407824660306197 ], [ -72.365765555311, -43.407846652989797 ], [ -72.365823615856698, -43.407862215570397 ], [ -72.365884300863001, -43.407870964320203 ] ] ] } },
{ "type": "Feature", "properties": { "id": "monoparte.27", "Name": null, "description": null, "timestamp": null, "begin": null, "end": null, "altitudeMode": null, "tessellate": -1, "extrude": 0, "visibility": -1, "drawOrder": null, "icon": null, "REG": "Los Lagos", "COM": "Chaitén", "LOC": "Villa Santa Lucía", "ZONA": "R-4", "NOM": "Área de protección de vertientes y cauces naturales de agua.", "UPERM": "Áreas verdes", "UPROH": "Todos los no indicados como permitidos.", "P_DO": "07/10/1987", "N_DOC": "128", "T_DO": "Decreto", "OBS": null }, "geometry": { "type": "Polygon", "coordinates": [ [ [ -72.367540799866205, -43.406695764251502 ], [ -72.367776754561405, -43.4067069672599 ], [ -72.367780252764106, -43.406370512451502 ], [ -72.367764638175601, -43.406153442108199 ], [ -72.367795921281598, -43.406098919763998 ], [ -72.3678186758452, -43.405940282197299 ], [ -72.367754090649996, -43.4059271773841 ], [ -72.367687772457302, -43.405920031767302 ], [ -72.367620749959599, -43.4059189572734 ], [ -72.367550046104995, -43.405924472036602 ], [ -72.367480957814195, -43.405936739524499 ], [ -72.3674146932442, -43.4059555449535 ], [ -72.367352411024399, -43.405980559756998 ], [ -72.367295199598104, -43.4060113475959 ], [ -72.367244060161894, -43.406047368462403 ], [ -72.367199885272299, -43.406087993715801 ], [ -72.367163446915299, -43.406132513635903 ], [ -72.367135383541907, -43.406180148609003 ], [ -72.367116186219704, -43.406230066642102 ], [ -72.367106188183101, -43.406281395375302 ], [ -72.367105566911903, -43.406333237325697 ], [ -72.367114331364704, -43.406384684669703 ], [ -72.367132329337693, -43.406434840634397 ], [ -72.367159245346102, -43.406482825862703 ], [ -72.367194609414994, -43.406527803364803 ], [ -72.367237803691395, -43.406568986426798 ], [ -72.367288073153702, -43.406605653601702 ], [ -72.367344537654802, -43.4066371654623 ], [ -72.3674062107644, -43.4066629703484 ], [ -72.367472015362097, -43.4066826183142 ], [ -72.367540799866205, -43.406695764251502 ] ] ] } },
{ "type": "Feature", "properties": { "id": "monoparte.28", "Name": null, "description": null, "timestamp": null, "begin": null, "end": null, "altitudeMode": null, "tessellate": -1, "extrude": 0, "visibility": -1, "drawOrder": null, "icon": null, "REG": "Los Lagos", "COM": "Chaitén", "LOC": "Villa Santa Lucía", "ZONA": "R-4", "NOM": "Área de protección de vertientes y cauces naturales de agua.", "UPERM": "Áreas verdes", "UPROH": "Todos los no indicados como permitidos.", "P_DO": "07/10/1987", "N_DOC": "128", "T_DO": "Decreto", "OBS": null }, "geometry": { "type": "Polygon", "coordinates": [ [ [ -72.367856751798499, -43.405813684078502 ], [ -72.367925534142103, -43.405826829851698 ], [ -72.367974225198694, -43.405661294312203 ], [ -72.368008026729598, -43.405563818160203 ], [ -72.368022186734805, -43.405534641461202 ], [ -72.368052010559595, -43.4054731888072 ], [ -72.368087790668795, -43.405411387654901 ], [ -72.368099699099105, -43.405361010905096 ], [ -72.368149366242207, -43.405284507104497 ], [ -72.368180649879207, -43.4052299855367 ], [ -72.368203402014402, -43.405071347953502 ], [ -72.368138818869099, -43.405058242393402 ], [ -72.368072501601006, -43.405051096969402 ], [ -72.368005478838299, -43.405050022706199 ], [ -72.367934776040997, -43.405055537673803 ], [ -72.367865690053705, -43.405067805324599 ], [ -72.367799426548999, -43.405086610944103 ], [ -72.367737145420307, -43.405111626824997 ], [ -72.367679934943197, -43.405142413928303 ], [ -72.367628795213506, -43.405178434976399 ], [ -72.367584621187305, -43.405219060354398 ], [ -72.3675481848353, -43.405263580340097 ], [ -72.367520122129406, -43.405311215390597 ], [ -72.367500924125395, -43.405361133511597 ], [ -72.3674909277469, -43.405412462233201 ], [ -72.367490306767294, -43.405464304181102 ], [ -72.367499071423097, -43.405515752394301 ], [ -72.367517068125395, -43.405565907440099 ], [ -72.367543985287099, -43.405613893449001 ], [ -72.367579349037598, -43.405658869946002 ], [ -72.367622542910993, -43.405700052879297 ], [ -72.367672810610003, -43.405736719941899 ], [ -72.367729275695496, -43.4057682315999 ], [ -72.367790948099596, -43.405794037203997 ], [ -72.367856751798499, -43.405813684078502 ] ] ] } },
{ "type": "Feature", "properties": { "id": "monoparte.29", "Name": null, "description": null, "timestamp": null, "begin": null, "end": null, "altitudeMode": null, "tessellate": -1, "extrude": 0, "visibility": -1, "drawOrder": null, "icon": null, "REG": "Los Lagos", "COM": "Chaitén", "LOC": "Villa Santa Lucía", "ZONA": "R-4", "NOM": "Área de protección de vertientes y cauces naturales de agua.", "UPERM": "Áreas verdes", "UPROH": "Todos los no indicados como permitidos.", "P_DO": "07/10/1987", "N_DOC": "128", "T_DO": "Decreto", "OBS": null }, "geometry": { "type": "Polygon", "coordinates": [ [ [ -72.3708827621479, -43.403824422739298 ], [ -72.370839471358394, -43.403963280155402 ], [ -72.370924073891302, -43.403956325903103 ], [ -72.371007164125203, -43.403942794992801 ], [ -72.371087785083503, -43.403922844420499 ], [ -72.371165006076595, -43.403896704238498 ], [ -72.3712379349316, -43.403864675392803 ], [ -72.371305732737596, -43.403827128387903 ], [ -72.371367614680395, -43.403784496058002 ], [ -72.371422869618002, -43.403737270288197 ], [ -72.371470857266203, -43.403685995794397 ], [ -72.371511025108504, -43.403631263320797 ], [ -72.371542909428697, -43.403573706007897 ], [ -72.371566143290906, -43.403513987451603 ], [ -72.371580458705097, -43.4034527962366 ], [ -72.371585688691297, -43.403390838672898 ], [ -72.371581774176803, -43.403328829587799 ], [ -72.371568761079303, -43.403267484308998 ], [ -72.371546798573505, -43.403207509712303 ], [ -72.371516140072899, -43.403149599691098 ], [ -72.371477139964199, -43.403094420846898 ], [ -72.371430247342403, -43.4030426108746 ], [ -72.371376002845295, -43.402994766050902 ], [ -72.371315034904896, -43.402951440445101 ], [ -72.371248044154299, -43.402913131974501 ], [ -72.371175804710902, -43.402880283267301 ], [ -72.3710991501667, -43.402853273973399 ], [ -72.371018964609704, -43.402832414727499 ], [ -72.370431462411702, -43.403051614467003 ], [ -72.370793100666205, -43.403386361883399 ], [ -72.3708827621479, -43.403824422739298 ] ] ] } }
]
}
