{
"type": "FeatureCollection",
"name": "IPT_05_PRC_SCC_El_Tabo",
"crs": { "type": "name", "properties": { "name": "urn:ogc:def:crs:OGC:1.3:CRS84" } },
"features": [
{ "type": "Feature", "properties": { "id": "monoparte.1", "Name": null, "description": null, "timestamp": null, "begin": null, "end": null, "altitudeMode": null, "tessellate": -1, "extrude": 0, "visibility": -1, "drawOrder": null, "icon": null, "REG": "Valparaíso", "COM": "El Tabo", "LOC": "Eduardo Romero", "ZONA": "Z8", "NOM": "Zona Z8", "UPERM": "Vivienda, equipamiento de  salud, educacional, seguridad, culto, cultura, organización, comunitaria, áreas verdes, esparcimiento y turismo, comercio minorista y servicios comunal; act. productivas inofensivos. Mayor detalle en ordenanza.", "UPROH": "Todos  aquellos no señalados como permitidos.", "P_DO": "13/01/2010", "N_DOC": "3391", "T_DO": "Decreto", "OBS": null }, "geometry": { "type": "Polygon", "coordinates": [ [ [ -71.622673505376696, -33.493470757203703 ], [ -71.623023499135101, -33.4935531951107 ], [ -71.623078262245997, -33.493566093648099 ], [ -71.623282586151106, -33.493487338781499 ], [ -71.623343114642694, -33.493511819557099 ], [ -71.623406884846304, -33.493530506504698 ], [ -71.623432999319903, -33.493534976037701 ], [ -71.623435464841407, -33.493528494538801 ], [ -71.6235709177909, -33.493172383077997 ], [ -71.623644383932501, -33.492990505098902 ], [ -71.623735165372295, -33.4927657581757 ], [ -71.623619915306094, -33.492720491269502 ], [ -71.623435144163594, -33.492655536686001 ], [ -71.6230470434636, -33.492474829067099 ], [ -71.622905973202293, -33.492777085067601 ], [ -71.622857159230193, -33.492881672474603 ], [ -71.622853154717006, -33.492955982825599 ], [ -71.622784662831293, -33.493177134848303 ], [ -71.622673505376696, -33.493470757203703 ] ] ] } },
{ "type": "Feature", "properties": { "id": "monoparte.2", "Name": null, "description": null, "timestamp": null, "begin": null, "end": null, "altitudeMode": null, "tessellate": -1, "extrude": 0, "visibility": -1, "drawOrder": null, "icon": null, "REG": "Valparaíso", "COM": "El Tabo", "LOC": "Eduardo Romero", "ZONA": "Z3", "NOM": "Zona Z3", "UPERM": "Vivienda; equipamiento de áreas verdes, esparcimeinto y turismo (sólo hoteles, moteles y campings) interubana; actividades productivas, servicios artesanales de todos tipo.  Mayor detalle en ordenanza.", "UPROH": "Todos aquellos no señalados como permitidos.", "P_DO": "13/01/2010", "N_DOC": "3391", "T_DO": "Decreto", "OBS": null }, "geometry": { "type": "Polygon", "coordinates": [ [ [ -71.622647014575406, -33.4935407337871 ], [ -71.622503484766298, -33.493743437861902 ], [ -71.622395151515605, -33.493898194366103 ], [ -71.622320133993497, -33.494007814714799 ], [ -71.622191832867003, -33.494363319093502 ], [ -71.622067825922201, -33.494738531428503 ], [ -71.621924686181401, -33.495033544454202 ], [ -71.621799670315795, -33.495237548966699 ], [ -71.621630695737906, -33.495582249161103 ], [ -71.621561209755896, -33.495732812377597 ], [ -71.621419279137797, -33.496124649411598 ], [ -71.621212615551897, -33.496635936589001 ], [ -71.621119928388396, -33.496866904407 ], [ -71.621067978471402, -33.496949070897202 ], [ -71.621096090001203, -33.497002640911298 ], [ -71.621118172893205, -33.497055131297103 ], [ -71.621128757798104, -33.497095462740099 ], [ -71.621129753536906, -33.497099256306697 ], [ -71.621137790284806, -33.497139162039801 ], [ -71.621140792109202, -33.497182036912903 ], [ -71.621147379896996, -33.497230560999498 ], [ -71.621146794695903, -33.497267786680702 ], [ -71.621147151731506, -33.497279626068398 ], [ -71.621147873085107, -33.497303546316701 ], [ -71.621153339375297, -33.497314880848997 ], [ -71.621165980822894, -33.497337513738699 ], [ -71.621195866244904, -33.497365506718701 ], [ -71.621259336976905, -33.497374181626398 ], [ -71.621319305894701, -33.497380068974003 ], [ -71.621389044850801, -33.497370004924001 ], [ -71.621414567856803, -33.497366602033701 ], [ -71.621460404219306, -33.497357043968996 ], [ -71.621497661707707, -33.497346235780697 ], [ -71.621519425072805, -33.497331462221801 ], [ -71.621581600485399, -33.497297226879603 ], [ -71.621616892861596, -33.497277246873097 ], [ -71.621918261639905, -33.496795208459098 ], [ -71.622158844465503, -33.496404240015103 ], [ -71.622576452709794, -33.495750555396903 ], [ -71.622830629124707, -33.495108250865201 ], [ -71.623230636907905, -33.494066987535902 ], [ -71.623432999319903, -33.493534976037701 ], [ -71.623406884846304, -33.493530506504698 ], [ -71.623343114642694, -33.493511819557099 ], [ -71.623282586151106, -33.493487338781499 ], [ -71.623078262245997, -33.493566093648099 ], [ -71.623023499135101, -33.4935531951107 ], [ -71.622673505376696, -33.493470757203703 ], [ -71.622668948740994, -33.493482794421702 ], [ -71.622647014575406, -33.4935407337871 ] ] ] } },
{ "type": "Feature", "properties": { "id": "monoparte.3", "Name": null, "description": null, "timestamp": null, "begin": null, "end": null, "altitudeMode": null, "tessellate": -1, "extrude": 0, "visibility": -1, "drawOrder": null, "icon": null, "REG": "Valparaíso", "COM": "El Tabo", "LOC": "Eduardo Romero", "ZONA": "ZR-2", "NOM": "ZR-2 Zona de Restrcción en Bordes de Esteros, Quebradas y Fuertes Pendientes", "UPERM": "Bosques y áreas verdes.", "UPROH": "Todos aquellos no señalados como permitidos.", "P_DO": "13/01/2010", "N_DOC": "3391", "T_DO": "Decreto", "OBS": null }, "geometry": { "type": "Polygon", "coordinates": [ [ [ -71.620829627797505, -33.497377839040603 ], [ -71.620820764447402, -33.4974238276194 ], [ -71.620817411540699, -33.4974825806407 ], [ -71.6208174720919, -33.497541262315302 ], [ -71.620822827469794, -33.4976055570433 ], [ -71.620837650021002, -33.497643887438002 ], [ -71.620854611716496, -33.497696486260701 ], [ -71.620866106046506, -33.497737749656899 ], [ -71.620876927773296, -33.497813378922501 ], [ -71.620900416636502, -33.497855820166201 ], [ -71.620966715919295, -33.497901649538598 ], [ -71.621011751694297, -33.497922165016902 ], [ -71.621027145334395, -33.497924151762497 ], [ -71.621097502981499, -33.497933231837301 ], [ -71.621172795021906, -33.497937363153198 ], [ -71.621217617696402, -33.497933361513901 ], [ -71.621344024151099, -33.497722210896399 ], [ -71.621464114993401, -33.497521609981902 ], [ -71.621616892861596, -33.497277246873097 ], [ -71.621581600485399, -33.497297226879603 ], [ -71.621519425072805, -33.497331462221801 ], [ -71.621497661707707, -33.497346235780697 ], [ -71.621460404219306, -33.497357043968996 ], [ -71.621414567856803, -33.497366602033701 ], [ -71.621389044850801, -33.497370004924001 ], [ -71.621319305894701, -33.497380068974003 ], [ -71.621259336976905, -33.497374181626398 ], [ -71.621195866244904, -33.497365506718701 ], [ -71.621165980822894, -33.497337513738699 ], [ -71.621153339375297, -33.497314880848997 ], [ -71.621147873085107, -33.497303546316701 ], [ -71.621147151731506, -33.497279626068398 ], [ -71.621146794695903, -33.497267786680702 ], [ -71.621147379896996, -33.497230560999498 ], [ -71.621140792109202, -33.497182036912903 ], [ -71.621137790284806, -33.497139162039801 ], [ -71.621129753536906, -33.497099256306697 ], [ -71.621128757798104, -33.497095462740099 ], [ -71.621118172893205, -33.497055131297103 ], [ -71.621096090001203, -33.497002640911298 ], [ -71.621067978471402, -33.496949070897202 ], [ -71.621039037172494, -33.496994847060499 ], [ -71.620891524064703, -33.4972281644283 ], [ -71.620850884544595, -33.497292441830801 ], [ -71.620846764232496, -33.497299191821 ], [ -71.620842121276397, -33.4973389295792 ], [ -71.620829627797505, -33.497377839040603 ] ] ] } },
{ "type": "Feature", "properties": { "id": "monoparte.4", "Name": null, "description": null, "timestamp": null, "begin": null, "end": null, "altitudeMode": null, "tessellate": -1, "extrude": 0, "visibility": -1, "drawOrder": null, "icon": null, "REG": "Valparaíso", "COM": "El Tabo", "LOC": "Eduardo Romero", "ZONA": "Z4", "NOM": "Zona Z4", "UPERM": "Vivienda; equipamiento de áreas verdes, organizaciones comunitarias interurbano; almacenamiento y talleres inofensivo, establecimientos de impacto similar. Mayor detalle en ordenanza.", "UPROH": "Todos aquellos no señalados como permitidos.", "P_DO": "13/01/2010", "N_DOC": "3391", "T_DO": "Decreto", "OBS": null }, "geometry": { "type": "Polygon", "coordinates": [ [ [ -71.619246936063007, -33.499601096739099 ], [ -71.619251840960004, -33.499604732796101 ], [ -71.619372058241694, -33.499520205939397 ], [ -71.619498996011401, -33.499424009913298 ], [ -71.619521185467605, -33.499404457337597 ], [ -71.619545478110595, -33.499379134238403 ], [ -71.619587695153996, -33.499343890351298 ], [ -71.619634292125099, -33.499302828662898 ], [ -71.619741144243093, -33.499220416265103 ], [ -71.619738522579894, -33.4992090214865 ], [ -71.619606469309801, -33.499135480042398 ], [ -71.619568518421701, -33.499161091205501 ], [ -71.619517540475798, -33.499207971575998 ], [ -71.619448410256396, -33.499257142812901 ], [ -71.619390660488406, -33.499306074165801 ], [ -71.6193350149683, -33.499349235855703 ], [ -71.619301558866397, -33.499372844083503 ], [ -71.619203467200094, -33.499443620557102 ], [ -71.619129898075698, -33.499496702871497 ], [ -71.619160237645303, -33.499520870278701 ], [ -71.619246936063007, -33.499601096739099 ] ] ] } },
{ "type": "Feature", "properties": { "id": "monoparte.5", "Name": null, "description": null, "timestamp": null, "begin": null, "end": null, "altitudeMode": null, "tessellate": -1, "extrude": 0, "visibility": -1, "drawOrder": null, "icon": null, "REG": "Valparaíso", "COM": "El Tabo", "LOC": "Eduardo Romero", "ZONA": "Z2", "NOM": "Zona Z2", "UPERM": "Vivienda; equipamiento de salud, educación, seguridad, culto, cultura, áreas verdes, esparcimeinto y turismo, comercio minorista, salvo terminales de distribución; servicios. Mayor detalle en ordenanza.", "UPROH": "Todos aquellos no señalados como permitidos.", "P_DO": "13/01/2010", "N_DOC": "3391", "T_DO": "Decreto", "OBS": null }, "geometry": { "type": "Polygon", "coordinates": [ [ [ -71.6180285110771, -33.499918608166901 ], [ -71.617934897658301, -33.500138142256397 ], [ -71.617768455083706, -33.500315633863003 ], [ -71.617625168824702, -33.500521429047303 ], [ -71.617833264926801, -33.5005766664436 ], [ -71.617985168429001, -33.500656946001001 ], [ -71.618151480329203, -33.500742884745002 ], [ -71.618445291389193, -33.5008689464591 ], [ -71.618587495183903, -33.500712314662898 ], [ -71.618612968845198, -33.5005371587403 ], [ -71.618652661227401, -33.500380309205099 ], [ -71.618777099362902, -33.500144378141499 ], [ -71.618778986562106, -33.5001413656707 ], [ -71.618811522892202, -33.500089433606199 ], [ -71.618724238035597, -33.500034285377801 ], [ -71.618624345146102, -33.500082966272402 ], [ -71.618585054863203, -33.500102113996 ], [ -71.618445883483602, -33.500019180292 ], [ -71.618395113719501, -33.499997353420703 ], [ -71.618394660083098, -33.499996227004601 ], [ -71.618321247067101, -33.499813802759498 ], [ -71.618122567859302, -33.499777822532799 ], [ -71.618063843915806, -33.499865720974 ], [ -71.6180285110771, -33.499918608166901 ] ] ] } },
{ "type": "Feature", "properties": { "id": "monoparte.6", "Name": null, "description": null, "timestamp": null, "begin": null, "end": null, "altitudeMode": null, "tessellate": -1, "extrude": 0, "visibility": -1, "drawOrder": null, "icon": null, "REG": "Valparaíso", "COM": "El Tabo", "LOC": "Eduardo Romero", "ZONA": "Z3", "NOM": "Zona Z3", "UPERM": "Vivienda; equipamiento de áreas verdes, esparcimeinto y turismo (sólo hoteles, moteles y campings) interubana; actividades productivas, servicios artesanales de todos tipo.  Mayor detalle en ordenanza.", "UPROH": "Todos aquellos no señalados como permitidos.", "P_DO": "13/01/2010", "N_DOC": "3391", "T_DO": "Decreto", "OBS": null }, "geometry": { "type": "Polygon", "coordinates": [ [ [ -71.620622973698104, -33.497665820999501 ], [ -71.620382020947403, -33.498078836676001 ], [ -71.620100179190601, -33.498552353093103 ], [ -71.619992685245805, -33.498764549415 ], [ -71.619989735971004, -33.4987847687607 ], [ -71.619751124859107, -33.498647524167303 ], [ -71.619588162588002, -33.498535634554599 ], [ -71.619291901451405, -33.498379689735998 ], [ -71.619169926729896, -33.4983231099501 ], [ -71.619023527508901, -33.498226970776301 ], [ -71.618843753923201, -33.498054129080103 ], [ -71.618610112788105, -33.498340675297896 ], [ -71.618421416632501, -33.498594663477498 ], [ -71.618318506812798, -33.498732333975802 ], [ -71.618112512849194, -33.499001955097498 ], [ -71.618278778027005, -33.499147889570203 ], [ -71.618396618914403, -33.499278983361201 ], [ -71.6185961458077, -33.499475144168002 ], [ -71.618439239894101, -33.499559567996599 ], [ -71.618143074697699, -33.499747126901397 ], [ -71.618122567859302, -33.499777822532799 ], [ -71.618321247067101, -33.499813802759498 ], [ -71.618394660083098, -33.499996227004601 ], [ -71.618395113719501, -33.499997353420703 ], [ -71.618445883483602, -33.500019180292 ], [ -71.618585054863203, -33.500102113996 ], [ -71.618624345146102, -33.500082966272402 ], [ -71.618724238035597, -33.500034285377801 ], [ -71.618811522892202, -33.500089433606199 ], [ -71.618879788641806, -33.499980471021203 ], [ -71.618980261518502, -33.499969758221603 ], [ -71.619162253877903, -33.499943008177901 ], [ -71.619320257651694, -33.499913902770402 ], [ -71.619485258988504, -33.499878924003099 ], [ -71.619780590761295, -33.499610894275499 ], [ -71.620124249199705, -33.499245945020498 ], [ -71.620507229676093, -33.498794213725802 ], [ -71.620772649162404, -33.498474906446503 ], [ -71.621169625207401, -33.498013526585297 ], [ -71.621172029735106, -33.498009509573102 ], [ -71.621217617696402, -33.497933361513901 ], [ -71.621172795021906, -33.497937363153198 ], [ -71.621097502981499, -33.497933231837301 ], [ -71.621027145334395, -33.497924151762497 ], [ -71.621011751694297, -33.497922165016902 ], [ -71.620966715919295, -33.497901649538598 ], [ -71.620900416636502, -33.497855820166201 ], [ -71.620876927773296, -33.497813378922501 ], [ -71.620866106046506, -33.497737749656899 ], [ -71.620854611716496, -33.497696486260701 ], [ -71.620837650021002, -33.497643887438002 ], [ -71.620822827469794, -33.4976055570433 ], [ -71.6208174720919, -33.497541262315302 ], [ -71.620817411540699, -33.4974825806407 ], [ -71.620820764447402, -33.4974238276194 ], [ -71.620829627797505, -33.497377839040603 ], [ -71.620842121276397, -33.4973389295792 ], [ -71.620846764232496, -33.497299191821 ], [ -71.620622973698104, -33.497665820999501 ] ], [ [ -71.619372058241694, -33.499520205939397 ], [ -71.619251840960004, -33.499604732796101 ], [ -71.619246936063007, -33.499601096739099 ], [ -71.619160237645303, -33.499520870278701 ], [ -71.619129898075698, -33.499496702871497 ], [ -71.619203467200094, -33.499443620557102 ], [ -71.619301558866397, -33.499372844083503 ], [ -71.6193350149683, -33.499349235855703 ], [ -71.619390660488406, -33.499306074165801 ], [ -71.619448410256396, -33.499257142812901 ], [ -71.619517540475798, -33.499207971575998 ], [ -71.619568518421701, -33.499161091205501 ], [ -71.619606469309801, -33.499135480042398 ], [ -71.619738522579894, -33.4992090214865 ], [ -71.619741144243093, -33.499220416265103 ], [ -71.619634292125099, -33.499302828662898 ], [ -71.619587695153996, -33.499343890351298 ], [ -71.619545478110595, -33.499379134238403 ], [ -71.619521185467605, -33.499404457337597 ], [ -71.619498996011401, -33.499424009913298 ], [ -71.619372058241694, -33.499520205939397 ] ] ] } }
]
}
