{
"type": "FeatureCollection",
"name": "IPT_05_PRC_La_Ligua",
"crs": { "type": "name", "properties": { "name": "urn:ogc:def:crs:OGC:1.3:CRS84" } },
"features": [
{ "type": "Feature", "properties": { "id": "monoparte.1", "Name": null, "description": null, "timestamp": null, "begin": null, "end": null, "altitudeMode": null, "tessellate": -1, "extrude": 0, "visibility": -1, "drawOrder": null, "icon": null, "REG": "Valparaíso", "COM": "La Ligua", "LOC": "La Ligua", "ZONA": "C", "NOM": "Zona C", "UPERM": "Vivienda, comercio y artesanía, equipamiento en general, compatible con vivienda y comercio.", "UPROH": "Industrias.", "P_DO": "17/12/1980", "N_DOC": "325", "T_DO": "Decreto", "OBS": null }, "geometry": { "type": "Polygon", "coordinates": [ [ [ -71.221738686354001, -32.449912020450697 ], [ -71.222285421679004, -32.449787035266098 ], [ -71.222692407628202, -32.449744057579601 ], [ -71.223114921924804, -32.449760456575 ], [ -71.223469750815894, -32.449885423989699 ], [ -71.223712653905494, -32.4500362291801 ], [ -71.2238732222864, -32.450272001324002 ], [ -71.223963762651806, -32.450520940807401 ], [ -71.223973434094901, -32.450914474041497 ], [ -71.223926847481394, -32.451309002158503 ], [ -71.223901942675298, -32.451440676880999 ], [ -71.223918937762505, -32.451559681036301 ], [ -71.223979006289497, -32.451713714916899 ], [ -71.224123169336806, -32.451854333465 ], [ -71.224479181509096, -32.452026997873503 ], [ -71.224180521279706, -32.454071460887597 ], [ -71.229219350083099, -32.455380646402602 ], [ -71.229205667662598, -32.455853333010403 ], [ -71.2291764949087, -32.456039963754201 ], [ -71.229026023261994, -32.456443490678701 ], [ -71.228972767058593, -32.456680655980499 ], [ -71.229014103923305, -32.456987728322801 ], [ -71.229153890941802, -32.457178525244899 ], [ -71.229308617596004, -32.457290317276701 ], [ -71.229240669433594, -32.458644428640703 ], [ -71.229013205289505, -32.459349965805899 ], [ -71.234729116270202, -32.459257704184701 ], [ -71.2352471637587, -32.458791652721402 ], [ -71.235422648655401, -32.458490276083602 ], [ -71.235581416056604, -32.458081823368502 ], [ -71.235762711976506, -32.457446291728601 ], [ -71.235852918089705, -32.457110638797097 ], [ -71.236050928124797, -32.456582183552698 ], [ -71.236295259558105, -32.456219931561797 ], [ -71.236790106806097, -32.455745852592401 ], [ -71.237188853260193, -32.455368923502498 ], [ -71.237383403501596, -32.455270022623999 ], [ -71.238096293285807, -32.455078392024703 ], [ -71.238526701089398, -32.454844060151999 ], [ -71.239618641966302, -32.454049159663597 ], [ -71.241438905735095, -32.454255364232203 ], [ -71.242152644455004, -32.454235355810198 ], [ -71.242108816043896, -32.454601343565898 ], [ -71.242030632615396, -32.454853273996697 ], [ -71.241908185174196, -32.455022480580404 ], [ -71.241643020700096, -32.455110715818698 ], [ -71.2412922835111, -32.455152753603699 ], [ -71.240868267633203, -32.455076790428699 ], [ -71.240559430041102, -32.455106149976103 ], [ -71.240378652319905, -32.455192880318201 ], [ -71.240150177707704, -32.455626440569098 ], [ -71.239921110543307, -32.456036150582698 ], [ -71.239460312503994, -32.456748242342101 ], [ -71.239213927841803, -32.457027025291097 ], [ -71.238814593110604, -32.457380109853297 ], [ -71.238580204369299, -32.4575751650234 ], [ -71.238449682706104, -32.456849733302299 ], [ -71.238317490818901, -32.456625407748298 ], [ -71.238158347590002, -32.456449282134002 ], [ -71.238015631967102, -32.456368307636801 ], [ -71.237583741024906, -32.456543011465101 ], [ -71.237393021150098, -32.456796940015003 ], [ -71.236965932892602, -32.457735101457999 ], [ -71.236740088375697, -32.458275982882597 ], [ -71.236455916251501, -32.458734387185999 ], [ -71.236209222151601, -32.459001239845101 ], [ -71.236060359179604, -32.4592361789216 ], [ -71.238001511461803, -32.459204767404202 ], [ -71.247024867897295, -32.459113180274997 ], [ -71.247017448105893, -32.456548287818798 ], [ -71.246530357531597, -32.4516655381425 ], [ -71.245254643442806, -32.451855326354597 ], [ -71.243473196014307, -32.452077977401501 ], [ -71.242384323309693, -32.451858773316303 ], [ -71.241131591493797, -32.451272635621102 ], [ -71.240828857976098, -32.450979766781501 ], [ -71.240691944305794, -32.450564640636202 ], [ -71.240689177820201, -32.449884658187202 ], [ -71.240857542873499, -32.449297071787903 ], [ -71.240865110488798, -32.449034468888499 ], [ -71.240874154503103, -32.44883149164 ], [ -71.240855071037799, -32.448629014221403 ], [ -71.240676856240896, -32.448250414612097 ], [ -71.240591563297698, -32.448067556148303 ], [ -71.238820277781301, -32.4487610233097 ], [ -71.239028798508699, -32.449056767339002 ], [ -71.2392634223621, -32.449668201301797 ], [ -71.239335179172002, -32.449838721950499 ], [ -71.238516932947704, -32.451571252323603 ], [ -71.238202474046901, -32.451400636391 ], [ -71.235831978120004, -32.450136025827497 ], [ -71.236051850802099, -32.450151208982298 ], [ -71.236390826779896, -32.4501659918404 ], [ -71.236376401406503, -32.450075053952702 ], [ -71.235551989251604, -32.449965622158999 ], [ -71.234963855411905, -32.449851990716503 ], [ -71.234817116375396, -32.449835507194202 ], [ -71.234684570546506, -32.450849558849697 ], [ -71.234510907172194, -32.451110338072297 ], [ -71.234190737998603, -32.451364173646702 ], [ -71.231225033459793, -32.451607666705797 ], [ -71.230385955134693, -32.451646912408201 ], [ -71.230442655807096, -32.452381977907301 ], [ -71.2307137869592, -32.454247861838603 ], [ -71.230705357831198, -32.4543625429259 ], [ -71.230673248482503, -32.454429921858299 ], [ -71.230584643933895, -32.454488758915502 ], [ -71.230450091139105, -32.454510231444999 ], [ -71.2303715620953, -32.454521167962497 ], [ -71.230280370476805, -32.454475062056197 ], [ -71.230233717034395, -32.454409077976003 ], [ -71.230186358243699, -32.454314474347697 ], [ -71.230172754162197, -32.454219271702499 ], [ -71.230155624059606, -32.453980966883002 ], [ -71.230104938868493, -32.453294673691701 ], [ -71.230035512860496, -32.452761421126503 ], [ -71.2298287436941, -32.451672971765099 ], [ -71.228267976915703, -32.451745950189199 ], [ -71.227914925421999, -32.451122272911803 ], [ -71.228198069200602, -32.450735487545799 ], [ -71.227505573616796, -32.450726270094499 ], [ -71.2267404631625, -32.4505107430546 ], [ -71.223474362953496, -32.449523373579801 ], [ -71.222966029618505, -32.449392765336199 ], [ -71.222469329650906, -32.449334726142702 ], [ -71.222008725565701, -32.449371490871599 ], [ -71.221467125279005, -32.449461818939 ], [ -71.221738686354001, -32.449912020450697 ] ], [ [ -71.231567318574307, -32.454075965678797 ], [ -71.232532000399999, -32.453999550620601 ], [ -71.232594613398504, -32.455220961421297 ], [ -71.231736793010597, -32.455242140511402 ], [ -71.231723850647796, -32.454717432662498 ], [ -71.231675037307298, -32.4544498639304 ], [ -71.231567318574307, -32.454075965678797 ] ], [ [ -71.232939330813593, -32.457443445152101 ], [ -71.232914163138702, -32.458818273137801 ], [ -71.231698013489407, -32.458804052710001 ], [ -71.231862672957206, -32.457949302706702 ], [ -71.231867128496702, -32.456760955532999 ], [ -71.232942985369803, -32.456754285290003 ], [ -71.232939330813593, -32.457443445152101 ] ] ] } },
{ "type": "Feature", "properties": { "id": "monoparte.2", "Name": null, "description": null, "timestamp": null, "begin": null, "end": null, "altitudeMode": null, "tessellate": -1, "extrude": 0, "visibility": -1, "drawOrder": null, "icon": null, "REG": "Valparaíso", "COM": "La Ligua", "LOC": "La Ligua", "ZONA": "D", "NOM": "Zona D", "UPERM": "Vivienda, uso horticola,equipamiento e industria no molesta.", "UPROH": "IIndustria molesta, industria peligrosa e insalubre.", "P_DO": "17/12/1980", "N_DOC": "325", "T_DO": "Decreto", "OBS": null }, "geometry": { "type": "Polygon", "coordinates": [ [ [ -71.221197712182402, -32.446052077976702 ], [ -71.221249190324798, -32.447243665514797 ], [ -71.223312280585006, -32.447164007950299 ], [ -71.223303349315003, -32.446227626226403 ], [ -71.225004471853595, -32.446173708021703 ], [ -71.224992089644203, -32.444722907161498 ], [ -71.221236531935403, -32.4448392072877 ], [ -71.221235718081303, -32.444848818000096 ], [ -71.221197712182402, -32.446052077976702 ] ] ] } },
{ "type": "Feature", "properties": { "id": "monoparte.3", "Name": null, "description": null, "timestamp": null, "begin": null, "end": null, "altitudeMode": null, "tessellate": -1, "extrude": 0, "visibility": -1, "drawOrder": null, "icon": null, "REG": "Valparaíso", "COM": "La Ligua", "LOC": "La Ligua", "ZONA": "D", "NOM": "Zona D", "UPERM": "Vivienda, uso horticola,equipamiento e industria no molesta.", "UPROH": "IIndustria molesta, industria peligrosa e insalubre.", "P_DO": "17/12/1980", "N_DOC": "325", "T_DO": "Decreto", "OBS": null }, "geometry": { "type": "Polygon", "coordinates": [ [ [ -71.227914308452796, -32.444632335297797 ], [ -71.227911319593602, -32.446174788746099 ], [ -71.229006040400705, -32.445835673765501 ], [ -71.234496446286897, -32.4456238013301 ], [ -71.236249981189005, -32.4455282387583 ], [ -71.236283169676298, -32.446529802805202 ], [ -71.238258764745595, -32.446537639534 ], [ -71.238345624735302, -32.446636310158503 ], [ -71.238522641409006, -32.4476496316422 ], [ -71.238820277781301, -32.4487610233097 ], [ -71.240591563297698, -32.448067556148303 ], [ -71.240483692707997, -32.447836290133203 ], [ -71.240235647755497, -32.446910133843801 ], [ -71.239943840350506, -32.445352445952203 ], [ -71.2398802437462, -32.444260753727796 ], [ -71.227914308452796, -32.444632335297797 ] ] ] } },
{ "type": "Feature", "properties": { "id": "monoparte.4", "Name": null, "description": null, "timestamp": null, "begin": null, "end": null, "altitudeMode": null, "tessellate": -1, "extrude": 0, "visibility": -1, "drawOrder": null, "icon": null, "REG": "Valparaíso", "COM": "La Ligua", "LOC": "La Ligua", "ZONA": "A", "NOM": "Zona A", "UPERM": "Comercio, vivienda, artesanía, equipamiento en general e industria no molesta, ambos compatible con vivienda y comercio. Mayor detalle en ordenanza.", "UPROH": "Industria insalubre, industria molesta e industria peligrosa.", "P_DO": "17/12/1980", "N_DOC": "325", "T_DO": "Decreto", "OBS": null }, "geometry": { "type": "Polygon", "coordinates": [ [ [ -71.228548148668594, -32.448495914473803 ], [ -71.228692430710595, -32.450698102311399 ], [ -71.228198069200602, -32.450735487545799 ], [ -71.227914925421999, -32.451122272911803 ], [ -71.228267976915703, -32.451745950189199 ], [ -71.2298287436941, -32.451672971765099 ], [ -71.230385955134693, -32.451646912408201 ], [ -71.231225033459793, -32.451607666705797 ], [ -71.234190737998603, -32.451364173646702 ], [ -71.234510907172194, -32.451110338072297 ], [ -71.234684570546506, -32.450849558849697 ], [ -71.234817116375396, -32.449835507194202 ], [ -71.234963855411905, -32.449851990716503 ], [ -71.235551989251604, -32.449965622158999 ], [ -71.236376401406503, -32.450075053952702 ], [ -71.236331754862206, -32.449102684059497 ], [ -71.236310135859696, -32.448631826556998 ], [ -71.232361129188405, -32.448380628369598 ], [ -71.231065831760901, -32.448346327493098 ], [ -71.228548148668594, -32.448495914473803 ] ] ] } },
{ "type": "Feature", "properties": { "id": "monoparte.5", "Name": null, "description": null, "timestamp": null, "begin": null, "end": null, "altitudeMode": null, "tessellate": -1, "extrude": 0, "visibility": -1, "drawOrder": null, "icon": null, "REG": "Valparaíso", "COM": "La Ligua", "LOC": "La Ligua", "ZONA": "B", "NOM": "Zona B", "UPERM": "Comercio, artesanía y vivienda, equipamiento en general e industria no molesta, ambos compatible con vivienda y comercio. Mayor detalle en ordenanza.", "UPROH": "Industria insalubre, industria molesta e industria peligrosa.", "P_DO": "17/12/1980", "N_DOC": "325", "T_DO": "Decreto", "OBS": null }, "geometry": { "type": "Polygon", "coordinates": [ [ [ -71.223312280585006, -32.447164007950299 ], [ -71.223474362953496, -32.449523373579801 ], [ -71.2267404631625, -32.4505107430546 ], [ -71.227505573616796, -32.450726270094499 ], [ -71.228198069200602, -32.450735487545799 ], [ -71.228692430710595, -32.450698102311399 ], [ -71.228548148668594, -32.448495914473803 ], [ -71.231065831760901, -32.448346327493098 ], [ -71.232361129188405, -32.448380628369598 ], [ -71.236310135859696, -32.448631826556998 ], [ -71.236331754862206, -32.449102684059497 ], [ -71.236645249151707, -32.4491683390996 ], [ -71.236962869524405, -32.449210416698101 ], [ -71.2376928732333, -32.449143753975598 ], [ -71.238426514968296, -32.448939823502997 ], [ -71.238820277781301, -32.4487610233097 ], [ -71.238522641409006, -32.4476496316422 ], [ -71.238345624735302, -32.446636310158503 ], [ -71.238258764745595, -32.446537639534 ], [ -71.236283169676298, -32.446529802805202 ], [ -71.236249981189005, -32.4455282387583 ], [ -71.234496446286897, -32.4456238013301 ], [ -71.229006040400705, -32.445835673765501 ], [ -71.227911319593602, -32.446174788746099 ], [ -71.227914308452796, -32.444632335297797 ], [ -71.224992089644203, -32.444722907161498 ], [ -71.225004471853595, -32.446173708021703 ], [ -71.223303349315003, -32.446227626226403 ], [ -71.223312280585006, -32.447164007950299 ] ] ] } },
{ "type": "Feature", "properties": { "id": "monoparte.6", "Name": null, "description": null, "timestamp": null, "begin": null, "end": null, "altitudeMode": null, "tessellate": -1, "extrude": 0, "visibility": -1, "drawOrder": null, "icon": null, "REG": "Valparaíso", "COM": "La Ligua", "LOC": "La Ligua", "ZONA": "E", "NOM": "Zona E", "UPERM": "Área verde, Equipamiento deportivo y turístico, esparcimiento.", "UPROH": "Todos los no mencionados.", "P_DO": "17/12/1980", "N_DOC": "325", "T_DO": "Decreto", "OBS": null }, "geometry": { "type": "Polygon", "coordinates": [ [ [ -71.239618641966302, -32.454049159663597 ], [ -71.238526701089398, -32.454844060151999 ], [ -71.238096293285807, -32.455078392024703 ], [ -71.237383403501596, -32.455270022623999 ], [ -71.237188853260193, -32.455368923502498 ], [ -71.236790106806097, -32.455745852592401 ], [ -71.236295259558105, -32.456219931561797 ], [ -71.236050928124797, -32.456582183552698 ], [ -71.235852918089705, -32.457110638797097 ], [ -71.235762711976506, -32.457446291728601 ], [ -71.235581416056604, -32.458081823368502 ], [ -71.235422648655401, -32.458490276083602 ], [ -71.2352471637587, -32.458791652721402 ], [ -71.234729116270202, -32.459257704184701 ], [ -71.236060359179604, -32.4592361789216 ], [ -71.236209222151601, -32.459001239845101 ], [ -71.236455916251501, -32.458734387185999 ], [ -71.236740088375697, -32.458275982882597 ], [ -71.236965932892602, -32.457735101457999 ], [ -71.237393021150098, -32.456796940015003 ], [ -71.237583741024906, -32.456543011465101 ], [ -71.238015631967102, -32.456368307636801 ], [ -71.238158347590002, -32.456449282134002 ], [ -71.238317490818901, -32.456625407748298 ], [ -71.238449682706104, -32.456849733302299 ], [ -71.238580204369299, -32.4575751650234 ], [ -71.238814593110604, -32.457380109853297 ], [ -71.239213927841803, -32.457027025291097 ], [ -71.239460312503994, -32.456748242342101 ], [ -71.239921110543307, -32.456036150582698 ], [ -71.240150177707704, -32.455626440569098 ], [ -71.240378652319905, -32.455192880318201 ], [ -71.240559430041102, -32.455106149976103 ], [ -71.240868267633203, -32.455076790428699 ], [ -71.2412922835111, -32.455152753603699 ], [ -71.241643020700096, -32.455110715818698 ], [ -71.241908185174196, -32.455022480580404 ], [ -71.242030632615396, -32.454853273996697 ], [ -71.242108816043896, -32.454601343565898 ], [ -71.242152644455004, -32.454235355810198 ], [ -71.241438905735095, -32.454255364232203 ], [ -71.239618641966302, -32.454049159663597 ] ] ] } },
{ "type": "Feature", "properties": { "id": "monoparte.7", "Name": null, "description": null, "timestamp": null, "begin": null, "end": null, "altitudeMode": null, "tessellate": -1, "extrude": 0, "visibility": -1, "drawOrder": null, "icon": null, "REG": "Valparaíso", "COM": "La Ligua", "LOC": "La Ligua", "ZONA": "E", "NOM": "Zona E", "UPERM": "Área verde, Equipamiento deportivo y turístico, esparcimiento.", "UPROH": "Todos los no mencionados.", "P_DO": "17/12/1980", "N_DOC": "325", "T_DO": "Decreto", "OBS": null }, "geometry": { "type": "Polygon", "coordinates": [ [ [ -71.230280370476805, -32.454475062056197 ], [ -71.2303715620953, -32.454521167962497 ], [ -71.230450091139105, -32.454510231444999 ], [ -71.230584643933895, -32.454488758915502 ], [ -71.230673248482503, -32.454429921858299 ], [ -71.230705357831198, -32.4543625429259 ], [ -71.2307137869592, -32.454247861838603 ], [ -71.230442655807096, -32.452381977907301 ], [ -71.230385955134693, -32.451646912408201 ], [ -71.2298287436941, -32.451672971765099 ], [ -71.230035512860496, -32.452761421126503 ], [ -71.230104938868493, -32.453294673691701 ], [ -71.230155624059606, -32.453980966883002 ], [ -71.230172754162197, -32.454219271702499 ], [ -71.230186358243699, -32.454314474347697 ], [ -71.230233717034395, -32.454409077976003 ], [ -71.230280370476805, -32.454475062056197 ] ] ] } },
{ "type": "Feature", "properties": { "id": "monoparte.8", "Name": null, "description": null, "timestamp": null, "begin": null, "end": null, "altitudeMode": null, "tessellate": -1, "extrude": 0, "visibility": -1, "drawOrder": null, "icon": null, "REG": "Valparaíso", "COM": "La Ligua", "LOC": "La Ligua", "ZONA": "E", "NOM": "Zona E", "UPERM": "Área verde, Equipamiento deportivo y turístico, esparcimiento.", "UPROH": "Todos los no mencionados.", "P_DO": "17/12/1980", "N_DOC": "325", "T_DO": "Decreto", "OBS": null }, "geometry": { "type": "Polygon", "coordinates": [ [ [ -71.235831978120004, -32.450136025827497 ], [ -71.238202474046901, -32.451400636391 ], [ -71.237851152261101, -32.450992536974198 ], [ -71.237358577630005, -32.450419090992597 ], [ -71.237341346755898, -32.450405079926597 ], [ -71.236836296496904, -32.450237486334203 ], [ -71.236440612668503, -32.450168163552298 ], [ -71.236390826779896, -32.4501659918404 ], [ -71.236051850802099, -32.450151208982298 ], [ -71.235831978120004, -32.450136025827497 ] ] ] } },
{ "type": "Feature", "properties": { "id": "monoparte.9", "Name": null, "description": null, "timestamp": null, "begin": null, "end": null, "altitudeMode": null, "tessellate": -1, "extrude": 0, "visibility": -1, "drawOrder": null, "icon": null, "REG": "Valparaíso", "COM": "La Ligua", "LOC": "La Ligua", "ZONA": "E", "NOM": "Zona E", "UPERM": "Área verde, Equipamiento deportivo y turístico, esparcimiento.", "UPROH": "Todos los no mencionados.", "P_DO": "17/12/1980", "N_DOC": "325", "T_DO": "Decreto", "OBS": null }, "geometry": { "type": "Polygon", "coordinates": [ [ [ -71.224163628152098, -32.454067071717098 ], [ -71.224180521279706, -32.454071460887597 ], [ -71.224479181509096, -32.452026997873503 ], [ -71.224123169336806, -32.451854333465 ], [ -71.223979006289497, -32.451713714916899 ], [ -71.223918937762505, -32.451559681036301 ], [ -71.223901942675298, -32.451440676880999 ], [ -71.223926847481394, -32.451309002158503 ], [ -71.223973434094901, -32.450914474041497 ], [ -71.223963762651806, -32.450520940807401 ], [ -71.2238732222864, -32.450272001324002 ], [ -71.223712653905494, -32.4500362291801 ], [ -71.223469750815894, -32.449885423989699 ], [ -71.223114921924804, -32.449760456575 ], [ -71.222692407628202, -32.449744057579601 ], [ -71.222285421679004, -32.449787035266098 ], [ -71.221738686354001, -32.449912020450697 ], [ -71.222496783801205, -32.451168785713897 ], [ -71.224163628152098, -32.454067071717098 ] ] ] } },
{ "type": "Feature", "properties": { "id": "monoparte.10", "Name": null, "description": null, "timestamp": null, "begin": null, "end": null, "altitudeMode": null, "tessellate": -1, "extrude": 0, "visibility": -1, "drawOrder": null, "icon": null, "REG": "Valparaíso", "COM": "La Ligua", "LOC": "La Ligua", "ZONA": "E", "NOM": "Zona E", "UPERM": "Área verde, Equipamiento deportivo y turístico, esparcimiento.", "UPROH": "Todos los no mencionados.", "P_DO": "17/12/1980", "N_DOC": "325", "T_DO": "Decreto", "OBS": null }, "geometry": { "type": "Polygon", "coordinates": [ [ [ -71.221275893004702, -32.447861741678203 ], [ -71.221467125279005, -32.449461818939 ], [ -71.222008725565701, -32.449371490871599 ], [ -71.222469329650906, -32.449334726142702 ], [ -71.222966029618505, -32.449392765336199 ], [ -71.223474362953496, -32.449523373579801 ], [ -71.223312280585006, -32.447164007950299 ], [ -71.221249190324798, -32.447243665514797 ], [ -71.221275893004702, -32.447861741678203 ] ] ] } },
{ "type": "Feature", "properties": { "id": "monoparte.11", "Name": null, "description": null, "timestamp": null, "begin": null, "end": null, "altitudeMode": null, "tessellate": -1, "extrude": 0, "visibility": -1, "drawOrder": null, "icon": null, "REG": "Valparaíso", "COM": "La Ligua", "LOC": "La Ligua", "ZONA": "F", "NOM": "Zona F", "UPERM": "Equipamientos urbanos junto con usos circundantes.", "UPROH": "IIndustria molesta, industria peligrosa e insalubre.", "P_DO": "17/12/1980", "N_DOC": "325", "T_DO": "Decreto", "OBS": null }, "geometry": { "type": "Polygon", "coordinates": [ [ [ -71.231698013489407, -32.458804052710001 ], [ -71.232914163138702, -32.458818273137801 ], [ -71.232939330813593, -32.457443445152101 ], [ -71.232942985369803, -32.456754285290003 ], [ -71.231867128496702, -32.456760955532999 ], [ -71.231862672957206, -32.457949302706702 ], [ -71.231698013489407, -32.458804052710001 ] ] ] } },
{ "type": "Feature", "properties": { "id": "monoparte.12", "Name": null, "description": null, "timestamp": null, "begin": null, "end": null, "altitudeMode": null, "tessellate": -1, "extrude": 0, "visibility": -1, "drawOrder": null, "icon": null, "REG": "Valparaíso", "COM": "La Ligua", "LOC": "La Ligua", "ZONA": "F", "NOM": "Zona F", "UPERM": "Equipamientos urbanos junto con usos circundantes.", "UPROH": "IIndustria molesta, industria peligrosa e insalubre.", "P_DO": "17/12/1980", "N_DOC": "325", "T_DO": "Decreto", "OBS": null }, "geometry": { "type": "Polygon", "coordinates": [ [ [ -71.231723850647796, -32.454717432662498 ], [ -71.231736793010597, -32.455242140511402 ], [ -71.232594613398504, -32.455220961421297 ], [ -71.232532000399999, -32.453999550620601 ], [ -71.231567318574307, -32.454075965678797 ], [ -71.231675037307298, -32.4544498639304 ], [ -71.231723850647796, -32.454717432662498 ] ] ] } },
{ "type": "Feature", "properties": { "id": "monoparte.13", "Name": null, "description": null, "timestamp": null, "begin": null, "end": null, "altitudeMode": null, "tessellate": -1, "extrude": 0, "visibility": -1, "drawOrder": null, "icon": null, "REG": "Valparaíso", "COM": "La Ligua", "LOC": "La Ligua", "ZONA": "F", "NOM": "Zona F", "UPERM": "Equipamientos urbanos junto con usos circundantes.", "UPROH": "IIndustria molesta, industria peligrosa e insalubre.", "P_DO": "17/12/1980", "N_DOC": "325", "T_DO": "Decreto", "OBS": null }, "geometry": { "type": "Polygon", "coordinates": [ [ [ -71.2376928732333, -32.449143753975598 ], [ -71.236962869524405, -32.449210416698101 ], [ -71.236645249151707, -32.4491683390996 ], [ -71.236331754862206, -32.449102684059497 ], [ -71.236376401406503, -32.450075053952702 ], [ -71.236390826779896, -32.4501659918404 ], [ -71.236440612668503, -32.450168163552298 ], [ -71.236836296496904, -32.450237486334203 ], [ -71.237341346755898, -32.450405079926597 ], [ -71.237358577630005, -32.450419090992597 ], [ -71.237851152261101, -32.450992536974198 ], [ -71.238202474046901, -32.451400636391 ], [ -71.238516932947704, -32.451571252323603 ], [ -71.239335179172002, -32.449838721950499 ], [ -71.2392634223621, -32.449668201301797 ], [ -71.239028798508699, -32.449056767339002 ], [ -71.238820277781301, -32.4487610233097 ], [ -71.238426514968296, -32.448939823502997 ], [ -71.2376928732333, -32.449143753975598 ] ] ] } }
]
}
