{
"type": "FeatureCollection",
"name": "IPT_05_PRC_Isla_de_Pascua",
"crs": { "type": "name", "properties": { "name": "urn:ogc:def:crs:OGC:1.3:CRS84" } },
"features": [
{ "type": "Feature", "properties": { "id": "monoparte.1", "Name": null, "description": null, "timestamp": null, "begin": null, "end": null, "altitudeMode": null, "tessellate": -1, "extrude": 0, "visibility": -1, "drawOrder": null, "icon": null, "REG": "Valparaíso", "COM": "Isla de Pascua", "LOC": "Isla de Pascua", "ZONA": "Zona Residencial", "NOM": "Zona Residencial", "UPERM": "Viviendas; equipamiento de culto, servicios profesionales, educación, sociales y comercio.", "UPROH": "Todos los usos no mencionados anteriormente.", "P_DO": "31/07/1971", "N_DOC": "500", "T_DO": "Decreto", "OBS": null }, "geometry": { "type": "Polygon", "coordinates": [ [ [ -109.419989717722999, -27.146977716447601 ], [ -109.422742346120003, -27.151856332166801 ], [ -109.422794480020002, -27.151952439339698 ], [ -109.425442395000999, -27.150917681870499 ], [ -109.427555293083998, -27.149901066736401 ], [ -109.429111233664997, -27.1524138849535 ], [ -109.429699299074002, -27.1533924718068 ], [ -109.431180091944995, -27.152837388618199 ], [ -109.431309026652997, -27.153181512188301 ], [ -109.431370449984001, -27.1533546361172 ], [ -109.431468105174005, -27.153546502605298 ], [ -109.431620371234999, -27.1538636629015 ], [ -109.431701100222, -27.1540488813202 ], [ -109.431761075710995, -27.154122099430101 ], [ -109.431853369983997, -27.154366040390698 ], [ -109.431945554546999, -27.154497057813199 ], [ -109.431989635967, -27.154582094555199 ], [ -109.430702637807002, -27.155061984277399 ], [ -109.432242496453, -27.157623951410301 ], [ -109.435934754697996, -27.156140414523801 ], [ -109.437489107960005, -27.155441293730199 ], [ -109.437658495413004, -27.155455417801299 ], [ -109.438428355049993, -27.1555048058846 ], [ -109.438830698855, -27.1555694420009 ], [ -109.438889564895007, -27.155758090099599 ], [ -109.438925372422005, -27.155904578557799 ], [ -109.438973561159997, -27.156025828608499 ], [ -109.438983428745999, -27.156177183153702 ], [ -109.439282454972002, -27.156047757029601 ], [ -109.439316431806006, -27.155964780761199 ], [ -109.439362181644995, -27.155919533501901 ], [ -109.439401801304996, -27.155838771833899 ], [ -109.439491230702998, -27.1557113474367 ], [ -109.439533326643996, -27.1556255380926 ], [ -109.439578588558007, -27.155546992140899 ], [ -109.439637207428007, -27.155509806289299 ], [ -109.439733539673, -27.155505483729598 ], [ -109.439755825451996, -27.155460055722202 ], [ -109.439914915559001, -27.1553529536498 ], [ -109.440958345092, -27.154721163664199 ], [ -109.441259548546, -27.1545324042165 ], [ -109.440936731890005, -27.153942187714598 ], [ -109.441027823571005, -27.1538936736357 ], [ -109.442810576363001, -27.1531127127279 ], [ -109.443704403460998, -27.152681758558199 ], [ -109.443339989341993, -27.152347437646402 ], [ -109.443176379703004, -27.152197439010099 ], [ -109.443428343258006, -27.151995008366899 ], [ -109.443392355862002, -27.151888335754101 ], [ -109.443364314872994, -27.1517757529543 ], [ -109.443325345768997, -27.151726597482199 ], [ -109.443274047892004, -27.1516974314751 ], [ -109.443247408529004, -27.1516282861351 ], [ -109.443199092354007, -27.151541603040201 ], [ -109.443123377828996, -27.151464478892599 ], [ -109.443078168216005, -27.1514331877888 ], [ -109.442992712934995, -27.151422213349701 ], [ -109.442928933982003, -27.1514287776372 ], [ -109.442802044592, -27.1514353964767 ], [ -109.442776987292007, -27.151265295770301 ], [ -109.442860311486996, -27.1511828873256 ], [ -109.442941473714001, -27.151135745429201 ], [ -109.443001690548996, -27.1511210115194 ], [ -109.443074814387003, -27.150838219516601 ], [ -109.443109062806997, -27.150747831808602 ], [ -109.443213543628005, -27.150673729721099 ], [ -109.443410085286999, -27.1506177098045 ], [ -109.443649611839007, -27.150571792943602 ], [ -109.443886459175999, -27.150551911208499 ], [ -109.444124706243002, -27.1505754645985 ], [ -109.444513434247, -27.150662604209199 ], [ -109.444581595743998, -27.1506419604763 ], [ -109.444649087233998, -27.150627825110998 ], [ -109.444790524558002, -27.150622403239701 ], [ -109.444814119241002, -27.150692609223601 ], [ -109.444837044894001, -27.1507693233022 ], [ -109.444841187243, -27.150843178600201 ], [ -109.444845448609001, -27.150991203703001 ], [ -109.444855276769999, -27.1509867729673 ], [ -109.445163070418999, -27.1508668315814 ], [ -109.445674012411999, -27.1506550920659 ], [ -109.445883494879993, -27.150577817180899 ], [ -109.446033186647995, -27.150492120296299 ], [ -109.44629177825, -27.150355877107501 ], [ -109.446448896228006, -27.150255039618798 ], [ -109.446533425352001, -27.150298753504899 ], [ -109.446720740417007, -27.150170645842 ], [ -109.446920230459995, -27.150038289963501 ], [ -109.447051611564007, -27.1499213317014 ], [ -109.447197358582002, -27.149740795328 ], [ -109.447244598528997, -27.14962391377 ], [ -109.447292125125003, -27.149561314210899 ], [ -109.447283636554999, -27.149434594749302 ], [ -109.447322068209004, -27.1493082372345 ], [ -109.447344821526002, -27.148877790019 ], [ -109.447352401209002, -27.148594867873101 ], [ -109.447328154991993, -27.148424877419298 ], [ -109.445664269971005, -27.149087445042799 ], [ -109.444380710640004, -27.1496105697518 ], [ -109.444115709003, -27.149718712927299 ], [ -109.444059024959003, -27.149744764548402 ], [ -109.443954819108995, -27.1496022813525 ], [ -109.442867653216993, -27.1484520277325 ], [ -109.442858096175001, -27.1483737865968 ], [ -109.442564186092, -27.1480213816283 ], [ -109.442506111927003, -27.147869507033999 ], [ -109.442500307036994, -27.147869744638701 ], [ -109.442310346441005, -27.147852345208001 ], [ -109.442197508925005, -27.147808042053299 ], [ -109.442120512678997, -27.147738684955801 ], [ -109.442018880743007, -27.147623539153301 ], [ -109.441955089879997, -27.147554894855201 ], [ -109.441834263462994, -27.147641191996399 ], [ -109.440816134833, -27.1481940143345 ], [ -109.439772658509, -27.147111602283498 ], [ -109.439531887919998, -27.146845075347098 ], [ -109.439528867776005, -27.146845968301701 ], [ -109.439366294582001, -27.1469235907513 ], [ -109.439146687706994, -27.147042023711901 ], [ -109.438967466725998, -27.1471672864119 ], [ -109.438832208552, -27.1472646647623 ], [ -109.438733613739004, -27.147253037552201 ], [ -109.438676710403001, -27.147197584475101 ], [ -109.438433198881, -27.1468641813258 ], [ -109.438311202460994, -27.146680829677099 ], [ -109.438184942487993, -27.1465198822555 ], [ -109.438082555711006, -27.146317141493 ], [ -109.437839565781005, -27.145931262658099 ], [ -109.437765185027999, -27.145760586910502 ], [ -109.437677044553993, -27.1455905265714 ], [ -109.437579409904998, -27.1453986782474 ], [ -109.437546326315001, -27.145309384259299 ], [ -109.436768125423001, -27.145651748289499 ], [ -109.436327034524993, -27.1458306820304 ], [ -109.435853431295001, -27.145983302280399 ], [ -109.435853121871006, -27.146014785273501 ], [ -109.436042302114998, -27.1464006162449 ], [ -109.435971298105002, -27.146463030020701 ], [ -109.436307035303997, -27.146879324950401 ], [ -109.436105477921004, -27.1470123720987 ], [ -109.435995874211997, -27.147050597705501 ], [ -109.435908253001998, -27.1470748818133 ], [ -109.435829711839006, -27.1470395222889 ], [ -109.434135990358001, -27.145502917228299 ], [ -109.434266547302002, -27.145432288196702 ], [ -109.434476984482004, -27.145384003506098 ], [ -109.435289829696003, -27.1450440623994 ], [ -109.437135204566999, -27.1443410887372 ], [ -109.437083404625, -27.144249733024701 ], [ -109.437018008574995, -27.144153315375402 ], [ -109.437042708118994, -27.144027568818899 ], [ -109.437016494928997, -27.1439781447401 ], [ -109.436599156824002, -27.1432242793719 ], [ -109.436509372573994, -27.143222124341499 ], [ -109.436492654906999, -27.143194487613901 ], [ -109.435988269247005, -27.142326653638399 ], [ -109.435842353102998, -27.142109807915698 ], [ -109.435684947995995, -27.1419095188391 ], [ -109.435602530186998, -27.141816944196002 ], [ -109.435516948301, -27.141717106560598 ], [ -109.435444231519995, -27.141625332388099 ], [ -109.435353215752002, -27.141502289920101 ], [ -109.435263472225003, -27.141414361906499 ], [ -109.435159864509998, -27.141337541896299 ], [ -109.435072286237997, -27.141276048959 ], [ -109.434927399410995, -27.141201073600001 ], [ -109.434751412756, -27.141162041676701 ], [ -109.434658672572994, -27.141131630989999 ], [ -109.434276285802994, -27.141101818367002 ], [ -109.434159189694995, -27.1410798995481 ], [ -109.434028302038001, -27.141020956597298 ], [ -109.433934500120998, -27.1409344406636 ], [ -109.433847100113994, -27.140814318359801 ], [ -109.433776936029005, -27.140669361146301 ], [ -109.433726788220994, -27.1405864486584 ], [ -109.433697905589995, -27.140439647327302 ], [ -109.433724135755, -27.140242255065601 ], [ -109.433752647332, -27.139937395935601 ], [ -109.433738224615993, -27.1396788820729 ], [ -109.433715745170005, -27.139498474762298 ], [ -109.433680214926994, -27.139288106856799 ], [ -109.433570654988003, -27.138956093333299 ], [ -109.433242703356996, -27.138009998411398 ], [ -109.432655152807996, -27.136485453624399 ], [ -109.430254843981004, -27.1374125729631 ], [ -109.428070863973005, -27.139718424741002 ], [ -109.426661200965, -27.141124748444199 ], [ -109.425225269416998, -27.142494944451901 ], [ -109.423249377066, -27.144241566537101 ], [ -109.419989717722999, -27.146977716447601 ] ], [ [ -109.426360014736005, -27.146257635588999 ], [ -109.426260326163998, -27.146528625078499 ], [ -109.426208562515995, -27.146688915953 ], [ -109.426157304306003, -27.146635663906899 ], [ -109.426122286666995, -27.146576750577101 ], [ -109.426103716895994, -27.146491184204901 ], [ -109.426102492479998, -27.146370284972001 ], [ -109.426145987786995, -27.1463091013301 ], [ -109.426190856364002, -27.146272539959298 ], [ -109.426245218489001, -27.146257771394101 ], [ -109.426302744132997, -27.146250266880401 ], [ -109.426360014736005, -27.146257635588999 ] ], [ [ -109.430801108641006, -27.1450050610446 ], [ -109.430670989366007, -27.144867403190201 ], [ -109.430782629603002, -27.144828476795901 ], [ -109.430862703843005, -27.144811016002301 ], [ -109.430934346694997, -27.1448278698076 ], [ -109.43095472425, -27.144914893026101 ], [ -109.431001153563003, -27.145128795336898 ], [ -109.431054636588996, -27.145345468069799 ], [ -109.431128418455998, -27.145555063083901 ], [ -109.431177347802006, -27.1457210302409 ], [ -109.431222581127003, -27.145851680729798 ], [ -109.431270051797995, -27.145960633084702 ], [ -109.431354763529001, -27.146087976356899 ], [ -109.431458395633001, -27.146245327685001 ], [ -109.431619650263002, -27.146508091222898 ], [ -109.431699807388, -27.146584728304202 ], [ -109.431745302159996, -27.146689140628201 ], [ -109.431749599899007, -27.146766083175098 ], [ -109.431745227985004, -27.146773735527301 ], [ -109.431686985780999, -27.146756540283601 ], [ -109.431344751482001, -27.146896796936499 ], [ -109.431013005121997, -27.147101377700501 ], [ -109.430893968600998, -27.147069672841301 ], [ -109.430904049746005, -27.146663490536199 ], [ -109.430900272312002, -27.1465340727054 ], [ -109.430781074495002, -27.1463141647843 ], [ -109.430737478455995, -27.146120189534301 ], [ -109.430712025275994, -27.1460349351598 ], [ -109.430669029688005, -27.1458825862282 ], [ -109.430756676483, -27.145815419393301 ], [ -109.430762189842994, -27.145667073717501 ], [ -109.430736736523997, -27.145581819690101 ], [ -109.430709825563994, -27.145439551188701 ], [ -109.430704411049007, -27.1453734570057 ], [ -109.430790678837994, -27.145343376999001 ], [ -109.430768063523004, -27.145278051605601 ], [ -109.430740892735002, -27.145162020921099 ], [ -109.430778313611995, -27.145060073939 ], [ -109.430801108641006, -27.1450050610446 ] ], [ [ -109.426856894997997, -27.147404202180098 ], [ -109.426824893540001, -27.147448829341201 ], [ -109.426784772830004, -27.147496286517701 ], [ -109.426684646512996, -27.147556297646201 ], [ -109.426610791203998, -27.147558528098202 ], [ -109.426607028031995, -27.147549890238199 ], [ -109.426524294017, -27.147080878030401 ], [ -109.426796079610995, -27.147253875017999 ], [ -109.426853190122998, -27.147288351227701 ], [ -109.426875342643001, -27.1473391994429 ], [ -109.426856894997997, -27.147404202180098 ] ], [ [ -109.427285119301999, -27.147330633673398 ], [ -109.427392212737004, -27.147240999199099 ], [ -109.427581702105996, -27.1472063091819 ], [ -109.427999040981007, -27.1471444725303 ], [ -109.428165731185004, -27.147164796693598 ], [ -109.428256896934997, -27.147253289010699 ], [ -109.428339891727006, -27.1473498607976 ], [ -109.428405684443007, -27.147447199693499 ], [ -109.428467521049001, -27.147535459782699 ], [ -109.428546900013004, -27.1476908166347 ], [ -109.428598068216004, -27.1478350912138 ], [ -109.428625840674997, -27.147992753327401 ], [ -109.428614393035005, -27.148127484027999 ], [ -109.428498691041, -27.1483717809311 ], [ -109.428319106822997, -27.148628037817101 ], [ -109.428230141428998, -27.148627535614001 ], [ -109.427888402980997, -27.148715314836998 ], [ -109.427288696084005, -27.148908727156002 ], [ -109.427164917116997, -27.148946655097902 ], [ -109.427098342524005, -27.148928030171898 ], [ -109.426964018863004, -27.148498967102501 ], [ -109.427074810185005, -27.148444649257002 ], [ -109.427108876993003, -27.148375246001599 ], [ -109.427080586512005, -27.1482700582829 ], [ -109.427033296606993, -27.148040754600402 ], [ -109.426963391669005, -27.147746121210499 ], [ -109.426988428314999, -27.147669407119501 ], [ -109.427065594621993, -27.1475379116503 ], [ -109.427131231074, -27.147447042414999 ], [ -109.427285119301999, -27.147330633673398 ] ], [ [ -109.438525362410999, -27.153215974717199 ], [ -109.438927295821998, -27.153279711265501 ], [ -109.439197604636007, -27.153148806901601 ], [ -109.439668904212994, -27.152942555178399 ], [ -109.440209004729994, -27.1527332179183 ], [ -109.440644421629003, -27.153517386804602 ], [ -109.440562118125996, -27.1535565592065 ], [ -109.439399604152001, -27.1540144195944 ], [ -109.439317552307003, -27.154027355750401 ], [ -109.439151368473006, -27.153954592658501 ], [ -109.438996349459998, -27.153773343536301 ], [ -109.438944135819, -27.153734034269 ], [ -109.438834224355006, -27.153803754209399 ], [ -109.438691634186995, -27.153905792856499 ], [ -109.438569849461004, -27.153948277915799 ], [ -109.438065958569993, -27.1542809479255 ], [ -109.437687142765, -27.1539090935815 ], [ -109.437689345088998, -27.153899830208399 ], [ -109.438525362410999, -27.153215974717199 ] ] ] } },
{ "type": "Feature", "properties": { "id": "monoparte.2", "Name": null, "description": null, "timestamp": null, "begin": null, "end": null, "altitudeMode": null, "tessellate": -1, "extrude": 0, "visibility": -1, "drawOrder": null, "icon": null, "REG": "Valparaíso", "COM": "Isla de Pascua", "LOC": "Isla de Pascua", "ZONA": "Zona de Área Verde y Deporte", "NOM": "Zona de Área Verde y Deporte", "UPERM": "Áreas verdes, equipamiento de deporte y construcciones complementarias, como: kioskos, piletas, monumentos recordativos, juegos inflables, etc.", "UPROH": "Todos los usos no mencionados anteriormente.", "P_DO": "31/07/1971", "N_DOC": "500", "T_DO": "Decreto", "OBS": null }, "geometry": { "type": "Polygon", "coordinates": [ [ [ -109.432655152807996, -27.136485453624399 ], [ -109.433242703356996, -27.138009998411398 ], [ -109.433570654988003, -27.138956093333299 ], [ -109.433680214926994, -27.139288106856799 ], [ -109.433715745170005, -27.139498474762298 ], [ -109.433738224615993, -27.1396788820729 ], [ -109.433752647332, -27.139937395935601 ], [ -109.433724135755, -27.140242255065601 ], [ -109.433697905589995, -27.140439647327302 ], [ -109.433726788220994, -27.1405864486584 ], [ -109.433776936029005, -27.140669361146301 ], [ -109.433847100113994, -27.140814318359801 ], [ -109.433934500120998, -27.1409344406636 ], [ -109.434028302038001, -27.141020956597298 ], [ -109.434159189694995, -27.1410798995481 ], [ -109.434276285802994, -27.141101818367002 ], [ -109.434658672572994, -27.141131630989999 ], [ -109.434751412756, -27.141162041676701 ], [ -109.434927399410995, -27.141201073600001 ], [ -109.435072286237997, -27.141276048959 ], [ -109.435159864509998, -27.141337541896299 ], [ -109.435263472225003, -27.141414361906499 ], [ -109.435353215752002, -27.141502289920101 ], [ -109.435444231519995, -27.141625332388099 ], [ -109.435516948301, -27.141717106560598 ], [ -109.435602530186998, -27.141816944196002 ], [ -109.435684947995995, -27.1419095188391 ], [ -109.435842353102998, -27.142109807915698 ], [ -109.435988269247005, -27.142326653638399 ], [ -109.436492654906999, -27.143194487613901 ], [ -109.436509372573994, -27.143222124341499 ], [ -109.436599156824002, -27.1432242793719 ], [ -109.437016494928997, -27.1439781447401 ], [ -109.437042708118994, -27.144027568818899 ], [ -109.437018008574995, -27.144153315375402 ], [ -109.437083404625, -27.144249733024701 ], [ -109.437135204566999, -27.1443410887372 ], [ -109.437184405021, -27.144427857506301 ], [ -109.437266005251004, -27.144604382279098 ], [ -109.437308731868001, -27.144702430551099 ], [ -109.437333639217997, -27.144802510667802 ], [ -109.437431959223005, -27.145006669853299 ], [ -109.437499801445, -27.145183809440901 ], [ -109.437546326315001, -27.145309384259299 ], [ -109.437579409904998, -27.1453986782474 ], [ -109.437677044553993, -27.1455905265714 ], [ -109.437765185027999, -27.145760586910502 ], [ -109.437839565781005, -27.145931262658099 ], [ -109.438082555711006, -27.146317141493 ], [ -109.438184942487993, -27.1465198822555 ], [ -109.438311202460994, -27.146680829677099 ], [ -109.438433198881, -27.1468641813258 ], [ -109.438676710403001, -27.147197584475101 ], [ -109.438733613739004, -27.147253037552201 ], [ -109.438832208552, -27.1472646647623 ], [ -109.438967466725998, -27.1471672864119 ], [ -109.439146687706994, -27.147042023711901 ], [ -109.439366294582001, -27.1469235907513 ], [ -109.439528867776005, -27.146845968301701 ], [ -109.439531887919998, -27.146845075347098 ], [ -109.439843695323006, -27.1467528876979 ], [ -109.440041495418001, -27.1467131770838 ], [ -109.440269571426995, -27.146721471651102 ], [ -109.440431118296004, -27.1467487889661 ], [ -109.440721942400998, -27.146793761486201 ], [ -109.440925942258005, -27.1468648352452 ], [ -109.441131422468999, -27.1469500336196 ], [ -109.441327789290995, -27.147057234748399 ], [ -109.441523262855995, -27.1471731139297 ], [ -109.441705870571994, -27.147280930555901 ], [ -109.441843139097003, -27.147392011866199 ], [ -109.441921998089001, -27.147519285599 ], [ -109.441955089879997, -27.147554894855201 ], [ -109.442018880743007, -27.147623539153301 ], [ -109.442120512678997, -27.147738684955801 ], [ -109.442197508925005, -27.147808042053299 ], [ -109.442310346441005, -27.147852345208001 ], [ -109.442500307036994, -27.147869744638701 ], [ -109.442506111927003, -27.147869507033999 ], [ -109.442812726981003, -27.147856972418701 ], [ -109.442979428748004, -27.147853201031701 ], [ -109.443118124392996, -27.147817366162698 ], [ -109.443262666153998, -27.147762758989899 ], [ -109.443386425588002, -27.147681934142099 ], [ -109.443540587493004, -27.147552854362502 ], [ -109.443700390998998, -27.1474259900126 ], [ -109.443874440132006, -27.147331804455199 ], [ -109.444166479467995, -27.147250839540899 ], [ -109.444692995788003, -27.1472679506495 ], [ -109.444875522740006, -27.147300486993501 ], [ -109.444950651827995, -27.1473119255005 ], [ -109.445011534791007, -27.147290684958602 ], [ -109.445765482894998, -27.147464794746501 ], [ -109.446052726264995, -27.147544457551199 ], [ -109.446401825405005, -27.147669469455899 ], [ -109.446607000365006, -27.147786129762199 ], [ -109.446837217254995, -27.1479066009565 ], [ -109.447008339231999, -27.148030957507601 ], [ -109.447223399948001, -27.1482131889627 ], [ -109.447285745374003, -27.148291833076399 ], [ -109.447325119726997, -27.1484035921486 ], [ -109.447328154991993, -27.148424877419298 ], [ -109.447352401209002, -27.148594867873101 ], [ -109.447344821526002, -27.148877790019 ], [ -109.447322068209004, -27.1493082372345 ], [ -109.447283636554999, -27.149434594749302 ], [ -109.447292125125003, -27.149561314210899 ], [ -109.447244598528997, -27.14962391377 ], [ -109.447197358582002, -27.149740795328 ], [ -109.447051611564007, -27.1499213317014 ], [ -109.446920230459995, -27.150038289963501 ], [ -109.446720740417007, -27.150170645842 ], [ -109.446533425352001, -27.150298753504899 ], [ -109.446689516568995, -27.1503886143974 ], [ -109.446770779126993, -27.150435559490901 ], [ -109.446856589106005, -27.1505143847372 ], [ -109.446940412692996, -27.1506315519573 ], [ -109.447027403243993, -27.150755981191399 ], [ -109.447093802325, -27.150777355096899 ], [ -109.447006097349998, -27.150443025240001 ], [ -109.447207217932998, -27.1503018095536 ], [ -109.447347590288999, -27.149813581367699 ], [ -109.447389325322007, -27.1496945800764 ], [ -109.447721376814002, -27.149363635026099 ], [ -109.447615675275998, -27.1492729461193 ], [ -109.447630840724003, -27.149141721708901 ], [ -109.447711365359993, -27.1491186793852 ], [ -109.447641696749002, -27.148837265162999 ], [ -109.447637834312005, -27.148826475035602 ], [ -109.447742056167002, -27.148829958046399 ], [ -109.447873282361002, -27.148618732222999 ], [ -109.448049559278999, -27.148436645283901 ], [ -109.448255658356999, -27.148419697629802 ], [ -109.448289068720996, -27.1485179885766 ], [ -109.448354207129995, -27.1484470079515 ], [ -109.448431018418006, -27.148304486310199 ], [ -109.448392588716004, -27.148182255022899 ], [ -109.448215438218995, -27.1482329499485 ], [ -109.447937776225999, -27.148399640508298 ], [ -109.447882587685996, -27.148329786392999 ], [ -109.447735365522007, -27.148342574130201 ], [ -109.447747629153, -27.148228041154599 ], [ -109.447686406597995, -27.148208288246199 ], [ -109.447586811150998, -27.148257407302999 ], [ -109.447440974439999, -27.1479739993413 ], [ -109.447348241499, -27.147717425693902 ], [ -109.447150566942, -27.147509914385001 ], [ -109.447300996001005, -27.147263059379199 ], [ -109.447023312997004, -27.147236255955001 ], [ -109.447140976144993, -27.147039222347701 ], [ -109.447123966397996, -27.146914826321701 ], [ -109.446734643819994, -27.1472308363787 ], [ -109.446611099772994, -27.147076656389402 ], [ -109.446426520903998, -27.147084272761902 ], [ -109.446327494716996, -27.146896906941301 ], [ -109.446104050116006, -27.147009221672601 ], [ -109.445863235844001, -27.147023412592201 ], [ -109.445562577367994, -27.146917534915499 ], [ -109.445520705221995, -27.146656716802301 ], [ -109.445336618241001, -27.1466285055503 ], [ -109.445164224969005, -27.146722244679601 ], [ -109.444979613244996, -27.146732247847002 ], [ -109.444591907586997, -27.146735337265799 ], [ -109.444412428236006, -27.1465662341671 ], [ -109.444445916074997, -27.146463868397099 ], [ -109.444255794591996, -27.1464857569568 ], [ -109.444305600847002, -27.146557943838701 ], [ -109.444187522678007, -27.1465901450457 ], [ -109.444206710832006, -27.146750395423702 ], [ -109.444203873540005, -27.146762309600199 ], [ -109.444121203098007, -27.146747107117498 ], [ -109.444043911373996, -27.146729572767899 ], [ -109.444009767249, -27.1468797073214 ], [ -109.443821104093004, -27.146989994792101 ], [ -109.443510427638998, -27.147029723679001 ], [ -109.443511378921002, -27.146960458628701 ], [ -109.443370226398997, -27.146920752881201 ], [ -109.443261922342998, -27.147019941457501 ], [ -109.443351530214002, -27.147114047410302 ], [ -109.443437480629001, -27.147279778381399 ], [ -109.443389805544001, -27.147441714423501 ], [ -109.443259360360997, -27.147595612110798 ], [ -109.443006375267998, -27.147717165710699 ], [ -109.442808659221001, -27.1477079175502 ], [ -109.442658075078995, -27.147770828822502 ], [ -109.442437777855005, -27.147653846842498 ], [ -109.442259318422003, -27.147410699535499 ], [ -109.441890264311994, -27.147029382914301 ], [ -109.441821812857, -27.146952220903 ], [ -109.441471026428999, -27.146798030577902 ], [ -109.440991568380994, -27.146668759376801 ], [ -109.440815666944999, -27.146628684585 ], [ -109.440551288231006, -27.146606786336001 ], [ -109.439694097431001, -27.1465332460726 ], [ -109.439536424459007, -27.146722684715499 ], [ -109.439522038781007, -27.1467965856733 ], [ -109.439385280894001, -27.1468261961144 ], [ -109.439247659005005, -27.146724414096202 ], [ -109.439230361463004, -27.146621513993502 ], [ -109.439127063206996, -27.1465511491567 ], [ -109.439145339367002, -27.146388904539801 ], [ -109.439217340886998, -27.146208117167799 ], [ -109.439194006592004, -27.146155317291299 ], [ -109.439087179854994, -27.1461470238206 ], [ -109.438991408126995, -27.146112569710201 ], [ -109.438971339323999, -27.146016805931001 ], [ -109.438937082318006, -27.1459806130948 ], [ -109.438881340923999, -27.1459513587657 ], [ -109.438764612566004, -27.145885629310602 ], [ -109.438769753879996, -27.145706524672899 ], [ -109.438732823042997, -27.145670303018601 ], [ -109.438652169668998, -27.145702894612601 ], [ -109.438621250815999, -27.1458124521732 ], [ -109.438559406964004, -27.1458380754055 ], [ -109.438364138102997, -27.145845568483299 ], [ -109.438254769869999, -27.145827691479798 ], [ -109.438188337498005, -27.145798324763199 ], [ -109.438138041911998, -27.145761961389098 ], [ -109.438141373611998, -27.1457142208791 ], [ -109.438152296444997, -27.145697614603101 ], [ -109.438225062669005, -27.145655385642701 ], [ -109.438225161909997, -27.145648220265802 ], [ -109.438213244644004, -27.145542987543301 ], [ -109.438154554573998, -27.145533768105999 ], [ -109.438038285812993, -27.1455898706071 ], [ -109.437966051830998, -27.1455547093109 ], [ -109.437877925769001, -27.145586265849101 ], [ -109.437788925280003, -27.145526083360998 ], [ -109.437713757484005, -27.145393428081 ], [ -109.437759772442007, -27.145313651675899 ], [ -109.437762042371006, -27.145304120467301 ], [ -109.437714253134999, -27.145202331047798 ], [ -109.437698304899001, -27.145118077386002 ], [ -109.437735501475998, -27.1450573174127 ], [ -109.437789516677, -27.145017756908199 ], [ -109.437736634429001, -27.144975155108298 ], [ -109.437644995919001, -27.144951254454401 ], [ -109.437579967920001, -27.144858837957901 ], [ -109.437541496774998, -27.1447017278619 ], [ -109.437364736814999, -27.144491557655101 ], [ -109.437436703163996, -27.144391033791798 ], [ -109.437441717365004, -27.144337577899101 ], [ -109.437876168740999, -27.1443173251091 ], [ -109.437932911524001, -27.144545337436 ], [ -109.437983629011995, -27.144589826846499 ], [ -109.438055120778998, -27.1445236954326 ], [ -109.438068241473005, -27.144502812862001 ], [ -109.438139121757999, -27.144325836273001 ], [ -109.438224154110003, -27.144208250536899 ], [ -109.438226450464001, -27.144196808979999 ], [ -109.438214304553, -27.1441469942406 ], [ -109.438126970116002, -27.1441212277015 ], [ -109.437836107712997, -27.143965272965001 ], [ -109.437702280392003, -27.143898884611801 ], [ -109.437601899312995, -27.143733475217701 ], [ -109.437553237507998, -27.1435399476855 ], [ -109.437451592721004, -27.143466254505 ], [ -109.437416477723005, -27.143376065221599 ], [ -109.437220816660002, -27.1431408516235 ], [ -109.437185539449004, -27.1429073338001 ], [ -109.437283349474001, -27.142793705948499 ], [ -109.437652688469996, -27.142686769544099 ], [ -109.437658651673004, -27.1425645267413 ], [ -109.437479550130007, -27.1425244131255 ], [ -109.437320247968003, -27.1424443776197 ], [ -109.437377243263995, -27.142343695463801 ], [ -109.437362353569995, -27.1423378056082 ], [ -109.437268289011996, -27.1423349003128 ], [ -109.437186475358004, -27.1423741670969 ], [ -109.437099801122997, -27.142300632161898 ], [ -109.437151650494997, -27.1422629595661 ], [ -109.437116903936996, -27.142146019517501 ], [ -109.437034085755002, -27.1421031017213 ], [ -109.436905384621994, -27.142130406303 ], [ -109.436848968901998, -27.142189051789298 ], [ -109.436784605211002, -27.142203659971599 ], [ -109.436718419651001, -27.142195315527001 ], [ -109.436658912919995, -27.142167932430102 ], [ -109.436640853132005, -27.1420817451727 ], [ -109.436639321095996, -27.142037775637899 ], [ -109.436673957100993, -27.142007565524501 ], [ -109.436792334407002, -27.141953396968699 ], [ -109.436780110377995, -27.141909314128402 ], [ -109.436792752203004, -27.141768031664501 ], [ -109.436817539957005, -27.141676564614102 ], [ -109.436920895005002, -27.141626059364999 ], [ -109.436893887010001, -27.141568443363798 ], [ -109.437101993612998, -27.14136616331 ], [ -109.436930073895994, -27.141270705755499 ], [ -109.436343045925994, -27.141499555422801 ], [ -109.436242274392001, -27.141362806593399 ], [ -109.436426306417999, -27.141200404695802 ], [ -109.436133318222005, -27.1411992170977 ], [ -109.436118823726005, -27.141164665249899 ], [ -109.436011718933003, -27.1411769098831 ], [ -109.435983205484007, -27.1410734127758 ], [ -109.43590558999, -27.141118456207799 ], [ -109.435795526727006, -27.141035117635099 ], [ -109.435755120899998, -27.1409990973773 ], [ -109.435791056848004, -27.140913481179599 ], [ -109.435735418161997, -27.140877061136699 ], [ -109.435674829885002, -27.140811922965799 ], [ -109.435594508125007, -27.140820628288498 ], [ -109.435582164972999, -27.140746445607999 ], [ -109.435644336036006, -27.140696939094799 ], [ -109.435649780876005, -27.140689830105501 ], [ -109.435625523229007, -27.1405104146627 ], [ -109.435812036303005, -27.1403618948519 ], [ -109.435586217554999, -27.140259176862699 ], [ -109.435467944305998, -27.140112209565501 ], [ -109.435531730422994, -27.139945669604099 ], [ -109.435532060106993, -27.1399217852268 ], [ -109.435535095739993, -27.139895540692098 ], [ -109.435527637316, -27.139854852427899 ], [ -109.435491036667997, -27.139601254341301 ], [ -109.435295580640002, -27.139623073814899 ], [ -109.435112104560005, -27.139745349077799 ], [ -109.434899190162, -27.139676209742898 ], [ -109.434781149212, -27.139512522756601 ], [ -109.434753858137, -27.139359351560099 ], [ -109.434811276429002, -27.1392667975202 ], [ -109.434560381468003, -27.1392378644661 ], [ -109.434443265289005, -27.1390073013578 ], [ -109.434283053410994, -27.1389936608666 ], [ -109.434322981416003, -27.138812536226901 ], [ -109.434269357011004, -27.1386304209536 ], [ -109.434356739115998, -27.138497574517 ], [ -109.434469364956996, -27.138472490576198 ], [ -109.434604727221995, -27.138349706484099 ], [ -109.434737021263004, -27.138449047747699 ], [ -109.434913664272003, -27.138240704760001 ], [ -109.434750713382002, -27.1380383219938 ], [ -109.434740019808004, -27.137844717447202 ], [ -109.434490347918, -27.137727412438402 ], [ -109.434484901697999, -27.137347538505601 ], [ -109.434561491406001, -27.137221743886201 ], [ -109.434572148409003, -27.137030754044002 ], [ -109.434467772252006, -27.136845712889901 ], [ -109.434148112423003, -27.136570006453901 ], [ -109.434405567959004, -27.136510624696701 ], [ -109.434166887443993, -27.1363719365248 ], [ -109.434453513163007, -27.136329584515298 ], [ -109.434446682189005, -27.136243516144201 ], [ -109.434257929789993, -27.136167465504599 ], [ -109.434512446192002, -27.135933670247301 ], [ -109.434500302328004, -27.135845156576099 ], [ -109.433144064451, -27.136296604953898 ], [ -109.432655152807996, -27.136485453624399 ] ] ] } },
{ "type": "Feature", "properties": { "id": "monoparte.3", "Name": null, "description": null, "timestamp": null, "begin": null, "end": null, "altitudeMode": null, "tessellate": -1, "extrude": 0, "visibility": -1, "drawOrder": null, "icon": null, "REG": "Valparaíso", "COM": "Isla de Pascua", "LOC": "Isla de Pascua", "ZONA": "Zona de Equipamiento", "NOM": "Zona de Equipamiento", "UPERM": "Hospitales, correos, escuelas, iglésias, registro civil, bancos, hoteles, museos arqueológico, gobernación, puerto e instalaciones portuarias, radio-faro, equipamiento de seguridad.", "UPROH": "Todos los no mencionados anteriormente.", "P_DO": "31/07/1971", "N_DOC": "500", "T_DO": "Decreto", "OBS": null }, "geometry": { "type": "Polygon", "coordinates": [ [ [ -109.444845448609001, -27.150991203703001 ], [ -109.444691130159995, -27.151060778252901 ], [ -109.444664181841006, -27.151170581774601 ], [ -109.444700845046995, -27.151479911188801 ], [ -109.444816299874006, -27.1518412349423 ], [ -109.444961424807005, -27.152208045792499 ], [ -109.444999550088994, -27.152304406671501 ], [ -109.445238652754995, -27.152681156245499 ], [ -109.445489850786004, -27.152978382232401 ], [ -109.445544287863996, -27.153038872901998 ], [ -109.445618329333996, -27.1530799726089 ], [ -109.445663678276006, -27.153069950056 ], [ -109.445716437523998, -27.1530582896639 ], [ -109.445722799744004, -27.152901282662299 ], [ -109.445759647439999, -27.152771289290001 ], [ -109.445812126774996, -27.152698592908401 ], [ -109.445909255586997, -27.152610316931 ], [ -109.44608200815, -27.152566771672099 ], [ -109.446366511579001, -27.152597183764499 ], [ -109.446777331768999, -27.152616984157198 ], [ -109.446958513238002, -27.152587707012898 ], [ -109.446978293518995, -27.152584510920999 ], [ -109.446973053609995, -27.152540321646999 ], [ -109.446975240884996, -27.152480991367401 ], [ -109.446970605757002, -27.152373840468801 ], [ -109.446906380946999, -27.1522372825758 ], [ -109.446780221148998, -27.152088667181498 ], [ -109.446254079257997, -27.1522506053131 ], [ -109.446018201128993, -27.151904141281801 ], [ -109.446088492504998, -27.1518475487768 ], [ -109.445915463660995, -27.1515972967686 ], [ -109.445837099729005, -27.151462701085698 ], [ -109.445777698550998, -27.151505075275999 ], [ -109.445464218691001, -27.151358452555002 ], [ -109.445552188193005, -27.1511826074825 ], [ -109.445681946771998, -27.151078864680699 ], [ -109.445729476145999, -27.151122362305799 ], [ -109.446083787461006, -27.151020979342299 ], [ -109.446073487771997, -27.150992205497701 ], [ -109.445853887756996, -27.1510185631921 ], [ -109.445786479581002, -27.150864972099601 ], [ -109.446023233356996, -27.1507575761471 ], [ -109.446055705416995, -27.150729251576401 ], [ -109.446247721278993, -27.150764712101399 ], [ -109.446305353550997, -27.150851313901502 ], [ -109.446195737186997, -27.151046043368499 ], [ -109.446184127281001, -27.151112807333899 ], [ -109.446271741944997, -27.151352606727901 ], [ -109.446323635162003, -27.151467813458201 ], [ -109.446586115036993, -27.151824111671498 ], [ -109.446607174617, -27.151848221094401 ], [ -109.446838058976994, -27.151778982013901 ], [ -109.446713212267994, -27.151524459650901 ], [ -109.446763385340006, -27.150985120385698 ], [ -109.446849584866996, -27.150938249985298 ], [ -109.446976591310005, -27.151035135118999 ], [ -109.447122977735006, -27.150888567374601 ], [ -109.447093802325, -27.150777355096899 ], [ -109.447027403243993, -27.150755981191399 ], [ -109.446940412692996, -27.1506315519573 ], [ -109.446856589106005, -27.1505143847372 ], [ -109.446770779126993, -27.150435559490901 ], [ -109.446689516568995, -27.1503886143974 ], [ -109.446533425352001, -27.150298753504899 ], [ -109.446448896228006, -27.150255039618798 ], [ -109.44629177825, -27.150355877107501 ], [ -109.446033186647995, -27.150492120296299 ], [ -109.445883494879993, -27.150577817180899 ], [ -109.445674012411999, -27.1506550920659 ], [ -109.445163070418999, -27.1508668315814 ], [ -109.444855276769999, -27.1509867729673 ], [ -109.444845448609001, -27.150991203703001 ] ] ] } },
{ "type": "Feature", "properties": { "id": "monoparte.4", "Name": null, "description": null, "timestamp": null, "begin": null, "end": null, "altitudeMode": null, "tessellate": -1, "extrude": 0, "visibility": -1, "drawOrder": null, "icon": null, "REG": "Valparaíso", "COM": "Isla de Pascua", "LOC": "Isla de Pascua", "ZONA": "Zona Industrial Pesquera", "NOM": "Zona Industrial Pesquera", "UPERM": "Galpones, camaras frigoríficas y almacenamiento.", "UPROH": "Viviendas, excepto casa del cuidador, y oficinas de administración.", "P_DO": "31/07/1971", "N_DOC": "500", "T_DO": "Decreto", "OBS": null }, "geometry": { "type": "Polygon", "coordinates": [ [ [ -109.443074814387003, -27.150838219516601 ], [ -109.443001690548996, -27.1511210115194 ], [ -109.442941473714001, -27.151135745429201 ], [ -109.442860311486996, -27.1511828873256 ], [ -109.442776987292007, -27.151265295770301 ], [ -109.442802044592, -27.1514353964767 ], [ -109.442928933982003, -27.1514287776372 ], [ -109.442992712934995, -27.151422213349701 ], [ -109.443078168216005, -27.1514331877888 ], [ -109.443123377828996, -27.151464478892599 ], [ -109.443199092354007, -27.151541603040201 ], [ -109.443247408529004, -27.1516282861351 ], [ -109.443274047892004, -27.1516974314751 ], [ -109.443325345768997, -27.151726597482199 ], [ -109.443364314872994, -27.1517757529543 ], [ -109.443392355862002, -27.151888335754101 ], [ -109.443428343258006, -27.151995008366899 ], [ -109.443176379703004, -27.152197439010099 ], [ -109.443339989341993, -27.152347437646402 ], [ -109.443704403460998, -27.152681758558199 ], [ -109.443714126570995, -27.152690678529201 ], [ -109.443851527350006, -27.152852957969301 ], [ -109.443960341248001, -27.153022073633299 ], [ -109.444067866343005, -27.152946904825502 ], [ -109.444848322545994, -27.152307494960201 ], [ -109.444961424807005, -27.152208045792499 ], [ -109.444816299874006, -27.1518412349423 ], [ -109.444700845046995, -27.151479911188801 ], [ -109.444664181841006, -27.151170581774601 ], [ -109.444691130159995, -27.151060778252901 ], [ -109.444845448609001, -27.150991203703001 ], [ -109.444841187243, -27.150843178600201 ], [ -109.444837044894001, -27.1507693233022 ], [ -109.444814119241002, -27.150692609223601 ], [ -109.444790524558002, -27.150622403239701 ], [ -109.444649087233998, -27.150627825110998 ], [ -109.444581595743998, -27.1506419604763 ], [ -109.444513434247, -27.150662604209199 ], [ -109.444124706243002, -27.1505754645985 ], [ -109.443886459175999, -27.150551911208499 ], [ -109.443649611839007, -27.150571792943602 ], [ -109.443410085286999, -27.1506177098045 ], [ -109.443213543628005, -27.150673729721099 ], [ -109.443109062806997, -27.150747831808602 ], [ -109.443074814387003, -27.150838219516601 ] ] ] } },
{ "type": "Feature", "properties": { "id": "monoparte.5", "Name": null, "description": null, "timestamp": null, "begin": null, "end": null, "altitudeMode": null, "tessellate": -1, "extrude": 0, "visibility": -1, "drawOrder": null, "icon": null, "REG": "Valparaíso", "COM": "Isla de Pascua", "LOC": "Isla de Pascua", "ZONA": "Zona de Equipamiento", "NOM": "Zona de Equipamiento", "UPERM": "Hospitales, correos, escuelas, iglésias, registro civil, bancos, hoteles, museos arqueológico, gobernación, puerto e instalaciones portuarias, radio-faro, Mayor detalle en Ordenanza.", "UPROH": "Todos los no mencionados anteriormente.", "P_DO": "31/07/1971", "N_DOC": "500", "T_DO": "Decreto", "OBS": null }, "geometry": { "type": "Polygon", "coordinates": [ [ [ -109.443262666153998, -27.147762758989899 ], [ -109.443118124392996, -27.147817366162698 ], [ -109.442979428748004, -27.147853201031701 ], [ -109.442812726981003, -27.147856972418701 ], [ -109.442506111927003, -27.147869507033999 ], [ -109.442564186092, -27.1480213816283 ], [ -109.442858096175001, -27.1483737865968 ], [ -109.442867653216993, -27.1484520277325 ], [ -109.443954819108995, -27.1496022813525 ], [ -109.444059024959003, -27.149744764548402 ], [ -109.444115709003, -27.149718712927299 ], [ -109.444380710640004, -27.1496105697518 ], [ -109.445664269971005, -27.149087445042799 ], [ -109.447328154991993, -27.148424877419298 ], [ -109.447325119726997, -27.1484035921486 ], [ -109.447285745374003, -27.148291833076399 ], [ -109.447223399948001, -27.1482131889627 ], [ -109.447008339231999, -27.148030957507601 ], [ -109.446837217254995, -27.1479066009565 ], [ -109.446607000365006, -27.147786129762199 ], [ -109.446401825405005, -27.147669469455899 ], [ -109.446052726264995, -27.147544457551199 ], [ -109.445765482894998, -27.147464794746501 ], [ -109.445011534791007, -27.147290684958602 ], [ -109.444950651827995, -27.1473119255005 ], [ -109.444875522740006, -27.147300486993501 ], [ -109.444692995788003, -27.1472679506495 ], [ -109.444166479467995, -27.147250839540899 ], [ -109.443874440132006, -27.147331804455199 ], [ -109.443700390998998, -27.1474259900126 ], [ -109.443540587493004, -27.147552854362502 ], [ -109.443386425588002, -27.147681934142099 ], [ -109.443262666153998, -27.147762758989899 ] ] ] } },
{ "type": "Feature", "properties": { "id": "monoparte.6", "Name": null, "description": null, "timestamp": null, "begin": null, "end": null, "altitudeMode": null, "tessellate": -1, "extrude": 0, "visibility": -1, "drawOrder": null, "icon": null, "REG": "Valparaíso", "COM": "Isla de Pascua", "LOC": "Isla de Pascua", "ZONA": "Zona de Equipamiento", "NOM": "Zona de Equipamiento", "UPERM": "Hospitales, correos, escuelas, iglésias, registro civil, bancos, hoteles, museos arqueológico, gobernación, puerto e instalaciones portuarias, radio-faro, Mayor detalle en Ordenanza.", "UPROH": "Todos los no mencionados anteriormente.", "P_DO": "31/07/1971", "N_DOC": "500", "T_DO": "Decreto", "OBS": null }, "geometry": { "type": "Polygon", "coordinates": [ [ [ -109.439772658509, -27.147111602283498 ], [ -109.440816134833, -27.1481940143345 ], [ -109.441834263462994, -27.147641191996399 ], [ -109.441955089879997, -27.147554894855201 ], [ -109.441921998089001, -27.147519285599 ], [ -109.441843139097003, -27.147392011866199 ], [ -109.441705870571994, -27.147280930555901 ], [ -109.441523262855995, -27.1471731139297 ], [ -109.441327789290995, -27.147057234748399 ], [ -109.441131422468999, -27.1469500336196 ], [ -109.440925942258005, -27.1468648352452 ], [ -109.440721942400998, -27.146793761486201 ], [ -109.440431118296004, -27.1467487889661 ], [ -109.440269571426995, -27.146721471651102 ], [ -109.440041495418001, -27.1467131770838 ], [ -109.439843695323006, -27.1467528876979 ], [ -109.439531887919998, -27.146845075347098 ], [ -109.439772658509, -27.147111602283498 ] ] ] } },
{ "type": "Feature", "properties": { "id": "monoparte.7", "Name": null, "description": null, "timestamp": null, "begin": null, "end": null, "altitudeMode": null, "tessellate": -1, "extrude": 0, "visibility": -1, "drawOrder": null, "icon": null, "REG": "Valparaíso", "COM": "Isla de Pascua", "LOC": "Isla de Pascua", "ZONA": "Zona de Equipamiento", "NOM": "Zona de Equipamiento", "UPERM": "Hospitales, correos, escuelas, iglésias, registro civil, bancos, hoteles, museos arqueológico, gobernación, puerto e instalaciones portuarias, radio-faro, Mayor detalle en Ordenanza.", "UPROH": "Todos los usos no mencionados anteriormente.", "P_DO": "31/07/1971", "N_DOC": "500", "T_DO": "Decreto", "OBS": null }, "geometry": { "type": "Polygon", "coordinates": [ [ [ -109.440958345092, -27.154721163664199 ], [ -109.439914915559001, -27.1553529536498 ], [ -109.439755825451996, -27.155460055722202 ], [ -109.439733539673, -27.155505483729598 ], [ -109.439637207428007, -27.155509806289299 ], [ -109.439578588558007, -27.155546992140899 ], [ -109.439533326643996, -27.1556255380926 ], [ -109.439491230702998, -27.1557113474367 ], [ -109.439401801304996, -27.155838771833899 ], [ -109.439362181644995, -27.155919533501901 ], [ -109.439316431806006, -27.155964780761199 ], [ -109.439282454972002, -27.156047757029601 ], [ -109.438983428745999, -27.156177183153702 ], [ -109.438973561159997, -27.156025828608499 ], [ -109.438925372422005, -27.155904578557799 ], [ -109.438889564895007, -27.155758090099599 ], [ -109.438830698855, -27.1555694420009 ], [ -109.438428355049993, -27.1555048058846 ], [ -109.437658495413004, -27.155455417801299 ], [ -109.437489107960005, -27.155441293730199 ], [ -109.435934754697996, -27.156140414523801 ], [ -109.432242496453, -27.157623951410301 ], [ -109.432391136228006, -27.1578712361962 ], [ -109.434311239272006, -27.161207541927499 ], [ -109.434601249942006, -27.161093527672602 ], [ -109.436232918369996, -27.1604426946822 ], [ -109.437306661777995, -27.159992771196698 ], [ -109.437543123883998, -27.159891444649201 ], [ -109.437559623083999, -27.1598166539418 ], [ -109.437552067690007, -27.159718877119001 ], [ -109.438032240286006, -27.159645484571399 ], [ -109.438142889003998, -27.159625707341501 ], [ -109.438877048715995, -27.1593946615404 ], [ -109.439236026792997, -27.1593007909477 ], [ -109.439722881630004, -27.159162300423301 ], [ -109.440338645056997, -27.158997656257601 ], [ -109.441136779695995, -27.158800752484002 ], [ -109.441984220848994, -27.158523881084001 ], [ -109.441995965939, -27.158438199939201 ], [ -109.442189651125005, -27.158238829181599 ], [ -109.442192196074998, -27.158099879041401 ], [ -109.442171119787005, -27.158019374844699 ], [ -109.442430577300001, -27.157922566076799 ], [ -109.442580429729006, -27.1578640012245 ], [ -109.442353440182998, -27.157359581793798 ], [ -109.442903227676993, -27.157236773805199 ], [ -109.443992685311997, -27.1570323304447 ], [ -109.444836497194004, -27.156875939785401 ], [ -109.445854497094004, -27.156652479938899 ], [ -109.445944078129003, -27.156632584651899 ], [ -109.445953420267998, -27.156630509644501 ], [ -109.444407097023998, -27.153891220307099 ], [ -109.444390835038007, -27.153862410967101 ], [ -109.443888465301995, -27.153096412068901 ], [ -109.443960341248001, -27.153022073633299 ], [ -109.443851527350006, -27.152852957969301 ], [ -109.443714126570995, -27.152690678529201 ], [ -109.443704403460998, -27.152681758558199 ], [ -109.442810576363001, -27.1531127127279 ], [ -109.441027823571005, -27.1538936736357 ], [ -109.440936731890005, -27.153942187714598 ], [ -109.441259548546, -27.1545324042165 ], [ -109.440958345092, -27.154721163664199 ] ], [ [ -109.442244759895004, -27.1551198163056 ], [ -109.441459686768994, -27.155529179615002 ], [ -109.441073853562003, -27.154885642415401 ], [ -109.441888622007994, -27.154469589896902 ], [ -109.442244759895004, -27.1551198163056 ] ] ] } },
{ "type": "Feature", "properties": { "id": "monoparte.8", "Name": null, "description": null, "timestamp": null, "begin": null, "end": null, "altitudeMode": null, "tessellate": -1, "extrude": 0, "visibility": -1, "drawOrder": null, "icon": null, "REG": "Valparaíso", "COM": "Isla de Pascua", "LOC": "Isla de Pascua", "ZONA": "Zona de Equipamiento", "NOM": "Zona de Equipamiento", "UPERM": "Hospitales, correos, escuelas, iglésias, registro civil, bancos, hoteles, museos arqueológico, gobernación, puerto e instalaciones portuarias, radio-faro, Mayor detalle en Ordenanza.", "UPROH": "Todos los no mencionados anteriormente.", "P_DO": "31/07/1971", "N_DOC": "500", "T_DO": "Decreto", "OBS": null }, "geometry": { "type": "Polygon", "coordinates": [ [ [ -109.438525362410999, -27.153215974717199 ], [ -109.437689345088998, -27.153899830208399 ], [ -109.437687142765, -27.1539090935815 ], [ -109.438065958569993, -27.1542809479255 ], [ -109.438569849461004, -27.153948277915799 ], [ -109.438691634186995, -27.153905792856499 ], [ -109.438834224355006, -27.153803754209399 ], [ -109.438944135819, -27.153734034269 ], [ -109.438996349459998, -27.153773343536301 ], [ -109.439151368473006, -27.153954592658501 ], [ -109.439317552307003, -27.154027355750401 ], [ -109.439399604152001, -27.1540144195944 ], [ -109.440562118125996, -27.1535565592065 ], [ -109.440644421629003, -27.153517386804602 ], [ -109.440209004729994, -27.1527332179183 ], [ -109.439668904212994, -27.152942555178399 ], [ -109.439197604636007, -27.153148806901601 ], [ -109.438927295821998, -27.153279711265501 ], [ -109.438525362410999, -27.153215974717199 ] ] ] } },
{ "type": "Feature", "properties": { "id": "monoparte.9", "Name": null, "description": null, "timestamp": null, "begin": null, "end": null, "altitudeMode": null, "tessellate": -1, "extrude": 0, "visibility": -1, "drawOrder": null, "icon": null, "REG": "Valparaíso", "COM": "Isla de Pascua", "LOC": "Isla de Pascua", "ZONA": "Zona de Equipamiento", "NOM": "Zona de Equipamiento", "UPERM": "Hospitales, correos, escuelas, iglésias, registro civil, bancos, hoteles, museos arqueológico, gobernación, puerto e instalaciones portuarias, radio-faro, Mayor detalle en Ordenanza.", "UPROH": "Todos los no mencionados anteriormente.", "P_DO": "31/07/1971", "N_DOC": "500", "T_DO": "Decreto", "OBS": null }, "geometry": { "type": "Polygon", "coordinates": [ [ [ -109.428230141428998, -27.148627535614001 ], [ -109.428319106822997, -27.148628037817101 ], [ -109.428498691041, -27.1483717809311 ], [ -109.428614393035005, -27.148127484027999 ], [ -109.428625840674997, -27.147992753327401 ], [ -109.428598068216004, -27.1478350912138 ], [ -109.428546900013004, -27.1476908166347 ], [ -109.428467521049001, -27.147535459782699 ], [ -109.428405684443007, -27.147447199693499 ], [ -109.428339891727006, -27.1473498607976 ], [ -109.428256896934997, -27.147253289010699 ], [ -109.428165731185004, -27.147164796693598 ], [ -109.427999040981007, -27.1471444725303 ], [ -109.427581702105996, -27.1472063091819 ], [ -109.427392212737004, -27.147240999199099 ], [ -109.427285119301999, -27.147330633673398 ], [ -109.427131231074, -27.147447042414999 ], [ -109.427065594621993, -27.1475379116503 ], [ -109.426988428314999, -27.147669407119501 ], [ -109.426963391669005, -27.147746121210499 ], [ -109.427033296606993, -27.148040754600402 ], [ -109.427080586512005, -27.1482700582829 ], [ -109.427108876993003, -27.148375246001599 ], [ -109.427074810185005, -27.148444649257002 ], [ -109.426964018863004, -27.148498967102501 ], [ -109.427098342524005, -27.148928030171898 ], [ -109.427164917116997, -27.148946655097902 ], [ -109.427288696084005, -27.148908727156002 ], [ -109.427888402980997, -27.148715314836998 ], [ -109.428230141428998, -27.148627535614001 ] ] ] } },
{ "type": "Feature", "properties": { "id": "monoparte.10", "Name": null, "description": null, "timestamp": null, "begin": null, "end": null, "altitudeMode": null, "tessellate": -1, "extrude": 0, "visibility": -1, "drawOrder": null, "icon": null, "REG": "Valparaíso", "COM": "Isla de Pascua", "LOC": "Isla de Pascua", "ZONA": "Zona de Equipamiento", "NOM": "Zona de Equipamiento", "UPERM": "Hospitales, correos, escuelas, iglésias, registro civil, bancos, hoteles, museos arqueológico, gobernación, puerto e instalaciones portuarias, radio-faro, Mayor detalle en Ordenanza.", "UPROH": "Todos los no mencionados anteriormente.", "P_DO": "31/07/1971", "N_DOC": "500", "T_DO": "Decreto", "OBS": null }, "geometry": { "type": "Polygon", "coordinates": [ [ [ -109.435289829696003, -27.1450440623994 ], [ -109.434476984482004, -27.145384003506098 ], [ -109.434266547302002, -27.145432288196702 ], [ -109.434135990358001, -27.145502917228299 ], [ -109.435829711839006, -27.1470395222889 ], [ -109.435908253001998, -27.1470748818133 ], [ -109.435995874211997, -27.147050597705501 ], [ -109.436105477921004, -27.1470123720987 ], [ -109.436307035303997, -27.146879324950401 ], [ -109.435971298105002, -27.146463030020701 ], [ -109.436042302114998, -27.1464006162449 ], [ -109.435853121871006, -27.146014785273501 ], [ -109.435853431295001, -27.145983302280399 ], [ -109.436327034524993, -27.1458306820304 ], [ -109.436768125423001, -27.145651748289499 ], [ -109.437546326315001, -27.145309384259299 ], [ -109.437499801445, -27.145183809440901 ], [ -109.437431959223005, -27.145006669853299 ], [ -109.437333639217997, -27.144802510667802 ], [ -109.437308731868001, -27.144702430551099 ], [ -109.437266005251004, -27.144604382279098 ], [ -109.437184405021, -27.144427857506301 ], [ -109.437135204566999, -27.1443410887372 ], [ -109.435289829696003, -27.1450440623994 ] ] ] } },
{ "type": "Feature", "properties": { "id": "monoparte.11", "Name": null, "description": null, "timestamp": null, "begin": null, "end": null, "altitudeMode": null, "tessellate": -1, "extrude": 0, "visibility": -1, "drawOrder": null, "icon": null, "REG": "Valparaíso", "COM": "Isla de Pascua", "LOC": "Isla de Pascua", "ZONA": "Zona de Equipamiento", "NOM": "Zona de Equipamiento", "UPERM": "Hospitales, correos, escuelas, iglésias, registro civil, bancos, hoteles, museos arqueológico, gobernación, puerto e instalaciones portuarias, radio-faro, Mayor detalle en Ordenanza..", "UPROH": "Todos los no mencionados anteriormente.", "P_DO": "31/07/1971", "N_DOC": "500", "T_DO": "Decreto", "OBS": null }, "geometry": { "type": "Polygon", "coordinates": [ [ [ -109.429699299074002, -27.1533924718068 ], [ -109.430702637807002, -27.155061984277399 ], [ -109.431989635967, -27.154582094555199 ], [ -109.431945554546999, -27.154497057813199 ], [ -109.431853369983997, -27.154366040390698 ], [ -109.431761075710995, -27.154122099430101 ], [ -109.431701100222, -27.1540488813202 ], [ -109.431620371234999, -27.1538636629015 ], [ -109.431468105174005, -27.153546502605298 ], [ -109.431370449984001, -27.1533546361172 ], [ -109.431309026652997, -27.153181512188301 ], [ -109.431180091944995, -27.152837388618199 ], [ -109.429699299074002, -27.1533924718068 ] ] ] } },
{ "type": "Feature", "properties": { "id": "monoparte.12", "Name": null, "description": null, "timestamp": null, "begin": null, "end": null, "altitudeMode": null, "tessellate": -1, "extrude": 0, "visibility": -1, "drawOrder": null, "icon": null, "REG": "Valparaíso", "COM": "Isla de Pascua", "LOC": "Isla de Pascua", "ZONA": "Zona Residencial", "NOM": "Zona Residencial", "UPERM": "Viviendas; equipamiento de culto, servicios profesionales, educación, sociales y comercio.", "UPROH": "Todos los usos no mencionados anteriormente.", "P_DO": "31/07/1971", "N_DOC": "500", "T_DO": "Decreto", "OBS": null }, "geometry": { "type": "Polygon", "coordinates": [ [ [ -109.441995965939, -27.158438199939201 ], [ -109.441984220848994, -27.158523881084001 ], [ -109.441136779695995, -27.158800752484002 ], [ -109.440338645056997, -27.158997656257601 ], [ -109.439722881630004, -27.159162300423301 ], [ -109.439236026792997, -27.1593007909477 ], [ -109.438877048715995, -27.1593946615404 ], [ -109.438142889003998, -27.159625707341501 ], [ -109.438032240286006, -27.159645484571399 ], [ -109.437552067690007, -27.159718877119001 ], [ -109.437559623083999, -27.1598166539418 ], [ -109.437543123883998, -27.159891444649201 ], [ -109.437306661777995, -27.159992771196698 ], [ -109.436232918369996, -27.1604426946822 ], [ -109.434601249942006, -27.161093527672602 ], [ -109.434311239272006, -27.161207541927499 ], [ -109.434714994298005, -27.161909015181301 ], [ -109.435855080438998, -27.164119655848499 ], [ -109.435863384081998, -27.164118671322601 ], [ -109.441054015640006, -27.1634998864726 ], [ -109.445670661898006, -27.162616881276701 ], [ -109.448276019443995, -27.162156938216501 ], [ -109.448649680808003, -27.1621095004277 ], [ -109.448478601597003, -27.161910630370802 ], [ -109.448428413797998, -27.161475344703799 ], [ -109.448254268816996, -27.161305107677101 ], [ -109.448073348240001, -27.160751398757199 ], [ -109.448220809700004, -27.1605272061595 ], [ -109.448269754340004, -27.160523749175599 ], [ -109.447250111670996, -27.160379722043899 ], [ -109.447315266980993, -27.160164532389601 ], [ -109.447365570694004, -27.159979629332401 ], [ -109.447395484625005, -27.159726537462799 ], [ -109.447422230593006, -27.159466184106002 ], [ -109.447409371581998, -27.159286592857399 ], [ -109.447352754316995, -27.159113906050599 ], [ -109.447117559964994, -27.158660486340999 ], [ -109.446388033234996, -27.157438273931401 ], [ -109.445944078129003, -27.156632584651899 ], [ -109.445854497094004, -27.156652479938899 ], [ -109.444836497194004, -27.156875939785401 ], [ -109.443992685311997, -27.1570323304447 ], [ -109.442903227676993, -27.157236773805199 ], [ -109.442353440182998, -27.157359581793798 ], [ -109.442580429729006, -27.1578640012245 ], [ -109.442430577300001, -27.157922566076799 ], [ -109.442171119787005, -27.158019374844699 ], [ -109.442192196074998, -27.158099879041401 ], [ -109.442189651125005, -27.158238829181599 ], [ -109.441995965939, -27.158438199939201 ] ] ] } },
{ "type": "Feature", "properties": { "id": "monoparte.13", "Name": null, "description": null, "timestamp": null, "begin": null, "end": null, "altitudeMode": null, "tessellate": -1, "extrude": 0, "visibility": -1, "drawOrder": null, "icon": null, "REG": "Valparaíso", "COM": "Isla de Pascua", "LOC": "Isla de Pascua", "ZONA": "Zona Residencial", "NOM": "Zona Residencial", "UPERM": "Viviendas; equipamiento de culto, servicios profesionales, educación, sociales y comercio.", "UPROH": "Todos los usos no mencionados anteriormente.", "P_DO": "31/07/1971", "N_DOC": "500", "T_DO": "Decreto", "OBS": null }, "geometry": { "type": "Polygon", "coordinates": [ [ [ -109.445369731037999, -27.153716771352201 ], [ -109.445641487675005, -27.1536428632695 ], [ -109.445727382171, -27.153544910012801 ], [ -109.445768115643006, -27.1534104220949 ], [ -109.445740299543999, -27.153252790379401 ], [ -109.445663678276006, -27.153069950056 ], [ -109.445618329333996, -27.1530799726089 ], [ -109.445544287863996, -27.153038872901998 ], [ -109.445489850786004, -27.152978382232401 ], [ -109.445238652754995, -27.152681156245499 ], [ -109.444999550088994, -27.152304406671501 ], [ -109.444961424807005, -27.152208045792499 ], [ -109.444848322545994, -27.152307494960201 ], [ -109.444067866343005, -27.152946904825502 ], [ -109.443960341248001, -27.153022073633299 ], [ -109.443888465301995, -27.153096412068901 ], [ -109.444390835038007, -27.153862410967101 ], [ -109.444407097023998, -27.153891220307099 ], [ -109.444745536214995, -27.153840445273399 ], [ -109.445080772376997, -27.1537914521187 ], [ -109.445369731037999, -27.153716771352201 ] ] ] } },
{ "type": "Feature", "properties": { "id": "monoparte.14", "Name": null, "description": null, "timestamp": null, "begin": null, "end": null, "altitudeMode": null, "tessellate": -1, "extrude": 0, "visibility": -1, "drawOrder": null, "icon": null, "REG": "Valparaíso", "COM": "Isla de Pascua", "LOC": "Isla de Pascua", "ZONA": "Zona Turística y Arquitectónica Costera", "NOM": "Zona Turística y Arquitectónica Costera", "UPERM": "Sin información.", "UPROH": "Sin información.", "P_DO": "31/07/1971", "N_DOC": "500", "T_DO": "Decreto", "OBS": null }, "geometry": { "type": "Polygon", "coordinates": [ [ [ -109.445722799744004, -27.152901282662299 ], [ -109.445716437523998, -27.1530582896639 ], [ -109.445663678276006, -27.153069950056 ], [ -109.445740299543999, -27.153252790379401 ], [ -109.445768115643006, -27.1534104220949 ], [ -109.445727382171, -27.153544910012801 ], [ -109.445641487675005, -27.1536428632695 ], [ -109.445369731037999, -27.153716771352201 ], [ -109.445080772376997, -27.1537914521187 ], [ -109.444745536214995, -27.153840445273399 ], [ -109.444407097023998, -27.153891220307099 ], [ -109.445953420267998, -27.156630509644501 ], [ -109.445944078129003, -27.156632584651899 ], [ -109.446388033234996, -27.157438273931401 ], [ -109.447117559964994, -27.158660486340999 ], [ -109.447352754316995, -27.159113906050599 ], [ -109.447409371581998, -27.159286592857399 ], [ -109.447422230593006, -27.159466184106002 ], [ -109.447395484625005, -27.159726537462799 ], [ -109.447365570694004, -27.159979629332401 ], [ -109.447315266980993, -27.160164532389601 ], [ -109.447250111670996, -27.160379722043899 ], [ -109.448269754340004, -27.160523749175599 ], [ -109.448706588554998, -27.160492888758899 ], [ -109.449022808880997, -27.160539204086 ], [ -109.449184886653001, -27.160419076347701 ], [ -109.449387936845994, -27.160528701572598 ], [ -109.449863253716003, -27.160379608382598 ], [ -109.450332549951995, -27.1603773606139 ], [ -109.450720130741004, -27.160191513511599 ], [ -109.451001435023002, -27.1601514620416 ], [ -109.450918886072998, -27.160028769248601 ], [ -109.450305419684, -27.160015175471798 ], [ -109.450226097433003, -27.159949846749299 ], [ -109.449949245043001, -27.159957694177599 ], [ -109.449793925766002, -27.1598772361763 ], [ -109.449674207490006, -27.1598329828605 ], [ -109.449594493605005, -27.159796314732301 ], [ -109.449450077034996, -27.159798383786701 ], [ -109.449213425150006, -27.159799485067001 ], [ -109.449081775158007, -27.159747940140999 ], [ -109.449139684317004, -27.159619552378199 ], [ -109.449667866121999, -27.159417267269099 ], [ -109.449642492148996, -27.159219926081398 ], [ -109.449402518566998, -27.159170827930101 ], [ -109.449075841471, -27.1590097419888 ], [ -109.449065773832004, -27.158866309431399 ], [ -109.449260518554993, -27.158703525581899 ], [ -109.449116459755999, -27.158386694087799 ], [ -109.448987447652001, -27.158435505898101 ], [ -109.448779815669994, -27.1580750096923 ], [ -109.448906534798994, -27.157900763108799 ], [ -109.449216297180001, -27.157832348515601 ], [ -109.449807101907993, -27.1580356179444 ], [ -109.449945397986994, -27.158187561360901 ], [ -109.450372190433001, -27.158066622932399 ], [ -109.450504534239997, -27.157774188414301 ], [ -109.450441695264999, -27.157676783915502 ], [ -109.450191547257006, -27.1577852415294 ], [ -109.449751215462996, -27.157723295449401 ], [ -109.449382441701999, -27.157414858175098 ], [ -109.449343616231999, -27.157321288028701 ], [ -109.449552594977007, -27.156997409497301 ], [ -109.449534359549006, -27.156864640644699 ], [ -109.449199361875998, -27.157018787601199 ], [ -109.449362317479995, -27.156834171374602 ], [ -109.449177619542994, -27.1565563294042 ], [ -109.449053257201001, -27.156558608346199 ], [ -109.448991008402004, -27.156418211085899 ], [ -109.448546722949999, -27.156352636176099 ], [ -109.448461200585001, -27.156154664297301 ], [ -109.448184652251996, -27.156141012903401 ], [ -109.447923623791993, -27.155872818905198 ], [ -109.447903981893006, -27.155550126670001 ], [ -109.448104023023006, -27.155000415837499 ], [ -109.447971118509003, -27.154748198526299 ], [ -109.448396476176001, -27.1547311629507 ], [ -109.448304357862995, -27.154429209133301 ], [ -109.448345636270005, -27.154343645737502 ], [ -109.448753381708997, -27.154441086435501 ], [ -109.448539882776004, -27.154216688798002 ], [ -109.448637693389003, -27.1541030534184 ], [ -109.449148129901999, -27.154316231764899 ], [ -109.449520190014994, -27.154090808886998 ], [ -109.448709370117001, -27.152969130150499 ], [ -109.448491336017, -27.152880846483299 ], [ -109.448485730184998, -27.152511742569001 ], [ -109.446958513238002, -27.152587707012898 ], [ -109.446777331768999, -27.152616984157198 ], [ -109.446366511579001, -27.152597183764499 ], [ -109.44608200815, -27.152566771672099 ], [ -109.445909255586997, -27.152610316931 ], [ -109.445812126774996, -27.152698592908401 ], [ -109.445759647439999, -27.152771289290001 ], [ -109.445722799744004, -27.152901282662299 ] ] ] } },
{ "type": "Feature", "properties": { "id": "monoparte.15", "Name": null, "description": null, "timestamp": null, "begin": null, "end": null, "altitudeMode": null, "tessellate": -1, "extrude": 0, "visibility": -1, "drawOrder": null, "icon": null, "REG": "Valparaíso", "COM": "Isla de Pascua", "LOC": "Isla de Pascua", "ZONA": "Zona de Área Verde y Deporte", "NOM": "Zona de Área Verde y Deporte", "UPERM": "Viviendas; equipamiento de culto, servicios profesionales, educación, sociales y comercio.", "UPROH": "Todos los usos no mencionados anteriormente.", "P_DO": "31/07/1971", "N_DOC": "500", "T_DO": "Decreto", "OBS": null }, "geometry": { "type": "Polygon", "coordinates": [ [ [ -109.426610791203998, -27.147558528098202 ], [ -109.426684646512996, -27.147556297646201 ], [ -109.426784772830004, -27.147496286517701 ], [ -109.426824893540001, -27.147448829341201 ], [ -109.426856894997997, -27.147404202180098 ], [ -109.426875342643001, -27.1473391994429 ], [ -109.426853190122998, -27.147288351227701 ], [ -109.426796079610995, -27.147253875017999 ], [ -109.426524294017, -27.147080878030401 ], [ -109.426607028031995, -27.147549890238199 ], [ -109.426610791203998, -27.147558528098202 ] ] ] } },
{ "type": "Feature", "properties": { "id": "monoparte.16", "Name": null, "description": null, "timestamp": null, "begin": null, "end": null, "altitudeMode": null, "tessellate": -1, "extrude": 0, "visibility": -1, "drawOrder": null, "icon": null, "REG": "Valparaíso", "COM": "Isla de Pascua", "LOC": "Isla de Pascua", "ZONA": "Zona de Área Verde y Deporte", "NOM": "Zona de Área Verde y Deporte", "UPERM": "Áreas verdes, equipamiento de deporte y construcciones complementarias, como: kioskos, piletas, monumentos recordativos, juegos inflables, etc.", "UPROH": "Todos los usos no mencionados anteriormente.", "P_DO": "31/07/1971", "N_DOC": "500", "T_DO": "Decreto", "OBS": null }, "geometry": { "type": "Polygon", "coordinates": [ [ [ -109.430768063523004, -27.145278051605601 ], [ -109.430790678837994, -27.145343376999001 ], [ -109.430704411049007, -27.1453734570057 ], [ -109.430709825563994, -27.145439551188701 ], [ -109.430736736523997, -27.145581819690101 ], [ -109.430762189842994, -27.145667073717501 ], [ -109.430756676483, -27.145815419393301 ], [ -109.430669029688005, -27.1458825862282 ], [ -109.430712025275994, -27.1460349351598 ], [ -109.430737478455995, -27.146120189534301 ], [ -109.430781074495002, -27.1463141647843 ], [ -109.430900272312002, -27.1465340727054 ], [ -109.430904049746005, -27.146663490536199 ], [ -109.430893968600998, -27.147069672841301 ], [ -109.431013005121997, -27.147101377700501 ], [ -109.431344751482001, -27.146896796936499 ], [ -109.431686985780999, -27.146756540283601 ], [ -109.431745227985004, -27.146773735527301 ], [ -109.431749599899007, -27.146766083175098 ], [ -109.431745302159996, -27.146689140628201 ], [ -109.431699807388, -27.146584728304202 ], [ -109.431619650263002, -27.146508091222898 ], [ -109.431458395633001, -27.146245327685001 ], [ -109.431354763529001, -27.146087976356899 ], [ -109.431270051797995, -27.145960633084702 ], [ -109.431222581127003, -27.145851680729798 ], [ -109.431177347802006, -27.1457210302409 ], [ -109.431128418455998, -27.145555063083901 ], [ -109.431054636588996, -27.145345468069799 ], [ -109.431001153563003, -27.145128795336898 ], [ -109.43095472425, -27.144914893026101 ], [ -109.430934346694997, -27.1448278698076 ], [ -109.430862703843005, -27.144811016002301 ], [ -109.430782629603002, -27.144828476795901 ], [ -109.430670989366007, -27.144867403190201 ], [ -109.430801108641006, -27.1450050610446 ], [ -109.430778313611995, -27.145060073939 ], [ -109.430740892735002, -27.145162020921099 ], [ -109.430768063523004, -27.145278051605601 ] ] ] } },
{ "type": "Feature", "properties": { "id": "monoparte.17", "Name": null, "description": null, "timestamp": null, "begin": null, "end": null, "altitudeMode": null, "tessellate": -1, "extrude": 0, "visibility": -1, "drawOrder": null, "icon": null, "REG": "Valparaíso", "COM": "Isla de Pascua", "LOC": "Isla de Pascua", "ZONA": "Zona de Área Verde y Deporte", "NOM": "Zona de Área Verde y Deporte", "UPERM": "Áreas verdes, equipamiento de deporte y construcciones complementarias, como: kioskos, piletas, monumentos recordativos, juegos inflables, etc.", "UPROH": "Todos los usos no mencionados anteriormente.", "P_DO": "31/07/1971", "N_DOC": "500", "T_DO": "Decreto", "OBS": null }, "geometry": { "type": "Polygon", "coordinates": [ [ [ -109.426157304306003, -27.146635663906899 ], [ -109.426208562515995, -27.146688915953 ], [ -109.426260326163998, -27.146528625078499 ], [ -109.426360014736005, -27.146257635588999 ], [ -109.426302744132997, -27.146250266880401 ], [ -109.426245218489001, -27.146257771394101 ], [ -109.426190856364002, -27.146272539959298 ], [ -109.426145987786995, -27.1463091013301 ], [ -109.426102492479998, -27.146370284972001 ], [ -109.426103716895994, -27.146491184204901 ], [ -109.426122286666995, -27.146576750577101 ], [ -109.426157304306003, -27.146635663906899 ] ] ] } },
{ "type": "Feature", "properties": { "id": "monoparte.18", "Name": null, "description": null, "timestamp": null, "begin": null, "end": null, "altitudeMode": null, "tessellate": -1, "extrude": 0, "visibility": -1, "drawOrder": null, "icon": null, "REG": "Valparaíso", "COM": "Isla de Pascua", "LOC": "Isla de Pascua", "ZONA": "Zona de Área Verde y Deporte", "NOM": "Zona de Área Verde y Deporte", "UPERM": "Áreas verdes, equipamiento de deporte y construcciones complementarias, como: kioskos, piletas, monumentos recordativos, juegos inflables, etc.", "UPROH": "Todos los usos no mencionados anteriormente.", "P_DO": "31/07/1971", "N_DOC": "500", "T_DO": "Decreto", "OBS": null }, "geometry": { "type": "Polygon", "coordinates": [ [ [ -109.441073853562003, -27.154885642415401 ], [ -109.441459686768994, -27.155529179615002 ], [ -109.442244759895004, -27.1551198163056 ], [ -109.441888622007994, -27.154469589896902 ], [ -109.441073853562003, -27.154885642415401 ] ] ] } },
{ "type": "Feature", "properties": { "id": "monoparte.19", "Name": null, "description": null, "timestamp": null, "begin": null, "end": null, "altitudeMode": null, "tessellate": -1, "extrude": 0, "visibility": -1, "drawOrder": null, "icon": null, "REG": "Valparaíso", "COM": "Isla de Pascua", "LOC": "Isla de Pascua", "ZONA": "Zona Residencial", "NOM": "Zona Residencial", "UPERM": "Viviendas; equipamiento de culto, servicios profesionales, educación, sociales y comercio.", "UPROH": "Todos los usos no mencionados anteriormente.", "P_DO": "31/07/1971", "N_DOC": "500", "T_DO": "Decreto", "OBS": null }, "geometry": { "type": "Polygon", "coordinates": [ [ [ -109.446973053609995, -27.152540321646999 ], [ -109.446978293518995, -27.152584510920999 ], [ -109.446958513238002, -27.152587707012898 ], [ -109.448485730184998, -27.152511742569001 ], [ -109.448480090005006, -27.1521402034913 ], [ -109.447807729461005, -27.1520375971647 ], [ -109.447499919126997, -27.1518671506903 ], [ -109.446780221148998, -27.152088667181498 ], [ -109.446906380946999, -27.1522372825758 ], [ -109.446970605757002, -27.152373840468801 ], [ -109.446975240884996, -27.152480991367401 ], [ -109.446973053609995, -27.152540321646999 ] ] ] } }
]
}
