{
"type": "FeatureCollection",
"name": "IPT_05_SCC_VdelMar_Coraceros",
"crs": { "type": "name", "properties": { "name": "urn:ogc:def:crs:OGC:1.3:CRS84" } },
"features": [
{ "type": "Feature", "properties": { "id": "monoparte.1", "Name": null, "description": null, "timestamp": null, "begin": null, "end": null, "altitudeMode": null, "tessellate": -1, "extrude": 0, "visibility": -1, "drawOrder": null, "icon": null, "REG": "Valparaíso", "COM": "Viñar del Mar", "LOC": "Viñar del Mar", "ZONA": "H9", "NOM": "Zona H9 Coraceros", "UPERM": "Residencial, Equipamiento, Espacio Público, mayor detalle en Ordenanza", "UPROH": "Todos los no mencionados como permitidos.", "P_DO": "23/12/1993", "N_DOC": "31-1", "T_DO": "Resolución", "OBS": null }, "geometry": { "type": "Polygon", "coordinates": [ [ [ -71.5494149567633, -33.005216032747903 ], [ -71.549176211385003, -33.005223346039401 ], [ -71.549039317615694, -33.005226143267201 ], [ -71.548957395326198, -33.005240574008198 ], [ -71.548954779328994, -33.005241035014699 ], [ -71.548942862743701, -33.005247139362702 ], [ -71.548936248246505, -33.005258996241203 ], [ -71.548926418872696, -33.005278132178297 ], [ -71.548928718747405, -33.005298553130302 ], [ -71.548939722937206, -33.005320238908098 ], [ -71.548963014054095, -33.0053495803907 ], [ -71.549033327199496, -33.0054381584659 ], [ -71.549104584485306, -33.005541837332501 ], [ -71.549159037411499, -33.0056491055525 ], [ -71.549194965333797, -33.005734203294899 ], [ -71.5492044580742, -33.0057566872526 ], [ -71.549210141512802, -33.005770147580101 ], [ -71.549246532701503, -33.0058819325223 ], [ -71.549267134182898, -33.006028844627899 ], [ -71.549276382577204, -33.006149389425197 ], [ -71.549275279690903, -33.006226324525301 ], [ -71.549271723545701, -33.0063109739637 ], [ -71.549265089203899, -33.0063964978089 ], [ -71.549228847505503, -33.006501832279497 ], [ -71.549208767597605, -33.0065626545857 ], [ -71.549177803324795, -33.006617117106401 ], [ -71.549149159408501, -33.006662966327902 ], [ -71.549114042170899, -33.006718144867001 ], [ -71.549048308168395, -33.006791531601301 ], [ -71.548948243781197, -33.006876800498297 ], [ -71.548829144508005, -33.006947670829099 ], [ -71.5486498657352, -33.007035820310499 ], [ -71.548574176773101, -33.007079384535402 ], [ -71.548482365580895, -33.007161418781699 ], [ -71.5484315124951, -33.0072499197857 ], [ -71.548402110501399, -33.007362417853003 ], [ -71.548388610488104, -33.007488296466697 ], [ -71.548407291062603, -33.007605673133597 ], [ -71.5484234606608, -33.007640734312297 ], [ -71.548440618654098, -33.007677937504397 ], [ -71.548472213005297, -33.007742032063597 ], [ -71.548503235638606, -33.007793695228401 ], [ -71.548531863177203, -33.007832783916697 ], [ -71.548542341474999, -33.007844069763202 ], [ -71.5485854254636, -33.007890478609703 ], [ -71.548606138562405, -33.007914851395697 ], [ -71.548620593194002, -33.007928765519097 ], [ -71.548624299050303, -33.007932333460197 ], [ -71.548648945314596, -33.007944633653601 ], [ -71.548667100526401, -33.007947057908801 ], [ -71.549312760753097, -33.007859296626897 ], [ -71.549794095917605, -33.007788145486899 ], [ -71.549944939820307, -33.007745659144398 ], [ -71.549998983595898, -33.007730849021598 ], [ -71.550133600942701, -33.007678595435699 ], [ -71.550150820066804, -33.0076693610714 ], [ -71.550234455879703, -33.007624507251798 ], [ -71.5502914897029, -33.0075871842743 ], [ -71.550379618207302, -33.007519936586696 ], [ -71.550404893794394, -33.007500649755798 ], [ -71.550443163956402, -33.007447209752101 ], [ -71.550463051368993, -33.0074131708311 ], [ -71.550473443090198, -33.007395432594699 ], [ -71.550492937233599, -33.007362156408199 ], [ -71.550520200795006, -33.007298121366503 ], [ -71.550539884762799, -33.0072458728432 ], [ -71.550552174232095, -33.0071709632318 ], [ -71.550553697759199, -33.007134684914803 ], [ -71.550553745012394, -33.007062009279402 ], [ -71.550551174514794, -33.006998764541898 ], [ -71.550548858164504, -33.006945459135402 ], [ -71.550547683133999, -33.006918406885603 ], [ -71.5505370573931, -33.006820702679398 ], [ -71.5505314689877, -33.006777183280199 ], [ -71.550529332017504, -33.006760538846997 ], [ -71.550522904930006, -33.006723160742801 ], [ -71.550401870199096, -33.0062935455529 ], [ -71.5501597964018, -33.005434287688097 ], [ -71.550110132165599, -33.005257998300401 ], [ -71.550065688365507, -33.0052270778028 ], [ -71.550037296352798, -33.0052184611217 ], [ -71.549731486542697, -33.005211998247198 ], [ -71.549598300311601, -33.005209761119502 ], [ -71.549530281255102, -33.005211151240303 ], [ -71.5494149567633, -33.005216032747903 ] ] ] } },
{ "type": "Feature", "properties": { "id": "monoparte.2", "Name": null, "description": null, "timestamp": null, "begin": null, "end": null, "altitudeMode": null, "tessellate": -1, "extrude": 0, "visibility": -1, "drawOrder": null, "icon": null, "REG": "Valparaíso", "COM": "Viñar del Mar", "LOC": "Viñar del Mar", "ZONA": "H9", "NOM": "Zona H9 Coraceros", "UPERM": "Residencial, Equipamiento, Espacio Público, mayor detalle en Ordenanza", "UPROH": "Todos los no mencionados como permitidos.", "P_DO": "23/12/1993", "N_DOC": "31-1", "T_DO": "Resolución", "OBS": null }, "geometry": { "type": "Polygon", "coordinates": [ [ [ -71.546835213205, -33.005393787692597 ], [ -71.546845325040394, -33.005414229546197 ], [ -71.546851488102703, -33.005417923207197 ], [ -71.546878251666598, -33.005433962168702 ], [ -71.546897414484405, -33.005439404762498 ], [ -71.5469165498248, -33.005442440449897 ], [ -71.546943714794907, -33.005441885845599 ], [ -71.546995182539305, -33.0054305559947 ], [ -71.547050472611701, -33.005414459387403 ], [ -71.547114168750397, -33.005404142159797 ], [ -71.547222203110906, -33.005398780456503 ], [ -71.547319666310102, -33.005401659396099 ], [ -71.547424589179002, -33.005422058702003 ], [ -71.547694159201498, -33.005548829018402 ], [ -71.547707601631799, -33.005558563049298 ], [ -71.547732129031104, -33.005589079648402 ], [ -71.547771890364203, -33.005646966445099 ], [ -71.5478027418864, -33.0057150437516 ], [ -71.547836331029202, -33.005863404090597 ], [ -71.547882917143696, -33.006136200164001 ], [ -71.547778337383903, -33.006146360937798 ], [ -71.547757909335502, -33.006020273594899 ], [ -71.547735758543595, -33.005886376883701 ], [ -71.547715189830598, -33.005788875395098 ], [ -71.547705356034001, -33.005729746221199 ], [ -71.547704464820299, -33.005724805226997 ], [ -71.547675799497199, -33.005684364572197 ], [ -71.547649692526605, -33.005647298016299 ], [ -71.547629438482105, -33.005627694527703 ], [ -71.547598610145101, -33.005605060961003 ], [ -71.547486816625593, -33.005554145268803 ], [ -71.547370744596805, -33.005507013693098 ], [ -71.547269914195894, -33.005487522620101 ], [ -71.5472347624452, -33.005485715693602 ], [ -71.547191481900697, -33.005487771588299 ], [ -71.547165310559905, -33.005489387965397 ], [ -71.547127428585696, -33.005496833808799 ], [ -71.547096708884894, -33.005507740093201 ], [ -71.546999897009698, -33.0055498411188 ], [ -71.546931898772002, -33.005563131474197 ], [ -71.546909153057797, -33.005561071171599 ], [ -71.546874974183098, -33.005559604950697 ], [ -71.546851242608994, -33.005556753259597 ], [ -71.546820206240696, -33.005545484808998 ], [ -71.546796912371804, -33.0055336651576 ], [ -71.546762198534793, -33.005504290451597 ], [ -71.546738504212996, -33.005484125873402 ], [ -71.546728609722805, -33.005477308347899 ], [ -71.546688174739302, -33.005449447104397 ], [ -71.546671544494401, -33.005452513253204 ], [ -71.546645276505302, -33.005457355873503 ], [ -71.546591925239198, -33.005496225031401 ], [ -71.546541357186896, -33.005535127521 ], [ -71.546450929711696, -33.005607278573699 ], [ -71.546443126706095, -33.0056135043016 ], [ -71.546351955027006, -33.005692269816002 ], [ -71.546329404796197, -33.0056583367153 ], [ -71.546324542630501, -33.005651019704899 ], [ -71.546324409894595, -33.0056508321614 ], [ -71.546301728717694, -33.005662853649099 ], [ -71.546306763132094, -33.005670913729297 ], [ -71.5463311848047, -33.005710013989003 ], [ -71.546401098580006, -33.005826615817398 ], [ -71.546475169322306, -33.005976133944998 ], [ -71.546519948505093, -33.006089461731101 ], [ -71.546548964584801, -33.006175610276003 ], [ -71.546579337752107, -33.006312675580403 ], [ -71.546590977249593, -33.006378801039098 ], [ -71.546604485960103, -33.006491324447801 ], [ -71.546601068609505, -33.006573446364001 ], [ -71.546594770404099, -33.006674472034099 ], [ -71.546580703232394, -33.006765828072098 ], [ -71.546577340993693, -33.006846145516697 ], [ -71.546572762005098, -33.006932529001297 ], [ -71.546568018344303, -33.007020629023401 ], [ -71.546574379358901, -33.007148807093301 ], [ -71.546625836437698, -33.007334312571402 ], [ -71.546793618528596, -33.007691015045701 ], [ -71.546935590936599, -33.0080023491061 ], [ -71.546994777409395, -33.008110513463997 ], [ -71.547050634359906, -33.0081409342067 ], [ -71.547055946312298, -33.008143827412397 ], [ -71.547116215079598, -33.008176651165897 ], [ -71.548357739619306, -33.007996027097803 ], [ -71.548363193274398, -33.007987368745297 ], [ -71.548379026116095, -33.007962230406399 ], [ -71.548378724541493, -33.007961307845598 ], [ -71.548357670565906, -33.007896934825403 ], [ -71.548296887376907, -33.007766802990602 ], [ -71.548226620708505, -33.007630643307799 ], [ -71.548216839814799, -33.007549125522601 ], [ -71.548210572633295, -33.007496892580001 ], [ -71.548208734259205, -33.007418124046502 ], [ -71.548224094220004, -33.007323405284097 ], [ -71.548250731297301, -33.0072263823144 ], [ -71.548270170958901, -33.007176753950098 ], [ -71.548327009534404, -33.007095434276103 ], [ -71.548396839604393, -33.007023046232 ], [ -71.548459075507196, -33.006969387723998 ], [ -71.548729266161402, -33.006808870420699 ], [ -71.548937738641101, -33.006660523859601 ], [ -71.549010426229401, -33.0065759045413 ], [ -71.549057509962907, -33.006497759394897 ], [ -71.549102783516503, -33.006323262555597 ], [ -71.549119487116599, -33.006204621955099 ], [ -71.549116364331297, -33.0060961245347 ], [ -71.549107610021807, -33.005970430095502 ], [ -71.549089213706196, -33.0058666629551 ], [ -71.549063915186395, -33.005779627598997 ], [ -71.549010377387603, -33.005659536905 ], [ -71.548928782030799, -33.005512698817697 ], [ -71.548847222124493, -33.005389393568997 ], [ -71.548765954862802, -33.005279968021497 ], [ -71.548761972605206, -33.005274637549597 ], [ -71.548732453844295, -33.005235118056603 ], [ -71.548619454133402, -33.005220385058898 ], [ -71.548188975966298, -33.005183821136697 ], [ -71.548166760741594, -33.005181934166998 ], [ -71.547905609931703, -33.005165537868798 ], [ -71.547741610282202, -33.005159780386997 ], [ -71.547578575765996, -33.005154093146601 ], [ -71.547454559244002, -33.005146977769698 ], [ -71.547331580429301, -33.005142455928301 ], [ -71.547232080315197, -33.005139438246196 ], [ -71.547138686622603, -33.0051366564741 ], [ -71.546932994686202, -33.005217949031397 ], [ -71.546904766771206, -33.005247702539698 ], [ -71.546864341119999, -33.005290312245698 ], [ -71.546857006904006, -33.005299478698802 ], [ -71.546841891828194, -33.005320886407297 ], [ -71.546834677278198, -33.005345378841902 ], [ -71.546831484839899, -33.005357165753999 ], [ -71.5468317802451, -33.0053674387852 ], [ -71.546832111928197, -33.005378973416597 ], [ -71.546835213205, -33.005393787692597 ] ] ] } }
]
}
