{
"type": "FeatureCollection",
"name": "IPT_05_PRC_Santa_Maria",
"crs": { "type": "name", "properties": { "name": "urn:ogc:def:crs:OGC:1.3:CRS84" } },
"features": [
{ "type": "Feature", "properties": { "id": "monoparte.1", "Name": null, "description": null, "timestamp": null, "begin": null, "end": null, "altitudeMode": null, "tessellate": -1, "extrude": 0, "visibility": -1, "drawOrder": null, "icon": null, "REG": "Valparaíso", "COM": "Santa María", "LOC": "Santa María", "ZONA": "ZR", "NOM": "Zona ZR", "UPERM": "Áreas verdes.", "UPROH": "Todos los no mencionados como permitidos.", "P_DO": "16/05/1984", "N_DOC": "45", "T_DO": "Decreto", "OBS": null }, "geometry": { "type": "Polygon", "coordinates": [ [ [ -70.651536795965797, -32.740337801777599 ], [ -70.652240539173604, -32.740221140120298 ], [ -70.653088290149995, -32.7402576868962 ], [ -70.653511725078701, -32.740252100535898 ], [ -70.653844537581094, -32.740040745582299 ], [ -70.653896974857503, -32.740007444690399 ], [ -70.653972212619493, -32.739959663796398 ], [ -70.654126336201799, -32.739877768291699 ], [ -70.654363668426399, -32.739751658867398 ], [ -70.654731083894802, -32.739770671799498 ], [ -70.655213179826902, -32.7398836207702 ], [ -70.655621395148899, -32.739818570973704 ], [ -70.655942053711101, -32.739599564123999 ], [ -70.656279253840793, -32.739511586738899 ], [ -70.656705332844794, -32.739649134140102 ], [ -70.6571322975296, -32.739834395126202 ], [ -70.657587713265599, -32.740031209761398 ], [ -70.657840354565394, -32.739798780748004 ], [ -70.656154378311598, -32.739019266611201 ], [ -70.655498067901306, -32.739562476287198 ], [ -70.654173259811898, -32.739379519159002 ], [ -70.653301865828595, -32.739896919651599 ], [ -70.652332955461304, -32.739873904203399 ], [ -70.651446385760707, -32.740028770218601 ], [ -70.651536795965797, -32.740337801777599 ] ] ] } },
{ "type": "Feature", "properties": { "id": "monoparte.2", "Name": null, "description": null, "timestamp": null, "begin": null, "end": null, "altitudeMode": null, "tessellate": -1, "extrude": 0, "visibility": -1, "drawOrder": null, "icon": null, "REG": "Valparaíso", "COM": "Santa María", "LOC": "Santa María", "ZONA": "H-1", "NOM": "Zona H-1", "UPERM": "Viviendas, comercio, oficinas, equipamiento, talleres artesanales inofensivos, industrias y/o bodegas inofensivas, vialidad y áreas verdes.", "UPROH": "Todos los no mencionados como permitidos.", "P_DO": "16/05/1984", "N_DOC": "45", "T_DO": "Decreto", "OBS": null }, "geometry": { "type": "Polygon", "coordinates": [ [ [ -70.651536795965797, -32.740337801777599 ], [ -70.651798698740393, -32.7411266113591 ], [ -70.652510056036903, -32.741039677774197 ], [ -70.652790476252903, -32.7409345607037 ], [ -70.653061833851993, -32.741867615370303 ], [ -70.653545596573693, -32.743293030342997 ], [ -70.654537230036098, -32.744879778828299 ], [ -70.6556755836787, -32.746701217631298 ], [ -70.6547228436322, -32.747139103649097 ], [ -70.6504473207318, -32.749104020575302 ], [ -70.647880495442394, -32.7503793055876 ], [ -70.647072599695505, -32.7507806770599 ], [ -70.647571750983502, -32.751203653832398 ], [ -70.647693227045906, -32.751359553834497 ], [ -70.6501440795317, -32.750114329117203 ], [ -70.650498444655497, -32.750954421929997 ], [ -70.656470477936097, -32.748330754607103 ], [ -70.655882896163007, -32.747479443504197 ], [ -70.656881413652101, -32.7470228644926 ], [ -70.657456031512496, -32.747860024402797 ], [ -70.659010529076099, -32.747173667635103 ], [ -70.658410095537803, -32.746315379303702 ], [ -70.659107071741801, -32.7459839991511 ], [ -70.658871105931794, -32.745593379872403 ], [ -70.657173850616005, -32.746346053771497 ], [ -70.656334249290396, -32.745020991868699 ], [ -70.655245392929203, -32.743302486269897 ], [ -70.654989919400506, -32.742771800914603 ], [ -70.654126336201799, -32.739877768291699 ], [ -70.653972212619493, -32.739959663796398 ], [ -70.653896974857503, -32.740007444690399 ], [ -70.653844537581094, -32.740040745582299 ], [ -70.653511725078701, -32.740252100535898 ], [ -70.653088290149995, -32.7402576868962 ], [ -70.652240539173604, -32.740221140120298 ], [ -70.651536795965797, -32.740337801777599 ] ] ] } },
{ "type": "Feature", "properties": { "id": "monoparte.3", "Name": null, "description": null, "timestamp": null, "begin": null, "end": null, "altitudeMode": null, "tessellate": -1, "extrude": 0, "visibility": -1, "drawOrder": null, "icon": null, "REG": "Valparaíso", "COM": "Santa María", "LOC": "Santa María", "ZONA": "H-2", "NOM": "Zona H-2", "UPERM": "Viviendas, comercio, oficinas, equipamientos, talleres artesanales inofensivos, industrias y/o bodegas inofensivas, vialidad y áreas verdes.", "UPROH": "Todos los no mencionados como permitidos.", "P_DO": "16/05/1984", "N_DOC": "45", "T_DO": "Decreto", "OBS": null }, "geometry": { "type": "Polygon", "coordinates": [ [ [ -70.654126336201799, -32.739877768291699 ], [ -70.654989919400506, -32.742771800914603 ], [ -70.655245392929203, -32.743302486269897 ], [ -70.656334249290396, -32.745020991868699 ], [ -70.657173850616005, -32.746346053771497 ], [ -70.658871105931794, -32.745593379872403 ], [ -70.659107071741801, -32.7459839991511 ], [ -70.658410095537803, -32.746315379303702 ], [ -70.659010529076099, -32.747173667635103 ], [ -70.657456031512496, -32.747860024402797 ], [ -70.656470477936097, -32.748330754607103 ], [ -70.650498444655497, -32.750954421929997 ], [ -70.6501440795317, -32.750114329117203 ], [ -70.647693227045906, -32.751359553834497 ], [ -70.648146007527501, -32.751577197670102 ], [ -70.648378901144795, -32.751955946356297 ], [ -70.648414387321495, -32.752349224260797 ], [ -70.648347321515601, -32.752541012785898 ], [ -70.655589150983104, -32.750238179103 ], [ -70.656445628069704, -32.751503543406201 ], [ -70.657284426304699, -32.751050981451499 ], [ -70.658891710736398, -32.753284786555596 ], [ -70.658082459928707, -32.7538085578975 ], [ -70.658938738169297, -32.755820825071098 ], [ -70.659369502750593, -32.7554452405844 ], [ -70.659720969419993, -32.756884309187598 ], [ -70.663297264749602, -32.756025531894998 ], [ -70.662912632806794, -32.754324418451198 ], [ -70.658763279524294, -32.748489976791603 ], [ -70.658774741485502, -32.748346644961998 ], [ -70.663720764115297, -32.745388847366897 ], [ -70.663979194646203, -32.744860424313302 ], [ -70.664216267985495, -32.744702165403098 ], [ -70.6637262212233, -32.742644502191297 ], [ -70.662518331962701, -32.742982687701499 ], [ -70.6626893294345, -32.7438275634536 ], [ -70.660956948390094, -32.744053376158199 ], [ -70.660804508480496, -32.743446883573696 ], [ -70.658608420371706, -32.740896350533298 ], [ -70.656948864196295, -32.741240458661601 ], [ -70.657587713265599, -32.740031209761398 ], [ -70.6571322975296, -32.739834395126202 ], [ -70.656705332844794, -32.739649134140102 ], [ -70.656279253840793, -32.739511586738899 ], [ -70.655942053711101, -32.739599564123999 ], [ -70.655621395148899, -32.739818570973704 ], [ -70.655213179826902, -32.7398836207702 ], [ -70.654731083894802, -32.739770671799498 ], [ -70.654363668426399, -32.739751658867398 ], [ -70.654126336201799, -32.739877768291699 ] ] ] } },
{ "type": "Feature", "properties": { "id": "monoparte.4", "Name": null, "description": null, "timestamp": null, "begin": null, "end": null, "altitudeMode": null, "tessellate": -1, "extrude": 0, "visibility": -1, "drawOrder": null, "icon": null, "REG": "Valparaíso", "COM": "Santa María", "LOC": "Santa María", "ZONA": "EC", "NOM": "Zona EC", "UPERM": "Equipamiento de cementerio.", "UPROH": "Todos los no mencionados como permitidos.", "P_DO": "16/05/1984", "N_DOC": "45", "T_DO": "Decreto", "OBS": null }, "geometry": { "type": "Polygon", "coordinates": [ [ [ -70.6637262212233, -32.742644502191297 ], [ -70.663417699235495, -32.741464980983402 ], [ -70.662249287798701, -32.7416475280599 ], [ -70.662518331962701, -32.742982687701499 ], [ -70.6637262212233, -32.742644502191297 ] ] ] } }
]
}
