{
"type": "FeatureCollection",
"name": "IPT_05_SCC_VdelMar_Avenida_Marina",
"crs": { "type": "name", "properties": { "name": "urn:ogc:def:crs:OGC:1.3:CRS84" } },
"features": [
{ "type": "Feature", "properties": { "id": "monoparte.1", "Name": null, "description": null, "timestamp": null, "begin": null, "end": null, "altitudeMode": null, "tessellate": -1, "extrude": 0, "visibility": -1, "drawOrder": null, "icon": null, "REG": "Valparaíso", "COM": "Viña del Mar", "LOC": "Viña del Mar", "ZONA": "C1", "NOM": "Zona C-1 Avenida Marina", "UPERM": "Vivienda, vialidad, áreas verdes y equipamiento. Mayor detalle en ordenanza.", "UPROH": "Todo uso no indicado precedentemente.", "P_DO": "03/06/1992", "N_DOC": "15", "T_DO": null, "OBS": "Resolución" }, "geometry": { "type": "Polygon", "coordinates": [ [ [ -71.556561975660998, -33.022742380154803 ], [ -71.553738695487596, -33.023136093769601 ], [ -71.553733163928896, -33.023137091572202 ], [ -71.553730807562104, -33.023137516719203 ], [ -71.553701040320206, -33.023142882538501 ], [ -71.553695252134006, -33.023143926169197 ], [ -71.553673969292504, -33.023147286065303 ], [ -71.552404534334201, -33.023347706458402 ], [ -71.5520791820434, -33.023395412167297 ], [ -71.552035759292494, -33.0234017792638 ], [ -71.551808859420305, -33.023435545958897 ], [ -71.551779256732303, -33.023440353431297 ], [ -71.551777737549202, -33.0234406000137 ], [ -71.551785356208697, -33.0234667737544 ], [ -71.551788754396, -33.0234711503524 ], [ -71.552068483149299, -33.023831385838299 ], [ -71.552103064924097, -33.023861425073903 ], [ -71.5521194992197, -33.023871347953303 ], [ -71.552129208172602, -33.0238772102879 ], [ -71.552195260976603, -33.023899933132398 ], [ -71.553807727180697, -33.023664054929803 ], [ -71.553801185082506, -33.023633778336801 ], [ -71.5537077736805, -33.0232014549781 ], [ -71.553705221525107, -33.023189641284702 ], [ -71.553736802017099, -33.023184798271203 ], [ -71.553739590001101, -33.023197699956597 ], [ -71.553832869438395, -33.023629413757 ], [ -71.553839354748106, -33.023659428223901 ], [ -71.554594670858094, -33.023548929584003 ], [ -71.555289907071895, -33.023448729978398 ], [ -71.555285170876004, -33.023427636026398 ], [ -71.555191555133902, -33.023010719539897 ], [ -71.555176838279394, -33.022945174973501 ], [ -71.555208379041602, -33.022940148464798 ], [ -71.555223276342801, -33.023006492715801 ], [ -71.555316740097894, -33.023422736939601 ], [ -71.555321552430499, -33.023444169258902 ], [ -71.556653444314307, -33.0232522012708 ], [ -71.556713966287106, -33.023239058559099 ], [ -71.556723849845, -33.0232292081037 ], [ -71.556729408254597, -33.0232104296432 ], [ -71.5567290884713, -33.023208400234303 ], [ -71.556667603400896, -33.022818150463998 ], [ -71.556667598159095, -33.022818117209702 ], [ -71.556654180015101, -33.022732947583201 ], [ -71.556576655615999, -33.022740878209703 ], [ -71.556561975660998, -33.022742380154803 ] ] ] } },
{ "type": "Feature", "properties": { "id": "monoparte.2", "Name": null, "description": null, "timestamp": null, "begin": null, "end": null, "altitudeMode": null, "tessellate": -1, "extrude": 0, "visibility": -1, "drawOrder": null, "icon": null, "REG": "Valparaíso", "COM": "Viña del Mar", "LOC": "Viña del Mar", "ZONA": "C1", "NOM": "Zona C-1 Avenida Marina", "UPERM": "Vivienda, vialidad, áreas verdes y equipamiento. Mayor detalle en ordenanza.", "UPROH": "Todo uso no indicado precedentemente.", "P_DO": "03/06/1992", "N_DOC": "15", "T_DO": null, "OBS": "Resolución" }, "geometry": { "type": "Polygon", "coordinates": [ [ [ -71.559299399824795, -33.021904851582299 ], [ -71.5573945224059, -33.0225700439862 ], [ -71.557178132631506, -33.022631607916999 ], [ -71.557120949890404, -33.022647876983001 ], [ -71.5568005913088, -33.022703044872202 ], [ -71.556805733136301, -33.022710603631801 ], [ -71.556803368931398, -33.022717685104503 ], [ -71.5567431561673, -33.022723845311702 ], [ -71.556746851384901, -33.022746908143098 ], [ -71.556818003479194, -33.0231909406955 ], [ -71.556831117863695, -33.023207713344597 ], [ -71.556883268723197, -33.023216021514699 ], [ -71.556928097030905, -33.023209827699198 ], [ -71.556972925331294, -33.023203633867801 ], [ -71.557157842352595, -33.023175586746099 ], [ -71.557627024832101, -33.023104422537301 ], [ -71.558380527669399, -33.022990129723901 ], [ -71.5583705300742, -33.022945261391101 ], [ -71.558267765638803, -33.022484065951701 ], [ -71.558299315660506, -33.022479076349001 ], [ -71.5584021959355, -33.0229407932502 ], [ -71.558412121031097, -33.022985337565601 ], [ -71.559548926309802, -33.022816635534802 ], [ -71.559551783441407, -33.022808101233601 ], [ -71.5595546405726, -33.022799566932299 ], [ -71.5595561725099, -33.022785920329298 ], [ -71.559557079797699, -33.022777839909502 ], [ -71.559557704447002, -33.022772273726197 ], [ -71.559406237552693, -33.022101747134997 ], [ -71.559388264302001, -33.022031695814398 ], [ -71.559371982625905, -33.021976799251703 ], [ -71.559368222084501, -33.021964121447198 ], [ -71.559299399824795, -33.021904851582299 ] ] ] } }
]
}
