{
"type": "FeatureCollection",
"name": "IPT_05_PRC_Putaendo",
"crs": { "type": "name", "properties": { "name": "urn:ogc:def:crs:OGC:1.3:CRS84" } },
"features": [
{ "type": "Feature", "properties": { "id": "monoparte.1", "Name": null, "description": null, "timestamp": null, "begin": null, "end": null, "altitudeMode": null, "tessellate": -1, "extrude": 0, "visibility": -1, "drawOrder": null, "icon": null, "REG": "Valparaíso", "COM": "Putaendo", "LOC": "Putaendo", "ZONA": "Z-R", "NOM": "Zona Z-R", "UPERM": "Áreas verdes.", "UPROH": "Todos los no mencionados como permitidos.", "P_DO": "08/03/1969", "N_DOC": "162", "T_DO": "Decreto", "OBS": null }, "geometry": { "type": "Polygon", "coordinates": [ [ [ -70.7189594174435, -32.619914913663898 ], [ -70.719627852875803, -32.622497062421999 ], [ -70.719847378192995, -32.622474964459499 ], [ -70.720007294570607, -32.622874632633099 ], [ -70.720103348320706, -32.623178768337503 ], [ -70.720176322894901, -32.623750488999903 ], [ -70.720411918844803, -32.625747010399799 ], [ -70.720452145759197, -32.6269649217341 ], [ -70.720442045446205, -32.628647425955897 ], [ -70.720407598674697, -32.629499819947398 ], [ -70.720393559362904, -32.629650350652 ], [ -70.720319629937904, -32.6297659085131 ], [ -70.720441554466603, -32.631749400548202 ], [ -70.720487497427897, -32.631979795738701 ], [ -70.720478538153799, -32.6322483811634 ], [ -70.720423550113694, -32.632690606310099 ], [ -70.7204090258424, -32.633036824021097 ], [ -70.720407495935504, -32.633416402392001 ], [ -70.720392074379504, -32.633845545800099 ], [ -70.720359947178295, -32.634209944784303 ], [ -70.720392103803107, -32.6342154269677 ], [ -70.721140405114397, -32.634264827198002 ], [ -70.721528880551006, -32.634301260659797 ], [ -70.721517113380401, -32.633686941036899 ], [ -70.721406015791402, -32.6330575072909 ], [ -70.721255198167299, -32.632601411298502 ], [ -70.721222252979302, -32.632353684631703 ], [ -70.721196509512694, -32.632000115474 ], [ -70.7210440434894, -32.630410788916898 ], [ -70.720963904905304, -32.629170994081598 ], [ -70.721001548456101, -32.629075024249801 ], [ -70.721031908658503, -32.6288932464035 ], [ -70.721020114554904, -32.627070122981898 ], [ -70.720907908142806, -32.625627928808498 ], [ -70.720818982109606, -32.624657046361101 ], [ -70.720787579419294, -32.624305492445799 ], [ -70.720805740167506, -32.623965190669303 ], [ -70.7212189669482, -32.623826968117498 ], [ -70.722334589358596, -32.623585082343503 ], [ -70.722347764693595, -32.623566288667803 ], [ -70.722342463074199, -32.623535275818703 ], [ -70.722258002040306, -32.623370170009501 ], [ -70.722084171352293, -32.623127954630498 ], [ -70.721997176361896, -32.623046853961199 ], [ -70.721972979341402, -32.622961277030001 ], [ -70.721856650833999, -32.622776738685403 ], [ -70.721785977244807, -32.622620210083603 ], [ -70.721744316738693, -32.622506236617603 ], [ -70.721696196623299, -32.622349398656901 ], [ -70.721521934528596, -32.622084518536901 ], [ -70.721446446817794, -32.621971009682902 ], [ -70.721422340942098, -32.621890204329901 ], [ -70.721352216926505, -32.621762303878697 ], [ -70.721232080640206, -32.621673270040901 ], [ -70.721055380321104, -32.621575466451397 ], [ -70.7209449680159, -32.621405164043203 ], [ -70.720758977643399, -32.621116579583699 ], [ -70.720687120405401, -32.620898021544498 ], [ -70.720526935740395, -32.620385806173203 ], [ -70.720402929442002, -32.620119197475901 ], [ -70.7202212232623, -32.619906917227702 ], [ -70.718879973910703, -32.619585822318903 ], [ -70.7189594174435, -32.619914913663898 ] ] ] } },
{ "type": "Feature", "properties": { "id": "monoparte.2", "Name": null, "description": null, "timestamp": null, "begin": null, "end": null, "altitudeMode": null, "tessellate": -1, "extrude": 0, "visibility": -1, "drawOrder": null, "icon": null, "REG": "Valparaíso", "COM": "Putaendo", "LOC": "Putaendo", "ZONA": "H-2", "NOM": "Zona H-2", "UPERM": "Vivienda, comercio, oficina, equipamiento, talleres artesanales inofensivos, industria y bodegas inofensivas, vialidad y áreas verdes.", "UPROH": "Todos los no mencionados como permitidos.", "P_DO": "08/03/1969", "N_DOC": "162", "T_DO": "Decreto", "OBS": null }, "geometry": { "type": "Polygon", "coordinates": [ [ [ -70.714988421442996, -32.622379906282298 ], [ -70.714963611606507, -32.622681423017099 ], [ -70.715480441889497, -32.622748764403397 ], [ -70.715825896859897, -32.622750009882502 ], [ -70.716500889526202, -32.622657260751403 ], [ -70.717277967419705, -32.622742088077999 ], [ -70.718560478011298, -32.622779273058299 ], [ -70.718852807040193, -32.624731026114397 ], [ -70.719136641578501, -32.626302121239902 ], [ -70.719271856706499, -32.627105658297801 ], [ -70.719552373242394, -32.628774050225601 ], [ -70.719613920956704, -32.629140096487298 ], [ -70.718650817150305, -32.629284533931397 ], [ -70.717147040418297, -32.629543746219298 ], [ -70.715346427384105, -32.629765236331501 ], [ -70.714910113263301, -32.629806992053702 ], [ -70.715046420832707, -32.626481021483002 ], [ -70.714729481794294, -32.626472882702998 ], [ -70.714188098260905, -32.626475503169097 ], [ -70.714101085123005, -32.626468670463602 ], [ -70.713798770963507, -32.626466500591398 ], [ -70.713765376452201, -32.627339503230402 ], [ -70.713760759658001, -32.627431100452398 ], [ -70.713755304457607, -32.627736625922701 ], [ -70.713624709275294, -32.627986587630097 ], [ -70.713479379531194, -32.628055389273101 ], [ -70.713130424872503, -32.628093559774001 ], [ -70.712921161432007, -32.628063007202798 ], [ -70.7122752998051, -32.627975999748102 ], [ -70.711626500843394, -32.627826520401698 ], [ -70.7115293928927, -32.629021013699699 ], [ -70.711485099584394, -32.629139800874697 ], [ -70.712091301300404, -32.629669560707498 ], [ -70.711779745154502, -32.630154060063603 ], [ -70.711511118938603, -32.630562276018097 ], [ -70.712606512497501, -32.631159994600502 ], [ -70.714202200420601, -32.632021159116903 ], [ -70.714257682564394, -32.632342556691199 ], [ -70.7144116332328, -32.633760324221498 ], [ -70.714498054081901, -32.634964243812497 ], [ -70.714772728297703, -32.634948559409402 ], [ -70.715321049736104, -32.634863512437001 ], [ -70.716416892848599, -32.634651659794997 ], [ -70.717961111313201, -32.634290482172297 ], [ -70.718369135797502, -32.6342431365332 ], [ -70.719508054122201, -32.634072428142296 ], [ -70.719776701250495, -32.634110508470002 ], [ -70.720359947178295, -32.634209944784303 ], [ -70.720392074379504, -32.633845545800099 ], [ -70.720407495935504, -32.633416402392001 ], [ -70.7204090258424, -32.633036824021097 ], [ -70.720423550113694, -32.632690606310099 ], [ -70.720478538153799, -32.6322483811634 ], [ -70.720487497427897, -32.631979795738701 ], [ -70.720441554466603, -32.631749400548202 ], [ -70.720319629937904, -32.6297659085131 ], [ -70.720393559362904, -32.629650350652 ], [ -70.720407598674697, -32.629499819947398 ], [ -70.720442045446205, -32.628647425955897 ], [ -70.720452145759197, -32.6269649217341 ], [ -70.720411918844803, -32.625747010399799 ], [ -70.720176322894901, -32.623750488999903 ], [ -70.720103348320706, -32.623178768337503 ], [ -70.720007294570607, -32.622874632633099 ], [ -70.719847378192995, -32.622474964459499 ], [ -70.719627852875803, -32.622497062421999 ], [ -70.7189594174435, -32.619914913663898 ], [ -70.718879973910703, -32.619585822318903 ], [ -70.716346087359398, -32.6189791648669 ], [ -70.716351267132794, -32.619135137381299 ], [ -70.716115944901404, -32.619394164350403 ], [ -70.715952449815305, -32.619692305098901 ], [ -70.715766037004599, -32.619971668748299 ], [ -70.715727304702398, -32.620306285260099 ], [ -70.715483963712998, -32.620557789513597 ], [ -70.715286452871496, -32.620846849156898 ], [ -70.715010371521203, -32.621156071863098 ], [ -70.714949812278903, -32.6215291682567 ], [ -70.714956546558497, -32.621882254451201 ], [ -70.714988564296107, -32.622378176248802 ], [ -70.7149860546686, -32.622379641879903 ], [ -70.714988421442996, -32.622379906282298 ] ] ] } },
{ "type": "Feature", "properties": { "id": "monoparte.3", "Name": null, "description": null, "timestamp": null, "begin": null, "end": null, "altitudeMode": null, "tessellate": -1, "extrude": 0, "visibility": -1, "drawOrder": null, "icon": null, "REG": "Valparaíso", "COM": "Putaendo", "LOC": "Putaendo", "ZONA": "H-1", "NOM": "Zona H-1", "UPERM": "Vivienda, comercio, oficina, equipamiento, talleres artesanales inofensivos, industria y bodegas inofensivas, vialidad y áreas verdes.", "UPROH": "Todos los no mencionados como permitidos.", "P_DO": "08/03/1969", "N_DOC": "162", "T_DO": "Decreto", "OBS": null }, "geometry": { "type": "Polygon", "coordinates": [ [ [ -70.716500889526202, -32.622657260751403 ], [ -70.715825896859897, -32.622750009882502 ], [ -70.715480441889497, -32.622748764403397 ], [ -70.714963611606507, -32.622681423017099 ], [ -70.714895705585505, -32.6229166373815 ], [ -70.714962551210604, -32.623316629400698 ], [ -70.715188861211004, -32.623650011410703 ], [ -70.715381205557406, -32.6239766985016 ], [ -70.715446552187302, -32.624297961156998 ], [ -70.715518992778797, -32.6245475368071 ], [ -70.715448883477805, -32.624863491752201 ], [ -70.7151595469238, -32.625709396665499 ], [ -70.715045857883595, -32.625909919088301 ], [ -70.715046420832707, -32.626481021483002 ], [ -70.714910113263301, -32.629806992053702 ], [ -70.715346427384105, -32.629765236331501 ], [ -70.717147040418297, -32.629543746219298 ], [ -70.718650817150305, -32.629284533931397 ], [ -70.719613920956704, -32.629140096487298 ], [ -70.719552373242394, -32.628774050225601 ], [ -70.719271856706499, -32.627105658297801 ], [ -70.719136641578501, -32.626302121239902 ], [ -70.718852807040193, -32.624731026114397 ], [ -70.718560478011298, -32.622779273058299 ], [ -70.717277967419705, -32.622742088077999 ], [ -70.716500889526202, -32.622657260751403 ] ] ] } }
]
}
