{
"type": "FeatureCollection",
"name": "IPT_05_PRC_Catemu",
"crs": { "type": "name", "properties": { "name": "urn:ogc:def:crs:OGC:1.3:CRS84" } },
"features": [
{ "type": "Feature", "properties": { "id": "monoparte.1", "Name": null, "description": null, "timestamp": null, "begin": null, "end": null, "altitudeMode": null, "tessellate": -1, "extrude": 0, "visibility": -1, "drawOrder": null, "icon": null, "REG": "Valparaíso", "COM": "Catemu", "LOC": "Catemu", "ZONA": "AV", "NOM": "Zona de áreas verdes", "UPERM": "Áreas verdes", "UPROH": "Todos los no mencionados como permitidos.", "P_DO": "16/02/1985", "N_DOC": "101", "T_DO": "Decreto", "OBS": null }, "geometry": { "type": "Polygon", "coordinates": [ [ [ -70.963149843992795, -32.778166028090702 ], [ -70.962885571724996, -32.778304180094501 ], [ -70.962910739997099, -32.778337062920698 ], [ -70.963120506168593, -32.7784486666663 ], [ -70.963503893281796, -32.778625366000497 ], [ -70.963566088381498, -32.778618709141398 ], [ -70.963739487706803, -32.778313969912404 ], [ -70.963299341662605, -32.778153403295903 ], [ -70.963217058003096, -32.778139814594802 ], [ -70.963149843992795, -32.778166028090702 ] ] ] } },
{ "type": "Feature", "properties": { "id": "monoparte.2", "Name": null, "description": null, "timestamp": null, "begin": null, "end": null, "altitudeMode": null, "tessellate": -1, "extrude": 0, "visibility": -1, "drawOrder": null, "icon": null, "REG": "Valparaíso", "COM": "Catemu", "LOC": "Catemu", "ZONA": "E", "NOM": "Zona E", "UPERM": "Equipamiento recreacional, deportivo, cultural, áreas verdes y vialidad.", "UPROH": "Todos los no mencionados como permitidos.", "P_DO": "16/02/1985", "N_DOC": "101", "T_DO": "Decreto", "OBS": null }, "geometry": { "type": "Polygon", "coordinates": [ [ [ -70.965221414914396, -32.7748726251424 ], [ -70.965766845648204, -32.7751115330734 ], [ -70.965835495744997, -32.775021500698301 ], [ -70.966090653789706, -32.774611508023803 ], [ -70.966330706530798, -32.7742257808899 ], [ -70.966663016296195, -32.773712403456798 ], [ -70.967006009733396, -32.773182514083501 ], [ -70.967480452680206, -32.772465301942397 ], [ -70.967490555476203, -32.772450029143499 ], [ -70.967495294378395, -32.772442866163601 ], [ -70.967321337822398, -32.772330198312702 ], [ -70.966924731560496, -32.772073322370403 ], [ -70.9666672654065, -32.771906563595699 ], [ -70.966544337615105, -32.771826943289199 ], [ -70.966139334573796, -32.771564622255603 ], [ -70.9658271220638, -32.7713624000381 ], [ -70.965503870844799, -32.771153026323702 ], [ -70.965397869652904, -32.771084368121102 ], [ -70.965386708300599, -32.771111806184699 ], [ -70.9640631659842, -32.774365279777101 ], [ -70.964067092712995, -32.774366999346498 ], [ -70.965221414914396, -32.7748726251424 ] ] ] } },
{ "type": "Feature", "properties": { "id": "monoparte.3", "Name": null, "description": null, "timestamp": null, "begin": null, "end": null, "altitudeMode": null, "tessellate": -1, "extrude": 0, "visibility": -1, "drawOrder": null, "icon": null, "REG": "Valparaíso", "COM": "Catemu", "LOC": "Catemu", "ZONA": "H1", "NOM": "Zona H1", "UPERM": "Vivienda, comercio, oficinas, equipamiento, talleres artesanales inofensivos, bodegas e industrias inofensivas, áreas verdes y vialidad.", "UPROH": "Todos los no mencionados como permitidos.", "P_DO": "16/02/1985", "N_DOC": "101", "T_DO": "Decreto", "OBS": null }, "geometry": { "type": "Polygon", "coordinates": [ [ [ -70.965835495744997, -32.775021500698301 ], [ -70.965766845648204, -32.7751115330734 ], [ -70.965221414914396, -32.7748726251424 ], [ -70.964067092712995, -32.774366999346498 ], [ -70.9640631659842, -32.774365279777101 ], [ -70.963663299213493, -32.775337300208001 ], [ -70.963101473936604, -32.775056530853803 ], [ -70.962274736407295, -32.774643365475697 ], [ -70.961665556933696, -32.774337034379599 ], [ -70.961634051784799, -32.774321191758403 ], [ -70.961594879759502, -32.774303596977298 ], [ -70.961527475289699, -32.774338975340697 ], [ -70.959815801018806, -32.7752373573705 ], [ -70.959730719641499, -32.775282011887903 ], [ -70.959115075687293, -32.775614500476102 ], [ -70.959025046076107, -32.775663121616503 ], [ -70.959164131163206, -32.775823204019602 ], [ -70.959332498737197, -32.776030551322499 ], [ -70.959436656470302, -32.776143456640099 ], [ -70.959500761439003, -32.776233127425201 ], [ -70.959542069621506, -32.776313609703799 ], [ -70.9596230126362, -32.776398245257198 ], [ -70.959729577153198, -32.776620875916102 ], [ -70.9597833303486, -32.7767536582367 ], [ -70.960097274576697, -32.7771591631777 ], [ -70.960197775188107, -32.777362798823901 ], [ -70.960254878038796, -32.777648242309098 ], [ -70.960248188169203, -32.7778583283255 ], [ -70.960106173347199, -32.778080076835899 ], [ -70.960036107360096, -32.778233887346197 ], [ -70.959940002466496, -32.778488323416497 ], [ -70.959835110807305, -32.778599728279303 ], [ -70.959701669101193, -32.778697262080897 ], [ -70.959635575813493, -32.778774653292103 ], [ -70.959400900149305, -32.778892860382001 ], [ -70.959232946348493, -32.7789623008711 ], [ -70.958811281902697, -32.779054798549602 ], [ -70.958564161091601, -32.779120703889802 ], [ -70.958384806296095, -32.779185548083603 ], [ -70.957893595368901, -32.779198001681898 ], [ -70.957743902433805, -32.779176204009502 ], [ -70.957627231302098, -32.7791592153634 ], [ -70.957422047890404, -32.779076521545299 ], [ -70.957353444507504, -32.7790394149444 ], [ -70.957182980081896, -32.778994356971502 ], [ -70.957088383932899, -32.778956626551 ], [ -70.957078145681095, -32.779074097448799 ], [ -70.957053355240703, -32.779358527152802 ], [ -70.957049829035, -32.779398987860802 ], [ -70.956966015409705, -32.780360603189798 ], [ -70.956958428586006, -32.780447643881303 ], [ -70.956949824785795, -32.780546355976398 ], [ -70.956999035687801, -32.780652746553997 ], [ -70.956984165961003, -32.780834854158201 ], [ -70.957707505541094, -32.780910247926201 ], [ -70.957645818882696, -32.781814444775797 ], [ -70.9594238712492, -32.782061972159802 ], [ -70.959474235638297, -32.782069135661303 ], [ -70.9598766702711, -32.782126380112601 ], [ -70.959953976519003, -32.780486413239899 ], [ -70.960972024505693, -32.780815171626202 ], [ -70.962998947613798, -32.781469694508097 ], [ -70.963131978617696, -32.781512650034301 ], [ -70.965784536899207, -32.782368954602497 ], [ -70.965933613369202, -32.782376290123203 ], [ -70.966081198929999, -32.782315914685597 ], [ -70.966215205371995, -32.782158987628399 ], [ -70.966314645314, -32.781992926406303 ], [ -70.966380158601098, -32.781846750631999 ], [ -70.967069919125294, -32.780398234604 ], [ -70.967184720971801, -32.78044786537 ], [ -70.967302526810698, -32.780509023149001 ], [ -70.967643735560102, -32.780686156453299 ], [ -70.9678400567186, -32.780775340405398 ], [ -70.968148624444893, -32.780915516160299 ], [ -70.968194281903095, -32.780936257101899 ], [ -70.968249815768999, -32.780963304526203 ], [ -70.968480496485299, -32.7810756587443 ], [ -70.968532170331002, -32.781100825942403 ], [ -70.970945622871994, -32.781048333446698 ], [ -70.970979726648395, -32.781047591038003 ], [ -70.970900909335001, -32.780987939787799 ], [ -70.970900959414706, -32.780987935392197 ], [ -70.968993528697297, -32.779453831389098 ], [ -70.969717381163505, -32.777688451536498 ], [ -70.970085782541403, -32.777336851039898 ], [ -70.970309318042993, -32.777113529590601 ], [ -70.970630068609694, -32.776810595142301 ], [ -70.9710722396199, -32.776395510624603 ], [ -70.972268357300905, -32.775272637040601 ], [ -70.972306313423601, -32.775237004302298 ], [ -70.9718837717691, -32.774991616218003 ], [ -70.970473806812507, -32.7741727665301 ], [ -70.969432845851799, -32.773568199460598 ], [ -70.968862557996502, -32.7732369810237 ], [ -70.968016383073703, -32.7727455207839 ], [ -70.967581797133505, -32.772493108261102 ], [ -70.967495294378395, -32.772442866163601 ], [ -70.967490555476203, -32.772450029143499 ], [ -70.967480452680206, -32.772465301942397 ], [ -70.967006009733396, -32.773182514083501 ], [ -70.966663016296195, -32.773712403456798 ], [ -70.966330706530798, -32.7742257808899 ], [ -70.966090653789706, -32.774611508023803 ], [ -70.965835495744997, -32.775021500698301 ] ], [ [ -70.963566088381498, -32.778618709141398 ], [ -70.963503893281796, -32.778625366000497 ], [ -70.963120506168593, -32.7784486666663 ], [ -70.962910739997099, -32.778337062920698 ], [ -70.962885571724996, -32.778304180094501 ], [ -70.963149843992795, -32.778166028090702 ], [ -70.963217058003096, -32.778139814594802 ], [ -70.963299341662605, -32.778153403295903 ], [ -70.963739487706803, -32.778313969912404 ], [ -70.963566088381498, -32.778618709141398 ] ] ] } },
{ "type": "Feature", "properties": { "id": "monoparte.4", "Name": null, "description": null, "timestamp": null, "begin": null, "end": null, "altitudeMode": null, "tessellate": -1, "extrude": 0, "visibility": -1, "drawOrder": null, "icon": null, "REG": "Valparaíso", "COM": "Catemu", "LOC": "Catemu", "ZONA": "H2", "NOM": "Zona H2", "UPERM": "Vivienda, comercio, equipamiento, áreas verdes y vialidad.", "UPROH": "Todos los no mencionados como permitidos.", "P_DO": "16/02/1985", "N_DOC": "101", "T_DO": "Decreto", "OBS": null }, "geometry": { "type": "Polygon", "coordinates": [ [ [ -70.958913617935906, -32.778624702672701 ], [ -70.958795473287495, -32.778651171251099 ], [ -70.958651335740896, -32.778646865709497 ], [ -70.958348911025098, -32.778673567295499 ], [ -70.958254268237596, -32.778658024903102 ], [ -70.958102757328604, -32.778677510303503 ], [ -70.958045614944794, -32.7786518839889 ], [ -70.957911257674397, -32.778625080427801 ], [ -70.957636277597501, -32.778613033381298 ], [ -70.957563061142807, -32.778590139112602 ], [ -70.957522126065896, -32.778561266858802 ], [ -70.957453968548194, -32.778528512877202 ], [ -70.957383087831303, -32.778528566547799 ], [ -70.957321679536506, -32.778493717515403 ], [ -70.957271496493206, -32.778447988941799 ], [ -70.957187501150798, -32.778386051364599 ], [ -70.957145037591602, -32.7783385598186 ], [ -70.957126161806698, -32.778544410881601 ], [ -70.957088811355007, -32.778951721019901 ], [ -70.957088383932899, -32.778956626551 ], [ -70.957182980081896, -32.778994356971502 ], [ -70.957353444507504, -32.7790394149444 ], [ -70.957422047890404, -32.779076521545299 ], [ -70.957627231302098, -32.7791592153634 ], [ -70.957743902433805, -32.779176204009502 ], [ -70.957893595368901, -32.779198001681898 ], [ -70.958384806296095, -32.779185548083603 ], [ -70.958564161091601, -32.779120703889802 ], [ -70.958811281902697, -32.779054798549602 ], [ -70.959232946348493, -32.7789623008711 ], [ -70.959400900149305, -32.778892860382001 ], [ -70.959635575813493, -32.778774653292103 ], [ -70.959701669101193, -32.778697262080897 ], [ -70.959835110807305, -32.778599728279303 ], [ -70.959940002466496, -32.778488323416497 ], [ -70.960036107360096, -32.778233887346197 ], [ -70.960106173347199, -32.778080076835899 ], [ -70.960248188169203, -32.7778583283255 ], [ -70.960254878038796, -32.777648242309098 ], [ -70.960197775188107, -32.777362798823901 ], [ -70.960097274576697, -32.7771591631777 ], [ -70.9597833303486, -32.7767536582367 ], [ -70.959729577153198, -32.776620875916102 ], [ -70.9596230126362, -32.776398245257198 ], [ -70.959542069621506, -32.776313609703799 ], [ -70.959500761439003, -32.776233127425201 ], [ -70.959436656470302, -32.776143456640099 ], [ -70.959332498737197, -32.776030551322499 ], [ -70.959164131163206, -32.775823204019602 ], [ -70.959025046076107, -32.775663121616503 ], [ -70.958498637697403, -32.775930450484701 ], [ -70.958392695134805, -32.7759842513615 ], [ -70.958441906933203, -32.776053073962302 ], [ -70.958500220707194, -32.776163213160601 ], [ -70.958522487045599, -32.776259706531398 ], [ -70.958586013639604, -32.776327259949298 ], [ -70.958676173432806, -32.7764106535328 ], [ -70.958694949696294, -32.776422071289801 ], [ -70.958837400205496, -32.776508696187101 ], [ -70.958872326883693, -32.776549903729801 ], [ -70.958908889696602, -32.776632540117397 ], [ -70.959037972706398, -32.776855128479603 ], [ -70.959075158261797, -32.776951550668997 ], [ -70.959104625335897, -32.777047816725002 ], [ -70.959200659927205, -32.777231914168702 ], [ -70.959219857903193, -32.777322114474302 ], [ -70.959250960202198, -32.777408031423498 ], [ -70.959318854409702, -32.777482155515003 ], [ -70.959361479360396, -32.777555382586897 ], [ -70.959401585416899, -32.7776763488027 ], [ -70.959419839330707, -32.777787456093499 ], [ -70.959439393144706, -32.777906480220899 ], [ -70.959449825569394, -32.778044725701101 ], [ -70.959447376714607, -32.778131887232099 ], [ -70.959412494326301, -32.778220410299802 ], [ -70.959335593604607, -32.778323629891602 ], [ -70.959299564257194, -32.778360722139901 ], [ -70.959238248231401, -32.778423847793199 ], [ -70.959129184762602, -32.778517963955899 ], [ -70.959025942118004, -32.778581868982201 ], [ -70.958913617935906, -32.778624702672701 ] ] ] } },
{ "type": "Feature", "properties": { "id": "monoparte.5", "Name": null, "description": null, "timestamp": null, "begin": null, "end": null, "altitudeMode": null, "tessellate": -1, "extrude": 0, "visibility": -1, "drawOrder": null, "icon": null, "REG": "Valparaíso", "COM": "Catemu", "LOC": "Catemu", "ZONA": "ZR", "NOM": "Zonas no edificables", "UPERM": "Áreas verdes y vialidad peatonal.", "UPROH": "Todos los no mencionados como permitidos.", "P_DO": "16/02/1985", "N_DOC": "101", "T_DO": "Decreto", "OBS": null }, "geometry": { "type": "Polygon", "coordinates": [ [ [ -70.968148624444893, -32.780915516160299 ], [ -70.968249815768999, -32.780963304526203 ], [ -70.968194281903095, -32.780936257101899 ], [ -70.968148624444893, -32.780915516160299 ] ] ] } }
]
}
