{
"type": "FeatureCollection",
"name": "IPT_05_PRC_Panquehue",
"crs": { "type": "name", "properties": { "name": "urn:ogc:def:crs:OGC:1.3:CRS84" } },
"features": [
{ "type": "Feature", "properties": { "id": "monoparte.1", "Name": null, "description": null, "timestamp": null, "begin": null, "end": null, "altitudeMode": null, "tessellate": -1, "extrude": 0, "visibility": -1, "drawOrder": null, "icon": null, "REG": "Valparaíso", "COM": "Panquehue", "LOC": "Panquehue", "ZONA": "ZRS", "NOM": "ZRS", "UPERM": "Instalaciones sanitarias y construcciones anexas.", "UPROH": "Para mayor detalle revisar ordenanza local", "P_DO": "16/05/1986", "N_DOC": "51", "T_DO": "Decreto", "OBS": null }, "geometry": { "type": "Polygon", "coordinates": [ [ [ -70.856205009102496, -32.785848238670901 ], [ -70.856747983185102, -32.786074540708299 ], [ -70.856985982160495, -32.7845515898494 ], [ -70.855983132097805, -32.784008065790999 ], [ -70.854652665636607, -32.783318799615301 ], [ -70.853659991244598, -32.784681886362797 ], [ -70.853848091502698, -32.784782457179297 ], [ -70.854802335220796, -32.785254684068001 ], [ -70.855437228760394, -32.785523347699701 ], [ -70.855922976074595, -32.785728895229298 ], [ -70.856205009102496, -32.785848238670901 ] ] ] } },
{ "type": "Feature", "properties": { "id": "monoparte.2", "Name": null, "description": null, "timestamp": null, "begin": null, "end": null, "altitudeMode": null, "tessellate": -1, "extrude": 0, "visibility": -1, "drawOrder": null, "icon": null, "REG": "Valparaíso", "COM": "Panquehue", "LOC": "Panquehue", "ZONA": "ZHM", "NOM": "ZHM", "UPERM": "Vivienda, comercio, oficinas, equipamiento, talleres artesanales, industrias y bodegas inofensivas, áreas verdes y vialidad.", "UPROH": "Para mayor detalle revisar ordenanza local", "P_DO": "16/05/1986", "N_DOC": "51", "T_DO": "Decreto", "OBS": null }, "geometry": { "type": "Polygon", "coordinates": [ [ [ -70.853142040538103, -32.784404956003499 ], [ -70.853659991244598, -32.784681886362797 ], [ -70.854652665636607, -32.783318799615301 ], [ -70.852539593793693, -32.782227971794399 ], [ -70.851978252673106, -32.781937719754701 ], [ -70.850400297070195, -32.780992269475398 ], [ -70.849370493097098, -32.780369170984699 ], [ -70.848855657562197, -32.780060599490803 ], [ -70.848529413575903, -32.779851733772702 ], [ -70.848000254092696, -32.779396618002103 ], [ -70.847524125827306, -32.778773683175203 ], [ -70.847373341949293, -32.778585010545797 ], [ -70.847274768824803, -32.778462381137103 ], [ -70.847118042248198, -32.778259478572203 ], [ -70.845658116313402, -32.779483500580298 ], [ -70.845818432910306, -32.779605281647903 ], [ -70.846229921453002, -32.779910785529701 ], [ -70.846674210073004, -32.7802365528268 ], [ -70.847157756230402, -32.7805910990174 ], [ -70.847623078958094, -32.780932280287502 ], [ -70.848001205514706, -32.7812095239249 ], [ -70.848250112717693, -32.7813920225027 ], [ -70.848349784348002, -32.781467086195001 ], [ -70.848400921649699, -32.781505598075299 ], [ -70.848509624353497, -32.781587462837102 ], [ -70.848794901764194, -32.781811313621503 ], [ -70.848968189395606, -32.781934198533001 ], [ -70.849146725325994, -32.782059373110997 ], [ -70.849569297373193, -32.7823556433422 ], [ -70.849853396425203, -32.782551154089603 ], [ -70.850067702393403, -32.782681666464804 ], [ -70.850444586708406, -32.782911188149697 ], [ -70.850662207439598, -32.783043717573499 ], [ -70.851029960045594, -32.783267674342099 ], [ -70.851424091277195, -32.7834809892897 ], [ -70.851998877815703, -32.783790131965802 ], [ -70.852605229947201, -32.784116247118703 ], [ -70.853142040538103, -32.784404956003499 ] ] ] } },
{ "type": "Feature", "properties": { "id": "monoparte.3", "Name": null, "description": null, "timestamp": null, "begin": null, "end": null, "altitudeMode": null, "tessellate": -1, "extrude": 0, "visibility": -1, "drawOrder": null, "icon": null, "REG": "Valparaíso", "COM": "Panquehue", "LOC": "Panquehue", "ZONA": "ZHM", "NOM": "ZHM", "UPERM": "Vivienda, comercio, oficinas, equipamiento, talleres artesanales, industrias y bodegas inofensivas, áreas verdes y vialidad.", "UPROH": "Para mayor detalle revisar ordenanza local", "P_DO": "16/05/1986", "N_DOC": "51", "T_DO": "Decreto", "OBS": null }, "geometry": { "type": "Polygon", "coordinates": [ [ [ -70.830367880553396, -32.768101973995897 ], [ -70.836229835477397, -32.7724266650308 ], [ -70.836287921978794, -32.772469513876302 ], [ -70.836698224174398, -32.7727721776686 ], [ -70.837567373718599, -32.773411226030397 ], [ -70.838914997066595, -32.774410641946098 ], [ -70.838918231574596, -32.774399945094402 ], [ -70.839701509843906, -32.772143892704001 ], [ -70.839701692244205, -32.772143366936199 ], [ -70.840207740270998, -32.772296000457899 ], [ -70.841988872617407, -32.772833381377701 ], [ -70.842026558733806, -32.772844693099103 ], [ -70.842532154835695, -32.7730216382622 ], [ -70.842532963137899, -32.772952091726999 ], [ -70.842533974675007, -32.772865059333697 ], [ -70.8397513380947, -32.769679265530797 ], [ -70.839479762948201, -32.769368491957898 ], [ -70.839419968703993, -32.769304196851003 ], [ -70.839358817267097, -32.7692475560345 ], [ -70.839272888727507, -32.769177638138999 ], [ -70.839191499627503, -32.769121541531703 ], [ -70.839105453453001, -32.769070645833899 ], [ -70.839015215964096, -32.769025227387097 ], [ -70.838921273592803, -32.768985529762702 ], [ -70.838824135670507, -32.7689517682389 ], [ -70.838724323664195, -32.768924125449701 ], [ -70.837640581188694, -32.768591956083299 ], [ -70.837591048966601, -32.768576774564899 ], [ -70.837557202834802, -32.768566400788401 ], [ -70.837472005811307, -32.768540286798299 ], [ -70.837470336560997, -32.768539780982302 ], [ -70.837463086643297, -32.7685376173131 ], [ -70.836930987637302, -32.768379232178901 ], [ -70.8368741375849, -32.768362309744901 ], [ -70.836838486966002, -32.768351697983299 ], [ -70.835250568303707, -32.767879018424303 ], [ -70.835173074947505, -32.767855950143797 ], [ -70.828174171649593, -32.765772258370603 ], [ -70.827995408603201, -32.765719031031601 ], [ -70.826726378175906, -32.765341163620199 ], [ -70.827122422837405, -32.7656340891008 ], [ -70.827830562563506, -32.766168274926201 ], [ -70.828098014016305, -32.766370023919798 ], [ -70.828738171870796, -32.766852915410198 ], [ -70.828999934327001, -32.767050367706297 ], [ -70.829637426621701, -32.767540443369498 ], [ -70.829728076722802, -32.767610130464902 ], [ -70.830367880553396, -32.768101973995897 ] ] ] } }
]
}
