{
"type": "FeatureCollection",
"name": "IPT_05_PRC_Rinconada",
"crs": { "type": "name", "properties": { "name": "urn:ogc:def:crs:OGC:1.3:CRS84" } },
"features": [
{ "type": "Feature", "properties": { "id": "monoparte.1", "Name": null, "description": null, "timestamp": null, "begin": null, "end": null, "altitudeMode": null, "tessellate": -1, "extrude": 0, "visibility": -1, "drawOrder": null, "icon": null, "REG": "Valparaíso", "COM": "Rinconada", "LOC": "Rinconada", "ZONA": "H2", "NOM": "Zona H2", "UPERM": "Vivienda, equipamiento regional de todo tipo, áreas verdes, servicios públicos comunal, vialidad, talleres inofensivos, industrias y almacenamiento inofensivos. Más detalle revisar Ordenanza.", "UPROH": "Bases militares, cárceles, cementerios, plantas y botaderos de basuras y camping, y todos los no mencionados como permitidos.", "P_DO": "24/05/1984", "N_DOC": "46", "OBS": null }, "geometry": { "type": "Polygon", "coordinates": [ [ [ -70.689984999435197, -32.862042968282502 ], [ -70.689891297460207, -32.862612297507702 ], [ -70.690546686470896, -32.862588858028502 ], [ -70.690548604444501, -32.862588789715403 ], [ -70.693964737049697, -32.862560293451999 ], [ -70.693960958689601, -32.862536987364699 ], [ -70.693922278741994, -32.862298424435103 ], [ -70.693914238872395, -32.862243259820303 ], [ -70.693896005921005, -32.862175704132802 ], [ -70.693842829229695, -32.8619966009732 ], [ -70.693807061183705, -32.861878059640297 ], [ -70.693789443701803, -32.861819035634703 ], [ -70.693763665881093, -32.861727055072201 ], [ -70.693743948810507, -32.861654550913997 ], [ -70.692744388484002, -32.8617578482556 ], [ -70.692744073851699, -32.861757880472403 ], [ -70.689984999435197, -32.862042968282502 ] ] ] } },
{ "type": "Feature", "properties": { "id": "monoparte.2", "Name": null, "description": null, "timestamp": null, "begin": null, "end": null, "altitudeMode": null, "tessellate": -1, "extrude": 0, "visibility": -1, "drawOrder": null, "icon": null, "REG": "Valparaíso", "COM": "Rinconada", "LOC": "Rinconada", "ZONA": "H2", "NOM": "Zona H2", "UPERM": "Vivienda, equipamiento regional de todo tipo, áreas verdes, servicios públicos comunal, vialidad, talleres inofensivos, industrias y almacenamiento inofensivos. Más detalle revisar Ordenanza.", "UPROH": "Bases militares, cárceles, cementerios, plantas y botaderos de basuras y camping, y todos los no mencionados como permitidos.", "P_DO": "24/05/1984", "N_DOC": "46", "OBS": null }, "geometry": { "type": "Polygon", "coordinates": [ [ [ -70.682844938041995, -32.859408525635899 ], [ -70.682844852130003, -32.859409521584098 ], [ -70.682843020836401, -32.859409423564401 ], [ -70.682772092144006, -32.859405611295998 ], [ -70.681961480737002, -32.859360629049597 ], [ -70.681961711746695, -32.859375753462999 ], [ -70.681962240685806, -32.859410396334397 ], [ -70.681962680737499, -32.859439311550702 ], [ -70.681962775132604, -32.859446180031398 ], [ -70.6819628599645, -32.8594634105362 ], [ -70.681991907447099, -32.861072794173701 ], [ -70.680500492943395, -32.861001771220799 ], [ -70.680564996510498, -32.862406299158401 ], [ -70.681146185152201, -32.862489167213603 ], [ -70.681165771705693, -32.863553422610401 ], [ -70.680138614739903, -32.865183073992903 ], [ -70.679578941506904, -32.867091217506399 ], [ -70.679563938929803, -32.867427747012201 ], [ -70.679558031388297, -32.867560267138799 ], [ -70.679543584437099, -32.867884326755501 ], [ -70.679265733445803, -32.869689247669299 ], [ -70.678763665435497, -32.871365262844797 ], [ -70.678182138937601, -32.875163644639102 ], [ -70.6769066106704, -32.877692332663401 ], [ -70.676904391029595, -32.877695753557198 ], [ -70.677043978202505, -32.8777291357625 ], [ -70.677097446331999, -32.8777419227469 ], [ -70.677244827769002, -32.877776965198201 ], [ -70.677368944914505, -32.877807672979202 ], [ -70.677548451253102, -32.8778520850353 ], [ -70.677870925233705, -32.877931868320502 ], [ -70.678114890866397, -32.877958144216898 ], [ -70.678138208611998, -32.877960655122699 ], [ -70.678138315705198, -32.877960666311999 ], [ -70.678140235623303, -32.877960172462402 ], [ -70.678141715182704, -32.877959791848099 ], [ -70.678142128946504, -32.877959685283003 ], [ -70.678918144807696, -32.877759994056703 ], [ -70.680098530120105, -32.877079101579099 ], [ -70.680162019283898, -32.875043911112499 ], [ -70.680454323183895, -32.873868167877198 ], [ -70.681223895238503, -32.872436444980998 ], [ -70.681569490102405, -32.870201483660303 ], [ -70.682380080234594, -32.8684185713552 ], [ -70.682394949553796, -32.868325066599198 ], [ -70.682425770535204, -32.868131258459002 ], [ -70.682687748500101, -32.866483860887101 ], [ -70.683211605991801, -32.866349270053803 ], [ -70.683513938912299, -32.864116619310302 ], [ -70.684027190089495, -32.862874355486198 ], [ -70.684283560688996, -32.8628159914403 ], [ -70.684308809966595, -32.860353667408802 ], [ -70.684309625602197, -32.860274148836503 ], [ -70.684322410346397, -32.859443982007697 ], [ -70.684326622886104, -32.859382599017103 ], [ -70.6842632184173, -32.859223228152601 ], [ -70.683127546101403, -32.859276147774999 ], [ -70.682844938041995, -32.859408525635899 ] ] ] } },
{ "type": "Feature", "properties": { "id": "monoparte.3", "Name": null, "description": null, "timestamp": null, "begin": null, "end": null, "altitudeMode": null, "tessellate": -1, "extrude": 0, "visibility": -1, "drawOrder": null, "icon": null, "REG": "Valparaíso", "COM": "Rinconada", "LOC": "Rinconada", "ZONA": "H2", "NOM": "Zona H2", "UPERM": "Vivienda, equipamiento regional de todo tipo, áreas verdes, servicios públicos comunal, vialidad, talleres inofensivos, industrias y almacenamiento inofensivos. Más detalle revisar Ordenanza.", "UPROH": "Bases militares, cárceles, cementerios, plantas y botaderos de basuras y camping, y todos los no mencionados como permitidos.", "P_DO": "24/05/1984", "N_DOC": "46", "OBS": null }, "geometry": { "type": "Polygon", "coordinates": [ [ [ -70.686466009405294, -32.854261713584002 ], [ -70.687005599122102, -32.854278817783801 ], [ -70.687097106588595, -32.8534430071145 ], [ -70.687118219990197, -32.853250159256902 ], [ -70.686124229254602, -32.853183236433303 ], [ -70.685333096681305, -32.853111672510003 ], [ -70.685051738544004, -32.854207283399496 ], [ -70.686466009405294, -32.854261713584002 ] ] ] } },
{ "type": "Feature", "properties": { "id": "monoparte.4", "Name": null, "description": null, "timestamp": null, "begin": null, "end": null, "altitudeMode": null, "tessellate": -1, "extrude": 0, "visibility": -1, "drawOrder": null, "icon": null, "REG": "Valparaíso", "COM": "Rinconada", "LOC": "Rinconada", "ZONA": "H2", "NOM": "Zona H2", "UPERM": "Vivienda, equipamiento regional de todo tipo, áreas verdes, servicios públicos comunal, vialidad, talleres inofensivos, industrias y almacenamiento inofensivos. Más detalle revisar Ordenanza.", "UPROH": "Bases militares, cárceles, cementerios, plantas y botaderos de basuras y camping, y todos los no mencionados como permitidos.", "P_DO": "24/05/1984", "N_DOC": "46", "OBS": null }, "geometry": { "type": "Polygon", "coordinates": [ [ [ -70.691091839681107, -32.850809772708402 ], [ -70.691332042584094, -32.850823119358999 ], [ -70.691331576869104, -32.850790807099301 ], [ -70.691309218000896, -32.849240031356103 ], [ -70.689302718597403, -32.849185496312501 ], [ -70.6892735020609, -32.849452718869699 ], [ -70.689224709180706, -32.849898970749699 ], [ -70.689199225841605, -32.850132042138398 ], [ -70.689139068417106, -32.850682230485504 ], [ -70.690464176526802, -32.850768780668602 ], [ -70.691091839681107, -32.850809772708402 ] ] ] } },
{ "type": "Feature", "properties": { "id": "monoparte.5", "Name": null, "description": null, "timestamp": null, "begin": null, "end": null, "altitudeMode": null, "tessellate": -1, "extrude": 0, "visibility": -1, "drawOrder": null, "icon": null, "REG": "Valparaíso", "COM": "Rinconada", "LOC": "Rinconada", "ZONA": "H2", "NOM": "Zona H2", "UPERM": "Vivienda, equipamiento regional de todo tipo, áreas verdes, servicios públicos comunal, vialidad, talleres inofensivos, industrias y almacenamiento inofensivos. Más detalle revisar Ordenanza.", "UPROH": "Bases militares, cárceles, cementerios, plantas y botaderos de basuras y camping, y todos los no mencionados como permitidos.", "P_DO": "24/05/1984", "N_DOC": "46", "OBS": null }, "geometry": { "type": "Polygon", "coordinates": [ [ [ -70.693925599812303, -32.849534764293502 ], [ -70.692462984980594, -32.8495733577412 ], [ -70.692305614886706, -32.849562485850797 ], [ -70.692260550133696, -32.850225119857299 ], [ -70.692173690134595, -32.850869712140501 ], [ -70.692171686832495, -32.850884576334003 ], [ -70.692155589523793, -32.851226223128897 ], [ -70.692112845044804, -32.852093026575901 ], [ -70.692095511292194, -32.852444525212597 ], [ -70.692026190485294, -32.8538502370955 ], [ -70.691060919743293, -32.853948351353502 ], [ -70.691072738956294, -32.854219889557598 ], [ -70.691663092806607, -32.854167928156897 ], [ -70.691736695253297, -32.854552130696298 ], [ -70.691831455884, -32.855046778151198 ], [ -70.691916330214696, -32.855489807522702 ], [ -70.691959019229103, -32.855712636884 ], [ -70.691989968366798, -32.8558741860857 ], [ -70.692045809537504, -32.856165667459202 ], [ -70.692141597571805, -32.856665654250797 ], [ -70.692178864755505, -32.8568601741731 ], [ -70.692263230614799, -32.857300533179099 ], [ -70.692345997810804, -32.8575916310987 ], [ -70.692395208373895, -32.857761172772399 ], [ -70.692445068511105, -32.857932947741503 ], [ -70.692469584199401, -32.858017408612803 ], [ -70.692498933083101, -32.8581185189039 ], [ -70.692524310080898, -32.8582042695406 ], [ -70.692715288085793, -32.858189073126702 ], [ -70.692987000392904, -32.858167453515698 ], [ -70.693243305497603, -32.858147058319901 ], [ -70.693285030242507, -32.858143619147 ], [ -70.693405795697501, -32.8580151805116 ], [ -70.6934936511594, -32.858048521026603 ], [ -70.694138954303895, -32.858357696081498 ], [ -70.694781920847902, -32.858640591095302 ], [ -70.695154553849804, -32.858950494924102 ], [ -70.695354161167302, -32.859145700441502 ], [ -70.695385231624002, -32.859176084416497 ], [ -70.695541095491805, -32.859232848266203 ], [ -70.695749204406198, -32.859327688697597 ], [ -70.695873649197793, -32.859400977791701 ], [ -70.695982214854993, -32.8594787588491 ], [ -70.696285325142696, -32.859601148258399 ], [ -70.696419198267193, -32.859655484589702 ], [ -70.696626518661006, -32.859737548057701 ], [ -70.696688274868507, -32.859749763473602 ], [ -70.697167806877502, -32.859844614432902 ], [ -70.697204853814, -32.859851941992503 ], [ -70.697261733944998, -32.859863193322198 ], [ -70.697317007244806, -32.859874125514402 ], [ -70.697361462965802, -32.859882919080299 ], [ -70.697439497804595, -32.859898353939997 ], [ -70.697455064014093, -32.859901432801003 ], [ -70.697469189979799, -32.859904299419 ], [ -70.697492407508705, -32.859909011485797 ], [ -70.697413103353298, -32.859429206821297 ], [ -70.697141123983002, -32.859043501024502 ], [ -70.695915553367499, -32.8575168949166 ], [ -70.695387910969103, -32.857677579032597 ], [ -70.694874147621405, -32.857904506464898 ], [ -70.693742330708304, -32.854507533010697 ], [ -70.693742322242301, -32.854507424897797 ], [ -70.693742295244604, -32.854507072622297 ], [ -70.693664077446499, -32.8533353698326 ], [ -70.695767968963096, -32.853200660617098 ], [ -70.695767361388405, -32.853083990664601 ], [ -70.695729014519898, -32.8527385768285 ], [ -70.694754712591305, -32.852677739266198 ], [ -70.694914870188597, -32.8503247522411 ], [ -70.695247994904605, -32.850384029483102 ], [ -70.695860784298603, -32.850499693915197 ], [ -70.6979049882098, -32.850204893496702 ], [ -70.697867073884197, -32.850064320103201 ], [ -70.697518325254194, -32.848771315616901 ], [ -70.696597119173603, -32.848799311302599 ], [ -70.694804678721496, -32.848852242388503 ], [ -70.694591634926596, -32.848856375736297 ], [ -70.6940485527969, -32.848876833774902 ], [ -70.694011556499305, -32.849076052234899 ], [ -70.693978742568106, -32.849252752325498 ], [ -70.693925599812303, -32.849534764293502 ] ] ] } },
{ "type": "Feature", "properties": { "id": "monoparte.6", "Name": null, "description": null, "timestamp": null, "begin": null, "end": null, "altitudeMode": null, "tessellate": -1, "extrude": 0, "visibility": -1, "drawOrder": null, "icon": null, "REG": "Valparaíso", "COM": "Rinconada", "LOC": "Rinconada", "ZONA": "H2", "NOM": "Zona H2", "UPERM": "Vivienda, equipamiento regional de todo tipo, áreas verdes, servicios públicos comunal, vialidad, talleres inofensivos, industrias y almacenamiento inofensivos. Más detalle revisar Ordenanza.", "UPROH": "Bases militares, cárceles, cementerios, plantas y botaderos de basuras y camping, y todos los no mencionados como permitidos.", "P_DO": "24/05/1984", "N_DOC": "46", "OBS": null }, "geometry": { "type": "Polygon", "coordinates": [ [ [ -70.692205304373104, -32.847906220103098 ], [ -70.692204829282105, -32.848311412597397 ], [ -70.694304020901001, -32.8483049414424 ], [ -70.694125882965295, -32.847963392325603 ], [ -70.694058697352006, -32.8479646953528 ], [ -70.693826641389705, -32.847964728646701 ], [ -70.692205304373104, -32.847906220103098 ] ] ] } },
{ "type": "Feature", "properties": { "id": "monoparte.7", "Name": null, "description": null, "timestamp": null, "begin": null, "end": null, "altitudeMode": null, "tessellate": -1, "extrude": 0, "visibility": -1, "drawOrder": null, "icon": null, "REG": "Valparaíso", "COM": "Rinconada", "LOC": "Rinconada", "ZONA": "H2", "NOM": "Zona H2", "UPERM": "Vivienda, equipamiento regional de todo tipo, áreas verdes, servicios públicos comunal, vialidad, talleres inofensivos, industrias y almacenamiento inofensivos. Más detalle revisar Ordenanza.", "UPROH": "Bases militares, cárceles, cementerios, plantas y botaderos de basuras y camping, y todos los no mencionados como permitidos.", "P_DO": "24/05/1984", "N_DOC": "46", "OBS": null }, "geometry": { "type": "Polygon", "coordinates": [ [ [ -70.692262278619907, -32.837080857805297 ], [ -70.691852421221796, -32.838947936727003 ], [ -70.693856843336306, -32.838639340527898 ], [ -70.695566037648106, -32.837769964382801 ], [ -70.695885388765106, -32.838650649157799 ], [ -70.695887091274201, -32.838655344807798 ], [ -70.696014090360805, -32.838644859666701 ], [ -70.697838378292701, -32.8384994705306 ], [ -70.698309135817098, -32.838475115896998 ], [ -70.699016802571094, -32.838439374262002 ], [ -70.697287410005003, -32.837547013492099 ], [ -70.6964319011322, -32.837615195108 ], [ -70.696442500529201, -32.8368897177006 ], [ -70.693361307447603, -32.8368895750693 ], [ -70.692786461076295, -32.837038661845497 ], [ -70.692293434848807, -32.837078240302503 ], [ -70.692262278619907, -32.837080857805297 ] ] ] } },
{ "type": "Feature", "properties": { "id": "monoparte.8", "Name": null, "description": null, "timestamp": null, "begin": null, "end": null, "altitudeMode": null, "tessellate": -1, "extrude": 0, "visibility": -1, "drawOrder": null, "icon": null, "REG": "Valparaíso", "COM": "Rinconada", "LOC": "Rinconada", "ZONA": "H2", "NOM": "Zona H2", "UPERM": "Vivienda, equipamiento regional de todo tipo, áreas verdes, servicios públicos comunal, vialidad, talleres inofensivos, industrias y almacenamiento inofensivos. Más detalle revisar Ordenanza.", "UPROH": "Bases militares, cárceles, cementerios, plantas y botaderos de basuras y camping, y todos los no mencionados como permitidos.", "P_DO": "24/05/1984", "N_DOC": "46", "OBS": null }, "geometry": { "type": "Polygon", "coordinates": [ [ [ -70.681467390898504, -32.839651441171199 ], [ -70.684698994947198, -32.839615100733603 ], [ -70.6847072828526, -32.839565147485303 ], [ -70.684744709237194, -32.839363656212299 ], [ -70.684817552252497, -32.8389714874018 ], [ -70.684886644887399, -32.838599508451701 ], [ -70.684983687545198, -32.838077049961598 ], [ -70.685994521901506, -32.838038589603102 ], [ -70.686528593078606, -32.838020764919797 ], [ -70.686670568580396, -32.837700470876399 ], [ -70.686737547481698, -32.837548960759896 ], [ -70.6867402669087, -32.837533907481202 ], [ -70.686512771930197, -32.837506439345397 ], [ -70.686245130111999, -32.837474113074499 ], [ -70.685631625479999, -32.837400011783103 ], [ -70.682146189228703, -32.836978964461203 ], [ -70.681862976886705, -32.836944747466099 ], [ -70.681811626621496, -32.8372944901339 ], [ -70.681664927363201, -32.838293647574702 ], [ -70.681504096920804, -32.839389037080402 ], [ -70.681467390898504, -32.839651441171199 ] ] ] } },
{ "type": "Feature", "properties": { "id": "monoparte.9", "Name": null, "description": null, "timestamp": null, "begin": null, "end": null, "altitudeMode": null, "tessellate": -1, "extrude": 0, "visibility": -1, "drawOrder": null, "icon": null, "REG": "Valparaíso", "COM": "Rinconada", "LOC": "Rinconada", "ZONA": "H2", "NOM": "Zona H2", "UPERM": "Vivienda, equipamiento regional de todo tipo, áreas verdes, servicios públicos comunal, vialidad, talleres inofensivos, industrias y almacenamiento inofensivos. Más detalle revisar Ordenanza.", "UPROH": "Bases militares, cárceles, cementerios, plantas y botaderos de basuras y camping, y todos los no mencionados como permitidos.", "P_DO": "24/05/1984", "N_DOC": "46", "OBS": null }, "geometry": { "type": "Polygon", "coordinates": [ [ [ -70.692262278619907, -32.837080857805297 ], [ -70.692286772253595, -32.836607520679898 ], [ -70.692310064275304, -32.836356068521297 ], [ -70.692351225937898, -32.836141939623197 ], [ -70.692416874622495, -32.836026510632003 ], [ -70.692439843751302, -32.835789704220097 ], [ -70.689917841930793, -32.835607296424598 ], [ -70.689786311715906, -32.8355977322746 ], [ -70.689753133607596, -32.835629218267897 ], [ -70.689650722629594, -32.835726350389798 ], [ -70.689368118775107, -32.835994361215498 ], [ -70.689449196796602, -32.836055502955702 ], [ -70.689954826886705, -32.836436802499698 ], [ -70.6899558734534, -32.836437571212699 ], [ -70.690122541511499, -32.836483577955804 ], [ -70.692121841465195, -32.837035314545901 ], [ -70.692262278619907, -32.837080857805297 ] ] ] } },
{ "type": "Feature", "properties": { "id": "monoparte.10", "Name": null, "description": null, "timestamp": null, "begin": null, "end": null, "altitudeMode": null, "tessellate": -1, "extrude": 0, "visibility": -1, "drawOrder": null, "icon": null, "REG": "Valparaíso", "COM": "Rinconada", "LOC": "Rinconada", "ZONA": "H2", "NOM": "Zona H2", "UPERM": "Vivienda, equipamiento regional de todo tipo, áreas verdes, servicios públicos comunal, vialidad, talleres inofensivos, industrias y almacenamiento inofensivos. Más detalle revisar Ordenanza.", "UPROH": "Bases militares, cárceles, cementerios, plantas y botaderos de basuras y camping, y todos los no mencionados como permitidos.", "P_DO": "24/05/1984", "N_DOC": "46", "OBS": null }, "geometry": { "type": "Polygon", "coordinates": [ [ [ -70.693061399939694, -32.832918896058402 ], [ -70.6929581406566, -32.833285477218197 ], [ -70.695263125896901, -32.833165663920298 ], [ -70.695938520126006, -32.833131160531899 ], [ -70.696150628797696, -32.833106520098298 ], [ -70.696184682990904, -32.833102563638299 ], [ -70.696309264123997, -32.8330880913581 ], [ -70.696310773469804, -32.833087915770697 ], [ -70.697586190256402, -32.832939740626998 ], [ -70.696997769415702, -32.831415789067698 ], [ -70.696997662891604, -32.831415804942701 ], [ -70.693606857644397, -32.832024977479001 ], [ -70.693077221657504, -32.832825222760903 ], [ -70.693061399939694, -32.832918896058402 ] ] ] } },
{ "type": "Feature", "properties": { "id": "monoparte.11", "Name": null, "description": null, "timestamp": null, "begin": null, "end": null, "altitudeMode": null, "tessellate": -1, "extrude": 0, "visibility": -1, "drawOrder": null, "icon": null, "REG": "Valparaíso", "COM": "Rinconada", "LOC": "Rinconada", "ZONA": "H2", "NOM": "Zona H2", "UPERM": "Vivienda, equipamiento regional de todo tipo, áreas verdes, servicios públicos comunal, vialidad, talleres inofensivos, industrias y almacenamiento inofensivos. Más detalle revisar Ordenanza.", "UPROH": "Bases militares, cárceles, cementerios, plantas y botaderos de basuras y camping, y todos los no mencionados como permitidos.", "P_DO": "24/05/1984", "N_DOC": "46", "OBS": null }, "geometry": { "type": "Polygon", "coordinates": [ [ [ -70.692886571444902, -32.8287843131789 ], [ -70.693061474001397, -32.829977559199698 ], [ -70.694462873338395, -32.829708649718 ], [ -70.694126739376301, -32.828787873411201 ], [ -70.692886571444902, -32.8287843131789 ] ] ] } },
{ "type": "Feature", "properties": { "id": "monoparte.12", "Name": null, "description": null, "timestamp": null, "begin": null, "end": null, "altitudeMode": null, "tessellate": -1, "extrude": 0, "visibility": -1, "drawOrder": null, "icon": null, "REG": "Valparaíso", "COM": "Rinconada", "LOC": "Rinconada", "ZONA": "H3", "NOM": "Zona H3", "UPERM": "Vivienda, equipamiento comunal, talleres inofensivos y actividades complementarias a la vialidad.", "UPROH": "Cementerios parques, vertederos de basura o plantas de procesamiento y todos los no mencionados como permitidos.", "P_DO": "24/05/1984", "N_DOC": "46", "OBS": null }, "geometry": { "type": "Polygon", "coordinates": [ [ [ -70.696719471762094, -32.862224268296899 ], [ -70.695713923230898, -32.862594668286 ], [ -70.694613922598805, -32.862376059336498 ], [ -70.6946943951625, -32.862557357268798 ], [ -70.694318403190394, -32.862557337467997 ], [ -70.694126328488807, -32.862558943568501 ], [ -70.693964737049697, -32.862560293451999 ], [ -70.690548604444501, -32.862588789715403 ], [ -70.690491147375994, -32.8632912929152 ], [ -70.691286461879699, -32.863523461733301 ], [ -70.691501269455301, -32.863829854392897 ], [ -70.691621215444997, -32.864034568513802 ], [ -70.691745545331301, -32.864257499196803 ], [ -70.691927658605906, -32.864584036043702 ], [ -70.692063502089894, -32.864965642332798 ], [ -70.692146014451595, -32.865200448941302 ], [ -70.6922669110577, -32.865545925256399 ], [ -70.692306137410696, -32.8656228626988 ], [ -70.692337103035598, -32.865645351812098 ], [ -70.692417035870605, -32.865655724248299 ], [ -70.692516806030895, -32.865638625247499 ], [ -70.6925893561924, -32.865617598825203 ], [ -70.692696847539196, -32.865556358399999 ], [ -70.692749048518394, -32.8654283982276 ], [ -70.692895218059604, -32.865217252499903 ], [ -70.693085370157505, -32.865032375939798 ], [ -70.693243856595899, -32.8648876760872 ], [ -70.693510863741494, -32.864711203018999 ], [ -70.693854617006096, -32.864553578600102 ], [ -70.694081826727498, -32.864489913804398 ], [ -70.694531370776204, -32.864330211524901 ], [ -70.694653160967306, -32.864267506765799 ], [ -70.694823602960099, -32.8641584274229 ], [ -70.694911407252903, -32.8640716748857 ], [ -70.694997544431402, -32.8639517930633 ], [ -70.695105435602798, -32.863783653630797 ], [ -70.695238135161205, -32.863621418060902 ], [ -70.695410531772794, -32.863471172460301 ], [ -70.695656704608396, -32.863280436112298 ], [ -70.695979752485201, -32.863090384928498 ], [ -70.696236493820095, -32.8629555947469 ], [ -70.6965445503008, -32.862781073136397 ], [ -70.696724847868197, -32.862680769202903 ], [ -70.696865726005697, -32.862607323394698 ], [ -70.696899781309, -32.862594983424501 ], [ -70.696719471762094, -32.862224268296899 ] ] ] } },
{ "type": "Feature", "properties": { "id": "monoparte.13", "Name": null, "description": null, "timestamp": null, "begin": null, "end": null, "altitudeMode": null, "tessellate": -1, "extrude": 0, "visibility": -1, "drawOrder": null, "icon": null, "REG": "Valparaíso", "COM": "Rinconada", "LOC": "Rinconada", "ZONA": "H3", "NOM": "Zona H3", "UPERM": "Vivienda, equipamiento comunal, talleres inofensivos y actividades complementarias a la vialidad.", "UPROH": "Cementerios parques, vertederos de basura o plantas de procesamiento y todos los no mencionados como permitidos.", "P_DO": "24/05/1984", "N_DOC": "46", "OBS": null }, "geometry": { "type": "Polygon", "coordinates": [ [ [ -70.686022559681703, -32.850305011011798 ], [ -70.685637267269598, -32.851873845412598 ], [ -70.685333096681305, -32.853111672510003 ], [ -70.686124229254602, -32.853183236433303 ], [ -70.687118219990197, -32.853250159256902 ], [ -70.687097106588595, -32.8534430071145 ], [ -70.687005599122102, -32.854278817783801 ], [ -70.686466009405294, -32.854261713584002 ], [ -70.685051738544004, -32.854207283399496 ], [ -70.684965767491505, -32.854584582174901 ], [ -70.684691098436403, -32.855790000947003 ], [ -70.684308513419396, -32.857504561704403 ], [ -70.684238588155694, -32.857808555034097 ], [ -70.684233804237493, -32.857917161832802 ], [ -70.684226029518001, -32.858189724137802 ], [ -70.684220017154999, -32.858400509830197 ], [ -70.684224968343997, -32.858547234979703 ], [ -70.684246437111597, -32.858926662465102 ], [ -70.6842632184173, -32.859223228152601 ], [ -70.684326622886104, -32.859382599017103 ], [ -70.684322410346397, -32.859443982007697 ], [ -70.684309625602197, -32.860274148836503 ], [ -70.684310304195506, -32.860274093701896 ], [ -70.685216778437606, -32.8602004016035 ], [ -70.686078703715197, -32.860128615747001 ], [ -70.686219484788793, -32.860134632970102 ], [ -70.686295180873699, -32.860144581334502 ], [ -70.686532889798698, -32.860192531008799 ], [ -70.686943052092403, -32.860246915483003 ], [ -70.687113866767902, -32.8602535042819 ], [ -70.687247853679395, -32.860259229579398 ], [ -70.687495261803903, -32.860249559724402 ], [ -70.688286485885897, -32.860148092241502 ], [ -70.689277217544301, -32.859956547112198 ], [ -70.690401549572499, -32.859758337427898 ], [ -70.690631385250995, -32.859720421532302 ], [ -70.6913905561196, -32.859557523022701 ], [ -70.692100331187206, -32.859281064072199 ], [ -70.692463589165399, -32.859238735153397 ], [ -70.6924640753776, -32.8592386789703 ], [ -70.692464879795196, -32.8592386103644 ], [ -70.692373092902997, -32.858381608861102 ], [ -70.692370515621505, -32.858357536974502 ], [ -70.692524310080898, -32.8582042695406 ], [ -70.692498933083101, -32.8581185189039 ], [ -70.692469584199401, -32.858017408612803 ], [ -70.692445068511105, -32.857932947741503 ], [ -70.692395208373895, -32.857761172772399 ], [ -70.692345997810804, -32.8575916310987 ], [ -70.692263230614799, -32.857300533179099 ], [ -70.692178864755505, -32.8568601741731 ], [ -70.692141597571805, -32.856665654250797 ], [ -70.692045809537504, -32.856165667459202 ], [ -70.691989968366798, -32.8558741860857 ], [ -70.691959019229103, -32.855712636884 ], [ -70.691916330214696, -32.855489807522702 ], [ -70.691831455884, -32.855046778151198 ], [ -70.691736695253297, -32.854552130696298 ], [ -70.691663092806607, -32.854167928156897 ], [ -70.691072738956294, -32.854219889557598 ], [ -70.691060919743293, -32.853948351353502 ], [ -70.692026190485294, -32.8538502370955 ], [ -70.692095511292194, -32.852444525212597 ], [ -70.692112845044804, -32.852093026575901 ], [ -70.692155589523793, -32.851226223128897 ], [ -70.692171686832495, -32.850884576334003 ], [ -70.692173690134595, -32.850869712140501 ], [ -70.692172383070996, -32.850869809187799 ], [ -70.692171482448103, -32.850869759139599 ], [ -70.691332042584094, -32.850823119358999 ], [ -70.691091839681107, -32.850809772708402 ], [ -70.690464176526802, -32.850768780668602 ], [ -70.689139068417106, -32.850682230485504 ], [ -70.689199225841605, -32.850132042138398 ], [ -70.689224709180706, -32.849898970749699 ], [ -70.6892735020609, -32.849452718869699 ], [ -70.689302718597403, -32.849185496312501 ], [ -70.688998799244899, -32.849176920161298 ], [ -70.687606374436996, -32.849137615978599 ], [ -70.686325666557394, -32.849101452305398 ], [ -70.686258436660395, -32.849342483352203 ], [ -70.686022559681703, -32.850305011011798 ] ] ] } },
{ "type": "Feature", "properties": { "id": "monoparte.14", "Name": null, "description": null, "timestamp": null, "begin": null, "end": null, "altitudeMode": null, "tessellate": -1, "extrude": 0, "visibility": -1, "drawOrder": null, "icon": null, "REG": "Valparaíso", "COM": "Rinconada", "LOC": "Rinconada", "ZONA": "H3", "NOM": "Zona H3", "UPERM": "Vivienda, equipamiento comunal, talleres inofensivos y actividades complementarias a la vialidad.", "UPROH": "Cementerios parques, vertederos de basura o plantas de procesamiento y todos los no mencionados como permitidos.", "P_DO": "24/05/1984", "N_DOC": "46", "OBS": null }, "geometry": { "type": "Polygon", "coordinates": [ [ [ -70.689743526234906, -32.845725462721703 ], [ -70.689732170843996, -32.845931651841802 ], [ -70.689892447169498, -32.845927154693499 ], [ -70.690242230479498, -32.845917339172303 ], [ -70.690651914621895, -32.845905841976702 ], [ -70.690842450953099, -32.845900494559601 ], [ -70.691072129898103, -32.845894047768901 ], [ -70.691359521638901, -32.845885980667298 ], [ -70.691729120841899, -32.845875605387398 ], [ -70.692110240041799, -32.845864905452501 ], [ -70.692398153503106, -32.842270269146098 ], [ -70.692313019315407, -32.841806097582001 ], [ -70.692199794729206, -32.841025368228699 ], [ -70.692160217979406, -32.840753927268501 ], [ -70.692155299457994, -32.840720952771498 ], [ -70.692107111876993, -32.840726599187299 ], [ -70.691940293000201, -32.840744790794602 ], [ -70.690321798136296, -32.840920130337899 ], [ -70.688444520618901, -32.841123477716103 ], [ -70.688407279579906, -32.841377898002001 ], [ -70.688357636803602, -32.8417096836017 ], [ -70.688292763646999, -32.841986618318501 ], [ -70.688194728260797, -32.842405120469301 ], [ -70.688051042914694, -32.843018489271401 ], [ -70.687898135392501, -32.843673560709597 ], [ -70.687925398400495, -32.843973626843201 ], [ -70.6879687202523, -32.844450444896701 ], [ -70.688007686130405, -32.8448302341668 ], [ -70.688103774803693, -32.8448289376758 ], [ -70.688898696381102, -32.844818210145803 ], [ -70.689327498662806, -32.844812421742603 ], [ -70.689794159232704, -32.844806120540298 ], [ -70.689790270755495, -32.844876723090103 ], [ -70.689769891482598, -32.845246768189099 ], [ -70.689743526234906, -32.845725462721703 ] ] ] } },
{ "type": "Feature", "properties": { "id": "monoparte.15", "Name": null, "description": null, "timestamp": null, "begin": null, "end": null, "altitudeMode": null, "tessellate": -1, "extrude": 0, "visibility": -1, "drawOrder": null, "icon": null, "REG": "Valparaíso", "COM": "Rinconada", "LOC": "Rinconada", "ZONA": "H3", "NOM": "Zona H3", "UPERM": "Vivienda, equipamiento comunal, talleres inofensivos y actividades complementarias a la vialidad.", "UPROH": "Cementerios parques, vertederos de basura o plantas de procesamiento y todos los no mencionados como permitidos.", "P_DO": "24/05/1984", "N_DOC": "46", "OBS": null }, "geometry": { "type": "Polygon", "coordinates": [ [ [ -70.680106411549303, -32.835337897426299 ], [ -70.680099206195194, -32.838199944285201 ], [ -70.680098912443, -32.838316924689202 ], [ -70.680098714625004, -32.8383955622215 ], [ -70.680098563665496, -32.838455309725802 ], [ -70.680098263186395, -32.838574654096199 ], [ -70.680097906556696, -32.8387164772764 ], [ -70.680097898000795, -32.838720105735703 ], [ -70.680084386984703, -32.839616133714898 ], [ -70.681467390898504, -32.839651441171199 ], [ -70.681504096920804, -32.839389037080402 ], [ -70.681664927363201, -32.838293647574702 ], [ -70.681811626621496, -32.8372944901339 ], [ -70.681862976886705, -32.836944747466099 ], [ -70.682146189228703, -32.836978964461203 ], [ -70.685631625479999, -32.837400011783103 ], [ -70.686245130111999, -32.837474113074499 ], [ -70.686512771930197, -32.837506439345397 ], [ -70.6867402669087, -32.837533907481202 ], [ -70.686746460242404, -32.837499633900201 ], [ -70.687124029695596, -32.835409611538999 ], [ -70.687120895040195, -32.835409091019102 ], [ -70.683576055311207, -32.834820475748202 ], [ -70.682737325801895, -32.834830581725399 ], [ -70.680881511205897, -32.8348434286846 ], [ -70.680713969013595, -32.834843094348699 ], [ -70.6802306616556, -32.8348530926108 ], [ -70.680107625367896, -32.8348557250441 ], [ -70.680106411549303, -32.835337897426299 ] ] ] } },
{ "type": "Feature", "properties": { "id": "monoparte.16", "Name": null, "description": null, "timestamp": null, "begin": null, "end": null, "altitudeMode": null, "tessellate": -1, "extrude": 0, "visibility": -1, "drawOrder": null, "icon": null, "REG": "Valparaíso", "COM": "Rinconada", "LOC": "Rinconada", "ZONA": "H3", "NOM": "Zona H3", "UPERM": "Vivienda, equipamiento comunal, talleres inofensivos y actividades complementarias a la vialidad.", "UPROH": "Cementerios parques, vertederos de basura o plantas de procesamiento y todos los no mencionados como permitidos.", "P_DO": "24/05/1984", "N_DOC": "46", "OBS": null }, "geometry": { "type": "Polygon", "coordinates": [ [ [ -70.689917841930793, -32.835607296424598 ], [ -70.692439843751302, -32.835789704220097 ], [ -70.692446425415895, -32.835721860096598 ], [ -70.692363479125703, -32.8353850253893 ], [ -70.692694183478395, -32.834193379849097 ], [ -70.6929581406566, -32.833285477218197 ], [ -70.692949474865401, -32.833285990394401 ], [ -70.690352200706201, -32.8334398107813 ], [ -70.690113745708501, -32.834349131673299 ], [ -70.689872685848698, -32.8352683675622 ], [ -70.689838400496797, -32.835399106252503 ], [ -70.689822432465803, -32.8354599971357 ], [ -70.689805014722396, -32.835526413686303 ], [ -70.689793887806204, -32.835568844963298 ], [ -70.689791747661204, -32.835577003580099 ], [ -70.689789962298505, -32.835583814478497 ], [ -70.689789491029302, -32.835585611111803 ], [ -70.689788646119894, -32.835588831477601 ], [ -70.689787769339603, -32.835592174030097 ], [ -70.689787209421695, -32.835594310072501 ], [ -70.689786712262702, -32.835596206264199 ], [ -70.689786505042704, -32.835596997322099 ], [ -70.689786397450902, -32.835597408237099 ], [ -70.689786311715906, -32.8355977322746 ], [ -70.689917841930793, -32.835607296424598 ] ] ] } },
{ "type": "Feature", "properties": { "id": "monoparte.17", "Name": null, "description": null, "timestamp": null, "begin": null, "end": null, "altitudeMode": null, "tessellate": -1, "extrude": 0, "visibility": -1, "drawOrder": null, "icon": null, "REG": "Valparaíso", "COM": "Rinconada", "LOC": "Rinconada", "ZONA": "H1", "NOM": "Zona H1", "UPERM": "Vivienda, equipamiento de salud, educación, culto, cultura, organizaciones comunitarias y servicios profesionales; equipamientos de seguridad, áreas verdes, servicios públicos comunal y vialidad.", "UPROH": "Todos los no mencionados como permitidos.", "P_DO": "24/05/1984", "N_DOC": "46", "OBS": null }, "geometry": { "type": "Polygon", "coordinates": [ [ [ -70.692713362079004, -32.861595249782802 ], [ -70.692744350664896, -32.861757657565697 ], [ -70.692744388484002, -32.8617578482556 ], [ -70.693743948810507, -32.861654550913997 ], [ -70.693763665881093, -32.861727055072201 ], [ -70.693789443701803, -32.861819035634703 ], [ -70.693807061183705, -32.861878059640297 ], [ -70.693842829229695, -32.8619966009732 ], [ -70.693896005921005, -32.862175704132802 ], [ -70.693914238872395, -32.862243259820303 ], [ -70.693922278741994, -32.862298424435103 ], [ -70.693960958689601, -32.862536987364699 ], [ -70.693964737049697, -32.862560293451999 ], [ -70.694126328488807, -32.862558943568501 ], [ -70.694318403190394, -32.862557337467997 ], [ -70.6946943951625, -32.862557357268798 ], [ -70.694613922598805, -32.862376059336498 ], [ -70.695713923230898, -32.862594668286 ], [ -70.696719471762094, -32.862224268296899 ], [ -70.696899781309, -32.862594983424501 ], [ -70.697024285329206, -32.862566349218902 ], [ -70.697416251551701, -32.8626626394962 ], [ -70.697416581169904, -32.862662720702801 ], [ -70.697527222010905, -32.860119645332396 ], [ -70.697492407508705, -32.859909011485797 ], [ -70.697469189979799, -32.859904299419 ], [ -70.697455064014093, -32.859901432801003 ], [ -70.697439497804595, -32.859898353939997 ], [ -70.697361462965802, -32.859882919080299 ], [ -70.697317007244806, -32.859874125514402 ], [ -70.697261733944998, -32.859863193322198 ], [ -70.697204853814, -32.859851941992503 ], [ -70.697167806877502, -32.859844614432902 ], [ -70.696688274868507, -32.859749763473602 ], [ -70.696626518661006, -32.859737548057701 ], [ -70.696419198267193, -32.859655484589702 ], [ -70.696285325142696, -32.859601148258399 ], [ -70.695982214854993, -32.8594787588491 ], [ -70.695873649197793, -32.859400977791701 ], [ -70.695749204406198, -32.859327688697597 ], [ -70.695541095491805, -32.859232848266203 ], [ -70.695385231624002, -32.859176084416497 ], [ -70.695354161167302, -32.859145700441502 ], [ -70.695154553849804, -32.858950494924102 ], [ -70.694781920847902, -32.858640591095302 ], [ -70.694138954303895, -32.858357696081498 ], [ -70.6934936511594, -32.858048521026603 ], [ -70.693405795697501, -32.8580151805116 ], [ -70.693285030242507, -32.858143619147 ], [ -70.693243305497603, -32.858147058319901 ], [ -70.692987000392904, -32.858167453515698 ], [ -70.692715288085793, -32.858189073126702 ], [ -70.692524310080898, -32.8582042695406 ], [ -70.692370515621505, -32.858357536974502 ], [ -70.692373092902997, -32.858381608861102 ], [ -70.692464879795196, -32.8592386103644 ], [ -70.692473843681896, -32.8592984371382 ], [ -70.692520951634407, -32.859667461234601 ], [ -70.692599284436994, -32.860003341097503 ], [ -70.692590859458804, -32.860127931039699 ], [ -70.692597972346903, -32.860288763507199 ], [ -70.692606621875001, -32.860431480458402 ], [ -70.692621569396493, -32.860671878484197 ], [ -70.692631148887699, -32.860921138107202 ], [ -70.692636850394905, -32.861118028465697 ], [ -70.692660403227293, -32.861334997828799 ], [ -70.692713362079004, -32.861595249782802 ] ] ] } },
{ "type": "Feature", "properties": { "id": "monoparte.18", "Name": null, "description": null, "timestamp": null, "begin": null, "end": null, "altitudeMode": null, "tessellate": -1, "extrude": 0, "visibility": -1, "drawOrder": null, "icon": null, "REG": "Valparaíso", "COM": "Rinconada", "LOC": "Rinconada", "ZONA": "H1", "NOM": "Zona H1", "UPERM": "Vivienda, equipamiento de salud, educación, culto, cultura, organizaciones comunitarias y servicios profesionales; equipamientos de seguridad, áreas verdes, servicios públicos comunal y vialidad.", "UPROH": "Todos los no mencionados como permitidos.", "P_DO": "24/05/1984", "N_DOC": "46", "OBS": null }, "geometry": { "type": "Polygon", "coordinates": [ [ [ -70.687700805026495, -32.8283069616541 ], [ -70.6880050368393, -32.834149384835698 ], [ -70.687311512214293, -32.834177046208701 ], [ -70.687124029695596, -32.835409611538999 ], [ -70.686746460242404, -32.837499633900201 ], [ -70.6867402669087, -32.837533907481202 ], [ -70.686737547481698, -32.837548960759896 ], [ -70.686670568580396, -32.837700470876399 ], [ -70.686528593078606, -32.838020764919797 ], [ -70.685994521901506, -32.838038589603102 ], [ -70.684983687545198, -32.838077049961598 ], [ -70.684886644887399, -32.838599508451701 ], [ -70.684817552252497, -32.8389714874018 ], [ -70.684744709237194, -32.839363656212299 ], [ -70.6847072828526, -32.839565147485303 ], [ -70.684698994947198, -32.839615100733603 ], [ -70.685467936374394, -32.839602159957003 ], [ -70.685469577979404, -32.839766269032602 ], [ -70.685361019693403, -32.840661148866701 ], [ -70.685431673306596, -32.840660296335798 ], [ -70.685471588337606, -32.840975471946201 ], [ -70.685507805550202, -32.840975034559001 ], [ -70.686044945720496, -32.840971107310899 ], [ -70.683533894273197, -32.851080330286003 ], [ -70.683020224988894, -32.851501150118203 ], [ -70.682870893151602, -32.851970508179001 ], [ -70.682800006144404, -32.852206778663103 ], [ -70.6827510000861, -32.8523769622225 ], [ -70.682568943122604, -32.853081760426903 ], [ -70.682511318886597, -32.853307824147002 ], [ -70.682352340874999, -32.854032826157599 ], [ -70.682718313558198, -32.854188759813297 ], [ -70.681596847721906, -32.8562553350664 ], [ -70.681656120847506, -32.859257176391502 ], [ -70.681657626301103, -32.8593295234772 ], [ -70.681961169172794, -32.859360597163302 ], [ -70.681961480737002, -32.859360629049597 ], [ -70.682772092144006, -32.859405611295998 ], [ -70.682843020836401, -32.859409423564401 ], [ -70.682844852130003, -32.859409521584098 ], [ -70.682844938041995, -32.859408525635899 ], [ -70.683127546101403, -32.859276147774999 ], [ -70.6842632184173, -32.859223228152601 ], [ -70.684246437111597, -32.858926662465102 ], [ -70.684224968343997, -32.858547234979703 ], [ -70.684220017154999, -32.858400509830197 ], [ -70.684226029518001, -32.858189724137802 ], [ -70.684233804237493, -32.857917161832802 ], [ -70.684238588155694, -32.857808555034097 ], [ -70.684308513419396, -32.857504561704403 ], [ -70.684691098436403, -32.855790000947003 ], [ -70.684965767491505, -32.854584582174901 ], [ -70.685051738544004, -32.854207283399496 ], [ -70.685333096681305, -32.853111672510003 ], [ -70.685637267269598, -32.851873845412598 ], [ -70.686022559681703, -32.850305011011798 ], [ -70.686258436660395, -32.849342483352203 ], [ -70.686325666557394, -32.849101452305398 ], [ -70.687606374436996, -32.849137615978599 ], [ -70.688998799244899, -32.849176920161298 ], [ -70.689302718597403, -32.849185496312501 ], [ -70.691309218000896, -32.849240031356103 ], [ -70.691331576869104, -32.850790807099301 ], [ -70.691332042584094, -32.850823119358999 ], [ -70.692171482448103, -32.850869759139599 ], [ -70.692172383070996, -32.850869809187799 ], [ -70.692173690134595, -32.850869712140501 ], [ -70.692260550133696, -32.850225119857299 ], [ -70.692305614886706, -32.849562485850797 ], [ -70.692462984980594, -32.8495733577412 ], [ -70.693925599812303, -32.849534764293502 ], [ -70.693978742568106, -32.849252752325498 ], [ -70.694011556499305, -32.849076052234899 ], [ -70.6940485527969, -32.848876833774902 ], [ -70.694591634926596, -32.848856375736297 ], [ -70.694526703112004, -32.848731894424098 ], [ -70.694304020901001, -32.8483049414424 ], [ -70.692204829282105, -32.848311412597397 ], [ -70.692205304373104, -32.847906220103098 ], [ -70.6922014683566, -32.847789027231599 ], [ -70.6921730751816, -32.8473670133884 ], [ -70.692129803788703, -32.846687916649799 ], [ -70.692099925985303, -32.845993669882603 ], [ -70.692110240041799, -32.845864905452501 ], [ -70.691729120841899, -32.845875605387398 ], [ -70.691359521638901, -32.845885980667298 ], [ -70.691072129898103, -32.845894047768901 ], [ -70.690842450953099, -32.845900494559601 ], [ -70.690651914621895, -32.845905841976702 ], [ -70.690242230479498, -32.845917339172303 ], [ -70.689892447169498, -32.845927154693499 ], [ -70.689732170843996, -32.845931651841802 ], [ -70.689743526234906, -32.845725462721703 ], [ -70.689769891482598, -32.845246768189099 ], [ -70.689790270755495, -32.844876723090103 ], [ -70.689794159232704, -32.844806120540298 ], [ -70.689327498662806, -32.844812421742603 ], [ -70.688898696381102, -32.844818210145803 ], [ -70.688103774803693, -32.8448289376758 ], [ -70.688007686130405, -32.8448302341668 ], [ -70.6879687202523, -32.844450444896701 ], [ -70.687925398400495, -32.843973626843201 ], [ -70.687898135392501, -32.843673560709597 ], [ -70.688051042914694, -32.843018489271401 ], [ -70.688194728260797, -32.842405120469301 ], [ -70.688292763646999, -32.841986618318501 ], [ -70.688357636803602, -32.8417096836017 ], [ -70.688407279579906, -32.841377898002001 ], [ -70.688444520618901, -32.841123477716103 ], [ -70.690321798136296, -32.840920130337899 ], [ -70.691940293000201, -32.840744790794602 ], [ -70.692107111876993, -32.840726599187299 ], [ -70.692103079901401, -32.840699355079998 ], [ -70.692091246256794, -32.840619395045501 ], [ -70.691999631838002, -32.840000345768601 ], [ -70.691894015783603, -32.839350320599003 ], [ -70.691833186945701, -32.839008429154902 ], [ -70.691833119178199, -32.839008010688701 ], [ -70.691852421221796, -32.838947936727003 ], [ -70.692262278619907, -32.837080857805297 ], [ -70.692121841465195, -32.837035314545901 ], [ -70.690122541511499, -32.836483577955804 ], [ -70.6899558734534, -32.836437571212699 ], [ -70.689954826886705, -32.836436802499698 ], [ -70.689449196796602, -32.836055502955702 ], [ -70.689368118775107, -32.835994361215498 ], [ -70.689650722629594, -32.835726350389798 ], [ -70.689753133607596, -32.835629218267897 ], [ -70.689786311715906, -32.8355977322746 ], [ -70.689786397450902, -32.835597408237099 ], [ -70.689786505042704, -32.835596997322099 ], [ -70.689786712262702, -32.835596206264199 ], [ -70.689787209421695, -32.835594310072501 ], [ -70.689787769339603, -32.835592174030097 ], [ -70.689788646119894, -32.835588831477601 ], [ -70.689789491029302, -32.835585611111803 ], [ -70.689789962298505, -32.835583814478497 ], [ -70.689791747661204, -32.835577003580099 ], [ -70.689793887806204, -32.835568844963298 ], [ -70.689805014722396, -32.835526413686303 ], [ -70.689822432465803, -32.8354599971357 ], [ -70.689838400496797, -32.835399106252503 ], [ -70.689872685848698, -32.8352683675622 ], [ -70.690113745708501, -32.834349131673299 ], [ -70.690352200706201, -32.8334398107813 ], [ -70.692949474865401, -32.833285990394401 ], [ -70.6929581406566, -32.833285477218197 ], [ -70.693061399939694, -32.832918896058402 ], [ -70.693077221657504, -32.832825222760903 ], [ -70.693606857644397, -32.832024977479001 ], [ -70.693061474001397, -32.829977559199698 ], [ -70.692886571444902, -32.8287843131789 ], [ -70.691936137836905, -32.8287815766964 ], [ -70.691809092133298, -32.828246937541202 ], [ -70.688715649983195, -32.828313174140199 ], [ -70.688549398091496, -32.828178309776803 ], [ -70.687836452534299, -32.828180946869402 ], [ -70.687700805026495, -32.8283069616541 ] ], [ [ -70.688734557048804, -32.837537902815903 ], [ -70.688400905669795, -32.837737167832003 ], [ -70.687827431412998, -32.837744904929501 ], [ -70.687731436708106, -32.837644981494201 ], [ -70.687658166812298, -32.837568711316202 ], [ -70.687676551652999, -32.8374602075178 ], [ -70.687740532909501, -32.837082616841798 ], [ -70.687781827037099, -32.836966616778099 ], [ -70.687877442472896, -32.836962326386399 ], [ -70.688815273867206, -32.836920241175299 ], [ -70.688734557048804, -32.837537902815903 ] ], [ [ -70.686316156057103, -32.845187103869797 ], [ -70.686231518337806, -32.845549003903102 ], [ -70.685991199405095, -32.8455522427424 ], [ -70.686001902855494, -32.845506477785698 ], [ -70.686075838110199, -32.845190342840198 ], [ -70.686316156057103, -32.845187103869797 ] ], [ [ -70.6919787082238, -32.846001527001 ], [ -70.692008458517705, -32.846812831825197 ], [ -70.6919941108317, -32.846813025872301 ], [ -70.691420898659899, -32.846820777007302 ], [ -70.691391424439004, -32.846016870980797 ], [ -70.691391152634694, -32.846009471884599 ], [ -70.6919787082238, -32.846001527001 ] ] ] } },
{ "type": "Feature", "properties": { "id": "monoparte.19", "Name": null, "description": null, "timestamp": null, "begin": null, "end": null, "altitudeMode": null, "tessellate": -1, "extrude": 0, "visibility": -1, "drawOrder": null, "icon": null, "REG": "Valparaíso", "COM": "Rinconada", "LOC": "Rinconada", "ZONA": "E-1", "NOM": "Zona E-1", "UPERM": "Equipamiento de cementerio.", "UPROH": "Todos los no mencionados como permitidos.", "P_DO": "24/05/1984", "N_DOC": "46", "OBS": null }, "geometry": { "type": "Polygon", "coordinates": [ [ [ -70.6919941108317, -32.846813025872301 ], [ -70.692008458517705, -32.846812831825197 ], [ -70.6919787082238, -32.846001527001 ], [ -70.691391152634694, -32.846009471884599 ], [ -70.691391424439004, -32.846016870980797 ], [ -70.691420898659899, -32.846820777007302 ], [ -70.6919941108317, -32.846813025872301 ] ] ] } },
{ "type": "Feature", "properties": { "id": "monoparte.20", "Name": null, "description": null, "timestamp": null, "begin": null, "end": null, "altitudeMode": null, "tessellate": -1, "extrude": 0, "visibility": -1, "drawOrder": null, "icon": null, "REG": "Valparaíso", "COM": "Rinconada", "LOC": "Rinconada", "ZONA": "H5", "NOM": "Zona H5", "UPERM": "Equipamiento deportivo regional y áreas verdes.", "UPROH": "Todos los no mencionados como permitidos.", "P_DO": "24/05/1984", "N_DOC": "46", "OBS": null }, "geometry": { "type": "Polygon", "coordinates": [ [ [ -70.698490560375106, -32.842785472993299 ], [ -70.698474104538903, -32.847151344685699 ], [ -70.701679644407903, -32.847233575484999 ], [ -70.703039775090701, -32.846411225830998 ], [ -70.704271001585695, -32.847043311025402 ], [ -70.704405518749695, -32.847112368251302 ], [ -70.704405928895099, -32.8471085611788 ], [ -70.704409531313999, -32.8470751248718 ], [ -70.704449397000204, -32.847042928853398 ], [ -70.704490072740995, -32.847011916796099 ], [ -70.704519275960294, -32.8469724362213 ], [ -70.704576794739907, -32.846887176591601 ], [ -70.704627531224801, -32.846779526926703 ], [ -70.704678494929098, -32.8467010296852 ], [ -70.704735456743606, -32.846626665243498 ], [ -70.704780729944602, -32.846573821423902 ], [ -70.7048216745426, -32.846523140694401 ], [ -70.704854965404394, -32.846481933131102 ], [ -70.7048932489474, -32.846419044524303 ], [ -70.704911109574098, -32.846384943108099 ], [ -70.704938627251593, -32.846352098098897 ], [ -70.704993710039105, -32.846293360120299 ], [ -70.705047866060596, -32.846235608794899 ], [ -70.705109637682497, -32.8461949428563 ], [ -70.705165461956597, -32.846160121955798 ], [ -70.705229872688406, -32.846115053016497 ], [ -70.705316156844603, -32.846033818454998 ], [ -70.705414121813803, -32.845936153531397 ], [ -70.705478479015795, -32.845882996107399 ], [ -70.705629929380507, -32.8457586435621 ], [ -70.705775084128007, -32.8456388130951 ], [ -70.705887049660504, -32.845547332412202 ], [ -70.705975405148493, -32.845475797901202 ], [ -70.7060444244254, -32.8454175665997 ], [ -70.706129325711203, -32.845328684252301 ], [ -70.706184411515395, -32.845271014470903 ], [ -70.706230979508007, -32.845222262419398 ], [ -70.706274321217407, -32.845178108918603 ], [ -70.706331170945106, -32.845125079614903 ], [ -70.706384783388501, -32.845075069789701 ], [ -70.706471903638402, -32.844993805016003 ], [ -70.706552321519496, -32.844918790644101 ], [ -70.706625491487102, -32.844842958767799 ], [ -70.706676011762895, -32.844784139812703 ], [ -70.706740105452795, -32.844720648745501 ], [ -70.706791613992095, -32.844678019695202 ], [ -70.706842974187893, -32.844635513502098 ], [ -70.706901972653895, -32.844563275852103 ], [ -70.7069843681777, -32.844456941206502 ], [ -70.707022961846903, -32.844407134228099 ], [ -70.707051727160902, -32.844340756456702 ], [ -70.707090979927798, -32.844267011407503 ], [ -70.707155730489404, -32.8441902650519 ], [ -70.707208301152804, -32.844113076990901 ], [ -70.707251675218302, -32.844039757266899 ], [ -70.7072734672645, -32.844002919646101 ], [ -70.707292194888097, -32.843968246898797 ], [ -70.707293688960903, -32.843965480242296 ], [ -70.706801344338004, -32.843708516533297 ], [ -70.706698851732398, -32.843670541628903 ], [ -70.706592325298601, -32.843643358715497 ], [ -70.706354386371004, -32.843617968982002 ], [ -70.705466216226, -32.843515538733698 ], [ -70.7047567766447, -32.8434464603911 ], [ -70.703952725048097, -32.843302273393903 ], [ -70.703207639569101, -32.843405988654702 ], [ -70.698490749890496, -32.842735301548402 ], [ -70.698490560375106, -32.842785472993299 ] ] ] } },
{ "type": "Feature", "properties": { "id": "monoparte.21", "Name": null, "description": null, "timestamp": null, "begin": null, "end": null, "altitudeMode": null, "tessellate": -1, "extrude": 0, "visibility": -1, "drawOrder": null, "icon": null, "REG": "Valparaíso", "COM": "Rinconada", "LOC": "Rinconada", "ZONA": "H4", "NOM": "Zona H4", "UPERM": "Vivienda, equipamiento comunal y talleres inofensivos.", "UPROH": "Cementerios, parques, vertederos de basura o plantas de procesamiento y todos los no mencionados como permitidos.", "P_DO": "24/05/1984", "N_DOC": "46", "OBS": null }, "geometry": { "type": "Polygon", "coordinates": [ [ [ -70.697642065412595, -32.846531427412799 ], [ -70.697632271139199, -32.847442161118003 ], [ -70.697621220478297, -32.848049377906598 ], [ -70.697611052028606, -32.848768497078098 ], [ -70.697518325254194, -32.848771315616901 ], [ -70.697867073884197, -32.850064320103201 ], [ -70.6979049882098, -32.850204893496702 ], [ -70.6979109500178, -32.850204034243902 ], [ -70.698055612266501, -32.8501831705996 ], [ -70.698056329384698, -32.8501830670685 ], [ -70.698455146181303, -32.8514919395273 ], [ -70.698455636292096, -32.8514935481668 ], [ -70.699022872010701, -32.851369432402798 ], [ -70.700532508101304, -32.851030664632603 ], [ -70.701182459024807, -32.8508848073471 ], [ -70.701450820300096, -32.850824788328801 ], [ -70.701454482413098, -32.8508239692041 ], [ -70.701562135262407, -32.850467514792697 ], [ -70.701683685795601, -32.849985624246898 ], [ -70.7017227697485, -32.849853770435701 ], [ -70.701734656086998, -32.849752505465403 ], [ -70.701744806073194, -32.849694217742801 ], [ -70.701757341118906, -32.849665434621201 ], [ -70.7018088045794, -32.849595213802203 ], [ -70.701849290285793, -32.849527503464302 ], [ -70.701879377019097, -32.8494745957818 ], [ -70.701924208054095, -32.849420032747801 ], [ -70.701965997459098, -32.8493748898807 ], [ -70.702017965269803, -32.849316326319602 ], [ -70.7020805491304, -32.849234250210998 ], [ -70.702132010573706, -32.849180846919197 ], [ -70.702224353000403, -32.849097748040201 ], [ -70.702282684436398, -32.849047248204698 ], [ -70.702361429341096, -32.848994700140103 ], [ -70.702482664099705, -32.848914691925998 ], [ -70.702580213599603, -32.848855699917699 ], [ -70.702689207609495, -32.848789786959301 ], [ -70.7027795579681, -32.848751961038303 ], [ -70.702912438302505, -32.848696952252801 ], [ -70.703116197548198, -32.848603484854301 ], [ -70.703308890241203, -32.848510239056502 ], [ -70.703524082377101, -32.848413759043098 ], [ -70.703579540422993, -32.848395507100797 ], [ -70.703663125086806, -32.848367998364097 ], [ -70.703720567528293, -32.848336514701103 ], [ -70.703799991627704, -32.848289504055202 ], [ -70.7038409397435, -32.848265266225901 ], [ -70.703901531343206, -32.848201726852302 ], [ -70.7039570119952, -32.848132743784198 ], [ -70.704014177442602, -32.848034357634397 ], [ -70.704069161202597, -32.847939727804402 ], [ -70.704118201255199, -32.847830019874998 ], [ -70.704149504187399, -32.847754983359501 ], [ -70.704180113341295, -32.847681607655701 ], [ -70.704220694129802, -32.847609283901001 ], [ -70.704282060329504, -32.847514484963298 ], [ -70.704331245856906, -32.847419619250303 ], [ -70.704370176781595, -32.847325784296103 ], [ -70.704383383164895, -32.84729395059 ], [ -70.7043906703273, -32.847250214054696 ], [ -70.704396532942695, -32.847195788734901 ], [ -70.704405518749695, -32.847112368251302 ], [ -70.704271001585695, -32.847043311025402 ], [ -70.703039775090701, -32.846411225830998 ], [ -70.701679644407903, -32.847233575484999 ], [ -70.698474104538903, -32.847151344685699 ], [ -70.698490560375106, -32.842785472993299 ], [ -70.698490749890496, -32.842735301548402 ], [ -70.6976289172988, -32.842612737740403 ], [ -70.697655283369002, -32.843555150132097 ], [ -70.697668690839095, -32.844240723101301 ], [ -70.697654739053405, -32.845653107437002 ], [ -70.697642065412595, -32.846531427412799 ] ] ] } },
{ "type": "Feature", "properties": { "id": "monoparte.22", "Name": null, "description": null, "timestamp": null, "begin": null, "end": null, "altitudeMode": null, "tessellate": -1, "extrude": 0, "visibility": -1, "drawOrder": null, "icon": null, "REG": "Valparaíso", "COM": "Rinconada", "LOC": "Rinconada", "ZONA": "H4", "NOM": "Zona H4", "UPERM": "Vivienda, equipamiento comunal y talleres inofensivos.", "UPROH": "Cementerios, parques, vertederos de basura o plantas de procesamiento y todos los no mencionados como permitidos.", "P_DO": "24/05/1984", "N_DOC": "46", "OBS": null }, "geometry": { "type": "Polygon", "coordinates": [ [ [ -70.6609006703343, -32.839858742891401 ], [ -70.660908453227506, -32.839952625154801 ], [ -70.660911818770302, -32.840001673800501 ], [ -70.660911905728298, -32.84000244197 ], [ -70.660918078801203, -32.840056988328897 ], [ -70.660922139172897, -32.840092865368099 ], [ -70.660929165898906, -32.840144314981202 ], [ -70.660938990968305, -32.840218433771497 ], [ -70.660952411754593, -32.8403607221097 ], [ -70.660965733348704, -32.840588644797798 ], [ -70.660976550103499, -32.840810453353498 ], [ -70.660979403072105, -32.840863410429101 ], [ -70.664995561169604, -32.8408554149728 ], [ -70.671649267284806, -32.840795035849702 ], [ -70.679848289208095, -32.8407029907614 ], [ -70.680697559035906, -32.840704687357501 ], [ -70.680901752478704, -32.8407050937072 ], [ -70.682815362001193, -32.840691842916797 ], [ -70.685361019693403, -32.840661148866701 ], [ -70.685469577979404, -32.839766269032602 ], [ -70.685467936374394, -32.839602159957003 ], [ -70.684698994947198, -32.839615100733603 ], [ -70.681467390898504, -32.839651441171199 ], [ -70.680084386984703, -32.839616133714898 ], [ -70.680097898000795, -32.838720105735703 ], [ -70.679835403975503, -32.838719029564402 ], [ -70.671621020961496, -32.838811242243104 ], [ -70.664980175146695, -32.838871500081702 ], [ -70.661003681205003, -32.838879414177498 ], [ -70.660736509637303, -32.838879941939702 ], [ -70.66076795347, -32.839038257852103 ], [ -70.660806363518006, -32.8392342223501 ], [ -70.6608384548354, -32.839421836999698 ], [ -70.660865176046897, -32.8395898578082 ], [ -70.660884555924298, -32.839730883771203 ], [ -70.660888883440407, -32.839765216816097 ], [ -70.6609006703343, -32.839858742891401 ] ] ] } },
{ "type": "Feature", "properties": { "id": "monoparte.23", "Name": null, "description": null, "timestamp": null, "begin": null, "end": null, "altitudeMode": null, "tessellate": -1, "extrude": 0, "visibility": -1, "drawOrder": null, "icon": null, "REG": "Valparaíso", "COM": "Rinconada", "LOC": "Rinconada", "ZONA": "E-2", "NOM": "Zona E-2", "UPERM": "Zona de uso exclusivo destinado a áreas verdes.", "UPROH": "Todos los no mencionados como permitidos.", "P_DO": "24/05/1984", "N_DOC": "46", "OBS": null }, "geometry": { "type": "Polygon", "coordinates": [ [ [ -70.685991199405095, -32.8455522427424 ], [ -70.686231518337806, -32.845549003903102 ], [ -70.686316156057103, -32.845187103869797 ], [ -70.686075838110199, -32.845190342840198 ], [ -70.686001902855494, -32.845506477785698 ], [ -70.685991199405095, -32.8455522427424 ] ] ] } },
{ "type": "Feature", "properties": { "id": "monoparte.24", "Name": null, "description": null, "timestamp": null, "begin": null, "end": null, "altitudeMode": null, "tessellate": -1, "extrude": 0, "visibility": -1, "drawOrder": null, "icon": null, "REG": "Valparaíso", "COM": "Rinconada", "LOC": "Rinconada", "ZONA": "E-2", "NOM": "Zona E-2", "UPERM": "Zona de uso exclusivo destinado a áreas verdes.", "UPROH": "Todos los no mencionados como permitidos.", "P_DO": "24/05/1984", "N_DOC": "46", "OBS": null }, "geometry": { "type": "Polygon", "coordinates": [ [ [ -70.687827431412998, -32.837744904929501 ], [ -70.688400905669795, -32.837737167832003 ], [ -70.688734557048804, -32.837537902815903 ], [ -70.688815273867206, -32.836920241175299 ], [ -70.687877442472896, -32.836962326386399 ], [ -70.687781827037099, -32.836966616778099 ], [ -70.687740532909501, -32.837082616841798 ], [ -70.687676551652999, -32.8374602075178 ], [ -70.687658166812298, -32.837568711316202 ], [ -70.687731436708106, -32.837644981494201 ], [ -70.687827431412998, -32.837744904929501 ] ] ] } },
{ "type": "Feature", "properties": { "id": "monoparte.25", "Name": null, "description": null, "timestamp": null, "begin": null, "end": null, "altitudeMode": null, "tessellate": -1, "extrude": 0, "visibility": -1, "drawOrder": null, "icon": null, "REG": "Valparaíso", "COM": "Rinconada", "LOC": "Rinconada", "ZONA": "H6", "NOM": "Zona H6", "UPERM": "Equipamiento de Infraestructura y obras complementarias para la operación de Plantas de Tratamiento de Aguas Servidas y Procesos Biológicos.", "UPROH": "Todos los no mencionados como permitidos.", "P_DO": "24/05/1984", "N_DOC": "46", "OBS": null }, "geometry": { "type": "Polygon", "coordinates": [ [ [ -70.708710420157203, -32.833177190297498 ], [ -70.710273225728301, -32.8340087773229 ], [ -70.710310994888502, -32.8333321473892 ], [ -70.709950235600701, -32.833355830897702 ], [ -70.709917174670906, -32.8333583498246 ], [ -70.708999558967804, -32.833041580286803 ], [ -70.708710420157203, -32.833177190297498 ] ] ] } },
{ "type": "Feature", "properties": { "id": "monoparte.26", "Name": null, "description": null, "timestamp": null, "begin": null, "end": null, "altitudeMode": null, "tessellate": -1, "extrude": 0, "visibility": -1, "drawOrder": null, "icon": null, "REG": "Valparaíso", "COM": "Rinconada", "LOC": "Rinconada", "ZONA": "H6", "NOM": "Zona H6", "UPERM": "Equipamiento de Infraestructura y obras complementarias para la operación de Plantas de Tratamiento de Aguas Servidas y Procesos Biológicos.", "UPROH": "Todos los no mencionados como permitidos.", "P_DO": "24/05/1984", "N_DOC": "46", "OBS": null }, "geometry": { "type": "Polygon", "coordinates": [ [ [ -70.706550369872701, -32.832721961121599 ], [ -70.706858640407305, -32.8335382210266 ], [ -70.708293701518201, -32.833136467600603 ], [ -70.707974312506593, -32.832323321390099 ], [ -70.706613035638895, -32.832704417790801 ], [ -70.706550369872701, -32.832721961121599 ] ] ] } }
]
}
