{
"type": "FeatureCollection",
"name": "IPT_05_PRC_Nogales",
"crs": { "type": "name", "properties": { "name": "urn:ogc:def:crs:OGC:1.3:CRS84" } },
"features": [
{ "type": "Feature", "properties": { "id": "monoparte.1", "Name": null, "description": null, "timestamp": null, "begin": null, "end": null, "altitudeMode": null, "tessellate": -1, "extrude": 0, "visibility": -1, "drawOrder": null, "icon": null, "REG": "Valparaíso", "COM": "Nogales", "LOC": "Nogales", "ZONA": "Zona ZH2", "NOM": "Zona ZH2", "UPERM": "Vivienda; comercio; equipamiento; áreas verdes; talleres artesanales, industrias y bodegas, inofensivas, vialidad.", "UPROH": "Todos los no mencionados anteriormente", "P_DO": "09/08/1984", "N_DOC": "99", "T_DO": "Decreto", "OBS": null }, "geometry": { "type": "Polygon", "coordinates": [ [ [ -71.213726710176402, -32.736483832707002 ], [ -71.214948427766402, -32.738623958645803 ], [ -71.218190421101497, -32.737526308101003 ], [ -71.216867924594098, -32.734524164599598 ], [ -71.213443154126395, -32.735851206853503 ], [ -71.213726710176402, -32.736483832707002 ] ] ] } },
{ "type": "Feature", "properties": { "id": "monoparte.2", "Name": null, "description": null, "timestamp": null, "begin": null, "end": null, "altitudeMode": null, "tessellate": -1, "extrude": 0, "visibility": -1, "drawOrder": null, "icon": null, "REG": "Valparaíso", "COM": "Nogales", "LOC": "Nogales", "ZONA": "Zona ZH2", "NOM": "Zona ZH2", "UPERM": "Vivienda; comercio; equipamiento; áreas verdes; talleres artesanales, industrias y bodegas, inofensivas, vialidad.", "UPROH": "Todos los no mencionados anteriormente", "P_DO": "09/08/1984", "N_DOC": "99", "T_DO": "Decreto", "OBS": null }, "geometry": { "type": "Polygon", "coordinates": [ [ [ -71.206151385113898, -32.733305575781401 ], [ -71.205415607747696, -32.734010942063499 ], [ -71.2026041116046, -32.732643104969 ], [ -71.201068082882401, -32.737680719030799 ], [ -71.202437739768797, -32.738272240680999 ], [ -71.202167086357406, -32.738975621904601 ], [ -71.201117266482896, -32.7408856978712 ], [ -71.201510930123604, -32.741075464004503 ], [ -71.202045890411299, -32.741289889592302 ], [ -71.204103391938304, -32.737710489134102 ], [ -71.207319782333499, -32.738775289748702 ], [ -71.207482690609297, -32.738798665486797 ], [ -71.207417424898296, -32.738212858221601 ], [ -71.207502191448299, -32.738189630599301 ], [ -71.207529266657801, -32.737642445340299 ], [ -71.207288341153898, -32.737145628706799 ], [ -71.206980046765807, -32.736664314177297 ], [ -71.206650768684099, -32.736362318942597 ], [ -71.206148126454593, -32.736242326004799 ], [ -71.205764708127901, -32.7361488633588 ], [ -71.205575115479704, -32.736016199124101 ], [ -71.205424326503504, -32.735739689596599 ], [ -71.205409690101504, -32.735489416422503 ], [ -71.205522180574206, -32.734899047533602 ], [ -71.205602074422899, -32.734704374495898 ], [ -71.205675442502098, -32.7345885539468 ], [ -71.205808772761401, -32.734500310734198 ], [ -71.206088306925693, -32.7345025479339 ], [ -71.206733440002694, -32.734562767923101 ], [ -71.206972764899703, -32.734651607372101 ], [ -71.207321504286597, -32.734775475431597 ], [ -71.207203386702403, -32.734341754142001 ], [ -71.207039721100799, -32.734115579883898 ], [ -71.206648903348096, -32.733836142716001 ], [ -71.206283484065906, -32.733670784308899 ], [ -71.208501392895798, -32.730308740565199 ], [ -71.208479802731304, -32.730296455347798 ], [ -71.204775517862799, -32.728894289270301 ], [ -71.204400749908402, -32.729724056806901 ], [ -71.2039915938429, -32.730303896168898 ], [ -71.202420106811303, -32.731653083056301 ], [ -71.206151385113898, -32.733305575781401 ] ] ] } },
{ "type": "Feature", "properties": { "id": "monoparte.3", "Name": null, "description": null, "timestamp": null, "begin": null, "end": null, "altitudeMode": null, "tessellate": -1, "extrude": 0, "visibility": -1, "drawOrder": null, "icon": null, "REG": "Valparaíso", "COM": "Nogales", "LOC": "Nogales", "ZONA": "Zona ZI", "NOM": "Zona ZI", "UPERM": "Talleres artesanales, industrias, y bodegas,, inofensivas y molestas;áreas verdes; vialidad.", "UPROH": "Todos los no mencionados anteriormente", "P_DO": "09/08/1984", "N_DOC": "99", "T_DO": "Decreto", "OBS": null }, "geometry": { "type": "Polygon", "coordinates": [ [ [ -71.207370936300606, -32.734799071244701 ], [ -71.207846388247106, -32.735048040883498 ], [ -71.208496115970902, -32.735294279694699 ], [ -71.209196994085701, -32.735553929191902 ], [ -71.209708101743502, -32.735673760592299 ], [ -71.210250598964095, -32.735692824162598 ], [ -71.210789561753998, -32.7355687877577 ], [ -71.211742601836804, -32.7350652237864 ], [ -71.212892077367499, -32.734286179009302 ], [ -71.213281445538001, -32.733893325667999 ], [ -71.213245266357603, -32.733910683091104 ], [ -71.212738667308201, -32.7326025560874 ], [ -71.212580650732704, -32.732605346392297 ], [ -71.212423105705398, -32.732627216468899 ], [ -71.212220883856602, -32.732668962513898 ], [ -71.211887934709196, -32.732903897114198 ], [ -71.211202754940899, -32.733507719428999 ], [ -71.210761168931896, -32.733916359332497 ], [ -71.210316281982799, -32.734191440562803 ], [ -71.209731707505696, -32.734297191742598 ], [ -71.209123144185696, -32.734346098232699 ], [ -71.208584656705995, -32.734489207286103 ], [ -71.208229585887196, -32.734743610738903 ], [ -71.207982680302706, -32.734805225882603 ], [ -71.207711786741001, -32.7348099991559 ], [ -71.207370936300606, -32.734799071244701 ] ] ] } },
{ "type": "Feature", "properties": { "id": "monoparte.4", "Name": null, "description": null, "timestamp": null, "begin": null, "end": null, "altitudeMode": null, "tessellate": -1, "extrude": 0, "visibility": -1, "drawOrder": null, "icon": null, "REG": "Valparaíso", "COM": "Nogales", "LOC": "Nogales", "ZONA": "Zona ZRP", "NOM": "Zona ZRP", "UPERM": "Vivienda; equipamiento turístico, deportivo, recreacional, y cultural áreas verdes; talleres artesanales bodegas, inofensivas; vialidad.", "UPROH": "Todos los no mencionados anteriormente", "P_DO": "09/08/1984", "N_DOC": "99", "T_DO": "Decreto", "OBS": null }, "geometry": { "type": "Polygon", "coordinates": [ [ [ -71.207321504286597, -32.734775475431597 ], [ -71.206972764899703, -32.734651607372101 ], [ -71.206733440002694, -32.734562767923101 ], [ -71.206088306925693, -32.7345025479339 ], [ -71.205808772761401, -32.734500310734198 ], [ -71.205675442502098, -32.7345885539468 ], [ -71.205602074422899, -32.734704374495898 ], [ -71.205522180574206, -32.734899047533602 ], [ -71.205409690101504, -32.735489416422503 ], [ -71.205424326503504, -32.735739689596599 ], [ -71.205575115479704, -32.736016199124101 ], [ -71.205764708127901, -32.7361488633588 ], [ -71.206148126454593, -32.736242326004799 ], [ -71.206650768684099, -32.736362318942597 ], [ -71.206980046765807, -32.736664314177297 ], [ -71.207288341153898, -32.737145628706799 ], [ -71.207529266657801, -32.737642445340299 ], [ -71.207502191448299, -32.738189630599301 ], [ -71.213726710176402, -32.736483832707002 ], [ -71.213443154126395, -32.735851206853503 ], [ -71.216867924594098, -32.734524164599598 ], [ -71.216012805860004, -32.732582871145098 ], [ -71.213281445538001, -32.733893325667999 ], [ -71.212892077367499, -32.734286179009302 ], [ -71.211742601836804, -32.7350652237864 ], [ -71.210789561753998, -32.7355687877577 ], [ -71.210250598964095, -32.735692824162598 ], [ -71.209708101743502, -32.735673760592299 ], [ -71.209196994085701, -32.735553929191902 ], [ -71.208496115970902, -32.735294279694699 ], [ -71.207846388247106, -32.735048040883498 ], [ -71.207370936300606, -32.734799071244701 ], [ -71.2073275510282, -32.734797680248398 ], [ -71.207321504286597, -32.734775475431597 ] ] ] } },
{ "type": "Feature", "properties": { "id": "monoparte.5", "Name": null, "description": null, "timestamp": null, "begin": null, "end": null, "altitudeMode": null, "tessellate": -1, "extrude": 0, "visibility": -1, "drawOrder": null, "icon": null, "REG": "Valparaíso", "COM": "Nogales", "LOC": "Nogales", "ZONA": "Zona ZCC", "NOM": "Zona ZCC", "UPERM": "Vivienda; comercio; oficinas; equipamiento; áreas verdes; talleres artesanales, industrias y bodegas, inofensivas, vialidad.", "UPROH": "Todos los no mencionados anteriormente", "P_DO": "09/08/1984", "N_DOC": "99", "T_DO": "Decreto", "OBS": null }, "geometry": { "type": "Polygon", "coordinates": [ [ [ -71.199589046900897, -32.737954352499102 ], [ -71.202167086357406, -32.738975621904601 ], [ -71.202437739768797, -32.738272240680999 ], [ -71.201068082882401, -32.737680719030799 ], [ -71.2026041116046, -32.732643104969 ], [ -71.205415607747696, -32.734010942063499 ], [ -71.206151385113898, -32.733305575781401 ], [ -71.202420106811303, -32.731653083056301 ], [ -71.202374361621395, -32.7316923568672 ], [ -71.201852020635499, -32.732262249041703 ], [ -71.201219443769304, -32.732941446482002 ], [ -71.200928107945202, -32.733722017372401 ], [ -71.200049931353604, -32.736469423578797 ], [ -71.199589046900897, -32.737954352499102 ] ] ] } },
{ "type": "Feature", "properties": { "id": "monoparte.6", "Name": null, "description": null, "timestamp": null, "begin": null, "end": null, "altitudeMode": null, "tessellate": -1, "extrude": 0, "visibility": -1, "drawOrder": null, "icon": null, "REG": "Valparaíso", "COM": "Nogales", "LOC": "Nogales", "ZONA": "Zona ZH1", "NOM": "Zona ZH1", "UPERM": "Vivienda; comercio; equipamiento; áreas verdes; talleres artesanáles y bodegas, inofensivas; vialidad.", "UPROH": "Todos los no mencionados anteriormente", "P_DO": "09/08/1984", "N_DOC": "99", "T_DO": "Decreto", "OBS": null }, "geometry": { "type": "Polygon", "coordinates": [ [ [ -71.201510930123604, -32.741075464004503 ], [ -71.201117266482896, -32.7408856978712 ], [ -71.202167086357406, -32.738975621904601 ], [ -71.199589046900897, -32.737954352499102 ], [ -71.199055853011899, -32.739672199135299 ], [ -71.198291235294704, -32.743598674533096 ], [ -71.197191594432297, -32.748831397221302 ], [ -71.199690772402604, -32.744254122237301 ], [ -71.201475619093799, -32.741061310333201 ], [ -71.201510930123604, -32.741075464004503 ] ] ] } },
{ "type": "Feature", "properties": { "id": "monoparte.7", "Name": null, "description": null, "timestamp": null, "begin": null, "end": null, "altitudeMode": null, "tessellate": -1, "extrude": 0, "visibility": -1, "drawOrder": null, "icon": null, "REG": "Valparaíso", "COM": "Nogales", "LOC": "El Melón", "ZONA": "Zona ZH2", "NOM": "Zona ZH2", "UPERM": "Vivienda; comercio; equipamiento; áreas verdes; talleres artesanales, industrias y bodegas, inofensivas, vialidad.", "UPROH": "Todos los no mencionados anteriormente", "P_DO": "09/08/1984", "N_DOC": "99", "T_DO": "Decreto", "OBS": null }, "geometry": { "type": "Polygon", "coordinates": [ [ [ -71.2172039501082, -32.683475527767897 ], [ -71.217197258990595, -32.683547226439003 ], [ -71.217160518512301, -32.683539925766397 ], [ -71.217093645996698, -32.684769692240899 ], [ -71.217094900955203, -32.685676356619602 ], [ -71.217168502641996, -32.685800320657897 ], [ -71.217349190680494, -32.68597607705 ], [ -71.217387097546194, -32.686082777707803 ], [ -71.217336677848806, -32.686325849338097 ], [ -71.217134887817096, -32.686723110581298 ], [ -71.216800925678498, -32.6874806099054 ], [ -71.215291811920807, -32.688612645846199 ], [ -71.216365516831203, -32.688038044556997 ], [ -71.217634120072105, -32.687309354714799 ], [ -71.218532670295104, -32.686677867897103 ], [ -71.219028346526002, -32.6869951309626 ], [ -71.218355343951899, -32.687584827883398 ], [ -71.2179432715361, -32.688035916072501 ], [ -71.217377097176097, -32.688074561417601 ], [ -71.216675929570499, -32.688473493242398 ], [ -71.216076817084698, -32.688892091313697 ], [ -71.215756738392301, -32.689298598582901 ], [ -71.215528315015305, -32.689646221369998 ], [ -71.214768030857499, -32.689366172744599 ], [ -71.214439482829704, -32.689772826408003 ], [ -71.214077265051699, -32.6901872313844 ], [ -71.213808646445699, -32.690621457409499 ], [ -71.211497764761404, -32.690067157179598 ], [ -71.211403449115906, -32.690288102424802 ], [ -71.211265734302003, -32.690882263807097 ], [ -71.211235072273396, -32.691240706614799 ], [ -71.2112814984133, -32.691521438079498 ], [ -71.211347925068395, -32.691697786884802 ], [ -71.211513046814204, -32.691985968557297 ], [ -71.211879601963005, -32.692432845873299 ], [ -71.212408101848496, -32.692810056509501 ], [ -71.212865273850198, -32.693269648671802 ], [ -71.213081784652104, -32.693581735862502 ], [ -71.213119751823001, -32.693748086225497 ], [ -71.213124142345293, -32.694611747003698 ], [ -71.213019974580007, -32.695650070771201 ], [ -71.212877812117, -32.696521089510597 ], [ -71.212750276382394, -32.697070215953097 ], [ -71.212616086130396, -32.697578418816398 ], [ -71.212485062601303, -32.697986354107698 ], [ -71.212373628271393, -32.6982871786687 ], [ -71.2135810881243, -32.698554258124098 ], [ -71.213598875354194, -32.698246148349398 ], [ -71.213886384331502, -32.697890327822499 ], [ -71.214068480603999, -32.697722477043101 ], [ -71.214099677005606, -32.697614555228299 ], [ -71.214147797025106, -32.697506335431697 ], [ -71.214172476102206, -32.697477267470802 ], [ -71.214281418838397, -32.697432394358401 ], [ -71.2146179483222, -32.697347712459297 ], [ -71.214698036800101, -32.697277102719397 ], [ -71.214685458389397, -32.697224833004697 ], [ -71.214659593433495, -32.697091673061699 ], [ -71.214714591493802, -32.697033437317103 ], [ -71.214842100229504, -32.696940516181499 ], [ -71.214987238355306, -32.696875915579199 ], [ -71.215194312021495, -32.696805449101603 ], [ -71.215254951079899, -32.696747113462401 ], [ -71.215281034697895, -32.696660755353697 ], [ -71.2152454195421, -32.696589804360102 ], [ -71.215076992566495, -32.696397126784902 ], [ -71.215080983920302, -32.696330248302402 ], [ -71.215134903056807, -32.696000025459199 ], [ -71.215119943670302, -32.6958514027584 ], [ -71.215060821277305, -32.695742690251897 ], [ -71.2149664392159, -32.695577337293798 ], [ -71.2149129575849, -32.695468525052398 ], [ -71.214902720881298, -32.695282597117597 ], [ -71.214942899188202, -32.695081461591101 ], [ -71.2149922544844, -32.695023325429602 ], [ -71.215182990111998, -32.694977007492902 ], [ -71.215266545132806, -32.694932583044803 ], [ -71.215310141913506, -32.694869776188398 ], [ -71.215324471823294, -32.6947645382606 ], [ -71.215320464115393, -32.694602360100397 ], [ -71.215286954042199, -32.694388211285897 ], [ -71.215252047102595, -32.694345879856797 ], [ -71.215220989984601, -32.694230945090503 ], [ -71.215203579342102, -32.693983107345197 ], [ -71.215215434153606, -32.693777700717497 ], [ -71.215323302914896, -32.693575369104003 ], [ -71.215576540089202, -32.693317976817397 ], [ -71.215613905219996, -32.693231420182798 ], [ -71.215645864746705, -32.693154502800901 ], [ -71.215633151553902, -32.692868406231398 ], [ -71.215622087745103, -32.692649088490597 ], [ -71.2155751915666, -32.692578335960398 ], [ -71.2155040823734, -32.692441204160602 ], [ -71.215637048807693, -32.691884344565302 ], [ -71.215733279585706, -32.691667902214803 ], [ -71.215896256822106, -32.691412104360303 ], [ -71.215905888746903, -32.691345126143801 ], [ -71.215863891175999, -32.690787540944399 ], [ -71.215882328693695, -32.690620193755599 ], [ -71.216002417928394, -32.690455822415103 ], [ -71.216436461061903, -32.689979537056701 ], [ -71.216451968331597, -32.689921998685598 ], [ -71.216443733181094, -32.689817159484598 ], [ -71.216402578465704, -32.689522021013801 ], [ -71.216449689642701, -32.689373255291002 ], [ -71.216482354750298, -32.689324958268003 ], [ -71.216611148141695, -32.689284504785697 ], [ -71.2166672006136, -32.6892691978287 ], [ -71.216712208940194, -32.689263629833903 ], [ -71.2167742562049, -32.689262532914498 ], [ -71.216906823262704, -32.689374718596703 ], [ -71.217048548735505, -32.689400844919803 ], [ -71.217390154582404, -32.689294591105998 ], [ -71.217591803847796, -32.689233760746802 ], [ -71.217766429556306, -32.689221128536097 ], [ -71.218004873314896, -32.689278947527598 ], [ -71.218221226233297, -32.689356244334597 ], [ -71.218582018903007, -32.689569374339698 ], [ -71.218752657522103, -32.689623620145497 ], [ -71.218826458142502, -32.689641401700001 ], [ -71.219069126996899, -32.689641879634699 ], [ -71.219622272227198, -32.689646405207597 ], [ -71.219887386080302, -32.689641711917901 ], [ -71.220017830523901, -32.689668034564299 ], [ -71.220170130632496, -32.6896653379941 ], [ -71.220204092979301, -32.689669508961003 ], [ -71.220591205505002, -32.689805814424403 ], [ -71.220698733797803, -32.689818226137398 ], [ -71.220822828755402, -32.689816028291503 ], [ -71.220974420119902, -32.689784711198399 ], [ -71.221141632663205, -32.6897006253459 ], [ -71.221274409848405, -32.689593288629503 ], [ -71.221378629109097, -32.689472141665 ], [ -71.221496579317602, -32.689221906047898 ], [ -71.221534646226999, -32.689163967442902 ], [ -71.221595511413895, -32.689115169532599 ], [ -71.221645804650805, -32.689095190093902 ], [ -71.221741696635306, -32.689093491056099 ], [ -71.221797749040803, -32.689078181828002 ], [ -71.221848160410005, -32.689062972531502 ], [ -71.221886580549096, -32.689019343610497 ], [ -71.221950487087199, -32.688865506120102 ], [ -71.222207120097096, -32.688746429919298 ], [ -71.222250353408995, -32.688669311191802 ], [ -71.221371035263999, -32.688254455476297 ], [ -71.220802045414601, -32.6879669451193 ], [ -71.221248489847596, -32.687195513615201 ], [ -71.2214457283808, -32.686729132745697 ], [ -71.221766996724, -32.686884496642797 ], [ -71.221952223362905, -32.686673631479103 ], [ -71.2223502498545, -32.686899462836699 ], [ -71.222416818833494, -32.6867336913351 ], [ -71.222448415787198, -32.686642462736103 ], [ -71.222445105741002, -32.686508904671001 ], [ -71.222355651638196, -32.686314836839799 ], [ -71.222352223555404, -32.686176508538097 ], [ -71.222371121314197, -32.6860282408282 ], [ -71.222362407077398, -32.6859043231564 ], [ -71.222354756717905, -32.685823333868697 ], [ -71.222240732055099, -32.685548577389198 ], [ -71.222220973968604, -32.685434399139901 ], [ -71.222096969892903, -32.685212311223701 ], [ -71.222089792637206, -32.685150401888798 ], [ -71.222151922505702, -32.684925015524797 ], [ -71.222316360227396, -32.684729312287701 ], [ -71.222475439125901, -32.684545155761398 ], [ -71.222847907085395, -32.684319040836101 ], [ -71.2229927825272, -32.684244892432197 ], [ -71.223344814715702, -32.684105034635202 ], [ -71.223540216943405, -32.684020445132603 ], [ -71.223707416444995, -32.683936356353598 ], [ -71.223790602086495, -32.683877616121102 ], [ -71.223866137300803, -32.683737888452399 ], [ -71.223938515517702, -32.683698428147899 ], [ -71.224066468078504, -32.683624578663597 ], [ -71.224177973758401, -32.683570109125 ], [ -71.224237650814501, -32.683473609748098 ], [ -71.224236231254807, -32.683416370747203 ], [ -71.224240334043401, -32.683354261480702 ], [ -71.224185865844007, -32.682978238066703 ], [ -71.224187366246795, -32.682811190315299 ], [ -71.224310349933901, -32.682537003192003 ], [ -71.225008016351197, -32.681783326891299 ], [ -71.218234189437695, -32.680412750682599 ], [ -71.218429292082007, -32.680886503185803 ], [ -71.218328285353806, -32.681365492689302 ], [ -71.218305688460703, -32.681592564312901 ], [ -71.218242263949804, -32.681880008571902 ], [ -71.217798711946998, -32.682198035829003 ], [ -71.217565191976504, -32.682452697210699 ], [ -71.217375153675704, -32.682754309895401 ], [ -71.217489433127497, -32.682811939612399 ], [ -71.217611760886101, -32.6828527246603 ], [ -71.217662877296206, -32.682866136785002 ], [ -71.217864336272299, -32.682798151184201 ], [ -71.217940479543898, -32.682796804498402 ], [ -71.217991242077403, -32.682795906675999 ], [ -71.218043067355197, -32.682837938249698 ], [ -71.218018924172, -32.682888471976597 ], [ -71.217935204545299, -32.682925742439402 ], [ -71.217833679325196, -32.6829275380247 ], [ -71.217749250837599, -32.682936189659898 ], [ -71.217548853977704, -32.683047104521101 ], [ -71.217431469093796, -32.683092128456501 ], [ -71.217246223523105, -32.683131193664302 ], [ -71.217196520997604, -32.683175020670198 ], [ -71.217164447963498, -32.683247169011302 ], [ -71.217149472678798, -32.683326171736198 ], [ -71.2172039501082, -32.683475527767897 ] ] ] } },
{ "type": "Feature", "properties": { "id": "monoparte.8", "Name": null, "description": null, "timestamp": null, "begin": null, "end": null, "altitudeMode": null, "tessellate": -1, "extrude": 0, "visibility": -1, "drawOrder": null, "icon": null, "REG": "Valparaíso", "COM": "Nogales", "LOC": "El Melón", "ZONA": "Zona ZH1", "NOM": "Zona ZH1", "UPERM": "Vivienda; comercio; equipamiento; áreas verdes; talleres artesanáles y bodegas, inofensivas; vialidad.", "UPROH": "Todos los no mencionados anteriormente", "P_DO": "09/08/1984", "N_DOC": "99", "T_DO": "Decreto", "OBS": null }, "geometry": { "type": "Polygon", "coordinates": [ [ [ -71.211584477066594, -32.698087072382698 ], [ -71.212116029069605, -32.696052796676099 ], [ -71.212444042665197, -32.694765717484401 ], [ -71.212537893034394, -32.694280893298703 ], [ -71.212511147119898, -32.694054693384601 ], [ -71.212426667827899, -32.693775827160202 ], [ -71.212315454878805, -32.693557083020004 ], [ -71.2122283389741, -32.693457214517601 ], [ -71.212069386932498, -32.693304928289699 ], [ -71.211323676760699, -32.692815825598203 ], [ -71.210862842701303, -32.692436224072999 ], [ -71.2107243133173, -32.692253749754698 ], [ -71.210615600679304, -32.691850043816501 ], [ -71.210540810966506, -32.690819408463298 ], [ -71.210648035614597, -32.690304524239401 ], [ -71.210710018979597, -32.689957459184598 ], [ -71.210767831970301, -32.689727381586202 ], [ -71.211211210820196, -32.689399837282501 ], [ -71.211878833228397, -32.689012263889801 ], [ -71.212396184874095, -32.688824185327 ], [ -71.212787942946605, -32.688692007072703 ], [ -71.212865649936603, -32.688696600258197 ], [ -71.213098180215994, -32.688686531920403 ], [ -71.213841596454998, -32.6885123526895 ], [ -71.214128766191195, -32.688429736476401 ], [ -71.214744821289997, -32.6882399054915 ], [ -71.215071643268104, -32.688049215792603 ], [ -71.215583531121794, -32.687640514381101 ], [ -71.215900940481305, -32.687354548740402 ], [ -71.2160582451382, -32.687154923083597 ], [ -71.216201152114806, -32.686943620893601 ], [ -71.216308511348402, -32.6867210169397 ], [ -71.216371355157506, -32.686409724050598 ], [ -71.216386612722005, -32.686170852583302 ], [ -71.216352426602896, -32.685929275777802 ], [ -71.216294356395494, -32.6852920424583 ], [ -71.216235844198096, -32.684636922429803 ], [ -71.216245208305907, -32.684159553214201 ], [ -71.216298790003094, -32.683758948281501 ], [ -71.216348710526603, -32.683495604287501 ], [ -71.216393611885394, -32.683387528944301 ], [ -71.216006422199797, -32.683310586307897 ], [ -71.213369361726095, -32.682777355652597 ], [ -71.211515098733202, -32.682409218064002 ], [ -71.210825747274001, -32.682256737342101 ], [ -71.210405217585105, -32.6844258861871 ], [ -71.210068393342993, -32.686214180323702 ], [ -71.209572672621505, -32.6887683236097 ], [ -71.209159142688193, -32.690880080174999 ], [ -71.208679172801197, -32.693388129705497 ], [ -71.208473661215606, -32.6943237293574 ], [ -71.208452331053294, -32.6944887405269 ], [ -71.208516673316694, -32.694695190894699 ], [ -71.208722220287498, -32.695135369647502 ], [ -71.208910493419197, -32.695561536233697 ], [ -71.209089883001596, -32.695970678791099 ], [ -71.209108393354995, -32.696034775464803 ], [ -71.209187372339798, -32.696491499346699 ], [ -71.2092882113418, -32.6968046771335 ], [ -71.209636737302802, -32.697206543811397 ], [ -71.209899764744804, -32.697574126746701 ], [ -71.2101257713054, -32.697813517013003 ], [ -71.211111410908799, -32.697960772304 ], [ -71.211584477066594, -32.698087072382698 ] ] ] } },
{ "type": "Feature", "properties": { "id": "monoparte.9", "Name": null, "description": null, "timestamp": null, "begin": null, "end": null, "altitudeMode": null, "tessellate": -1, "extrude": 0, "visibility": -1, "drawOrder": null, "icon": null, "REG": "Valparaíso", "COM": "Nogales", "LOC": "El Melón", "ZONA": "Zona ZEC", "NOM": "Zona ZEC", "UPERM": "Cementerio, áreas verdes y vialidad", "UPROH": "Todos los no mencionados anteriormente", "P_DO": "09/08/1984", "N_DOC": "99", "T_DO": "Decreto", "OBS": null }, "geometry": { "type": "Polygon", "coordinates": [ [ [ -71.221371035263999, -32.688254455476297 ], [ -71.222347723795806, -32.686905754361497 ], [ -71.2223502498545, -32.686899462836699 ], [ -71.221952223362905, -32.686673631479103 ], [ -71.221766996724, -32.686884496642797 ], [ -71.2214457283808, -32.686729132745697 ], [ -71.221248489847596, -32.687195513615201 ], [ -71.220802045414601, -32.6879669451193 ], [ -71.221371035263999, -32.688254455476297 ] ] ] } },
{ "type": "Feature", "properties": { "id": "monoparte.10", "Name": null, "description": null, "timestamp": null, "begin": null, "end": null, "altitudeMode": null, "tessellate": -1, "extrude": 0, "visibility": -1, "drawOrder": null, "icon": null, "REG": "Valparaíso", "COM": "Nogales", "LOC": "El Melón", "ZONA": "Zona ZCC", "NOM": "Zona ZCC", "UPERM": "Vivienda; comercio; oficinas; equipamiento; áreas verdes; talleres artesanales, industrias y bodegas, inofensivas, vialidad.", "UPROH": "Todos los no mencionados anteriormente", "P_DO": "09/08/1984", "N_DOC": "99", "T_DO": "Decreto", "OBS": null }, "geometry": { "type": "Polygon", "coordinates": [ [ [ -71.215291811920807, -32.688612645846199 ], [ -71.215015477344394, -32.688760525942897 ], [ -71.214041948719, -32.689099831539998 ], [ -71.212671270835699, -32.6894676131596 ], [ -71.211791150551605, -32.689819569365397 ], [ -71.211497764761404, -32.690067157179598 ], [ -71.213808646445699, -32.690621457409499 ], [ -71.214077265051699, -32.6901872313844 ], [ -71.214439482829704, -32.689772826408003 ], [ -71.214768030857499, -32.689366172744599 ], [ -71.215528315015305, -32.689646221369998 ], [ -71.215756738392301, -32.689298598582901 ], [ -71.216076817084698, -32.688892091313697 ], [ -71.216675929570499, -32.688473493242398 ], [ -71.217377097176097, -32.688074561417601 ], [ -71.2179432715361, -32.688035916072501 ], [ -71.218355343951899, -32.687584827883398 ], [ -71.219028346526002, -32.6869951309626 ], [ -71.218532670295104, -32.686677867897103 ], [ -71.217634120072105, -32.687309354714799 ], [ -71.216365516831203, -32.688038044556997 ], [ -71.215291811920807, -32.688612645846199 ] ] ] } },
{ "type": "Feature", "properties": { "id": "monoparte.11", "Name": null, "description": null, "timestamp": null, "begin": null, "end": null, "altitudeMode": null, "tessellate": -1, "extrude": 0, "visibility": -1, "drawOrder": null, "icon": null, "REG": "Valparaíso", "COM": "Nogales", "LOC": "El Melón", "ZONA": "Área de Restricción", "NOM": "Área de Restricción", "UPERM": "No especificados", "UPROH": "No especificados", "P_DO": "09/08/1984", "N_DOC": "99", "T_DO": "Decreto", "OBS": null }, "geometry": { "type": "Polygon", "coordinates": [ [ [ -71.211584477066594, -32.698087072382698 ], [ -71.212373628271393, -32.6982871786687 ], [ -71.212485062601303, -32.697986354107698 ], [ -71.212616086130396, -32.697578418816398 ], [ -71.212750276382394, -32.697070215953097 ], [ -71.212877812117, -32.696521089510597 ], [ -71.213019974580007, -32.695650070771201 ], [ -71.213124142345293, -32.694611747003698 ], [ -71.213119751823001, -32.693748086225497 ], [ -71.213081784652104, -32.693581735862502 ], [ -71.212865273850198, -32.693269648671802 ], [ -71.212408101848496, -32.692810056509501 ], [ -71.211879601963005, -32.692432845873299 ], [ -71.211513046814204, -32.691985968557297 ], [ -71.211347925068395, -32.691697786884802 ], [ -71.2112814984133, -32.691521438079498 ], [ -71.211235072273396, -32.691240706614799 ], [ -71.211265734302003, -32.690882263807097 ], [ -71.211403449115906, -32.690288102424802 ], [ -71.211497764761404, -32.690067157179598 ], [ -71.211791150551605, -32.689819569365397 ], [ -71.212671270835699, -32.6894676131596 ], [ -71.214041948719, -32.689099831539998 ], [ -71.215015477344394, -32.688760525942897 ], [ -71.215291811920807, -32.688612645846199 ], [ -71.216800925678498, -32.6874806099054 ], [ -71.217134887817096, -32.686723110581298 ], [ -71.217336677848806, -32.686325849338097 ], [ -71.217387097546194, -32.686082777707803 ], [ -71.217349190680494, -32.68597607705 ], [ -71.217168502641996, -32.685800320657897 ], [ -71.217094900955203, -32.685676356619602 ], [ -71.217093645996698, -32.684769692240899 ], [ -71.217160518512301, -32.683539925766397 ], [ -71.217197258990595, -32.683547226439003 ], [ -71.2172039501082, -32.683475527767897 ], [ -71.216393611885394, -32.683387528944301 ], [ -71.216348710526603, -32.683495604287501 ], [ -71.216298790003094, -32.683758948281501 ], [ -71.216245208305907, -32.684159553214201 ], [ -71.216235844198096, -32.684636922429803 ], [ -71.216294356395494, -32.6852920424583 ], [ -71.216352426602896, -32.685929275777802 ], [ -71.216386612722005, -32.686170852583302 ], [ -71.216371355157506, -32.686409724050598 ], [ -71.216308511348402, -32.6867210169397 ], [ -71.216201152114806, -32.686943620893601 ], [ -71.2160582451382, -32.687154923083597 ], [ -71.215900940481305, -32.687354548740402 ], [ -71.215583531121794, -32.687640514381101 ], [ -71.215071643268104, -32.688049215792603 ], [ -71.214744821289997, -32.6882399054915 ], [ -71.214128766191195, -32.688429736476401 ], [ -71.213841596454998, -32.6885123526895 ], [ -71.213098180215994, -32.688686531920403 ], [ -71.212865649936603, -32.688696600258197 ], [ -71.212787942946605, -32.688692007072703 ], [ -71.212396184874095, -32.688824185327 ], [ -71.211878833228397, -32.689012263889801 ], [ -71.211211210820196, -32.689399837282501 ], [ -71.210767831970301, -32.689727381586202 ], [ -71.210710018979597, -32.689957459184598 ], [ -71.210648035614597, -32.690304524239401 ], [ -71.210540810966506, -32.690819408463298 ], [ -71.210615600679304, -32.691850043816501 ], [ -71.2107243133173, -32.692253749754698 ], [ -71.210862842701303, -32.692436224072999 ], [ -71.211323676760699, -32.692815825598203 ], [ -71.212069386932498, -32.693304928289699 ], [ -71.2122283389741, -32.693457214517601 ], [ -71.212315454878805, -32.693557083020004 ], [ -71.212426667827899, -32.693775827160202 ], [ -71.212511147119898, -32.694054693384601 ], [ -71.212537893034394, -32.694280893298703 ], [ -71.212444042665197, -32.694765717484401 ], [ -71.212116029069605, -32.696052796676099 ], [ -71.211584477066594, -32.698087072382698 ] ] ] } }
]
}
