{
"type": "FeatureCollection",
"name": "IPT_05_SCC_VdelMar_Universidad",
"crs": { "type": "name", "properties": { "name": "urn:ogc:def:crs:OGC:1.3:CRS84" } },
"features": [
{ "type": "Feature", "properties": { "id": "monoparte.1", "Name": null, "description": null, "timestamp": null, "begin": null, "end": null, "altitudeMode": null, "tessellate": -1, "extrude": 0, "visibility": -1, "drawOrder": null, "icon": null, "Z": "EU", "NZ": "Zona EU Universidad Viña del Mar", "UPE": "Equipamiento educacional universitario y deportivo.", "UPO": "Todos los no mencionados como permitidos.", "REG": "Valparaíso", "COM": "Viña del Mar", "LOC": "Universidad", "ZONA": "EU", "NOM": "Zona EU Universidad Viña del Mar", "UPERM": "Equipamiento educacional universitario y deportivo.", "UPROH": "Todos los no mencionados como permitidos.", "P_DO": "S/i", "N_DOC": "S/i", "T_DO": "S/i", "OBS": null }, "geometry": { "type": "Polygon", "coordinates": [ [ [ -71.548373845395503, -33.071361217264098 ], [ -71.548369777004893, -33.071451321687697 ], [ -71.548367742821796, -33.071496374349799 ], [ -71.548365807337504, -33.071538463027203 ], [ -71.548362366619102, -33.071585431632897 ], [ -71.548359136366699, -33.071629524134899 ], [ -71.548353231749005, -33.071718157619799 ], [ -71.548352845426805, -33.071744971988998 ], [ -71.548353112764204, -33.071764746324597 ], [ -71.548363053758493, -33.071866086636902 ], [ -71.548364649064894, -33.071872645178701 ], [ -71.548378414334493, -33.071925091201599 ], [ -71.548389574565306, -33.0719585464484 ], [ -71.548422751061096, -33.072018183029201 ], [ -71.548460098092306, -33.072064540267 ], [ -71.548500882138001, -33.072099959451599 ], [ -71.548544742126097, -33.072125585863802 ], [ -71.548591515245406, -33.072141938582199 ], [ -71.548639718490705, -33.072153740190998 ], [ -71.548670549513901, -33.0721593897552 ], [ -71.548688828076706, -33.072162657757403 ], [ -71.548738405485494, -33.072170084302698 ], [ -71.548742877602805, -33.072170713269799 ], [ -71.548788302619897, -33.072176491720597 ], [ -71.548838642215102, -33.072181494293297 ], [ -71.548877556553293, -33.072185360896803 ], [ -71.548889091547494, -33.072186142952098 ], [ -71.548940142242103, -33.072188881288398 ], [ -71.548991335130395, -33.072191165863302 ], [ -71.549042979168107, -33.072192012953998 ], [ -71.549060595418595, -33.072192108869999 ], [ -71.5490950400646, -33.072191533264203 ], [ -71.549117201612603, -33.072190822984297 ], [ -71.549147725737697, -33.072189064325997 ], [ -71.549201183335896, -33.072184138772101 ], [ -71.549222012036793, -33.0721815144557 ], [ -71.549255514803704, -33.072176429917299 ], [ -71.549270293001101, -33.072173553366802 ], [ -71.549311067449807, -33.072164836036201 ], [ -71.549358052687595, -33.072150569937399 ], [ -71.549368481630296, -33.072147314383102 ], [ -71.5493965930022, -33.072134795877801 ], [ -71.549429744485096, -33.072117539708998 ], [ -71.549462337885302, -33.072094156422899 ], [ -71.549489388971395, -33.072069167940697 ], [ -71.549502172908305, -33.072052221126 ], [ -71.549530440767199, -33.0720087236393 ], [ -71.549547432227399, -33.071975668180897 ], [ -71.549572997708793, -33.071902804687902 ], [ -71.549582948706998, -33.071864101875299 ], [ -71.549598151967203, -33.071782927846598 ], [ -71.5496043075524, -33.071741180219398 ], [ -71.5496070243655, -33.071718429764701 ], [ -71.549613873646607, -33.071655485161898 ], [ -71.549617631682594, -33.071611816449099 ], [ -71.549624897741595, -33.071524276755 ], [ -71.549628056353001, -33.071486221439201 ], [ -71.549628530741899, -33.071480506006502 ], [ -71.549641636581001, -33.071442990154601 ], [ -71.549694224662204, -33.071440829559798 ], [ -71.549746812739301, -33.071438668943003 ], [ -71.549750786471606, -33.071438505590898 ], [ -71.549799398905904, -33.071436516458 ], [ -71.549851969374302, -33.071434413863599 ], [ -71.549904538794493, -33.071432312170103 ], [ -71.549917064749906, -33.071431811527802 ], [ -71.549957109280896, -33.071430210432602 ], [ -71.550009678693101, -33.071428108695002 ], [ -71.550027953090705, -33.071427377710997 ], [ -71.550062249171404, -33.071426006913399 ], [ -71.550083396732305, -33.071425161227303 ], [ -71.550114818575494, -33.071423905131603 ], [ -71.550167389019904, -33.071421802404799 ], [ -71.550194286116593, -33.071420727241403 ], [ -71.550219958415994, -33.071419700578801 ], [ -71.550249729744806, -33.071418510683998 ], [ -71.550272535771995, -33.0714175778296 ], [ -71.550325132604598, -33.071415387936597 ], [ -71.550360422865296, -33.071413919168897 ], [ -71.550377730529306, -33.0714131989007 ], [ -71.550415759017, -33.071411615472499 ], [ -71.550430327353695, -33.071411008963501 ], [ -71.550482925270202, -33.071408819883402 ], [ -71.550526431332599, -33.071407008907499 ], [ -71.550535522112298, -33.071406630803097 ], [ -71.550581767470604, -33.071404705137802 ], [ -71.550640716802405, -33.071402250752101 ], [ -71.5506933147024, -33.071400061583702 ], [ -71.550745911502005, -33.071397871513902 ], [ -71.550798509367795, -33.071395681400197 ], [ -71.550851101328107, -33.0713935094184 ], [ -71.550903680515603, -33.071391377349102 ], [ -71.550956259724998, -33.071389246158802 ], [ -71.551008838904295, -33.071387114045301 ], [ -71.551061418105704, -33.071384982810898 ], [ -71.551113996206595, -33.0713828506751 ], [ -71.551166575399805, -33.071380719396601 ], [ -71.551219154563, -33.071378587194801 ], [ -71.551271831850102, -33.071376144593202 ], [ -71.5513133040957, -33.071409373034101 ], [ -71.551354776372406, -33.071442601459601 ], [ -71.5513962486542, -33.071475828968403 ], [ -71.551437722063497, -33.071509057340897 ], [ -71.551479194433597, -33.0715422857199 ], [ -71.551520666808798, -33.071575513182303 ], [ -71.551562139241099, -33.071608741530298 ], [ -71.551603612774898, -33.071641969840897 ], [ -71.551645085243507, -33.071675197256802 ], [ -71.551686557769301, -33.071708425558398 ], [ -71.551728030326203, -33.071741653844498 ], [ -71.551769503958397, -33.071774881191999 ], [ -71.551810976577599, -33.071808109447197 ], [ -71.551852449227894, -33.071841337686799 ], [ -71.551893921883305, -33.0718745650098 ], [ -71.551935395666106, -33.071907793196502 ], [ -71.551976868409795, -33.071941021389698 ], [ -71.5520183411586, -33.071974248666301 ], [ -71.552079633881903, -33.072023356783802 ], [ -71.552112595786596, -33.071991329150102 ], [ -71.552369157785705, -33.0717425185764 ], [ -71.553012437492896, -33.071115614594397 ], [ -71.552996351580504, -33.071042134915899 ], [ -71.552973460971899, -33.070969946053701 ], [ -71.552943909223302, -33.070899494090703 ], [ -71.552920998784302, -33.070856078581798 ], [ -71.552907877010398, -33.070831212627297 ], [ -71.552865587556695, -33.070765525374803 ], [ -71.552817302066302, -33.070702836331002 ], [ -71.552763319827207, -33.070643533384903 ], [ -71.552703972703995, -33.070587983019898 ], [ -71.552639627226, -33.070536528467699 ], [ -71.549477089386002, -33.069917792037401 ], [ -71.549476173966596, -33.069917613299602 ], [ -71.549335348956802, -33.0698930429011 ], [ -71.549331554127605, -33.069892538052102 ], [ -71.549284971358404, -33.069886344338201 ], [ -71.549193293685406, -33.069874155446499 ], [ -71.549185168633997, -33.069873407353498 ], [ -71.549127229187107, -33.069868072531101 ], [ -71.549050329512099, -33.069860992147703 ], [ -71.549037825332704, -33.069860347137997 ], [ -71.548975215371499, -33.069857115777502 ], [ -71.548906782835203, -33.069853583295 ], [ -71.548889878550398, -33.069853390731403 ], [ -71.548824896677701, -33.069852650413402 ], [ -71.548762979662598, -33.069851945663203 ], [ -71.548741669406098, -33.069852559107701 ], [ -71.548675400678306, -33.069854467068097 ], [ -71.548619246708697, -33.069856083390903 ], [ -71.548593552516294, -33.069857858539898 ], [ -71.548526663841002, -33.069862480484801 ], [ -71.548475912438505, -33.069865987057398 ], [ -71.5484756652681, -33.069866773854599 ], [ -71.548466750494995, -33.069895152991798 ], [ -71.548457244745904, -33.069980897265502 ], [ -71.548455745974493, -33.0699977691961 ], [ -71.548453373285199, -33.0700244772178 ], [ -71.548446046857705, -33.070111968532302 ], [ -71.548444680808103, -33.070130657306798 ], [ -71.548442823254604, -33.070156067217901 ], [ -71.548436374946704, -33.0702442637091 ], [ -71.548433150242005, -33.070288361514798 ], [ -71.548428926635907, -33.0703460561027 ], [ -71.548426693179707, -33.070376551872002 ], [ -71.548423465181102, -33.070420647039299 ], [ -71.548417009152701, -33.0705088364722 ], [ -71.548413781148895, -33.0705529316389 ], [ -71.548413152732607, -33.070561514806201 ], [ -71.548406951308905, -33.070640822148398 ], [ -71.548403403215602, -33.070684661475497 ], [ -71.548396308066998, -33.070772339206002 ], [ -71.548395431878006, -33.070783173484699 ], [ -71.548393636930996, -33.070816880127801 ], [ -71.548389813042206, -33.070907181530202 ], [ -71.548387900575094, -33.070952332692499 ], [ -71.548386919127907, -33.0709755192158 ], [ -71.548385133490399, -33.071043481687603 ], [ -71.548384102374101, -33.071089337961503 ], [ -71.548382638674795, -33.071154390491202 ], [ -71.548381983188804, -33.071181006590002 ], [ -71.5483799479385, -33.071226059275297 ], [ -71.548375879576994, -33.071316164601399 ], [ -71.548374561403094, -33.071345349566499 ], [ -71.548373845395503, -33.071361217264098 ] ] ] } },
{ "type": "Feature", "properties": { "id": "monoparte.2", "Name": null, "description": null, "timestamp": null, "begin": null, "end": null, "altitudeMode": null, "tessellate": -1, "extrude": 0, "visibility": -1, "drawOrder": null, "icon": null, "Z": "VE", "NZ": "Zona VE Universidad Viña del Mar", "UPE": "Vivienda. Equipamiento de: salud, culto, cultura, deporte, esparcimiento y turismo, comercio minorista, servicios públicos y artesanales, seguridad, organización comunitaria y áreas verdes. Actividades productivas inofensivas.", "UPO": "Todos los no mencionados como permitidos.", "REG": "Valparaíso", "COM": "Viña del Mar", "LOC": "Universidad", "ZONA": "VE", "NOM": "Zona VE Universidad Viña del Mar", "UPERM": "Vivienda. Equipamiento de: salud, culto, cultura, deporte, esparcimiento y turismo, comercio minorista, servicios públicos y artesanales, seguridad, organización comunitaria y áreas verdes. Actividades productivas inofensivas.", "UPROH": "Todos los no mencionados como permitidos.", "P_DO": "S/i", "N_DOC": "S/i", "T_DO": "S/i", "OBS": null }, "geometry": { "type": "Polygon", "coordinates": [ [ [ -71.545891573901599, -33.0721143975206 ], [ -71.545982463381605, -33.072594134198297 ], [ -71.545996678452994, -33.072690695182096 ], [ -71.546002868139894, -33.072787855623901 ], [ -71.546001002726797, -33.0728851427587 ], [ -71.545991092150899, -33.072982084813603 ], [ -71.5459731827398, -33.0730782092702 ], [ -71.545947362745807, -33.073173049064003 ], [ -71.545913758116697, -33.073266144474097 ], [ -71.545872530356306, -33.073357043166297 ], [ -71.545823880831804, -33.073445301008 ], [ -71.545768046779003, -33.073530492067299 ], [ -71.545705297858007, -33.073612200569301 ], [ -71.545635940668404, -33.073690028918399 ], [ -71.545560310265103, -33.0737636005776 ], [ -71.545478776476799, -33.073832556332398 ], [ -71.545391734506495, -33.0738965625982 ], [ -71.545299606942805, -33.073955306871397 ], [ -71.545202841826594, -33.074008504982203 ], [ -71.545101909310404, -33.074055896654897 ], [ -71.544997300821393, -33.074097253640403 ], [ -71.5448895235278, -33.074132373517202 ], [ -71.544205791358806, -33.074332389297297 ], [ -71.544205667117396, -33.074332426097101 ], [ -71.544223340400507, -33.074347054556 ], [ -71.545206060916698, -33.075160469850402 ], [ -71.545318515474804, -33.075242994380901 ], [ -71.546895761794801, -33.076397584048003 ], [ -71.546983829492206, -33.076398746040603 ], [ -71.547180698489399, -33.076384563961298 ], [ -71.547363122007198, -33.076348691600003 ], [ -71.547525477247802, -33.076295248259598 ], [ -71.547647396448397, -33.076236043844901 ], [ -71.547789771404794, -33.076153125711997 ], [ -71.547931268340506, -33.076050174180402 ], [ -71.547958948060696, -33.0760270233583 ], [ -71.552079633881903, -33.072023356783802 ], [ -71.5520183411586, -33.071974248666301 ], [ -71.551976868409795, -33.071941021389698 ], [ -71.551935395666106, -33.071907793196502 ], [ -71.551893921883305, -33.0718745650098 ], [ -71.551852449227894, -33.071841337686799 ], [ -71.551810976577599, -33.071808109447197 ], [ -71.551769503958397, -33.071774881191999 ], [ -71.551728030326203, -33.071741653844498 ], [ -71.551686557769301, -33.071708425558398 ], [ -71.551645085243507, -33.071675197256802 ], [ -71.551603612774898, -33.071641969840897 ], [ -71.551562139241099, -33.071608741530298 ], [ -71.551520666808798, -33.071575513182303 ], [ -71.551479194433597, -33.0715422857199 ], [ -71.551437722063497, -33.071509057340897 ], [ -71.5513962486542, -33.071475828968403 ], [ -71.551354776372406, -33.071442601459601 ], [ -71.5513133040957, -33.071409373034101 ], [ -71.551271831850102, -33.071376144593202 ], [ -71.551219154563, -33.071378587194801 ], [ -71.551166575399805, -33.071380719396601 ], [ -71.551113996206595, -33.0713828506751 ], [ -71.551061418105704, -33.071384982810898 ], [ -71.551008838904295, -33.071387114045301 ], [ -71.550956259724998, -33.071389246158802 ], [ -71.550903680515603, -33.071391377349102 ], [ -71.550851101328107, -33.0713935094184 ], [ -71.550798509367795, -33.071395681400197 ], [ -71.550745911502005, -33.071397871513902 ], [ -71.5506933147024, -33.071400061583702 ], [ -71.550640716802405, -33.071402250752101 ], [ -71.550581767470604, -33.071404705137802 ], [ -71.550535522112298, -33.071406630803097 ], [ -71.550526431332599, -33.071407008907499 ], [ -71.550482925270202, -33.071408819883402 ], [ -71.550430327353695, -33.071411008963501 ], [ -71.550415759017, -33.071411615472499 ], [ -71.550377730529306, -33.0714131989007 ], [ -71.550360422865296, -33.071413919168897 ], [ -71.550325132604598, -33.071415387936597 ], [ -71.550272535771995, -33.0714175778296 ], [ -71.550249729744806, -33.071418510683998 ], [ -71.550219958415994, -33.071419700578801 ], [ -71.550194286116593, -33.071420727241403 ], [ -71.550167389019904, -33.071421802404799 ], [ -71.550114818575494, -33.071423905131603 ], [ -71.550083396732305, -33.071425161227303 ], [ -71.550062249171404, -33.071426006913399 ], [ -71.550027953090705, -33.071427377710997 ], [ -71.550009678693101, -33.071428108695002 ], [ -71.549957109280896, -33.071430210432602 ], [ -71.549917064749906, -33.071431811527802 ], [ -71.549904538794493, -33.071432312170103 ], [ -71.549851969374302, -33.071434413863599 ], [ -71.549799398905904, -33.071436516458 ], [ -71.549750786471606, -33.071438505590898 ], [ -71.549746812739301, -33.071438668943003 ], [ -71.549694224662204, -33.071440829559798 ], [ -71.549641636581001, -33.071442990154601 ], [ -71.549628530741899, -33.071480506006502 ], [ -71.549628056353001, -33.071486221439201 ], [ -71.549624897741595, -33.071524276755 ], [ -71.549617631682594, -33.071611816449099 ], [ -71.549613873646607, -33.071655485161898 ], [ -71.5496070243655, -33.071718429764701 ], [ -71.5496043075524, -33.071741180219398 ], [ -71.549598151967203, -33.071782927846598 ], [ -71.549582948706998, -33.071864101875299 ], [ -71.549572997708793, -33.071902804687902 ], [ -71.549547432227399, -33.071975668180897 ], [ -71.549530440767199, -33.0720087236393 ], [ -71.549502172908305, -33.072052221126 ], [ -71.549489388971395, -33.072069167940697 ], [ -71.549462337885302, -33.072094156422899 ], [ -71.549429744485096, -33.072117539708998 ], [ -71.5493965930022, -33.072134795877801 ], [ -71.549368481630296, -33.072147314383102 ], [ -71.549358052687595, -33.072150569937399 ], [ -71.549311067449807, -33.072164836036201 ], [ -71.549270293001101, -33.072173553366802 ], [ -71.549255514803704, -33.072176429917299 ], [ -71.549222012036793, -33.0721815144557 ], [ -71.549201183335896, -33.072184138772101 ], [ -71.549147725737697, -33.072189064325997 ], [ -71.549117201612603, -33.072190822984297 ], [ -71.5490950400646, -33.072191533264203 ], [ -71.549060595418595, -33.072192108869999 ], [ -71.549042979168107, -33.072192012953998 ], [ -71.548991335130395, -33.072191165863302 ], [ -71.548940142242103, -33.072188881288398 ], [ -71.548889091547494, -33.072186142952098 ], [ -71.548881123317301, -33.072185715335202 ], [ -71.548877556553293, -33.072185360896803 ], [ -71.548838642215102, -33.072181494293297 ], [ -71.548788302619897, -33.072176491720597 ], [ -71.548742877602805, -33.072170713269799 ], [ -71.548741068605807, -33.0721704833744 ], [ -71.548738405485494, -33.072170084302698 ], [ -71.548688828076706, -33.072162657757403 ], [ -71.548670549513901, -33.0721593897552 ], [ -71.548639718490705, -33.072153740190998 ], [ -71.548591515245406, -33.072141938582199 ], [ -71.548544742126097, -33.072125585863802 ], [ -71.548500882138001, -33.072099959451599 ], [ -71.548460098092306, -33.072064540267 ], [ -71.548422751061096, -33.072018183029201 ], [ -71.548389574565306, -33.0719585464484 ], [ -71.548378414334493, -33.071925091201599 ], [ -71.548364649064894, -33.071872645178701 ], [ -71.548363128271703, -33.071866850625902 ], [ -71.548363053758493, -33.071866086636902 ], [ -71.548353112764204, -33.071764746324597 ], [ -71.548352845426805, -33.071744971988998 ], [ -71.548353231749005, -33.071718157619799 ], [ -71.548359136366699, -33.071629524134899 ], [ -71.548362366619102, -33.071585431632897 ], [ -71.548365807337504, -33.071538463027203 ], [ -71.548367742821796, -33.071496374349799 ], [ -71.548369777004893, -33.071451321687697 ], [ -71.548373845395503, -33.071361217264098 ], [ -71.548374561403094, -33.071345349566499 ], [ -71.548375879576994, -33.071316164601399 ], [ -71.5483799479385, -33.071226059275297 ], [ -71.548381983188804, -33.071181006590002 ], [ -71.548382638674795, -33.071154390491202 ], [ -71.548384102374101, -33.071089337961503 ], [ -71.548385133490399, -33.071043481687603 ], [ -71.548386919127907, -33.0709755192158 ], [ -71.548387900575094, -33.070952332692499 ], [ -71.548389813042206, -33.070907181530202 ], [ -71.548393636930996, -33.070816880127801 ], [ -71.548395431878006, -33.070783173484699 ], [ -71.548396308066998, -33.070772339206002 ], [ -71.548403403215602, -33.070684661475497 ], [ -71.548406951308905, -33.070640822148398 ], [ -71.548413152732607, -33.070561514806201 ], [ -71.548413781148895, -33.0705529316389 ], [ -71.548417009152701, -33.0705088364722 ], [ -71.548423465181102, -33.070420647039299 ], [ -71.548426693179707, -33.070376551872002 ], [ -71.548428926635907, -33.0703460561027 ], [ -71.548433150242005, -33.070288361514798 ], [ -71.548436374946704, -33.0702442637091 ], [ -71.548442823254604, -33.070156067217901 ], [ -71.548444680808103, -33.070130657306798 ], [ -71.548446046857705, -33.070111968532302 ], [ -71.548453373285199, -33.0700244772178 ], [ -71.548455745974493, -33.0699977691961 ], [ -71.548457244745904, -33.069980897265502 ], [ -71.548466750494995, -33.069895152991798 ], [ -71.5484756652681, -33.069866773854599 ], [ -71.548475912438505, -33.069865987057398 ], [ -71.548448198178093, -33.0698690865526 ], [ -71.548365699010901, -33.069878311429399 ], [ -71.548318664886096, -33.069883570502597 ], [ -71.548294188139707, -33.069887419770602 ], [ -71.548211937314903, -33.069900355226601 ], [ -71.548162732203494, -33.069908093124198 ], [ -71.548141499999801, -33.069912416120403 ], [ -71.548059596872903, -33.0699290916845 ], [ -71.548008548212806, -33.069939485647197 ], [ -71.547990566382197, -33.069944001843197 ], [ -71.547908872492798, -33.069964518629803 ], [ -71.547856537708199, -33.069977662752898 ], [ -71.547841790600003, -33.069982089354198 ], [ -71.5477600912551, -33.0700066158578 ], [ -71.547707121651698, -33.070022517563203 ], [ -71.5476955573846, -33.070026577925802 ], [ -71.547613240978507, -33.0700554819066 ], [ -71.547560715163598, -33.070073926189302 ], [ -71.547552238236605, -33.070077353577098 ], [ -71.547538427265195, -33.070082938580903 ], [ -71.547467934806605, -33.070111442978899 ], [ -71.547417721074396, -33.070131746962304 ], [ -71.547412215835394, -33.070134281362002 ], [ -71.547320960257494, -33.0701762905286 ], [ -71.547278537391804, -33.070195819378 ], [ -71.547275876443095, -33.070197201917701 ], [ -71.547143546624099, -33.070265965217502 ], [ -71.546708699348002, -33.070512225088002 ], [ -71.5466077862242, -33.070570267936297 ], [ -71.546556657208001, -33.070604086402298 ], [ -71.546511683118396, -33.070633834300502 ], [ -71.546420815642406, -33.070702643192803 ], [ -71.546335585139204, -33.070776388875103 ], [ -71.546256370953202, -33.070854745320801 ], [ -71.546183521816204, -33.070937364587003 ], [ -71.546117363468895, -33.071023881167001 ], [ -71.546100520803705, -33.071049505238001 ], [ -71.546058185817401, -33.071113912252699 ], [ -71.546006253661702, -33.0712070584161 ], [ -71.545961796070401, -33.071302906532097 ], [ -71.545925010765203, -33.071401033294798 ], [ -71.545896058691397, -33.071501002623201 ], [ -71.545875070620397, -33.071602371838203 ], [ -71.545862137542898, -33.071704692760299 ], [ -71.545857318134097, -33.071807510655198 ], [ -71.5458606335837, -33.071910370651203 ], [ -71.545868202491405, -33.0719781781008 ], [ -71.545872069735296, -33.072012817695501 ], [ -71.545891573901599, -33.0721143975206 ] ] ] } },
{ "type": "Feature", "properties": { "id": "monoparte.3", "Name": null, "description": null, "timestamp": null, "begin": null, "end": null, "altitudeMode": null, "tessellate": -1, "extrude": 0, "visibility": -1, "drawOrder": null, "icon": null, "Z": "ZR", "NZ": "Zona ZR Universidad Viña del Mar", "UPE": "Construcción de áreas verdes y vías vehículas o peatonales.", "UPO": "Todos los no mencionados como permitidos.", "REG": "Valparaíso", "COM": "Viña del Mar", "LOC": "Universidad", "ZONA": "ZR", "NOM": "Zona ZR Universidad Viña del Mar", "UPERM": "Construcción de áreas verdes y vías vehículas o peatonales.", "UPROH": "Todos los no mencionados como permitidos.", "P_DO": "S/i", "N_DOC": "S/i", "T_DO": "S/i", "OBS": null }, "geometry": { "type": "Polygon", "coordinates": [ [ [ -71.548103816499605, -33.069863709574797 ], [ -71.547953282110697, -33.069896250966998 ], [ -71.547858110201403, -33.069921195436002 ], [ -71.547804890533897, -33.069935144780302 ], [ -71.547792363618399, -33.069939021956898 ], [ -71.547712455420395, -33.0699637543593 ], [ -71.547659018043007, -33.069980294066397 ], [ -71.547649193523796, -33.069983818436498 ], [ -71.547568670278196, -33.070012701059298 ], [ -71.547516036035503, -33.070031581239903 ], [ -71.547508816785793, -33.070034541100704 ], [ -71.547426337953198, -33.070068362350902 ], [ -71.547376310223001, -33.070088877111402 ], [ -71.547371618200103, -33.070091054057997 ], [ -71.5473517574532, -33.070100270173498 ], [ -71.547282316583406, -33.070132490372998 ], [ -71.547240195123706, -33.070152035590198 ], [ -71.547237927825904, -33.070153217127 ], [ -71.547108037326097, -33.070220895420398 ], [ -71.546729591686898, -33.070435214373397 ], [ -71.546673537865303, -33.070466957806097 ], [ -71.546569216316399, -33.070527015162703 ], [ -71.546469865311494, -33.0705927784945 ], [ -71.5463759251342, -33.070663955694897 ], [ -71.546287812947796, -33.070740232588498 ], [ -71.546205915251207, -33.070821271281801 ], [ -71.546130596571103, -33.070906714493397 ], [ -71.546062189777402, -33.070996183948701 ], [ -71.546000997257096, -33.071089283962003 ], [ -71.545947289843497, -33.071185601457898 ], [ -71.545935808444895, -33.071210345961603 ], [ -71.545901303787105, -33.071284712345303 ], [ -71.545863243862101, -33.0713861778463 ], [ -71.545833278117897, -33.0714895482107 ], [ -71.545812352437096, -33.071590446375403 ], [ -71.545811539079295, -33.071594367198799 ], [ -71.545798122648904, -33.0717001712027 ], [ -71.545793089255397, -33.071806491927397 ], [ -71.545794001601806, -33.071835290493297 ], [ -71.545795747218193, -33.0718903663821 ], [ -71.545796459649097, -33.071912859182099 ], [ -71.545808219234701, -33.0720188025943 ], [ -71.545828317051999, -33.072123853434597 ], [ -71.545919028205702, -33.072602653374197 ], [ -71.545932692017701, -33.072695472901103 ], [ -71.545938642476301, -33.072788868375802 ], [ -71.545936849343207, -33.072882385979 ], [ -71.545927321981296, -33.072975571080903 ], [ -71.545910107265797, -33.073067970087202 ], [ -71.545885287600896, -33.073159135889597 ], [ -71.545852985070795, -33.073248623273003 ], [ -71.545813355304901, -33.073335998959003 ], [ -71.545766590584904, -33.073420837935799 ], [ -71.545712919949295, -33.0735027270632 ], [ -71.545652602875705, -33.073581268808198 ], [ -71.545585932518406, -33.073656082081001 ], [ -71.545513233567505, -33.0737268022786 ], [ -71.545434859194501, -33.073793086757703 ], [ -71.545351189903897, -33.073854612153397 ], [ -71.545262631574403, -33.073911080730902 ], [ -71.545169616425298, -33.073962216759497 ], [ -71.545072595706301, -33.0740077729739 ], [ -71.544972040663097, -33.074047526947801 ], [ -71.544868439456394, -33.074081285665699 ], [ -71.544155283761995, -33.074289908804303 ], [ -71.544205791358806, -33.074332389297297 ], [ -71.5448895235278, -33.074132373517202 ], [ -71.544997300821393, -33.074097253640403 ], [ -71.545101909310404, -33.074055896654897 ], [ -71.545202841826594, -33.074008504982203 ], [ -71.545299606942805, -33.073955306871397 ], [ -71.545391734506495, -33.0738965625982 ], [ -71.545478776476799, -33.073832556332398 ], [ -71.545560310265103, -33.0737636005776 ], [ -71.545635940668404, -33.073690028918399 ], [ -71.545705297858007, -33.073612200569301 ], [ -71.545768046779003, -33.073530492067299 ], [ -71.545823880831804, -33.073445301008 ], [ -71.545872530356306, -33.073357043166297 ], [ -71.545913758116697, -33.073266144474097 ], [ -71.545947362745807, -33.073173049064003 ], [ -71.5459731827398, -33.0730782092702 ], [ -71.545991092150899, -33.072982084813603 ], [ -71.546001002726797, -33.0728851427587 ], [ -71.546002868139894, -33.072787855623901 ], [ -71.545996678452994, -33.072690695182096 ], [ -71.545982463381605, -33.072594134198297 ], [ -71.545891573901599, -33.0721143975206 ], [ -71.545872069735296, -33.072012817695501 ], [ -71.545868202491405, -33.0719781781008 ], [ -71.5458606335837, -33.071910370651203 ], [ -71.545857318134097, -33.071807510655198 ], [ -71.545862137542898, -33.071704692760299 ], [ -71.545875070620397, -33.071602371838203 ], [ -71.545896058691397, -33.071501002623201 ], [ -71.545925010765203, -33.071401033294798 ], [ -71.545961796070401, -33.071302906532097 ], [ -71.546006253661702, -33.0712070584161 ], [ -71.546058185817401, -33.071113912252699 ], [ -71.546100520803705, -33.071049505238001 ], [ -71.546117363468895, -33.071023881167001 ], [ -71.546183521816204, -33.070937364587003 ], [ -71.546256370953202, -33.070854745320801 ], [ -71.546335585139204, -33.070776388875103 ], [ -71.546420815642406, -33.070702643192803 ], [ -71.546511683118396, -33.070633834300502 ], [ -71.546556657208001, -33.070604086402298 ], [ -71.5466077862242, -33.070570267936297 ], [ -71.546708699348002, -33.070512225088002 ], [ -71.547143546624099, -33.070265965217502 ], [ -71.547272987246004, -33.0701985422359 ], [ -71.547275876443095, -33.070197201917701 ], [ -71.547278537391804, -33.070195819378 ], [ -71.547320960257494, -33.0701762905286 ], [ -71.547406302604898, -33.070136705081303 ], [ -71.547412215835394, -33.070134281362002 ], [ -71.547417721074396, -33.070131746962304 ], [ -71.547467934806605, -33.070111442978899 ], [ -71.547537195818904, -33.070083053018102 ], [ -71.547543155613994, -33.070080610307699 ], [ -71.547552238236605, -33.070077353577098 ], [ -71.547560715163598, -33.070073926189302 ], [ -71.547613240978507, -33.0700554819066 ], [ -71.547683194913006, -33.070030402138599 ], [ -71.5476955573846, -33.070026577925802 ], [ -71.547707121651698, -33.070022517563203 ], [ -71.5477600912551, -33.0700066158578 ], [ -71.547826065465998, -33.069986208644103 ], [ -71.547841790600003, -33.069982089354198 ], [ -71.547856537708199, -33.069977662752898 ], [ -71.547908872492798, -33.069964518629803 ], [ -71.547971402113902, -33.069948140970702 ], [ -71.547990566382197, -33.069944001843197 ], [ -71.548008548212806, -33.069939485647197 ], [ -71.548059596872903, -33.0699290916845 ], [ -71.548118836099505, -33.069916296815101 ], [ -71.548141499999801, -33.069912416120403 ], [ -71.548162732203494, -33.069908093124198 ], [ -71.548211937314903, -33.069900355226601 ], [ -71.5482679896121, -33.069890756929198 ], [ -71.548294188139707, -33.069887419770602 ], [ -71.548318664886096, -33.069883570502597 ], [ -71.548365699010901, -33.069878311429399 ], [ -71.548418484426904, -33.069871587648102 ], [ -71.548448198178093, -33.0698690865526 ], [ -71.548475912438505, -33.069865987057398 ], [ -71.548526663841002, -33.069862480484801 ], [ -71.548569936449695, -33.069858837395699 ], [ -71.548593552516294, -33.069857858539898 ], [ -71.548619246708697, -33.069856083390903 ], [ -71.548675400678306, -33.069854467068097 ], [ -71.548721958952896, -33.069852537519701 ], [ -71.548741669406098, -33.069852559107701 ], [ -71.548762979662598, -33.069851945663203 ], [ -71.548824896677701, -33.069852650413402 ], [ -71.548874165864206, -33.069852704929602 ], [ -71.548889878550398, -33.069853390731403 ], [ -71.548906782835203, -33.069853583295 ], [ -71.548975215371499, -33.069857115777502 ], [ -71.549026168477198, -33.069859339459299 ], [ -71.549037825332704, -33.069860347137997 ], [ -71.549050329512099, -33.069860992147703 ], [ -71.549127229187107, -33.069868072531101 ], [ -71.549177580802606, -33.069872423757097 ], [ -71.549185168633997, -33.069873407353498 ], [ -71.549193293685406, -33.069874155446499 ], [ -71.549284971358404, -33.069886344338201 ], [ -71.549328015312, -33.069891924274799 ], [ -71.549331554127605, -33.069892538052102 ], [ -71.549335348956802, -33.0698930429011 ], [ -71.549476173966596, -33.069917613299602 ], [ -71.549477089386002, -33.069917792037401 ], [ -71.552639627226, -33.070536528467699 ], [ -71.552703972703995, -33.070587983019898 ], [ -71.552763319827207, -33.070643533384903 ], [ -71.552817302066302, -33.070702836331002 ], [ -71.552865587556695, -33.070765525374803 ], [ -71.552907877010398, -33.070831212627297 ], [ -71.552920998784302, -33.070856078581798 ], [ -71.552943909223302, -33.070899494090703 ], [ -71.552973460971899, -33.070969946053701 ], [ -71.552996351580504, -33.071042134915899 ], [ -71.553012437492896, -33.071115614594397 ], [ -71.552369157785705, -33.0717425185764 ], [ -71.552112595786596, -33.071991329150102 ], [ -71.552079633881903, -33.072023356783802 ], [ -71.547958948060696, -33.0760270233583 ], [ -71.547931268340506, -33.076050174180402 ], [ -71.547789771404794, -33.076153125711997 ], [ -71.547647396448397, -33.076236043844901 ], [ -71.547525477247802, -33.076295248259598 ], [ -71.547363122007198, -33.076348691600003 ], [ -71.547180698489399, -33.076384563961298 ], [ -71.546983829492206, -33.076398746040603 ], [ -71.546895761794801, -33.076397584048003 ], [ -71.545318515474804, -33.075242994380901 ], [ -71.545206060916698, -33.075160469850402 ], [ -71.544223340400507, -33.074347054556 ], [ -71.544205667117396, -33.074332426097101 ], [ -71.544155200925701, -33.0742899330371 ], [ -71.543759628579295, -33.074405649873597 ], [ -71.543821643486595, -33.074456982612901 ], [ -71.544951367897397, -33.075392078548802 ], [ -71.545072465937295, -33.075480946713803 ], [ -71.5467530245988, -33.076711165025003 ], [ -71.546753328593596, -33.0767112336503 ], [ -71.546996901968896, -33.076714446188497 ], [ -71.547239593632199, -33.076696963253703 ], [ -71.547474536255905, -33.076650762482998 ], [ -71.547688238727403, -33.076580417977198 ], [ -71.547847940993506, -33.076502865670101 ], [ -71.548019539407804, -33.076402927771703 ], [ -71.548186137963896, -33.0762817125431 ], [ -71.548232976678904, -33.076242536845399 ], [ -71.552395666657105, -33.072198043900599 ], [ -71.552652407573703, -33.071949059577797 ], [ -71.553016403060894, -33.071594329761297 ], [ -71.553139649967093, -33.071471251690802 ], [ -71.553220358115198, -33.071365897997502 ], [ -71.553247383917594, -33.071278235582902 ], [ -71.553250031867904, -33.071199368806397 ], [ -71.553237907874404, -33.071120804669903 ], [ -71.553225903704501, -33.071046385724102 ], [ -71.553174390476102, -33.070968628552301 ], [ -71.553122517940494, -33.070878434869996 ], [ -71.553098601802105, -33.070849766856199 ], [ -71.5530612771514, -33.070805025477298 ], [ -71.553015046849495, -33.070739603851003 ], [ -71.552968936427803, -33.0706783282996 ], [ -71.5529279899459, -33.070625242244198 ], [ -71.552867108862799, -33.070564269224 ], [ -71.552824388962506, -33.0705186653894 ], [ -71.552821357993693, -33.070515430094602 ], [ -71.552742099586993, -33.070500461193298 ], [ -71.552669646091303, -33.070486876668198 ], [ -71.549490709701402, -33.0698649319786 ], [ -71.549338483384005, -33.069838557958001 ], [ -71.549184870489995, -33.069818684253903 ], [ -71.549030262225401, -33.0698053605674 ], [ -71.548875052590503, -33.069798622117297 ], [ -71.548857650101795, -33.069798606546101 ], [ -71.548828699866903, -33.069798580989001 ], [ -71.548719637179303, -33.0697984851572 ], [ -71.548708222295403, -33.0697989602455 ], [ -71.548603143821197, -33.069803336235502 ], [ -71.548564411118306, -33.069804949722098 ], [ -71.548559347400797, -33.069805376969903 ], [ -71.548409770162394, -33.069818000507802 ], [ -71.548256107381107, -33.069837603332203 ], [ -71.548103816499605, -33.069863709574797 ] ] ] } }
]
}
