{
"type": "FeatureCollection",
"name": "IPT_09_PRC_Temuco_Cajon",
"crs": { "type": "name", "properties": { "name": "urn:ogc:def:crs:OGC:1.3:CRS84" } },
"features": [
{ "type": "Feature", "properties": { "id": "monoparte.1", "Name": null, "description": null, "timestamp": null, "begin": null, "end": null, "altitudeMode": null, "tessellate": -1, "extrude": 0, "visibility": -1, "drawOrder": null, "icon": null, "REG": "Araucanía", "COM": "Temuco", "LOC": "Cajón", "ZONA": "Residencial Exclusiva", "NOM": "Residencial Exclusiva", "UPERM": "Sin Información.", "UPROH": "Sin Información.", "P_DO": "08/09/1983", "N_DOC": "100", "T_DO": "Decreto", "OBS": null }, "geometry": { "type": "Polygon", "coordinates": [ [ [ -72.492008964112401, -38.675831969800399 ], [ -72.498096381944407, -38.681296742695999 ], [ -72.501464390517896, -38.678989406266901 ], [ -72.495439219097904, -38.6734550710025 ], [ -72.492008964112401, -38.675831969800399 ] ] ] } },
{ "type": "Feature", "properties": { "id": "monoparte.2", "Name": null, "description": null, "timestamp": null, "begin": null, "end": null, "altitudeMode": null, "tessellate": -1, "extrude": 0, "visibility": -1, "drawOrder": null, "icon": null, "REG": "Araucanía", "COM": "Temuco", "LOC": "Cajón", "ZONA": "Residencial Exclusiva", "NOM": "Residencial Exclusiva", "UPERM": "Sin Información.", "UPROH": "Sin Información.", "P_DO": "08/09/1983", "N_DOC": "100", "T_DO": "Decreto", "OBS": null }, "geometry": { "type": "Polygon", "coordinates": [ [ [ -72.495870578945599, -38.673157887010397 ], [ -72.501953881482507, -38.678654048157199 ], [ -72.503621703142699, -38.677511361246303 ], [ -72.503634155119101, -38.677502829996499 ], [ -72.497643492984395, -38.672049532531801 ], [ -72.495870578945599, -38.673157887010397 ] ] ] } },
{ "type": "Feature", "properties": { "id": "monoparte.3", "Name": null, "description": null, "timestamp": null, "begin": null, "end": null, "altitudeMode": null, "tessellate": -1, "extrude": 0, "visibility": -1, "drawOrder": null, "icon": null, "REG": "Araucanía", "COM": "Temuco", "LOC": "Cajón", "ZONA": "Residencial Exclusiva", "NOM": "Residencial Exclusiva", "UPERM": "Sin Información.", "UPROH": "Sin Información.", "P_DO": "08/09/1983", "N_DOC": "100", "T_DO": "Decreto", "OBS": null }, "geometry": { "type": "Polygon", "coordinates": [ [ [ -72.502122283070094, -38.672009878912 ], [ -72.503031637311494, -38.6725535831131 ], [ -72.503743918534298, -38.671846847721497 ], [ -72.502838943309101, -38.671244767394597 ], [ -72.502122283070094, -38.672009878912 ] ] ] } },
{ "type": "Feature", "properties": { "id": "monoparte.4", "Name": null, "description": null, "timestamp": null, "begin": null, "end": null, "altitudeMode": null, "tessellate": -1, "extrude": 0, "visibility": -1, "drawOrder": null, "icon": null, "REG": "Araucanía", "COM": "Temuco", "LOC": "Cajón", "ZONA": "Residencial Exclusiva", "NOM": "Residencial Exclusiva", "UPERM": "Sin Información.", "UPROH": "Sin Información.", "P_DO": "08/09/1983", "N_DOC": "100", "T_DO": "Decreto", "OBS": null }, "geometry": { "type": "Polygon", "coordinates": [ [ [ -72.492452375487304, -38.673594927485397 ], [ -72.492468011896193, -38.673597110209499 ], [ -72.492533326679194, -38.673316610559198 ], [ -72.492860504408696, -38.671268899005703 ], [ -72.492866235313301, -38.671233031886501 ], [ -72.488085308184395, -38.670515128395799 ], [ -72.487604584432503, -38.672918242914903 ], [ -72.492452375487304, -38.673594927485397 ] ] ] } },
{ "type": "Feature", "properties": { "id": "monoparte.5", "Name": null, "description": null, "timestamp": null, "begin": null, "end": null, "altitudeMode": null, "tessellate": -1, "extrude": 0, "visibility": -1, "drawOrder": null, "icon": null, "REG": "Araucanía", "COM": "Temuco", "LOC": "Cajón", "ZONA": "Residencial Exclusiva", "NOM": "Residencial Exclusiva", "UPERM": "Sin Información.", "UPROH": "Sin Información.", "P_DO": "08/09/1983", "N_DOC": "100", "T_DO": "Decreto", "OBS": null }, "geometry": { "type": "Polygon", "coordinates": [ [ [ -72.493551587738494, -38.670863776026003 ], [ -72.493598704571099, -38.670870682401201 ], [ -72.493841114244603, -38.666810546925198 ], [ -72.4892091961202, -38.664896345567598 ], [ -72.488173294468695, -38.6700752703414 ], [ -72.493551587738494, -38.670863776026003 ] ] ] } },
{ "type": "Feature", "properties": { "id": "monoparte.6", "Name": null, "description": null, "timestamp": null, "begin": null, "end": null, "altitudeMode": null, "tessellate": -1, "extrude": 0, "visibility": -1, "drawOrder": null, "icon": null, "REG": "Araucanía", "COM": "Temuco", "LOC": "Cajón", "ZONA": "Reforestación", "NOM": "Reforestación", "UPERM": "Sin Información.", "UPROH": "Sin Información.", "P_DO": "08/09/1983", "N_DOC": "100", "T_DO": "Decreto", "OBS": null }, "geometry": { "type": "Polygon", "coordinates": [ [ [ -72.502351734277894, -38.684159620023301 ], [ -72.502432355366295, -38.684853496346399 ], [ -72.502890420849198, -38.6847297854601 ], [ -72.502886741904007, -38.684680670840002 ], [ -72.502838048127302, -38.6840306340018 ], [ -72.502929233676696, -38.683656087812302 ], [ -72.503113598950705, -38.683321648327798 ], [ -72.503302843376204, -38.683087166029097 ], [ -72.503582477058998, -38.682835670987998 ], [ -72.503865595912202, -38.682655573720602 ], [ -72.506218009391105, -38.6815124529627 ], [ -72.507070114175605, -38.6810292586527 ], [ -72.507657397533293, -38.680353804310499 ], [ -72.507849115867401, -38.679789362994399 ], [ -72.506686247170705, -38.678712503964498 ], [ -72.506730650830093, -38.679309097376702 ], [ -72.506490186313101, -38.679988436100501 ], [ -72.506035378834795, -38.680388199876298 ], [ -72.505362655094999, -38.680808802049 ], [ -72.5024574450144, -38.682271589713203 ], [ -72.502351734277894, -38.684159620023301 ] ] ] } },
{ "type": "Feature", "properties": { "id": "monoparte.7", "Name": null, "description": null, "timestamp": null, "begin": null, "end": null, "altitudeMode": null, "tessellate": -1, "extrude": 0, "visibility": -1, "drawOrder": null, "icon": null, "REG": "Araucanía", "COM": "Temuco", "LOC": "Cajón", "ZONA": "Reforestación", "NOM": "Reforestación", "UPERM": "Sin Información.", "UPROH": "Sin Información.", "P_DO": "08/09/1983", "N_DOC": "100", "T_DO": "Decreto", "OBS": null }, "geometry": { "type": "Polygon", "coordinates": [ [ [ -72.498770843833995, -38.685655901293103 ], [ -72.501356161862603, -38.685667810505599 ], [ -72.502196325538804, -38.685556172621098 ], [ -72.501991427109104, -38.685103777535097 ], [ -72.501892963998998, -38.684704385661902 ], [ -72.498096381944407, -38.681296742695999 ], [ -72.492008964112401, -38.675831969800399 ], [ -72.491983403093599, -38.675809020809702 ], [ -72.492452375487304, -38.673594927485397 ], [ -72.487604584432503, -38.672918242914903 ], [ -72.486640703054903, -38.677736240912999 ], [ -72.490858903676497, -38.681632273430601 ], [ -72.491455706349797, -38.682180496713698 ], [ -72.493246168594695, -38.683825147274902 ], [ -72.493764201495296, -38.684316129216199 ], [ -72.494545029079703, -38.684739661584103 ], [ -72.496239691389206, -38.685195423703398 ], [ -72.498770843833995, -38.685655901293103 ] ] ] } },
{ "type": "Feature", "properties": { "id": "monoparte.8", "Name": null, "description": null, "timestamp": null, "begin": null, "end": null, "altitudeMode": null, "tessellate": -1, "extrude": 0, "visibility": -1, "drawOrder": null, "icon": null, "REG": "Araucanía", "COM": "Temuco", "LOC": "Cajón", "ZONA": "Área Verde", "NOM": "Área Verde", "UPERM": "Sin Información.", "UPROH": "Sin Información.", "P_DO": "08/09/1983", "N_DOC": "100", "T_DO": "Decreto", "OBS": null }, "geometry": { "type": "Polygon", "coordinates": [ [ [ -72.488085308184395, -38.670515128395799 ], [ -72.492866235313301, -38.671233031886501 ], [ -72.492860504408696, -38.671268899005703 ], [ -72.495766582488301, -38.671610519922098 ], [ -72.495502897936802, -38.673387739296899 ], [ -72.495499060989403, -38.673413603035002 ], [ -72.495439219097904, -38.6734550710025 ], [ -72.501464390517896, -38.678989406266901 ], [ -72.501953881482507, -38.678654048157199 ], [ -72.495870578945599, -38.673157887010397 ], [ -72.497643492984395, -38.672049532531801 ], [ -72.503634155119101, -38.677502829996499 ], [ -72.503621703142699, -38.677511361246303 ], [ -72.503632717416394, -38.677511538948302 ], [ -72.5039940206875, -38.677245573105203 ], [ -72.504021413791605, -38.677225408225098 ], [ -72.504025500435802, -38.677222399430903 ], [ -72.504037752684994, -38.677213380484403 ], [ -72.500827303188103, -38.6742508112672 ], [ -72.500255434947803, -38.673723060378997 ], [ -72.500767149903297, -38.673418781878397 ], [ -72.500787277711197, -38.673406813103703 ], [ -72.500748340065897, -38.6733564984156 ], [ -72.500592590047702, -38.673155239504197 ], [ -72.500158318872195, -38.6728536417058 ], [ -72.499724747434897, -38.672566321694703 ], [ -72.4997191014686, -38.672559358186497 ], [ -72.499684137386694, -38.6726074075018 ], [ -72.499153573700198, -38.672251905858303 ], [ -72.498424400896994, -38.671871400408598 ], [ -72.497301018354705, -38.6715026927087 ], [ -72.4966218195799, -38.671337327576801 ], [ -72.493639629494098, -38.670900407854198 ], [ -72.493551587738494, -38.670863776026003 ], [ -72.488173294468695, -38.6700752703414 ], [ -72.488085308184395, -38.670515128395799 ] ] ] } },
{ "type": "Feature", "properties": { "id": "monoparte.9", "Name": null, "description": null, "timestamp": null, "begin": null, "end": null, "altitudeMode": null, "tessellate": -1, "extrude": 0, "visibility": -1, "drawOrder": null, "icon": null, "REG": "Araucanía", "COM": "Temuco", "LOC": "Cajón", "ZONA": "Parque Nacional", "NOM": "Parque Nacional", "UPERM": "Sin Información.", "UPROH": "Sin Información.", "P_DO": "08/09/1983", "N_DOC": "100", "T_DO": "Decreto", "OBS": null }, "geometry": { "type": "Polygon", "coordinates": [ [ [ -72.512120970183901, -38.680498061994598 ], [ -72.516373710966405, -38.679589348720498 ], [ -72.516734124428893, -38.679128158759298 ], [ -72.517239201016494, -38.678576686276699 ], [ -72.517780762625307, -38.677994320437897 ], [ -72.5142341162218, -38.675419746765797 ], [ -72.513643032928698, -38.674990639127003 ], [ -72.510034293726704, -38.673500283774501 ], [ -72.509850163379895, -38.673818930788499 ], [ -72.509507448291401, -38.674076823200402 ], [ -72.509091928811102, -38.674460700423303 ], [ -72.508593027037904, -38.6747542320729 ], [ -72.508244261555404, -38.6748885047624 ], [ -72.508262232932196, -38.6760640468543 ], [ -72.508403161225004, -38.676524056375698 ], [ -72.509001929445105, -38.677465506289799 ], [ -72.509461284583793, -38.677977847774002 ], [ -72.509846330947795, -38.678585268644198 ], [ -72.511451941136301, -38.679929740232701 ], [ -72.511836602198699, -38.680256500449197 ], [ -72.512079728524697, -38.680463028114097 ], [ -72.512120970183901, -38.680498061994598 ] ] ] } },
{ "type": "Feature", "properties": { "id": "monoparte.10", "Name": null, "description": null, "timestamp": null, "begin": null, "end": null, "altitudeMode": null, "tessellate": -1, "extrude": 0, "visibility": -1, "drawOrder": null, "icon": null, "REG": "Araucanía", "COM": "Temuco", "LOC": "Cajón", "ZONA": "Zona Ferroviaria", "NOM": "Zona Ferroviaria", "UPERM": "Sin Información.", "UPROH": "Sin Información.", "P_DO": "08/09/1983", "N_DOC": "100", "T_DO": "Decreto", "OBS": null }, "geometry": { "type": "Polygon", "coordinates": [ [ [ -72.500748340065897, -38.6733564984156 ], [ -72.501329694703102, -38.673889244934202 ], [ -72.501339483920205, -38.673882199014301 ], [ -72.504609145544805, -38.6768839043635 ], [ -72.505771049400394, -38.677950500919899 ], [ -72.505806942459003, -38.677952541405702 ], [ -72.505845159286693, -38.677933597952801 ], [ -72.506562149255501, -38.677578204932502 ], [ -72.506518187430501, -38.677540090599599 ], [ -72.506698701575004, -38.677194226453999 ], [ -72.5061029842403, -38.676314571949703 ], [ -72.502093406571504, -38.672628053138901 ], [ -72.501394593592195, -38.672060958876898 ], [ -72.501105076135502, -38.671791089848 ], [ -72.500477661591802, -38.6715168803835 ], [ -72.4997191014686, -38.672559358186497 ], [ -72.499724747434897, -38.672566321694703 ], [ -72.500158318872195, -38.6728536417058 ], [ -72.500592590047702, -38.673155239504197 ], [ -72.500748340065897, -38.6733564984156 ] ] ] } },
{ "type": "Feature", "properties": { "id": "monoparte.11", "Name": null, "description": null, "timestamp": null, "begin": null, "end": null, "altitudeMode": null, "tessellate": -1, "extrude": 0, "visibility": -1, "drawOrder": null, "icon": null, "REG": "Araucanía", "COM": "Temuco", "LOC": "Cajón", "ZONA": "Área Verde", "NOM": "Área Verde", "UPERM": "Sin Información.", "UPROH": "Sin Información.", "P_DO": "08/09/1983", "N_DOC": "100", "T_DO": "Decreto", "OBS": null }, "geometry": { "type": "Polygon", "coordinates": [ [ [ -72.5024574450144, -38.682271589713203 ], [ -72.505362655094999, -38.680808802049 ], [ -72.506035378834795, -38.680388199876298 ], [ -72.506490186313101, -38.679988436100501 ], [ -72.506730650830093, -38.679309097376702 ], [ -72.506686247170705, -38.678712503964498 ], [ -72.505845159286693, -38.677933597952801 ], [ -72.505806942459003, -38.677952541405702 ], [ -72.505771049400394, -38.677950500919899 ], [ -72.505789423439197, -38.677967367604403 ], [ -72.505204317125106, -38.678313836006502 ], [ -72.505196414193307, -38.678305670363102 ], [ -72.502918656569605, -38.681196728971699 ], [ -72.502478454431994, -38.6818963500588 ], [ -72.5024574450144, -38.682271589713203 ] ] ] } },
{ "type": "Feature", "properties": { "id": "monoparte.12", "Name": null, "description": null, "timestamp": null, "begin": null, "end": null, "altitudeMode": null, "tessellate": -1, "extrude": 0, "visibility": -1, "drawOrder": null, "icon": null, "REG": "Araucanía", "COM": "Temuco", "LOC": "Cajón", "ZONA": "Estacionamiento", "NOM": "Estacionamiento", "UPERM": "Sin Información.", "UPROH": "Sin Información.", "P_DO": "08/09/1983", "N_DOC": "100", "T_DO": "Decreto", "OBS": null }, "geometry": { "type": "Polygon", "coordinates": [ [ [ -72.505006232134704, -38.674287724867497 ], [ -72.505634803579397, -38.674707410803101 ], [ -72.506907711889696, -38.673422718264199 ], [ -72.506256379450704, -38.672991769355299 ], [ -72.505006232134704, -38.674287724867497 ] ] ] } },
{ "type": "Feature", "properties": { "id": "monoparte.13", "Name": null, "description": null, "timestamp": null, "begin": null, "end": null, "altitudeMode": null, "tessellate": -1, "extrude": 0, "visibility": -1, "drawOrder": null, "icon": null, "REG": "Araucanía", "COM": "Temuco", "LOC": "Cajón", "ZONA": "Centro Comunitario", "NOM": "Centro Comunitario", "UPERM": "Sin Información.", "UPROH": "Sin Información.", "P_DO": "08/09/1983", "N_DOC": "100", "T_DO": "Decreto", "OBS": null }, "geometry": { "type": "Polygon", "coordinates": [ [ [ -72.492533326679194, -38.673316610559198 ], [ -72.492468011896193, -38.673597110209499 ], [ -72.492452375487304, -38.673594927485397 ], [ -72.491983403093599, -38.675809020809702 ], [ -72.492008964112401, -38.675831969800399 ], [ -72.495439219097904, -38.6734550710025 ], [ -72.495499060989403, -38.673413603035002 ], [ -72.495502897936802, -38.673387739296899 ], [ -72.495766582488301, -38.671610519922098 ], [ -72.492860504408696, -38.671268899005703 ], [ -72.492533326679194, -38.673316610559198 ] ] ] } },
{ "type": "Feature", "properties": { "id": "monoparte.14", "Name": null, "description": null, "timestamp": null, "begin": null, "end": null, "altitudeMode": null, "tessellate": -1, "extrude": 0, "visibility": -1, "drawOrder": null, "icon": null, "REG": "Araucanía", "COM": "Temuco", "LOC": "Cajón", "ZONA": "Centro Comunitario", "NOM": "Centro Comunitario", "UPERM": "Sin Información.", "UPROH": "Sin Información.", "P_DO": "08/09/1983", "N_DOC": "100", "T_DO": "Decreto", "OBS": null }, "geometry": { "type": "Polygon", "coordinates": [ [ [ -72.504566390192394, -38.673747971032299 ], [ -72.5049829922458, -38.673811741141499 ], [ -72.505390297951706, -38.673685115231201 ], [ -72.505714513268003, -38.673351242338299 ], [ -72.505589473969906, -38.672782977009298 ], [ -72.505312091380901, -38.672581560597699 ], [ -72.504967427288705, -38.672496566514297 ], [ -72.504414404949102, -38.672627561427902 ], [ -72.504228474504998, -38.672804744154902 ], [ -72.504113544347902, -38.6729416626765 ], [ -72.504198486885599, -38.673186989904899 ], [ -72.504120849045407, -38.673212508476603 ], [ -72.504212427316105, -38.673472580237302 ], [ -72.504566390192394, -38.673747971032299 ] ] ] } },
{ "type": "Feature", "properties": { "id": "monoparte.15", "Name": null, "description": null, "timestamp": null, "begin": null, "end": null, "altitudeMode": null, "tessellate": -1, "extrude": 0, "visibility": -1, "drawOrder": null, "icon": null, "REG": "Araucanía", "COM": "Temuco", "LOC": "Cajón", "ZONA": "Centro Comunitario", "NOM": "Centro Comunitario", "UPERM": "Sin Información.", "UPROH": "Sin Información.", "P_DO": "08/09/1983", "N_DOC": "100", "T_DO": "Decreto", "OBS": null }, "geometry": { "type": "Polygon", "coordinates": [ [ [ -72.504047424763598, -38.677230838185501 ], [ -72.504021209363003, -38.677248197741598 ], [ -72.5039940206875, -38.677245573105203 ], [ -72.503632717416394, -38.677511538948302 ], [ -72.503621703142699, -38.677511361246303 ], [ -72.501953881482507, -38.678654048157199 ], [ -72.501464390517896, -38.678989406266901 ], [ -72.498096381944407, -38.681296742695999 ], [ -72.501892963998998, -38.684704385661902 ], [ -72.501991427109104, -38.685103777535097 ], [ -72.502196325538804, -38.685556172621098 ], [ -72.502224778109493, -38.685552391877103 ], [ -72.502296748522795, -38.685743553904302 ], [ -72.502661320327505, -38.685683593436401 ], [ -72.502446114717401, -38.6849719154798 ], [ -72.502432355366295, -38.684853496346399 ], [ -72.502351734277894, -38.684159620023301 ], [ -72.5024574450144, -38.682271589713203 ], [ -72.502478454431994, -38.6818963500588 ], [ -72.502918656569605, -38.681196728971699 ], [ -72.505196414193307, -38.678305670363102 ], [ -72.505069827928295, -38.678174867430499 ], [ -72.504056944927399, -38.677232825361401 ], [ -72.504047424763598, -38.677230838185501 ] ] ] } },
{ "type": "Feature", "properties": { "id": "monoparte.16", "Name": null, "description": null, "timestamp": null, "begin": null, "end": null, "altitudeMode": null, "tessellate": -1, "extrude": 0, "visibility": -1, "drawOrder": null, "icon": null, "REG": "Araucanía", "COM": "Temuco", "LOC": "Cajón", "ZONA": "Centro Comunitario", "NOM": "Centro Comunitario", "UPERM": "Sin Información.", "UPROH": "Sin Información.", "P_DO": "08/09/1983", "N_DOC": "100", "T_DO": "Decreto", "OBS": null }, "geometry": { "type": "Polygon", "coordinates": [ [ [ -72.507657397533293, -38.680353804310499 ], [ -72.507070114175605, -38.6810292586527 ], [ -72.506218009391105, -38.6815124529627 ], [ -72.503865595912202, -38.682655573720602 ], [ -72.503582477058998, -38.682835670987998 ], [ -72.503302843376204, -38.683087166029097 ], [ -72.503113598950705, -38.683321648327798 ], [ -72.502929233676696, -38.683656087812302 ], [ -72.502838048127302, -38.6840306340018 ], [ -72.502886741904007, -38.684680670840002 ], [ -72.508099706840696, -38.683057602792204 ], [ -72.508854379030495, -38.682820429193598 ], [ -72.509084227223596, -38.682670519563899 ], [ -72.509363139825297, -38.682404733164098 ], [ -72.509531348987593, -38.682113670603101 ], [ -72.509590253781795, -38.681825892893301 ], [ -72.509625353275396, -38.681424426348599 ], [ -72.509722785483703, -38.681178391254903 ], [ -72.509841925930402, -38.681003206679698 ], [ -72.510162303085707, -38.680699268980803 ], [ -72.509715616072697, -38.680312046834899 ], [ -72.509660923724496, -38.680348329070902 ], [ -72.508957027883696, -38.680815285591898 ], [ -72.507849115867401, -38.679789362994399 ], [ -72.507657397533293, -38.680353804310499 ] ] ] } },
{ "type": "Feature", "properties": { "id": "monoparte.17", "Name": null, "description": null, "timestamp": null, "begin": null, "end": null, "altitudeMode": null, "tessellate": -1, "extrude": 0, "visibility": -1, "drawOrder": null, "icon": null, "REG": "Araucanía", "COM": "Temuco", "LOC": "Cajón", "ZONA": "Zona Comercio", "NOM": "Zona Comercio", "UPERM": "Sin Información.", "UPROH": "Sin Información.", "P_DO": "08/09/1983", "N_DOC": "100", "T_DO": "Decreto", "OBS": null }, "geometry": { "type": "Polygon", "coordinates": [ [ [ -72.510162303085707, -38.680699268980803 ], [ -72.510939519563294, -38.681373004147098 ], [ -72.5111697681359, -38.681191127593998 ], [ -72.5094870501283, -38.6796114476358 ], [ -72.509126491244103, -38.679801337938102 ], [ -72.509715616072697, -38.680312046834899 ], [ -72.510162303085707, -38.680699268980803 ] ] ] } },
{ "type": "Feature", "properties": { "id": "monoparte.18", "Name": null, "description": null, "timestamp": null, "begin": null, "end": null, "altitudeMode": null, "tessellate": -1, "extrude": 0, "visibility": -1, "drawOrder": null, "icon": null, "REG": "Araucanía", "COM": "Temuco", "LOC": "Cajón", "ZONA": "Zona Comercio", "NOM": "Zona Comercio", "UPERM": "Sin Información.", "UPROH": "Sin Información.", "P_DO": "08/09/1983", "N_DOC": "100", "T_DO": "Decreto", "OBS": null }, "geometry": { "type": "Polygon", "coordinates": [ [ [ -72.502471937625501, -38.675303057639702 ], [ -72.504357281767298, -38.677025647492897 ], [ -72.504586702898393, -38.676873721974701 ], [ -72.502709783579206, -38.675153898240701 ], [ -72.502471937625501, -38.675303057639702 ] ] ] } },
{ "type": "Feature", "properties": { "id": "monoparte.19", "Name": null, "description": null, "timestamp": null, "begin": null, "end": null, "altitudeMode": null, "tessellate": -1, "extrude": 0, "visibility": -1, "drawOrder": null, "icon": null, "REG": "Araucanía", "COM": "Temuco", "LOC": "Cajón", "ZONA": "Vivienda Artesanal", "NOM": "Vivienda Artesanal", "UPERM": "Sin Información.", "UPROH": "Sin Información.", "P_DO": "08/09/1983", "N_DOC": "100", "T_DO": "Decreto", "OBS": null }, "geometry": { "type": "Polygon", "coordinates": [ [ [ -72.506898291162898, -38.677780492316501 ], [ -72.506840591110006, -38.677819606501501 ], [ -72.506562149255501, -38.677578204932502 ], [ -72.505845159286693, -38.677933597952801 ], [ -72.506686247170705, -38.678712503964498 ], [ -72.507849115867401, -38.679789362994399 ], [ -72.508957027883696, -38.680815285591898 ], [ -72.509660923724496, -38.680348329070902 ], [ -72.509715616072697, -38.680312046834899 ], [ -72.509126491244103, -38.679801337938102 ], [ -72.5094870501283, -38.6796114476358 ], [ -72.5111697681359, -38.681191127593998 ], [ -72.510939519563294, -38.681373004147098 ], [ -72.511367168964298, -38.681743707921697 ], [ -72.512500266769095, -38.680820258234398 ], [ -72.512079728524697, -38.680463028114097 ], [ -72.511836602198699, -38.680256500449197 ], [ -72.511462525143003, -38.6801460682561 ], [ -72.510978832712198, -38.679943961506602 ], [ -72.510570971303494, -38.679677674409298 ], [ -72.510237429856502, -38.679316303950202 ], [ -72.510072171807195, -38.679166522993597 ], [ -72.509750723816694, -38.679052383159103 ], [ -72.509464169578493, -38.678844346425898 ], [ -72.509286826264798, -38.678447330931903 ], [ -72.509276249449499, -38.678231002340397 ], [ -72.509104952414205, -38.677957602649698 ], [ -72.5089396999565, -38.677807819803199 ], [ -72.508621281117698, -38.6777554850622 ], [ -72.508263438505793, -38.677704334378603 ], [ -72.507864661757495, -38.677623461709601 ], [ -72.507838273917002, -38.677596196508397 ], [ -72.507573588095696, -38.677322707212099 ], [ -72.506898291162898, -38.677780492316501 ] ] ] } },
{ "type": "Feature", "properties": { "id": "monoparte.20", "Name": null, "description": null, "timestamp": null, "begin": null, "end": null, "altitudeMode": null, "tessellate": -1, "extrude": 0, "visibility": -1, "drawOrder": null, "icon": null, "REG": "Araucanía", "COM": "Temuco", "LOC": "Cajón", "ZONA": "Vivienda Artesanal", "NOM": "Vivienda Artesanal", "UPERM": "Sin Información.", "UPROH": "Sin Información.", "P_DO": "08/09/1983", "N_DOC": "100", "T_DO": "Decreto", "OBS": null }, "geometry": { "type": "Polygon", "coordinates": [ [ [ -72.500255434947803, -38.673723060378997 ], [ -72.500827303188103, -38.6742508112672 ], [ -72.504037752684994, -38.677213380484403 ], [ -72.504025500435802, -38.677222399430903 ], [ -72.504021413791605, -38.677225408225098 ], [ -72.5039940206875, -38.677245573105203 ], [ -72.504021209363003, -38.677248197741598 ], [ -72.504047424763598, -38.677230838185501 ], [ -72.504056944927399, -38.677232825361401 ], [ -72.505069827928295, -38.678174867430499 ], [ -72.505196414193307, -38.678305670363102 ], [ -72.505204317125106, -38.678313836006502 ], [ -72.505789423439197, -38.677967367604403 ], [ -72.505771049400394, -38.677950500919899 ], [ -72.504609145544805, -38.6768839043635 ], [ -72.501339483920205, -38.673882199014301 ], [ -72.501329694703102, -38.673889244934202 ], [ -72.500748340065897, -38.6733564984156 ], [ -72.500787277711197, -38.673406813103703 ], [ -72.500767149903297, -38.673418781878397 ], [ -72.500255434947803, -38.673723060378997 ] ], [ [ -72.504586702898393, -38.676873721974701 ], [ -72.504357281767298, -38.677025647492897 ], [ -72.502471937625501, -38.675303057639702 ], [ -72.502709783579206, -38.675153898240701 ], [ -72.504586702898393, -38.676873721974701 ] ] ] } },
{ "type": "Feature", "properties": { "id": "monoparte.21", "Name": null, "description": null, "timestamp": null, "begin": null, "end": null, "altitudeMode": null, "tessellate": -1, "extrude": 0, "visibility": -1, "drawOrder": null, "icon": null, "REG": "Araucanía", "COM": "Temuco", "LOC": "Cajón", "ZONA": "Río Cautín", "NOM": "Río Cautín", "UPERM": "Sin Información.", "UPROH": "Sin Información.", "P_DO": "08/09/1983", "N_DOC": "100", "T_DO": "Decreto", "OBS": null }, "geometry": { "type": "Polygon", "coordinates": [ [ [ -72.502810932399996, -38.686335419636499 ], [ -72.502752692848503, -38.685965600485702 ], [ -72.503524995361005, -38.685841361488997 ], [ -72.504116708497506, -38.685718552674103 ], [ -72.504540956742005, -38.685606908139697 ], [ -72.505009861354196, -38.6855064289594 ], [ -72.505333629201203, -38.685428277475999 ], [ -72.505668560941203, -38.685316633828897 ], [ -72.506139097043402, -38.685128316096097 ], [ -72.506659805074705, -38.6849093994431 ], [ -72.507237486213398, -38.684710199265901 ], [ -72.507695646914399, -38.684510999407202 ], [ -72.508233488402396, -38.684391478535403 ], [ -72.508950610693503, -38.684271958266002 ], [ -72.509568130979503, -38.684271958054502 ], [ -72.510125893093502, -38.684411398028502 ], [ -72.510564133534103, -38.6844910788543 ], [ -72.510661348671505, -38.684479799311099 ], [ -72.510521741016404, -38.684321574337197 ], [ -72.510235162456496, -38.684113540742601 ], [ -72.509392061056104, -38.683829379685797 ], [ -72.508251672990596, -38.683925535796 ], [ -72.506892835375595, -38.684399632836801 ], [ -72.504834829842494, -38.685111342668698 ], [ -72.503670072795899, -38.6855176797147 ], [ -72.502661320327505, -38.685683593436401 ], [ -72.502296748522795, -38.685743553904302 ], [ -72.5025416766116, -38.686394103415999 ], [ -72.502810932399996, -38.686335419636499 ] ] ] } },
{ "type": "Feature", "properties": { "id": "monoparte.22", "Name": null, "description": null, "timestamp": null, "begin": null, "end": null, "altitudeMode": null, "tessellate": -1, "extrude": 0, "visibility": -1, "drawOrder": null, "icon": null, "REG": "Araucanía", "COM": "Temuco", "LOC": "Cajón", "ZONA": "Reserva Agrícola", "NOM": "Reserva Agrícola", "UPERM": "Sin Información.", "UPROH": "Sin Información.", "P_DO": "08/09/1983", "N_DOC": "100", "T_DO": "Decreto", "OBS": null }, "geometry": { "type": "Polygon", "coordinates": [ [ [ -72.502688327276104, -38.686783612531102 ], [ -72.502889999765799, -38.686749999793797 ], [ -72.502840000762902, -38.686520000135097 ], [ -72.502810932399996, -38.686335419636499 ], [ -72.5025416766116, -38.686394103415999 ], [ -72.502688327276104, -38.686783612531102 ] ] ] } },
{ "type": "Feature", "properties": { "id": "monoparte.23", "Name": null, "description": null, "timestamp": null, "begin": null, "end": null, "altitudeMode": null, "tessellate": -1, "extrude": 0, "visibility": -1, "drawOrder": null, "icon": null, "REG": "Araucanía", "COM": "Temuco", "LOC": "Cajón", "ZONA": "Reserva Agrícola", "NOM": "Reserva Agrícola", "UPERM": "Sin Información.", "UPROH": "Sin Información.", "P_DO": "08/09/1983", "N_DOC": "100", "T_DO": "Decreto", "OBS": null }, "geometry": { "type": "Polygon", "coordinates": [ [ [ -72.512537301698501, -38.684228521734298 ], [ -72.512679530058605, -38.6841996623764 ], [ -72.512918191874604, -38.684183063321797 ], [ -72.513103184159206, -38.684110673780197 ], [ -72.513215787822801, -38.684022199984597 ], [ -72.513296219602907, -38.683933724481697 ], [ -72.513360565324902, -38.683837206593601 ], [ -72.513392737720196, -38.683684386434699 ], [ -72.513392737244601, -38.683603954812597 ], [ -72.513440997131994, -38.683491350301097 ], [ -72.513505341517202, -38.683410919066198 ], [ -72.513634032443306, -38.683314400476903 ], [ -72.513875327593993, -38.683113322443504 ], [ -72.513987932435597, -38.6829926745257 ], [ -72.514012061134906, -38.6828318114338 ], [ -72.513979889020803, -38.682751379287403 ], [ -72.513923587067694, -38.682703120353899 ], [ -72.513722507358196, -38.682630732942499 ], [ -72.513529471949198, -38.6825503003788 ], [ -72.513400781190299, -38.682445739720499 ], [ -72.513400781360602, -38.682244659696103 ], [ -72.513368608545704, -38.682067710842198 ], [ -72.513239918091799, -38.681914889899502 ], [ -72.513054925812, -38.681786199531999 ], [ -72.512918191985904, -38.6816333796001 ], [ -72.512813629844501, -38.681488602809303 ], [ -72.512741242377999, -38.681392084994798 ], [ -72.512692982535796, -38.681287524269202 ], [ -72.512588421781203, -38.681207092190903 ], [ -72.5124114719506, -38.681070358764799 ], [ -72.512285202701605, -38.680995532732197 ], [ -72.511367168964298, -38.681743707921697 ], [ -72.5113834463816, -38.681757817163202 ], [ -72.512209789794298, -38.682506710314698 ], [ -72.512514518236202, -38.683085587093601 ], [ -72.512537301698501, -38.684228521734298 ] ] ] } },
{ "type": "Feature", "properties": { "id": "monoparte.24", "Name": null, "description": null, "timestamp": null, "begin": null, "end": null, "altitudeMode": null, "tessellate": -1, "extrude": 0, "visibility": -1, "drawOrder": null, "icon": null, "REG": "Araucanía", "COM": "Temuco", "LOC": "Cajón", "ZONA": "Balneario", "NOM": "Balneario", "UPERM": "Sin Información.", "UPROH": "Sin Información.", "P_DO": "08/09/1983", "N_DOC": "100", "T_DO": "Decreto", "OBS": null }, "geometry": { "type": "Polygon", "coordinates": [ [ [ -72.510661348671505, -38.684479799311099 ], [ -72.510805836510201, -38.684463034369799 ], [ -72.511105638046502, -38.6845181724225 ], [ -72.511392264310103, -38.6844608475865 ], [ -72.512537301698501, -38.684228521734298 ], [ -72.512514518236202, -38.683085587093601 ], [ -72.512209789794298, -38.682506710314698 ], [ -72.5113834463816, -38.681757817163202 ], [ -72.511367168964298, -38.681743707921697 ], [ -72.510939519563294, -38.681373004147098 ], [ -72.510162303085707, -38.680699268980803 ], [ -72.509841925930402, -38.681003206679698 ], [ -72.509722785483703, -38.681178391254903 ], [ -72.509625353275396, -38.681424426348599 ], [ -72.509590253781795, -38.681825892893301 ], [ -72.509531348987593, -38.682113670603101 ], [ -72.509363139825297, -38.682404733164098 ], [ -72.509084227223596, -38.682670519563899 ], [ -72.508854379030495, -38.682820429193598 ], [ -72.508099706840696, -38.683057602792204 ], [ -72.502886741904007, -38.684680670840002 ], [ -72.502890420849198, -38.6847297854601 ], [ -72.502432355366295, -38.684853496346399 ], [ -72.502446114717401, -38.6849719154798 ], [ -72.502661320327505, -38.685683593436401 ], [ -72.503670072795899, -38.6855176797147 ], [ -72.504834829842494, -38.685111342668698 ], [ -72.506892835375595, -38.684399632836801 ], [ -72.508251672990596, -38.683925535796 ], [ -72.509392061056104, -38.683829379685797 ], [ -72.510235162456496, -38.684113540742601 ], [ -72.510521741016404, -38.684321574337197 ], [ -72.510661348671505, -38.684479799311099 ] ] ] } },
{ "type": "Feature", "properties": { "id": "monoparte.25", "Name": null, "description": null, "timestamp": null, "begin": null, "end": null, "altitudeMode": null, "tessellate": -1, "extrude": 0, "visibility": -1, "drawOrder": null, "icon": null, "REG": "Araucanía", "COM": "Temuco", "LOC": "Cajón", "ZONA": "Reserva Agrícola", "NOM": "Reserva Agrícola", "UPERM": "Sin Información.", "UPROH": "Sin Información.", "P_DO": "08/09/1983", "N_DOC": "100", "T_DO": "Decreto", "OBS": null }, "geometry": { "type": "Polygon", "coordinates": [ [ [ -72.493841114244603, -38.666810546925198 ], [ -72.493598704571099, -38.670870682401201 ], [ -72.493551587738494, -38.670863776026003 ], [ -72.493639629494098, -38.670900407854198 ], [ -72.4966218195799, -38.671337327576801 ], [ -72.497301018354705, -38.6715026927087 ], [ -72.498424400896994, -38.671871400408598 ], [ -72.499153573700198, -38.672251905858303 ], [ -72.499684137386694, -38.6726074075018 ], [ -72.4997191014686, -38.672559358186497 ], [ -72.500477661591802, -38.6715168803835 ], [ -72.501105076135502, -38.671791089848 ], [ -72.501394593592195, -38.672060958876898 ], [ -72.502093406571504, -38.672628053138901 ], [ -72.5061029842403, -38.676314571949703 ], [ -72.506698701575004, -38.677194226453999 ], [ -72.506518187430501, -38.677540090599599 ], [ -72.506562149255501, -38.677578204932502 ], [ -72.506840591110006, -38.677819606501501 ], [ -72.506898291162898, -38.677780492316501 ], [ -72.507573588095696, -38.677322707212099 ], [ -72.507838273917002, -38.677596196508397 ], [ -72.507864661757495, -38.677623461709601 ], [ -72.508263438505793, -38.677704334378603 ], [ -72.508621281117698, -38.6777554850622 ], [ -72.5089396999565, -38.677807819803199 ], [ -72.509104952414205, -38.677957602649698 ], [ -72.509276249449499, -38.678231002340397 ], [ -72.509286826264798, -38.678447330931903 ], [ -72.509464169578493, -38.678844346425898 ], [ -72.509750723816694, -38.679052383159103 ], [ -72.510072171807195, -38.679166522993597 ], [ -72.510237429856502, -38.679316303950202 ], [ -72.510570971303494, -38.679677674409298 ], [ -72.510978832712198, -38.679943961506602 ], [ -72.511462525143003, -38.6801460682561 ], [ -72.511836602198699, -38.680256500449197 ], [ -72.511451941136301, -38.679929740232701 ], [ -72.509846330947795, -38.678585268644198 ], [ -72.509461284583793, -38.677977847774002 ], [ -72.509001929445105, -38.677465506289799 ], [ -72.508403161225004, -38.676524056375698 ], [ -72.508262232932196, -38.6760640468543 ], [ -72.508244261555404, -38.6748885047624 ], [ -72.508593027037904, -38.6747542320729 ], [ -72.509091928811102, -38.674460700423303 ], [ -72.509507448291401, -38.674076823200402 ], [ -72.509850163379895, -38.673818930788499 ], [ -72.510034293726704, -38.673500283774501 ], [ -72.501576535292003, -38.670006656638101 ], [ -72.493841114244603, -38.666810546925198 ] ], [ [ -72.503743918534298, -38.671846847721497 ], [ -72.503031637311494, -38.6725535831131 ], [ -72.502122283070094, -38.672009878912 ], [ -72.502838943309101, -38.671244767394597 ], [ -72.503743918534298, -38.671846847721497 ] ], [ [ -72.505589473969906, -38.672782977009298 ], [ -72.505714513268003, -38.673351242338299 ], [ -72.505390297951706, -38.673685115231201 ], [ -72.5049829922458, -38.673811741141499 ], [ -72.504566390192394, -38.673747971032299 ], [ -72.504212427316105, -38.673472580237302 ], [ -72.504120849045407, -38.673212508476603 ], [ -72.504198486885599, -38.673186989904899 ], [ -72.504113544347902, -38.6729416626765 ], [ -72.504228474504998, -38.672804744154902 ], [ -72.504414404949102, -38.672627561427902 ], [ -72.504967427288705, -38.672496566514297 ], [ -72.505312091380901, -38.672581560597699 ], [ -72.505589473969906, -38.672782977009298 ] ], [ [ -72.505006232134704, -38.674287724867497 ], [ -72.506256379450704, -38.672991769355299 ], [ -72.506907711889696, -38.673422718264199 ], [ -72.505634803579397, -38.674707410803101 ], [ -72.505006232134704, -38.674287724867497 ] ] ] } }
]
}
