{
"type": "FeatureCollection",
"name": "IPT_09_PRC_Pitrufquen",
"crs": { "type": "name", "properties": { "name": "urn:ogc:def:crs:OGC:1.3:CRS84" } },
"features": [
{ "type": "Feature", "properties": { "id": "monoparte.1", "Name": null, "description": null, "timestamp": null, "begin": null, "end": null, "altitudeMode": null, "tessellate": -1, "extrude": 0, "visibility": -1, "drawOrder": null, "icon": null, "REG": "Araucanía", "COM": "Pitrufquén", "LOC": "Pitrufquén", "ZONA": "B", "NOM": "Zona B", "UPERM": "Vivienda, comercio, oficinas, equipamiento, áreas verdes, talleres artesanales inofensivos y bodegas inofensivas.", "UPROH": "Talleres artesanales molestos, bodegas molestas y/o contaminantes.", "P_DO": "31/01/1984", "N_DOC": "137", "T_DO": "Decreto", "OBS": null }, "geometry": { "type": "Polygon", "coordinates": [ [ [ -72.624527947766794, -38.992031837909799 ], [ -72.624412228361393, -38.992235063424303 ], [ -72.624326589433807, -38.9923521234468 ], [ -72.624117611120596, -38.992655339367502 ], [ -72.623909740822, -38.992890597856899 ], [ -72.623721275976095, -38.993057329002603 ], [ -72.623567940425602, -38.993194368360797 ], [ -72.623492904927204, -38.993339697158703 ], [ -72.623445856294197, -38.993494880977401 ], [ -72.623426069122104, -38.993645641957897 ], [ -72.623041176097999, -38.993652192636802 ], [ -72.623225049791898, -38.993884578425899 ], [ -72.624376134890895, -38.995344277024202 ], [ -72.625782130078505, -38.997159479313197 ], [ -72.627129665059897, -38.998875194479098 ], [ -72.627453516514606, -38.998787657730702 ], [ -72.6291825762315, -38.997959257488397 ], [ -72.631872753543107, -38.996665935007499 ], [ -72.634138984460606, -38.995594309540202 ], [ -72.635889837689604, -38.994747257396398 ], [ -72.637512585937699, -38.993933970170403 ], [ -72.637716876509998, -38.9938978019796 ], [ -72.638384934085195, -38.993972274793499 ], [ -72.639974131673497, -38.994143093058902 ], [ -72.641541382555005, -38.9943324498986 ], [ -72.643474532153107, -38.994510344079998 ], [ -72.644963246887798, -38.994656828290502 ], [ -72.646739551889297, -38.994753778095102 ], [ -72.648922746267303, -38.994923756261699 ], [ -72.650474003176697, -38.994974601976402 ], [ -72.6452902756469, -38.9885474221173 ], [ -72.643451513491101, -38.986278874393001 ], [ -72.643305662173802, -38.986292967217103 ], [ -72.642827092855399, -38.985774079751401 ], [ -72.6423150216051, -38.985055945290704 ], [ -72.641055705347995, -38.985726365864799 ], [ -72.629545403455893, -38.991376278571501 ], [ -72.625633510485898, -38.993351284378498 ], [ -72.624527947766794, -38.992031837909799 ] ] ] } },
{ "type": "Feature", "properties": { "id": "monoparte.2", "Name": null, "description": null, "timestamp": null, "begin": null, "end": null, "altitudeMode": null, "tessellate": -1, "extrude": 0, "visibility": -1, "drawOrder": null, "icon": null, "REG": "Araucanía", "COM": "Pitrufquén", "LOC": "Pitrufquén", "ZONA": "R3", "NOM": "Área R3: Zona propensa a avalanchas, rodados, aluviones o erosiones acentuadas", "UPERM": "Áreas verdes", "UPROH": "Todos aquellos que no fueron indicados anteriormente.", "P_DO": "31/01/1984", "N_DOC": "137", "T_DO": "Decreto", "OBS": null }, "geometry": { "type": "Polygon", "coordinates": [ [ [ -72.643496615298602, -38.976226207984801 ], [ -72.643619768464106, -38.9762461898273 ], [ -72.644182791611101, -38.976210710725297 ], [ -72.644484277878504, -38.976284697304301 ], [ -72.644916843822898, -38.976384373240798 ], [ -72.645289361417994, -38.976503800459902 ], [ -72.645653648065803, -38.9766115678527 ], [ -72.645837449190495, -38.9764747389899 ], [ -72.645878286350793, -38.976378130831101 ], [ -72.645691111649995, -38.9763005728256 ], [ -72.6453015343223, -38.976294884807203 ], [ -72.645150937490797, -38.9761863910607 ], [ -72.644989374811701, -38.976161653693303 ], [ -72.644827200392399, -38.976125019131203 ], [ -72.644680573915196, -38.976093855687203 ], [ -72.644472370457706, -38.976052701647497 ], [ -72.644207767966904, -38.975953730350902 ], [ -72.644089792961694, -38.9758859209946 ], [ -72.643846834157898, -38.975762438960899 ], [ -72.643671556571107, -38.975767919273103 ], [ -72.643457869946204, -38.975768642541098 ], [ -72.643372516194702, -38.9757415202861 ], [ -72.643202723350001, -38.975705121599702 ], [ -72.643011594081997, -38.975699179456299 ], [ -72.642541853783797, -38.975767486437 ], [ -72.642196885271403, -38.975827167632197 ], [ -72.642402247061796, -38.975873138168197 ], [ -72.642677814947106, -38.975888357229998 ], [ -72.643029590704501, -38.975901194286202 ], [ -72.643207310377306, -38.975943303014702 ], [ -72.643496615298602, -38.976226207984801 ] ] ] } },
{ "type": "Feature", "properties": { "id": "monoparte.3", "Name": null, "description": null, "timestamp": null, "begin": null, "end": null, "altitudeMode": null, "tessellate": -1, "extrude": 0, "visibility": -1, "drawOrder": null, "icon": null, "REG": "Araucanía", "COM": "Pitrufquén", "LOC": "Pitrufquén", "ZONA": "C", "NOM": "Zona C", "UPERM": "Vivienda, comercio y oficinas, equipamiento, áreas verdes, talleres artesanales, industria y bodegas inofensivas.", "UPROH": "Industrias y bodegas molestas y/o contaminantes.", "P_DO": "31/01/1984", "N_DOC": "137", "T_DO": "Decreto", "OBS": null }, "geometry": { "type": "Polygon", "coordinates": [ [ [ -72.639572540018904, -38.975682465974501 ], [ -72.640758233498104, -38.977222014913501 ], [ -72.642563970420696, -38.979389165028401 ], [ -72.644350795428295, -38.981542576700697 ], [ -72.645429758980697, -38.982931631801399 ], [ -72.6467938023426, -38.984697841808099 ], [ -72.646431203045594, -38.984897226630501 ], [ -72.646481332968406, -38.9849814548718 ], [ -72.646527084699997, -38.985158767177403 ], [ -72.646521260554096, -38.985402041522804 ], [ -72.646430942465003, -38.985783804479702 ], [ -72.646234189895694, -38.9864119898524 ], [ -72.645883047554307, -38.9870664551282 ], [ -72.645229332776395, -38.987716084445701 ], [ -72.646178875413895, -38.9889018354962 ], [ -72.647167238473301, -38.990129260594998 ], [ -72.6494463495209, -38.992939251834699 ], [ -72.649809021341298, -38.993399775688403 ], [ -72.651048064805394, -38.994886458135397 ], [ -72.651165413788405, -38.994824905936497 ], [ -72.652652234992701, -38.994044267982602 ], [ -72.654439021697499, -38.993158873992499 ], [ -72.655747243657103, -38.992469595210203 ], [ -72.655439159701402, -38.992140640667699 ], [ -72.654489788075693, -38.990962113817197 ], [ -72.651460778220994, -38.987467899482198 ], [ -72.650689157540398, -38.986580721282401 ], [ -72.648987628597098, -38.984518880473303 ], [ -72.648091162314401, -38.983414904478998 ], [ -72.646902323395807, -38.981858554026203 ], [ -72.645863597715106, -38.980539752157 ], [ -72.644801140974394, -38.979293178983298 ], [ -72.643078729859695, -38.977263595060897 ], [ -72.642202209831396, -38.976247126677301 ], [ -72.641878164708999, -38.975810631527501 ], [ -72.641196681421604, -38.975738978799903 ], [ -72.640533855010901, -38.975673889443101 ], [ -72.640258044042895, -38.975653906059101 ], [ -72.639944188737601, -38.975606511250099 ], [ -72.639572540018904, -38.975682465974501 ] ] ] } },
{ "type": "Feature", "properties": { "id": "monoparte.4", "Name": null, "description": null, "timestamp": null, "begin": null, "end": null, "altitudeMode": null, "tessellate": -1, "extrude": 0, "visibility": -1, "drawOrder": null, "icon": null, "REG": "Araucanía", "COM": "Pitrufquén", "LOC": "Pitrufquén", "ZONA": "B", "NOM": "Zona B", "UPERM": "Vivienda, comercio, oficinas, equipamiento, áreas verdes, talleres artesanales inofensivos y bodegas inofensivas.", "UPROH": "Talleres artesanales molestos, bodegas molestas y/o contaminantes.", "P_DO": "31/01/1984", "N_DOC": "137", "T_DO": "Decreto", "OBS": null }, "geometry": { "type": "Polygon", "coordinates": [ [ [ -72.635844597768497, -38.975841245472502 ], [ -72.635837309190194, -38.9759044583584 ], [ -72.635941863118504, -38.976008443332802 ], [ -72.636263386211297, -38.976444081316799 ], [ -72.637558300582697, -38.978119616435002 ], [ -72.637642436964995, -38.978152738554499 ], [ -72.638846326713704, -38.979659505056198 ], [ -72.6400074695798, -38.981224790364202 ], [ -72.640663393986799, -38.981154252598998 ], [ -72.641011672944003, -38.981515159527198 ], [ -72.642093126138903, -38.982775472529198 ], [ -72.643226590811594, -38.984334438884503 ], [ -72.644354608553598, -38.985786316840198 ], [ -72.644339614676099, -38.985851133904298 ], [ -72.643918538607494, -38.9860358956578 ], [ -72.644116121628699, -38.986315707702801 ], [ -72.645229332776395, -38.987716084445701 ], [ -72.645883047554307, -38.9870664551282 ], [ -72.646234189895694, -38.9864119898524 ], [ -72.646430942465003, -38.985783804479702 ], [ -72.646521260554096, -38.985402041522804 ], [ -72.646527084699997, -38.985158767177403 ], [ -72.646481332968406, -38.9849814548718 ], [ -72.646431203045594, -38.984897226630501 ], [ -72.6467938023426, -38.984697841808099 ], [ -72.645429758980697, -38.982931631801399 ], [ -72.644350795428295, -38.981542576700697 ], [ -72.642563970420696, -38.979389165028401 ], [ -72.640758233498104, -38.977222014913501 ], [ -72.639572540018904, -38.975682465974501 ], [ -72.638931661806893, -38.975509435124501 ], [ -72.638758640878194, -38.975529137075398 ], [ -72.637927551061793, -38.975397788778501 ], [ -72.637126458504298, -38.975315546188703 ], [ -72.636787000059599, -38.975304691111702 ], [ -72.636343645073595, -38.975590216843599 ], [ -72.636175009408007, -38.975695575310603 ], [ -72.635932846855397, -38.975796078224 ], [ -72.635844597768497, -38.975841245472502 ] ] ] } },
{ "type": "Feature", "properties": { "id": "monoparte.5", "Name": null, "description": null, "timestamp": null, "begin": null, "end": null, "altitudeMode": null, "tessellate": -1, "extrude": 0, "visibility": -1, "drawOrder": null, "icon": null, "REG": "Araucanía", "COM": "Pitrufquén", "LOC": "Pitrufquén", "ZONA": "R1", "NOM": "Área R1", "UPERM": "Equipamiento turístico, recreacional y deportivo; áreas verdes.", "UPROH": "Todos aquellos que no fueron indicados anteriormente.", "P_DO": "31/01/1984", "N_DOC": "137", "T_DO": "Decreto", "OBS": null }, "geometry": { "type": "Polygon", "coordinates": [ [ [ -72.6224624475132, -38.992925920425201 ], [ -72.622609696174806, -38.992923871222203 ], [ -72.622746358550202, -38.992908898088899 ], [ -72.622840401128698, -38.9928666498705 ], [ -72.623125844890396, -38.992625407077199 ], [ -72.623587869167096, -38.992164178555399 ], [ -72.6236813811784, -38.992021850243603 ], [ -72.623700985359307, -38.991867519788997 ], [ -72.623710531710302, -38.991695628345497 ], [ -72.623854004712797, -38.991455223602202 ], [ -72.623922807359307, -38.9913672866167 ], [ -72.623953398562605, -38.991158991351398 ], [ -72.624039948109697, -38.991059777041997 ], [ -72.624083398504197, -38.9905650908537 ], [ -72.624062985554104, -38.990165337437901 ], [ -72.624115515069207, -38.9900278575765 ], [ -72.624156710967398, -38.9898478315326 ], [ -72.624286275731095, -38.989604283741699 ], [ -72.6243022342573, -38.989378569720301 ], [ -72.624489826760893, -38.988925872996298 ], [ -72.624510159071505, -38.988785819300801 ], [ -72.624596340644899, -38.988679466733501 ], [ -72.6251684409158, -38.988311331035199 ], [ -72.625365095490906, -38.9883052130672 ], [ -72.6254832882546, -38.988197863960899 ], [ -72.625596951602901, -38.988121399463999 ], [ -72.625687688866506, -38.988104276771203 ], [ -72.625809725092907, -38.987982508212603 ], [ -72.626004388008894, -38.987847755233297 ], [ -72.626136283703403, -38.987829351484798 ], [ -72.6262241039977, -38.987755120967599 ], [ -72.626257408074693, -38.987689736190298 ], [ -72.626324548412796, -38.9876590477664 ], [ -72.626578830393797, -38.987615386031102 ], [ -72.626700849970703, -38.987582989463903 ], [ -72.626791039058205, -38.987555157650696 ], [ -72.626871352604496, -38.987513334490799 ], [ -72.627028681389305, -38.9874548146446 ], [ -72.627225346810903, -38.987359320862197 ], [ -72.627367313733302, -38.987269103635498 ], [ -72.627555938794302, -38.987105936988002 ], [ -72.627647039040895, -38.987095951713201 ], [ -72.627741070949696, -38.987053700006697 ], [ -72.6278726125947, -38.986938783659902 ], [ -72.628030135424694, -38.986794458300402 ], [ -72.6282697925989, -38.986644001245899 ], [ -72.628602372597101, -38.986519249348902 ], [ -72.629171856564795, -38.9862798717811 ], [ -72.629258575585894, -38.986184223580899 ], [ -72.629550744342893, -38.9858962824607 ], [ -72.629655389995705, -38.985792925403999 ], [ -72.629730589446893, -38.985651162851099 ], [ -72.629724727786893, -38.985569213392502 ], [ -72.629724671362894, -38.985569283607703 ], [ -72.629586547063099, -38.985704665059998 ], [ -72.629353898940096, -38.985932362659199 ], [ -72.629086806874994, -38.986083676281702 ], [ -72.628860277298998, -38.986132438593501 ], [ -72.628552944661607, -38.986243297209903 ], [ -72.628337095584399, -38.986202352688402 ], [ -72.628334054828599, -38.986142865795202 ], [ -72.628160897987897, -38.986041010086801 ], [ -72.627880708820399, -38.986085482636803 ], [ -72.627192906112597, -38.986071144109097 ], [ -72.626175228477194, -38.986025359923403 ], [ -72.625132559782401, -38.985938638184798 ], [ -72.624586841641701, -38.985866240958103 ], [ -72.624175556520598, -38.985884990391099 ], [ -72.623409712770496, -38.9858373080394 ], [ -72.622621002252799, -38.985790331478597 ], [ -72.621870100019393, -38.985736215926003 ], [ -72.620785079667201, -38.985567356401901 ], [ -72.619789365235107, -38.985502958953603 ], [ -72.619425026597597, -38.985544066484401 ], [ -72.619273496341407, -38.985566647503902 ], [ -72.619061556050795, -38.9857519748629 ], [ -72.618856025183405, -38.985913269586902 ], [ -72.618549484499994, -38.986039966792802 ], [ -72.618033525745602, -38.986401560361699 ], [ -72.617736482557305, -38.9867146495478 ], [ -72.617916297935693, -38.986947392966897 ], [ -72.618939434749095, -38.988297918529199 ], [ -72.619138446104202, -38.9886075201061 ], [ -72.619891581842097, -38.989602973103899 ], [ -72.620605412846601, -38.990575809699003 ], [ -72.621384797595596, -38.991635976705403 ], [ -72.6224624475132, -38.992925920425201 ] ] ] } },
{ "type": "Feature", "properties": { "id": "monoparte.6", "Name": null, "description": null, "timestamp": null, "begin": null, "end": null, "altitudeMode": null, "tessellate": -1, "extrude": 0, "visibility": -1, "drawOrder": null, "icon": null, "REG": "Araucanía", "COM": "Pitrufquén", "LOC": "Pitrufquén", "ZONA": "R2", "NOM": "Área R2", "UPERM": "Se prohibe la construcción, a excepción de los recintos propios de la Estación de Ferrocarriles.", "UPROH": "Todos aquellos que no fueron indicados anteriormente.", "P_DO": "31/01/1984", "N_DOC": "137", "T_DO": "Decreto", "OBS": null }, "geometry": { "type": "Polygon", "coordinates": [ [ [ -72.635594805837897, -38.976533518829697 ], [ -72.636068659918493, -38.977055087914302 ], [ -72.638426148112899, -38.979982030828403 ], [ -72.6394694873822, -38.981274542009203 ], [ -72.639425589124997, -38.981371243655701 ], [ -72.641550434120404, -38.983983642575097 ], [ -72.642827092855399, -38.985774079751401 ], [ -72.643305662173802, -38.986292967217103 ], [ -72.643451513491101, -38.986278874393001 ], [ -72.6452902756469, -38.9885474221173 ], [ -72.650474003176697, -38.994974601976402 ], [ -72.650856143312396, -38.994987123586803 ], [ -72.651048064805394, -38.994886458135397 ], [ -72.649809021341298, -38.993399775688403 ], [ -72.6494463495209, -38.992939251834699 ], [ -72.647167238473301, -38.990129260594998 ], [ -72.646178875413895, -38.9889018354962 ], [ -72.645229332776395, -38.987716084445701 ], [ -72.644116121628699, -38.986315707702801 ], [ -72.643918538607494, -38.9860358956578 ], [ -72.644339614676099, -38.985851133904298 ], [ -72.644354608553598, -38.985786316840198 ], [ -72.643226590811594, -38.984334438884503 ], [ -72.642093126138903, -38.982775472529198 ], [ -72.641011672944003, -38.981515159527198 ], [ -72.640663393986799, -38.981154252598998 ], [ -72.6400074695798, -38.981224790364202 ], [ -72.638846326713704, -38.979659505056198 ], [ -72.637642436964995, -38.978152738554499 ], [ -72.637558300582697, -38.978119616435002 ], [ -72.636263386211297, -38.976444081316799 ], [ -72.635941863118504, -38.976008443332802 ], [ -72.635837309190194, -38.9759044583584 ], [ -72.635844597768497, -38.975841245472502 ], [ -72.635843590240697, -38.975841761513401 ], [ -72.635694187214696, -38.975768479968899 ], [ -72.635432935918402, -38.975989386280702 ], [ -72.635319987969496, -38.976109093890102 ], [ -72.635580178955394, -38.9764267282007 ], [ -72.635594805837897, -38.976533518829697 ] ] ] } },
{ "type": "Feature", "properties": { "id": "monoparte.7", "Name": null, "description": null, "timestamp": null, "begin": null, "end": null, "altitudeMode": null, "tessellate": -1, "extrude": 0, "visibility": -1, "drawOrder": null, "icon": null, "REG": "Araucanía", "COM": "Pitrufquén", "LOC": "Pitrufquén", "ZONA": "B", "NOM": "Zona B", "UPERM": "Vivienda, comercio, oficinas, equipamiento, áreas verdes, talleres artesanales inofensivos y bodegas inofensivas.", "UPROH": "Talleres artesanales molestos, bodegas molestas y/o contaminantes.", "P_DO": "31/01/1984", "N_DOC": "137", "T_DO": "Decreto", "OBS": null }, "geometry": { "type": "Polygon", "coordinates": [ [ [ -72.624490081059406, -38.991327605421397 ], [ -72.631634153782301, -38.987793510503103 ], [ -72.636398451030303, -38.9852998084314 ], [ -72.639582754875505, -38.9837990433128 ], [ -72.640855656691897, -38.983129472815598 ], [ -72.639425589124997, -38.981371243655701 ], [ -72.6394694873822, -38.981274542009203 ], [ -72.638426148112899, -38.979982030828403 ], [ -72.636068659918493, -38.977055087914302 ], [ -72.635594805837897, -38.976533518829697 ], [ -72.635278012577103, -38.976697121852801 ], [ -72.635269764772204, -38.977072742062198 ], [ -72.635210499263906, -38.977167538164203 ], [ -72.635081170348101, -38.977504036614597 ], [ -72.634607401004104, -38.9783589126572 ], [ -72.634490140874306, -38.978662860813799 ], [ -72.634080005281007, -38.979597973229303 ], [ -72.633638793770999, -38.980105065489902 ], [ -72.633040612340807, -38.980945940917898 ], [ -72.632026113711007, -38.982520129330702 ], [ -72.631827469218905, -38.982815290724901 ], [ -72.630560213979393, -38.984811435132997 ], [ -72.630053615131004, -38.985563644593697 ], [ -72.629540242429599, -38.986273164334399 ], [ -72.629470710556603, -38.9864362000055 ], [ -72.629172346010407, -38.986513415955898 ], [ -72.628704759681, -38.986685272183699 ], [ -72.628215947431102, -38.9869795726826 ], [ -72.627731508843297, -38.987269921212601 ], [ -72.627109658421602, -38.987739715452697 ], [ -72.626965683915998, -38.987790669546698 ], [ -72.626677929842998, -38.987806775679601 ], [ -72.626655232279603, -38.987900429562899 ], [ -72.626658500676001, -38.988054047714101 ], [ -72.626572505382796, -38.988163971069497 ], [ -72.626459448463805, -38.9881925134843 ], [ -72.626323889239899, -38.988228906271203 ], [ -72.626271759355404, -38.988194780093799 ], [ -72.626145725682207, -38.988148653189398 ], [ -72.625947766204604, -38.988308533867297 ], [ -72.625732439449095, -38.988397455959401 ], [ -72.625381916434506, -38.988529908294801 ], [ -72.625234094577493, -38.988595280428598 ], [ -72.625074192118106, -38.988693201497398 ], [ -72.6248215304024, -38.988858357125302 ], [ -72.624764612695898, -38.988999547997103 ], [ -72.6247117205275, -38.989129890090403 ], [ -72.624785810781106, -38.990132130683399 ], [ -72.624859935571607, -38.990955625251402 ], [ -72.624610182263297, -38.9911778873307 ], [ -72.624490081059406, -38.991327605421397 ] ] ] } },
{ "type": "Feature", "properties": { "id": "monoparte.8", "Name": null, "description": null, "timestamp": null, "begin": null, "end": null, "altitudeMode": null, "tessellate": -1, "extrude": 0, "visibility": -1, "drawOrder": null, "icon": null, "REG": "Araucanía", "COM": "Pitrufquén", "LOC": "Pitrufquén", "ZONA": "A", "NOM": "Zona A", "UPERM": "Vivienda, comercio, oficinas, equipamiento, áreas verdes, talleres artesanales inofensivos.", "UPROH": "Talleres artesanales molestos, industria y bodegas en todos sus tipos.", "P_DO": "31/01/1984", "N_DOC": "137", "T_DO": "Decreto", "OBS": null }, "geometry": { "type": "Polygon", "coordinates": [ [ [ -72.624527947766794, -38.992031837909799 ], [ -72.625633510485898, -38.993351284378498 ], [ -72.629545403455893, -38.991376278571501 ], [ -72.641055705347995, -38.985726365864799 ], [ -72.6423150216051, -38.985055945290704 ], [ -72.641550434120404, -38.983983642575097 ], [ -72.640855656691897, -38.983129472815598 ], [ -72.639582754875505, -38.9837990433128 ], [ -72.636398451030303, -38.9852998084314 ], [ -72.631634153782301, -38.987793510503103 ], [ -72.624490081059406, -38.991327605421397 ], [ -72.624489595934307, -38.9913282087063 ], [ -72.624511851662902, -38.9916742815657 ], [ -72.6245593622603, -38.991976669320202 ], [ -72.624527947766794, -38.992031837909799 ] ] ] } },
{ "type": "Feature", "properties": { "id": "monoparte.9", "Name": null, "description": null, "timestamp": null, "begin": null, "end": null, "altitudeMode": null, "tessellate": -1, "extrude": 0, "visibility": -1, "drawOrder": null, "icon": null, "REG": "Araucanía", "COM": "Pitrufquén", "LOC": "Pitrufquén", "ZONA": "R1-A", "NOM": "Área R1-A. zona inundable o potencialmente inundable", "UPERM": "Áreas verde.", "UPROH": "Todos aquellos que no fueron indicados anteriormente.", "P_DO": "31/01/1984", "N_DOC": "137", "T_DO": "Decreto", "OBS": null }, "geometry": { "type": "Polygon", "coordinates": [ [ [ -72.632821310738194, -38.980874192700803 ], [ -72.632939235909902, -38.980723612772003 ], [ -72.633015702540007, -38.980606832668798 ], [ -72.633118874510799, -38.980474919521001 ], [ -72.633215098592402, -38.980296750091298 ], [ -72.6333025425795, -38.980126004545298 ], [ -72.633409197050398, -38.979883161419899 ], [ -72.633533587408905, -38.979718413093202 ], [ -72.633568349100102, -38.979592207648601 ], [ -72.633583911713004, -38.979359354767602 ], [ -72.6336289140595, -38.979254279754102 ], [ -72.633742325114795, -38.979143496579603 ], [ -72.634050717546401, -38.978994459951402 ], [ -72.634162483305701, -38.978851553514602 ], [ -72.634164138972693, -38.978704931449997 ], [ -72.634132005211598, -38.978345584392102 ], [ -72.634166251015301, -38.977672437477104 ], [ -72.634204116479495, -38.977606908306598 ], [ -72.634354103811205, -38.977494983949597 ], [ -72.634466963004996, -38.977373492897598 ], [ -72.634554583514898, -38.977206315168999 ], [ -72.634710609218203, -38.977033429706999 ], [ -72.634842122743095, -38.9769185058137 ], [ -72.634928462877895, -38.976726343796301 ], [ -72.635024860676793, -38.976551742646699 ], [ -72.635115585256102, -38.976445240938098 ], [ -72.635380796884306, -38.976347595785903 ], [ -72.635422576191402, -38.976234331886502 ], [ -72.635319987969496, -38.976109093890102 ], [ -72.635259171127601, -38.9761735504336 ], [ -72.634958896944596, -38.976421242787403 ], [ -72.634724772499794, -38.976619205858199 ], [ -72.634671105333098, -38.976912829758298 ], [ -72.634431488489398, -38.9771526704669 ], [ -72.634312893211501, -38.977370861995702 ], [ -72.634136991060501, -38.977513385202201 ], [ -72.634033331768904, -38.977725153081501 ], [ -72.634060438974203, -38.9781056292979 ], [ -72.634008603942803, -38.978285990310901 ], [ -72.634072607941803, -38.978492529833801 ], [ -72.634107955053906, -38.978735711335297 ], [ -72.634069536248404, -38.978879905613702 ], [ -72.633822604178306, -38.978976977944797 ], [ -72.633609505689094, -38.979138533992902 ], [ -72.633538164640797, -38.979236089205997 ], [ -72.633507060509203, -38.979374095832199 ], [ -72.633456734656605, -38.979733154178803 ], [ -72.633327772194093, -38.979898044973901 ], [ -72.633246970507699, -38.980109099546198 ], [ -72.633127149624301, -38.9803034958938 ], [ -72.6329786695987, -38.980534534856297 ], [ -72.632854269439704, -38.980788655237298 ], [ -72.632821310738194, -38.980874192700803 ] ] ] } },
{ "type": "Feature", "properties": { "id": "monoparte.10", "Name": null, "description": null, "timestamp": null, "begin": null, "end": null, "altitudeMode": null, "tessellate": -1, "extrude": 0, "visibility": -1, "drawOrder": null, "icon": null, "REG": "Araucanía", "COM": "Pitrufquén", "LOC": "Pitrufquén", "ZONA": "R1-A", "NOM": "Área R1-A. zona inundable o potencialmente inundable", "UPERM": "Áreas verde.", "UPROH": "Todos aquellos que no fueron indicados anteriormente.", "P_DO": "31/01/1984", "N_DOC": "137", "T_DO": "Decreto", "OBS": null }, "geometry": { "type": "Polygon", "coordinates": [ [ [ -72.630704215306693, -38.983527400981203 ], [ -72.630856119542202, -38.983516176401302 ], [ -72.631036483872904, -38.983460508683898 ], [ -72.631116789038799, -38.9834186820475 ], [ -72.6311636240806, -38.983349300114902 ], [ -72.631199486760295, -38.983244510775499 ], [ -72.631258761081597, -38.9831497163336 ], [ -72.631311080816403, -38.983098038083099 ], [ -72.631449931360095, -38.982947140810701 ], [ -72.631538651865796, -38.982890752118003 ], [ -72.631608167494804, -38.982817088109996 ], [ -72.631706406680294, -38.982678180557002 ], [ -72.631774843133101, -38.982404356596597 ], [ -72.631819136103204, -38.982106260173197 ], [ -72.631903838180406, -38.981971349460302 ], [ -72.6319777431587, -38.981893973338103 ], [ -72.632173472215101, -38.981780626022697 ], [ -72.632349814591294, -38.981646433813097 ], [ -72.632475487464504, -38.981506670542402 ], [ -72.632570612295396, -38.981396458441701 ], [ -72.632620197799397, -38.981201868618797 ], [ -72.632703246332397, -38.9811242070327 ], [ -72.632743644525604, -38.981003445942797 ], [ -72.6325463336604, -38.981185534394697 ], [ -72.632436870410103, -38.981433230237499 ], [ -72.632264608229804, -38.981647134989402 ], [ -72.631991133726103, -38.981822487085203 ], [ -72.631721919383494, -38.982081119599599 ], [ -72.631672511869695, -38.982309069408302 ], [ -72.6315804160119, -38.982597930157802 ], [ -72.631550220043593, -38.982753783542698 ], [ -72.631340756870401, -38.982986720027 ], [ -72.631152939358898, -38.983195150321102 ], [ -72.630940430997796, -38.983368599451197 ], [ -72.630704215306693, -38.983527400981203 ] ] ] } },
{ "type": "Feature", "properties": { "id": "monoparte.11", "Name": null, "description": null, "timestamp": null, "begin": null, "end": null, "altitudeMode": null, "tessellate": -1, "extrude": 0, "visibility": -1, "drawOrder": null, "icon": null, "REG": "Araucanía", "COM": "Pitrufquén", "LOC": "Pitrufquén", "ZONA": "R3", "NOM": "Área R3: Zona propensa a avalanchas, rodados, aluviones o erosiones acentuadas", "UPERM": "Áreas verdes", "UPROH": "Todos aquellos que no fueron indicados anteriormente.", "P_DO": "31/01/1984", "N_DOC": "137", "T_DO": "Decreto", "OBS": null }, "geometry": { "type": "Polygon", "coordinates": [ [ [ -72.632743644525604, -38.981003445942797 ], [ -72.632703246332397, -38.9811242070327 ], [ -72.632620197799397, -38.981201868618797 ], [ -72.632570612295396, -38.981396458441701 ], [ -72.632475487464504, -38.981506670542402 ], [ -72.632349814591294, -38.981646433813097 ], [ -72.632173472215101, -38.981780626022697 ], [ -72.6319777431587, -38.981893973338103 ], [ -72.631903838180406, -38.981971349460302 ], [ -72.631819136103204, -38.982106260173197 ], [ -72.631774843133101, -38.982404356596597 ], [ -72.631706406680294, -38.982678180557002 ], [ -72.631608167494804, -38.982817088109996 ], [ -72.631538651865796, -38.982890752118003 ], [ -72.631449931360095, -38.982947140810701 ], [ -72.631311080816403, -38.983098038083099 ], [ -72.631258761081597, -38.9831497163336 ], [ -72.631199486760295, -38.983244510775499 ], [ -72.6311636240806, -38.983349300114902 ], [ -72.631116789038799, -38.9834186820475 ], [ -72.631036483872904, -38.983460508683898 ], [ -72.630856119542202, -38.983516176401302 ], [ -72.630704215306693, -38.983527400981203 ], [ -72.630689508888594, -38.983537287408801 ], [ -72.630505050976595, -38.983662197308703 ], [ -72.6302751332328, -38.984092389415103 ], [ -72.630121448017405, -38.984371251596102 ], [ -72.630076004972693, -38.984527579597 ], [ -72.630092127843298, -38.98484285888 ], [ -72.629966189744906, -38.985067233479199 ], [ -72.629882619130996, -38.985373702958597 ], [ -72.629724727786893, -38.985569213392502 ], [ -72.629730589446893, -38.985651162851099 ], [ -72.629655389995705, -38.985792925403999 ], [ -72.629550744342893, -38.9858962824607 ], [ -72.629258575585894, -38.986184223580899 ], [ -72.629171856564795, -38.9862798717811 ], [ -72.628602372597101, -38.986519249348902 ], [ -72.6282697925989, -38.986644001245899 ], [ -72.628030135424694, -38.986794458300402 ], [ -72.6278726125947, -38.986938783659902 ], [ -72.627741070949696, -38.987053700006697 ], [ -72.627647039040895, -38.987095951713201 ], [ -72.627555938794302, -38.987105936988002 ], [ -72.627367313733302, -38.987269103635498 ], [ -72.627225346810903, -38.987359320862197 ], [ -72.627028681389305, -38.9874548146446 ], [ -72.626871352604496, -38.987513334490799 ], [ -72.626791039058205, -38.987555157650696 ], [ -72.626700849970703, -38.987582989463903 ], [ -72.626578830393797, -38.987615386031102 ], [ -72.626324548412796, -38.9876590477664 ], [ -72.626257408074693, -38.987689736190298 ], [ -72.6262241039977, -38.987755120967599 ], [ -72.626136283703403, -38.987829351484798 ], [ -72.626004388008894, -38.987847755233297 ], [ -72.625809725092907, -38.987982508212603 ], [ -72.625687688866506, -38.988104276771203 ], [ -72.625596951602901, -38.988121399463999 ], [ -72.6254832882546, -38.988197863960899 ], [ -72.625365095490906, -38.9883052130672 ], [ -72.6251684409158, -38.988311331035199 ], [ -72.624596340644899, -38.988679466733501 ], [ -72.624510159071505, -38.988785819300801 ], [ -72.624489826760893, -38.988925872996298 ], [ -72.6243022342573, -38.989378569720301 ], [ -72.624286275731095, -38.989604283741699 ], [ -72.624156710967398, -38.9898478315326 ], [ -72.624115515069207, -38.9900278575765 ], [ -72.624062985554104, -38.990165337437901 ], [ -72.624083398504197, -38.9905650908537 ], [ -72.624039948109697, -38.991059777041997 ], [ -72.623953398562605, -38.991158991351398 ], [ -72.623922807359307, -38.9913672866167 ], [ -72.623854004712797, -38.991455223602202 ], [ -72.623710531710302, -38.991695628345497 ], [ -72.623700985359307, -38.991867519788997 ], [ -72.6236813811784, -38.992021850243603 ], [ -72.623587869167096, -38.992164178555399 ], [ -72.623125844890396, -38.992625407077199 ], [ -72.622840401128698, -38.9928666498705 ], [ -72.622746358550202, -38.992908898088899 ], [ -72.622609696174806, -38.992923871222203 ], [ -72.6224624475132, -38.992925920425201 ], [ -72.622539481740006, -38.993018127845403 ], [ -72.623041176097999, -38.993652192636802 ], [ -72.623426069122104, -38.993645641957897 ], [ -72.623445856294197, -38.993494880977401 ], [ -72.623492904927204, -38.993339697158703 ], [ -72.623567940425602, -38.993194368360797 ], [ -72.623721275976095, -38.993057329002603 ], [ -72.623909740822, -38.992890597856899 ], [ -72.624117611120596, -38.992655339367502 ], [ -72.624326589433807, -38.9923521234468 ], [ -72.624412228361393, -38.992235063424303 ], [ -72.6245593622603, -38.991976669320202 ], [ -72.624511851662902, -38.9916742815657 ], [ -72.624489595934307, -38.9913282087063 ], [ -72.624610182263297, -38.9911778873307 ], [ -72.624859935571607, -38.990955625251402 ], [ -72.624785810781106, -38.990132130683399 ], [ -72.6247117205275, -38.989129890090403 ], [ -72.624764612695898, -38.988999547997103 ], [ -72.6248215304024, -38.988858357125302 ], [ -72.625074192118106, -38.988693201497398 ], [ -72.625234094577493, -38.988595280428598 ], [ -72.625381916434506, -38.988529908294801 ], [ -72.625732439449095, -38.988397455959401 ], [ -72.625947766204604, -38.988308533867297 ], [ -72.626145725682207, -38.988148653189398 ], [ -72.626271759355404, -38.988194780093799 ], [ -72.626323889239899, -38.988228906271203 ], [ -72.626459448463805, -38.9881925134843 ], [ -72.626572505382796, -38.988163971069497 ], [ -72.626658500676001, -38.988054047714101 ], [ -72.626655232279603, -38.987900429562899 ], [ -72.626677929842998, -38.987806775679601 ], [ -72.626965683915998, -38.987790669546698 ], [ -72.627109658421602, -38.987739715452697 ], [ -72.627731508843297, -38.987269921212601 ], [ -72.628215947431102, -38.9869795726826 ], [ -72.628704759681, -38.986685272183699 ], [ -72.629172346010407, -38.986513415955898 ], [ -72.629470710556603, -38.9864362000055 ], [ -72.629540242429599, -38.986273164334399 ], [ -72.630053615131004, -38.985563644593697 ], [ -72.630560213979393, -38.984811435132997 ], [ -72.631827469218905, -38.982815290724901 ], [ -72.632026113711007, -38.982520129330702 ], [ -72.633040612340807, -38.980945940917898 ], [ -72.633638793770999, -38.980105065489902 ], [ -72.634080005281007, -38.979597973229303 ], [ -72.634490140874306, -38.978662860813799 ], [ -72.634607401004104, -38.9783589126572 ], [ -72.635081170348101, -38.977504036614597 ], [ -72.635210499263906, -38.977167538164203 ], [ -72.635269764772204, -38.977072742062198 ], [ -72.635278012577103, -38.976697121852801 ], [ -72.635594805837897, -38.976533518829697 ], [ -72.635580178955394, -38.9764267282007 ], [ -72.635422576191402, -38.976234331886502 ], [ -72.635380796884306, -38.976347595785903 ], [ -72.635115585256102, -38.976445240938098 ], [ -72.635024860676793, -38.976551742646699 ], [ -72.634928462877895, -38.976726343796301 ], [ -72.634842122743095, -38.9769185058137 ], [ -72.634710609218203, -38.977033429706999 ], [ -72.634554583514898, -38.977206315168999 ], [ -72.634466963004996, -38.977373492897598 ], [ -72.634354103811205, -38.977494983949597 ], [ -72.634204116479495, -38.977606908306598 ], [ -72.634166251015301, -38.977672437477104 ], [ -72.634132005211598, -38.978345584392102 ], [ -72.634164138972693, -38.978704931449997 ], [ -72.634162483305701, -38.978851553514602 ], [ -72.634050717546401, -38.978994459951402 ], [ -72.633742325114795, -38.979143496579603 ], [ -72.6336289140595, -38.979254279754102 ], [ -72.633583911713004, -38.979359354767602 ], [ -72.633568349100102, -38.979592207648601 ], [ -72.633533587408905, -38.979718413093202 ], [ -72.633409197050398, -38.979883161419899 ], [ -72.6333025425795, -38.980126004545298 ], [ -72.633215098592402, -38.980296750091298 ], [ -72.633118874510799, -38.980474919521001 ], [ -72.633015702540007, -38.980606832668798 ], [ -72.632939235909902, -38.980723612772003 ], [ -72.632821310738194, -38.980874192700803 ], [ -72.632786882880495, -38.980963542023197 ], [ -72.632743644525604, -38.981003445942797 ] ] ] } },
{ "type": "Feature", "properties": { "id": "monoparte.12", "Name": null, "description": null, "timestamp": null, "begin": null, "end": null, "altitudeMode": null, "tessellate": -1, "extrude": 0, "visibility": -1, "drawOrder": null, "icon": null, "REG": "Araucanía", "COM": "Pitrufquén", "LOC": "Pitrufquén", "ZONA": "C-1", "NOM": "Zona C-1: Zona Habitacional Mixta", "UPERM": "Residencial, Equipamiento científico, comercio, culto y cultura, deporte, educación, esparcimeinto, salud, seguridad, servicio y social; Actividades productivas industria inofensiva, bodegaje y talleres inofensivos.", "UPROH": "Todos aquellos que no fueron indicados anteriormente, en especial cementerios y crematorios, cárceles, centros de detención, centro de internación provisional, centros cerrados de privacidad de libertad.", "P_DO": "31/01/1984", "N_DOC": "137", "T_DO": "Decreto", "OBS": null }, "geometry": { "type": "Polygon", "coordinates": [ [ [ -72.6527718470156, -38.9868347125282 ], [ -72.650376751743295, -38.984143415418799 ], [ -72.648406343127903, -38.981601420133501 ], [ -72.646894674797096, -38.979962585918997 ], [ -72.645612026916595, -38.9784714783232 ], [ -72.643804772327599, -38.976424778539801 ], [ -72.643704893743205, -38.976240826053001 ], [ -72.643619768464106, -38.9762461898273 ], [ -72.643496615298602, -38.976226207984801 ], [ -72.643207310377306, -38.975943303014702 ], [ -72.643029590704501, -38.975901194286202 ], [ -72.642677814947106, -38.975888357229998 ], [ -72.642402247061796, -38.975873138168197 ], [ -72.642196885271403, -38.975827167632197 ], [ -72.641878164708999, -38.975810631527501 ], [ -72.642202209831396, -38.976247126677301 ], [ -72.643078729859695, -38.977263595060897 ], [ -72.644801140974394, -38.979293178983298 ], [ -72.645863597715106, -38.980539752157 ], [ -72.646902323395807, -38.981858554026203 ], [ -72.648091162314401, -38.983414904478998 ], [ -72.648987628597098, -38.984518880473303 ], [ -72.650689157540398, -38.986580721282401 ], [ -72.651460778220994, -38.987467899482198 ], [ -72.6527718470156, -38.9868347125282 ] ] ] } },
{ "type": "Feature", "properties": { "id": "monoparte.13", "Name": null, "description": null, "timestamp": null, "begin": null, "end": null, "altitudeMode": null, "tessellate": -1, "extrude": 0, "visibility": -1, "drawOrder": null, "icon": null, "REG": "Araucanía", "COM": "Pitrufquén", "LOC": "Pitrufquén", "ZONA": "Franja Protección", "NOM": "Franja Protección por Línea de Alta Tensión", "UPERM": "Ver Ordenanza", "UPROH": "Ver Ordenanza", "P_DO": "31/01/1984", "N_DOC": "137", "T_DO": "Decreto", "OBS": null }, "geometry": { "type": "Polygon", "coordinates": [ [ [ -72.653062493865505, -38.9866943391158 ], [ -72.651093847868907, -38.984430772342002 ], [ -72.649707949351097, -38.982716539282301 ], [ -72.648157771676395, -38.980775064413699 ], [ -72.647086676557393, -38.9795395086227 ], [ -72.646055558674902, -38.978338439710399 ], [ -72.644280915393594, -38.976332433978001 ], [ -72.644277900500398, -38.976234051298398 ], [ -72.644182791611101, -38.976210710725297 ], [ -72.643704893743205, -38.976240826053001 ], [ -72.643804772327599, -38.976424778539801 ], [ -72.645612026916595, -38.9784714783232 ], [ -72.646894674797096, -38.979962585918997 ], [ -72.648406343127903, -38.981601420133501 ], [ -72.650376751743295, -38.984143415418799 ], [ -72.6527718470156, -38.9868347125282 ], [ -72.653062493865505, -38.9866943391158 ] ] ] } },
{ "type": "Feature", "properties": { "id": "monoparte.14", "Name": null, "description": null, "timestamp": null, "begin": null, "end": null, "altitudeMode": null, "tessellate": -1, "extrude": 0, "visibility": -1, "drawOrder": null, "icon": null, "REG": "Araucanía", "COM": "Pitrufquén", "LOC": "Pitrufquén", "ZONA": "C-1", "NOM": "Zona C-1: Zona Habitacional Mixta", "UPERM": "Residencial, Equipamiento científico, comercio, culto y cultura, deporte, educación, esparcimeinto, salud, seguridad, servicio y social; Actividades productivas industria inofensiva, bodegaje y talleres inofensivos.", "UPROH": "Todos aquellos que no fueron indicados anteriormente, en especial cementerios y crematorios, cárceles, centros de detención, centro de internación provisional, centros cerrados de privacidad de libertad.", "P_DO": "31/01/1984", "N_DOC": "137", "T_DO": "Decreto", "OBS": null }, "geometry": { "type": "Polygon", "coordinates": [ [ [ -72.653062493865505, -38.9866943391158 ], [ -72.654088789154798, -38.986198662513502 ], [ -72.658400404108903, -38.984004256687697 ], [ -72.660909386887994, -38.982635367896897 ], [ -72.660599136888294, -38.982632148754902 ], [ -72.660371393317703, -38.9827751477563 ], [ -72.660216671708298, -38.9828538882076 ], [ -72.659992673955401, -38.982891905968302 ], [ -72.659653444066905, -38.9829454582609 ], [ -72.659245183444, -38.982963045704302 ], [ -72.658597785276498, -38.982961923478904 ], [ -72.658388398739802, -38.982927982203201 ], [ -72.658240684959196, -38.982787241579501 ], [ -72.658096283395693, -38.9827107438431 ], [ -72.657990653988406, -38.982616346912003 ], [ -72.657827470270007, -38.9825309057439 ], [ -72.657651805910206, -38.982463969312597 ], [ -72.657403248493694, -38.9823216259812 ], [ -72.657161188663693, -38.982305389850602 ], [ -72.656863871061006, -38.982224156780497 ], [ -72.656752270275803, -38.982132329457102 ], [ -72.656551158720106, -38.982021861092399 ], [ -72.656419199237106, -38.981949737585602 ], [ -72.656289797397406, -38.981868001006603 ], [ -72.656230850317002, -38.981672040622598 ], [ -72.656136929495901, -38.981567740998798 ], [ -72.655834863777997, -38.9813497370017 ], [ -72.655508167622898, -38.981157409740199 ], [ -72.655233614509996, -38.981014089954201 ], [ -72.654866554091498, -38.9809272936144 ], [ -72.654698870034395, -38.980858075609397 ], [ -72.654545339384697, -38.9806930840546 ], [ -72.654199547488503, -38.980277922608103 ], [ -72.653873639360597, -38.9800754963358 ], [ -72.653467716259499, -38.979841556215597 ], [ -72.653207422446599, -38.979767494667598 ], [ -72.652829692053899, -38.979636340715999 ], [ -72.652684633943295, -38.979576539467203 ], [ -72.652322957580907, -38.979410204301097 ], [ -72.651927472934403, -38.979200956234799 ], [ -72.651716748176, -38.979111037518301 ], [ -72.651348470638098, -38.978629244827601 ], [ -72.651140376325401, -38.978416267103299 ], [ -72.6508571922908, -38.978134382734297 ], [ -72.650660362914806, -38.977988020482798 ], [ -72.650535491397704, -38.977934734269297 ], [ -72.650289664587305, -38.9779043029557 ], [ -72.650117243276199, -38.977876337852102 ], [ -72.6500589867983, -38.978049756297899 ], [ -72.649519102675995, -38.978357421306399 ], [ -72.649433502528197, -38.978355336089301 ], [ -72.649189351536194, -38.978119889521203 ], [ -72.649052776782398, -38.978076500859999 ], [ -72.648838567590403, -38.977877056816403 ], [ -72.648467039093106, -38.977509752182399 ], [ -72.648133024301302, -38.9772485176562 ], [ -72.647870373611298, -38.977217416124503 ], [ -72.647712157172805, -38.977168745674902 ], [ -72.647390419846602, -38.977057269744499 ], [ -72.647153004560295, -38.976982478276 ], [ -72.646935520537596, -38.976849863712403 ], [ -72.646714196612393, -38.976731668378903 ], [ -72.646533292892101, -38.976597909253101 ], [ -72.646217473549498, -38.9764826697171 ], [ -72.645878286350793, -38.976378130831101 ], [ -72.645837449190495, -38.9764747389899 ], [ -72.645653648065803, -38.9766115678527 ], [ -72.645289361417994, -38.976503800459902 ], [ -72.644916843822898, -38.976384373240798 ], [ -72.644484277878504, -38.976284697304301 ], [ -72.644277900500398, -38.976234051298398 ], [ -72.644280915393594, -38.976332433978001 ], [ -72.646055558674902, -38.978338439710399 ], [ -72.647086676557393, -38.9795395086227 ], [ -72.648157771676395, -38.980775064413699 ], [ -72.649707949351097, -38.982716539282301 ], [ -72.651093847868907, -38.984430772342002 ], [ -72.653062493865505, -38.9866943391158 ] ] ] } },
{ "type": "Feature", "properties": { "id": "monoparte.15", "Name": null, "description": null, "timestamp": null, "begin": null, "end": null, "altitudeMode": null, "tessellate": -1, "extrude": 0, "visibility": -1, "drawOrder": null, "icon": null, "REG": "Araucanía", "COM": "Pitrufquén", "LOC": "Pitrufquén", "ZONA": "R1-A", "NOM": "Área R1-A. zona inundable o potencialmente inundable", "UPERM": "Áreas verde.", "UPROH": "Todos aquellos que no fueron indicados anteriormente.", "P_DO": "31/01/1984", "N_DOC": "137", "T_DO": "Decreto", "OBS": null }, "geometry": { "type": "Polygon", "coordinates": [ [ [ -72.643457869946204, -38.975768642541098 ], [ -72.643382921166705, -38.975502490065999 ], [ -72.642541511596093, -38.9739796755089 ], [ -72.641394212017801, -38.971938044199099 ], [ -72.641203012001895, -38.971921159620599 ], [ -72.640990861481598, -38.971951620906601 ], [ -72.640690315989602, -38.972044423815902 ], [ -72.640277596027502, -38.972033483895302 ], [ -72.639533847456093, -38.9721162944995 ], [ -72.639234518408699, -38.972232887935597 ], [ -72.639011392668607, -38.9723471021046 ], [ -72.638393068314599, -38.972742763901103 ], [ -72.638246144453106, -38.972854597622501 ], [ -72.637666064172507, -38.973301692116301 ], [ -72.637185655039104, -38.973757589298103 ], [ -72.637096031948204, -38.973945088538997 ], [ -72.637090845270706, -38.974141869618002 ], [ -72.637085963258897, -38.974344598796797 ], [ -72.637078944398496, -38.974654641577601 ], [ -72.637119482515303, -38.974849995620801 ], [ -72.637181053986595, -38.975008943928898 ], [ -72.636950599740302, -38.975129341536899 ], [ -72.636715575927298, -38.975160508111799 ], [ -72.636309539019294, -38.975280425011903 ], [ -72.635871911045498, -38.975618202492399 ], [ -72.635694187214696, -38.975768479968899 ], [ -72.635843590240697, -38.975841761513401 ], [ -72.635932846855397, -38.975796078224 ], [ -72.636175009408007, -38.975695575310603 ], [ -72.636343645073595, -38.975590216843599 ], [ -72.636787000059599, -38.975304691111702 ], [ -72.637126458504298, -38.975315546188703 ], [ -72.637927551061793, -38.975397788778501 ], [ -72.638758640878194, -38.975529137075398 ], [ -72.638931661806893, -38.975509435124501 ], [ -72.639572540018904, -38.975682465974501 ], [ -72.639944188737601, -38.975606511250099 ], [ -72.640258044042895, -38.975653906059101 ], [ -72.640533855010901, -38.975673889443101 ], [ -72.641196681421604, -38.975738978799903 ], [ -72.641878164708999, -38.975810631527501 ], [ -72.642196885271403, -38.975827167632197 ], [ -72.642541853783797, -38.975767486437 ], [ -72.643011594081997, -38.975699179456299 ], [ -72.643202723350001, -38.975705121599702 ], [ -72.643372516194702, -38.9757415202861 ], [ -72.643457869946204, -38.975768642541098 ] ] ] } },
{ "type": "Feature", "properties": { "id": "monoparte.16", "Name": null, "description": null, "timestamp": null, "begin": null, "end": null, "altitudeMode": null, "tessellate": -1, "extrude": 0, "visibility": -1, "drawOrder": null, "icon": null, "REG": "Araucanía", "COM": "Pitrufquén", "LOC": "Pitrufquén", "ZONA": "Franja Protección", "NOM": "Franja Protección por Línea de Alta Tensión", "UPERM": "Ver Ordenanza", "UPROH": "Ver Ordenanza", "P_DO": "31/01/1984", "N_DOC": "137", "T_DO": "Decreto", "OBS": null }, "geometry": { "type": "Polygon", "coordinates": [ [ [ -72.643968792132398, -38.975824423145703 ], [ -72.643825041594397, -38.975431469115598 ], [ -72.643455300155395, -38.974770950588201 ], [ -72.641904222470799, -38.971911858865099 ], [ -72.641868385958304, -38.971857114690302 ], [ -72.641601710853195, -38.971956367510003 ], [ -72.641394212017801, -38.971938044199099 ], [ -72.642541511596093, -38.9739796755089 ], [ -72.643382921166705, -38.975502490065999 ], [ -72.643457869946204, -38.975768642541098 ], [ -72.643671556571107, -38.975767919273103 ], [ -72.643846834157898, -38.975762438960899 ], [ -72.643968792132398, -38.975824423145703 ] ] ] } },
{ "type": "Feature", "properties": { "id": "monoparte.17", "Name": null, "description": null, "timestamp": null, "begin": null, "end": null, "altitudeMode": null, "tessellate": -1, "extrude": 0, "visibility": -1, "drawOrder": null, "icon": null, "REG": "Araucanía", "COM": "Pitrufquén", "LOC": "Pitrufquén", "ZONA": "R1-A", "NOM": "Área R1-A. zona inundable o potencialmente inundable", "UPERM": "Áreas verde.", "UPROH": "Todos aquellos que no fueron indicados anteriormente.", "P_DO": "31/01/1984", "N_DOC": "137", "T_DO": "Decreto", "OBS": null }, "geometry": { "type": "Polygon", "coordinates": [ [ [ -72.641868385958304, -38.971857114690302 ], [ -72.641904222470799, -38.971911858865099 ], [ -72.643455300155395, -38.974770950588201 ], [ -72.643825041594397, -38.975431469115598 ], [ -72.643968792132398, -38.975824423145703 ], [ -72.644089792961694, -38.9758859209946 ], [ -72.644207767966904, -38.975953730350902 ], [ -72.644472370457706, -38.976052701647497 ], [ -72.644680573915196, -38.976093855687203 ], [ -72.644827200392399, -38.976125019131203 ], [ -72.644989374811701, -38.976161653693303 ], [ -72.645150937490797, -38.9761863910607 ], [ -72.6453015343223, -38.976294884807203 ], [ -72.645691111649995, -38.9763005728256 ], [ -72.645878286350793, -38.976378130831101 ], [ -72.646217473549498, -38.9764826697171 ], [ -72.646533292892101, -38.976597909253101 ], [ -72.646714196612393, -38.976731668378903 ], [ -72.646935520537596, -38.976849863712403 ], [ -72.647153004560295, -38.976982478276 ], [ -72.647390419846602, -38.977057269744499 ], [ -72.647712157172805, -38.977168745674902 ], [ -72.647870373611298, -38.977217416124503 ], [ -72.648133024301302, -38.9772485176562 ], [ -72.648467039093106, -38.977509752182399 ], [ -72.648838567590403, -38.977877056816403 ], [ -72.649052776782398, -38.978076500859999 ], [ -72.649189351536194, -38.978119889521203 ], [ -72.649433502528197, -38.978355336089301 ], [ -72.649519102675995, -38.978357421306399 ], [ -72.6500589867983, -38.978049756297899 ], [ -72.650117243276199, -38.977876337852102 ], [ -72.650289664587305, -38.9779043029557 ], [ -72.650535491397704, -38.977934734269297 ], [ -72.650660362914806, -38.977988020482798 ], [ -72.6508571922908, -38.978134382734297 ], [ -72.651140376325401, -38.978416267103299 ], [ -72.651348470638098, -38.978629244827601 ], [ -72.651716748176, -38.979111037518301 ], [ -72.651927472934403, -38.979200956234799 ], [ -72.652322957580907, -38.979410204301097 ], [ -72.652684633943295, -38.979576539467203 ], [ -72.652829692053899, -38.979636340715999 ], [ -72.653207422446599, -38.979767494667598 ], [ -72.653467716259499, -38.979841556215597 ], [ -72.653873639360597, -38.9800754963358 ], [ -72.654199547488503, -38.980277922608103 ], [ -72.654545339384697, -38.9806930840546 ], [ -72.654698870034395, -38.980858075609397 ], [ -72.654866554091498, -38.9809272936144 ], [ -72.655233614509996, -38.981014089954201 ], [ -72.655508167622898, -38.981157409740199 ], [ -72.655834863777997, -38.9813497370017 ], [ -72.656136929495901, -38.981567740998798 ], [ -72.656230850317002, -38.981672040622598 ], [ -72.656289797397406, -38.981868001006603 ], [ -72.656419199237106, -38.981949737585602 ], [ -72.656551158720106, -38.982021861092399 ], [ -72.656752270275803, -38.982132329457102 ], [ -72.656863871061006, -38.982224156780497 ], [ -72.657161188663693, -38.982305389850602 ], [ -72.657403248493694, -38.9823216259812 ], [ -72.657651805910206, -38.982463969312597 ], [ -72.657827470270007, -38.9825309057439 ], [ -72.657990653988406, -38.982616346912003 ], [ -72.658096283395693, -38.9827107438431 ], [ -72.658240684959196, -38.982787241579501 ], [ -72.658388398739802, -38.982927982203201 ], [ -72.658597785276498, -38.982961923478904 ], [ -72.659245183444, -38.982963045704302 ], [ -72.659653444066905, -38.9829454582609 ], [ -72.659992673955401, -38.982891905968302 ], [ -72.660216671708298, -38.9828538882076 ], [ -72.660371393317703, -38.9827751477563 ], [ -72.660599136888294, -38.982632148754902 ], [ -72.660909386887994, -38.982635367896897 ], [ -72.661153559126504, -38.982502143705801 ], [ -72.662036141849796, -38.982031128267899 ], [ -72.661890858177898, -38.981878399050103 ], [ -72.661687080248896, -38.981834754790498 ], [ -72.6615363344998, -38.981753693922499 ], [ -72.661448502345493, -38.981649208316703 ], [ -72.661335443508307, -38.981588412653203 ], [ -72.661181753700404, -38.981450246953003 ], [ -72.661093922412206, -38.981345760132903 ], [ -72.661032423894198, -38.981218997255198 ], [ -72.660962147720099, -38.981099659366002 ], [ -72.660880886565195, -38.980944918371897 ], [ -72.660568414882206, -38.9807473918924 ], [ -72.660259257096001, -38.980614107494702 ], [ -72.659811448121502, -38.980456578781698 ], [ -72.659343511910393, -38.980263931268802 ], [ -72.659024476746396, -38.980116655121599 ], [ -72.658766517368505, -38.979910261823001 ], [ -72.658563798787398, -38.979709283838801 ], [ -72.658301111398899, -38.979588835492699 ], [ -72.657989388187303, -38.979405577783901 ], [ -72.657466542739797, -38.979035902430397 ], [ -72.657142784476505, -38.978974565909098 ], [ -72.656768107750906, -38.978635986395197 ], [ -72.656529185700904, -38.978443289981698 ], [ -72.656311129446195, -38.978299986946801 ], [ -72.655811368898298, -38.978022526480103 ], [ -72.655453199217803, -38.977826419297003 ], [ -72.655318185325697, -38.977694808920901 ], [ -72.6549977009646, -38.977518967868001 ], [ -72.654765401206305, -38.977454756057902 ], [ -72.654589769015601, -38.977245771124601 ], [ -72.654337343670093, -38.9771464413529 ], [ -72.6540585855887, -38.977069384548102 ], [ -72.6535884812821, -38.976833882717798 ], [ -72.6531165449192, -38.976562688125497 ], [ -72.652748142620993, -38.976345443425203 ], [ -72.6525103406331, -38.976174152945703 ], [ -72.652296302061899, -38.975930619832802 ], [ -72.652174849984107, -38.975884378354998 ], [ -72.651605936811194, -38.975330225115997 ], [ -72.651259474523599, -38.975005042358198 ], [ -72.650906071089295, -38.974722974402397 ], [ -72.650638643743903, -38.974509709536399 ], [ -72.650449512394701, -38.9743940879234 ], [ -72.650028830108596, -38.974228520469403 ], [ -72.649627171492597, -38.974076655189599 ], [ -72.649181967694304, -38.973790307312797 ], [ -72.648822027572507, -38.973737229285099 ], [ -72.648386364207894, -38.973636472960401 ], [ -72.647971557925203, -38.973585109888504 ], [ -72.647481394681506, -38.973493206283301 ], [ -72.647096568917902, -38.973312206250199 ], [ -72.646770257492307, -38.973022127210399 ], [ -72.646432258604193, -38.972861109293298 ], [ -72.6455582609087, -38.972607228186 ], [ -72.644796807459599, -38.972345053864601 ], [ -72.643934778182896, -38.9722051820941 ], [ -72.643008738380004, -38.972007724246303 ], [ -72.642021128886299, -38.971800266017297 ], [ -72.641868385958304, -38.971857114690302 ] ] ] } }
]
}
