{
"type": "FeatureCollection",
"name": "IPT_09_PRC_Loncoche",
"crs": { "type": "name", "properties": { "name": "urn:ogc:def:crs:OGC:1.3:CRS84" } },
"features": [
{ "type": "Feature", "properties": { "id": "monoparte.1", "Name": null, "description": null, "timestamp": null, "begin": null, "end": null, "altitudeMode": null, "tessellate": -1, "extrude": 0, "visibility": -1, "drawOrder": null, "icon": null, "REG": "Araucanía", "COM": "Loncoche", "LOC": "Loncoche", "ZONA": "Z-1", "NOM": "Zona Z-1", "UPERM": "Vivienda; actividades productivas inofensivas; equipamiento de salud, educación, seguridad, culto, cultura, organización comunitaria, áreas verdes, deportes, turismo y esparcimiento, comercio minorista, servicios públicos.", "UPROH": "Actividades productivas de cualquier tipo, salvo las inofensivas, y cualquier equipamiento no señalado como permitido.", "P_DO": "14/01/1991", "N_DOC": "28", "T_DO": "Resolución", "OBS": null }, "geometry": { "type": "Polygon", "coordinates": [ [ [ -72.633542587880797, -39.3677772168544 ], [ -72.633944972398695, -39.368000877725898 ], [ -72.635948790034803, -39.365867878597598 ], [ -72.635064838427795, -39.3653998323488 ], [ -72.633122102754797, -39.367448742215998 ], [ -72.633542587880797, -39.3677772168544 ] ] ] } },
{ "type": "Feature", "properties": { "id": "monoparte.2", "Name": null, "description": null, "timestamp": null, "begin": null, "end": null, "altitudeMode": null, "tessellate": -1, "extrude": 0, "visibility": -1, "drawOrder": null, "icon": null, "REG": "Araucanía", "COM": "Loncoche", "LOC": "Loncoche", "ZONA": "Z-1", "NOM": "Zona Z-1", "UPERM": "Vivienda; actividades productivas inofensivas; equipamiento de salud, educación, seguridad, culto, cultura, organización comunitaria, áreas verdes, deportes, turismo y esparcimiento, comercio minorista, servicios públicos.", "UPROH": "Actividades productivas de cualquier tipo, salvo las inofensivas, y cualquier equipamiento no señalado como permitido.", "P_DO": "14/01/1991", "N_DOC": "28", "T_DO": "Resolución", "OBS": null }, "geometry": { "type": "Polygon", "coordinates": [ [ [ -72.626077738866599, -39.364750881134903 ], [ -72.620999040700696, -39.369974320934801 ], [ -72.620548319282094, -39.369917892561297 ], [ -72.621594870872897, -39.370453161667697 ], [ -72.622654600346095, -39.370995152103397 ], [ -72.621975006770398, -39.371821133046097 ], [ -72.621957112608598, -39.371842880269703 ], [ -72.622012366091496, -39.3718472597185 ], [ -72.622327240834096, -39.3717611841072 ], [ -72.622695103453296, -39.3717497174733 ], [ -72.622938374681695, -39.371704003496603 ], [ -72.623406302453702, -39.3717275454038 ], [ -72.623898754887506, -39.371750321567703 ], [ -72.624143995805795, -39.371742673975902 ], [ -72.624706079586005, -39.371687012779098 ], [ -72.625098464073204, -39.371674773685903 ], [ -72.625471253648101, -39.371758471698598 ], [ -72.625621354974399, -39.371810984885101 ], [ -72.625916629136398, -39.371820838206702 ], [ -72.626582723861503, -39.371876314507098 ], [ -72.627446982590996, -39.371963733818703 ], [ -72.627448737708605, -39.371964347371502 ], [ -72.627997363071799, -39.372156271120197 ], [ -72.628375090592797, -39.372335132608598 ], [ -72.628702784156403, -39.372496488637303 ], [ -72.629005954567205, -39.372658609505201 ], [ -72.629384674000804, -39.372856501325401 ], [ -72.629344506956897, -39.373029343359399 ], [ -72.629400463015401, -39.373161053148799 ], [ -72.629410331323498, -39.373351399039301 ], [ -72.629524219402796, -39.3736528870634 ], [ -72.629598089476303, -39.374603845736097 ], [ -72.629561595746296, -39.374701778930202 ], [ -72.629562547853396, -39.374702392309203 ], [ -72.630735952296504, -39.374282322392297 ], [ -72.633150040754103, -39.375629942940897 ], [ -72.633303668754706, -39.375479447303299 ], [ -72.633791207195401, -39.375407007649102 ], [ -72.634252243805605, -39.3752972645242 ], [ -72.634568104396095, -39.375230189487098 ], [ -72.634777957384998, -39.375013908401897 ], [ -72.634988798620697, -39.374816660701597 ], [ -72.635111422366805, -39.374812825054299 ], [ -72.635219406656404, -39.375000100131103 ], [ -72.635297923730704, -39.375092969990298 ], [ -72.635449028513705, -39.375164504370503 ], [ -72.635822834287893, -39.375267201429097 ], [ -72.636050481003096, -39.375393536018898 ], [ -72.636406686162402, -39.375630238940602 ], [ -72.636753003488593, -39.375676598230797 ], [ -72.6369306131472, -39.375785431371298 ], [ -72.637185756087604, -39.375968098887299 ], [ -72.637204016480197, -39.376115582395897 ], [ -72.637506511644105, -39.376272019803103 ], [ -72.638036223179796, -39.375788954858599 ], [ -72.638311935838402, -39.375894714609899 ], [ -72.638640138249897, -39.375646164890803 ], [ -72.638592386606504, -39.375619020728998 ], [ -72.639084653509997, -39.375165104420603 ], [ -72.639184731212197, -39.375200101563699 ], [ -72.639400507909997, -39.375098017375997 ], [ -72.639273924802197, -39.375025720284903 ], [ -72.640434834603099, -39.373731050490903 ], [ -72.640514785272501, -39.373778234148503 ], [ -72.640527981738799, -39.3736328066149 ], [ -72.640949991574004, -39.373157273956203 ], [ -72.633199216404293, -39.368733592075998 ], [ -72.633735868252103, -39.368164944134698 ], [ -72.632672450960698, -39.367575635249601 ], [ -72.632409453014404, -39.367240679598403 ], [ -72.632208473498295, -39.367033665574098 ], [ -72.631971803038894, -39.367326806401501 ], [ -72.626633672975302, -39.364331390238803 ], [ -72.626115145746397, -39.364745212207801 ], [ -72.626077738866599, -39.364750881134903 ] ] ] } },
{ "type": "Feature", "properties": { "id": "monoparte.3", "Name": null, "description": null, "timestamp": null, "begin": null, "end": null, "altitudeMode": null, "tessellate": -1, "extrude": 0, "visibility": -1, "drawOrder": null, "icon": null, "REG": "Araucanía", "COM": "Loncoche", "LOC": "Loncoche", "ZONA": "Área Verde", "NOM": "Áreas verdes", "UPERM": "Sin información.", "UPROH": "Sin información.", "P_DO": "14/01/1991", "N_DOC": "28", "T_DO": "Resolución", "OBS": null }, "geometry": { "type": "Polygon", "coordinates": [ [ [ -72.609834486686594, -39.365316971592897 ], [ -72.610266999076401, -39.365380426491299 ], [ -72.611111312084603, -39.364435187021897 ], [ -72.606735856518895, -39.364615257734499 ], [ -72.606875643112204, -39.364736779155102 ], [ -72.607006589950302, -39.364775612345603 ], [ -72.607488448586494, -39.364832151749503 ], [ -72.607767263974793, -39.364880694099902 ], [ -72.608213076149795, -39.364952648472297 ], [ -72.608621370267201, -39.365011467001999 ], [ -72.609030399561604, -39.365084560293603 ], [ -72.609425454186507, -39.365243880374798 ], [ -72.609834486686594, -39.365316971592897 ] ] ] } },
{ "type": "Feature", "properties": { "id": "monoparte.4", "Name": null, "description": null, "timestamp": null, "begin": null, "end": null, "altitudeMode": null, "tessellate": -1, "extrude": 0, "visibility": -1, "drawOrder": null, "icon": null, "REG": "Araucanía", "COM": "Loncoche", "LOC": "Loncoche", "ZONA": "Área Verde", "NOM": "Áreas verdes", "UPERM": "Sin información.", "UPROH": "Sin información.", "P_DO": "14/01/1991", "N_DOC": "28", "T_DO": "Resolución", "OBS": null }, "geometry": { "type": "Polygon", "coordinates": [ [ [ -72.628060904469606, -39.364342528386899 ], [ -72.628084118512206, -39.364348325843501 ], [ -72.628726400711201, -39.363708649881801 ], [ -72.628703212279007, -39.363682271124503 ], [ -72.627910810795697, -39.3627808439592 ], [ -72.627596905064095, -39.362647652427803 ], [ -72.626357161034306, -39.361828400490801 ], [ -72.626469859907303, -39.361794816936701 ], [ -72.622580042531695, -39.359845054984198 ], [ -72.622613696573296, -39.359967110784098 ], [ -72.622698321052695, -39.360119378819299 ], [ -72.622789099576295, -39.360390614541501 ], [ -72.622819809858996, -39.360687553968198 ], [ -72.622876861597007, -39.3609002606537 ], [ -72.623017926259394, -39.3612533393311 ], [ -72.623232540836298, -39.361544545576699 ], [ -72.623618199838106, -39.3618780813595 ], [ -72.623911293143095, -39.362202587337798 ], [ -72.624045594224597, -39.3624248011864 ], [ -72.624106345271201, -39.3627088867891 ], [ -72.624146913306504, -39.363196171901102 ], [ -72.624173320678494, -39.363409834289698 ], [ -72.624273894427304, -39.363573519329101 ], [ -72.624451097786803, -39.363734815426596 ], [ -72.624705546949201, -39.363905617782997 ], [ -72.624851804970305, -39.363991134871803 ], [ -72.625179443805806, -39.363986163133198 ], [ -72.625665137098594, -39.363999971383002 ], [ -72.626378556247502, -39.364020249668599 ], [ -72.627151008552701, -39.364115302133897 ], [ -72.628060904469606, -39.364342528386899 ] ] ] } },
{ "type": "Feature", "properties": { "id": "monoparte.5", "Name": null, "description": null, "timestamp": null, "begin": null, "end": null, "altitudeMode": null, "tessellate": -1, "extrude": 0, "visibility": -1, "drawOrder": null, "icon": null, "REG": "Araucanía", "COM": "Loncoche", "LOC": "Loncoche", "ZONA": "Z-2", "NOM": "Zona Z-2", "UPERM": "Vivienda; actividades productivas inofensivas; equipamiento de salud, educación, seguridad, culto, cultura (com.), organización comunitaria, áreas verdes (com.,vec.), comercio minorista, servicios públicos, servicios profesionales.", "UPROH": "Actividades productivas molestas, insalubres, peligrosas, y cualquier equipamiento no señalado como permitido.", "P_DO": "14/01/1991", "N_DOC": "28", "T_DO": "Resolución", "OBS": null }, "geometry": { "type": "Polygon", "coordinates": [ [ [ -72.633199216404293, -39.368733592075998 ], [ -72.640949991574004, -39.373157273956203 ], [ -72.641541977895102, -39.372490194320598 ], [ -72.633735868252103, -39.368164944134698 ], [ -72.633199216404293, -39.368733592075998 ] ] ] } },
{ "type": "Feature", "properties": { "id": "monoparte.6", "Name": null, "description": null, "timestamp": null, "begin": null, "end": null, "altitudeMode": null, "tessellate": -1, "extrude": 0, "visibility": -1, "drawOrder": null, "icon": null, "REG": "Araucanía", "COM": "Loncoche", "LOC": "Loncoche", "ZONA": "Z-2", "NOM": "Zona Z-2", "UPERM": "Vivienda; actividades productivas inofensivas; equipamiento de salud, educación, seguridad, culto, cultura (com.), organización comunitaria, áreas verdes (com.,vec.), comercio minorista, servicios públicos, servicios profesionales.", "UPROH": "Actividades productivas molestas, insalubres, peligrosas, y cualquier equipamiento no señalado como permitido.", "P_DO": "14/01/1991", "N_DOC": "28", "T_DO": "Resolución", "OBS": null }, "geometry": { "type": "Polygon", "coordinates": [ [ [ -72.625417613023004, -39.364327994937199 ], [ -72.626088829605493, -39.364739473312497 ], [ -72.626077738866599, -39.364750881134903 ], [ -72.626115145746397, -39.364745212207801 ], [ -72.626633672975302, -39.364331390238803 ], [ -72.631971803038894, -39.367326806401501 ], [ -72.632208473498295, -39.367033665574098 ], [ -72.632175915837095, -39.367000129604698 ], [ -72.627733475567794, -39.3645176222822 ], [ -72.626367062092498, -39.364181772111998 ], [ -72.626335865560804, -39.364174103977902 ], [ -72.625523763757798, -39.364187322280699 ], [ -72.625417613023004, -39.364327994937199 ] ] ] } },
{ "type": "Feature", "properties": { "id": "monoparte.7", "Name": null, "description": null, "timestamp": null, "begin": null, "end": null, "altitudeMode": null, "tessellate": -1, "extrude": 0, "visibility": -1, "drawOrder": null, "icon": null, "REG": "Araucanía", "COM": "Loncoche", "LOC": "Loncoche", "ZONA": "Z-2", "NOM": "Zona Z-2", "UPERM": "Vivienda; actividades productivas inofensivas; equipamiento de salud, educación, seguridad, culto, cultura (com.), organización comunitaria, áreas verdes (com.,vec.), comercio minorista, servicios públicos, servicios profesionales.", "UPROH": "Actividades productivas molestas, insalubres, peligrosas, y cualquier equipamiento no señalado como permitido.", "P_DO": "14/01/1991", "N_DOC": "28", "T_DO": "Resolución", "OBS": null }, "geometry": { "type": "Polygon", "coordinates": [ [ [ -72.628726400711201, -39.363708649881801 ], [ -72.628084118512206, -39.364348325843501 ], [ -72.628060904469606, -39.364342528386899 ], [ -72.628052621695105, -39.3643524931474 ], [ -72.631602862746405, -39.3663698168737 ], [ -72.628762409614197, -39.363694066066401 ], [ -72.628703212279007, -39.363682271124503 ], [ -72.628726400711201, -39.363708649881801 ] ] ] } },
{ "type": "Feature", "properties": { "id": "monoparte.8", "Name": null, "description": null, "timestamp": null, "begin": null, "end": null, "altitudeMode": null, "tessellate": -1, "extrude": 0, "visibility": -1, "drawOrder": null, "icon": null, "REG": "Araucanía", "COM": "Loncoche", "LOC": "Loncoche", "ZONA": "Z-2", "NOM": "Zona Z-2", "UPERM": "Vivienda; actividades productivas inofensivas; equipamiento de salud, educación, seguridad, culto, cultura (com.), organización comunitaria, áreas verdes (com.,vec.), comercio minorista, servicios públicos, servicios profesionales.", "UPROH": "Actividades productivas molestas, insalubres, peligrosas, y cualquier equipamiento no señalado como permitido.", "P_DO": "14/01/1991", "N_DOC": "28", "T_DO": "Resolución", "OBS": null }, "geometry": { "type": "Polygon", "coordinates": [ [ [ -72.633950021209799, -39.358469290544001 ], [ -72.633801714873201, -39.358569254613698 ], [ -72.633599514414897, -39.358813893196 ], [ -72.633334779517497, -39.359036654161002 ], [ -72.632970691443205, -39.359119530459097 ], [ -72.632638484214596, -39.359225241401198 ], [ -72.632339395010305, -39.359377579026798 ], [ -72.632036601848597, -39.359458536755703 ], [ -72.631737509144301, -39.359610873868398 ], [ -72.631470297870806, -39.359786044504901 ], [ -72.631172437165802, -39.3599621730325 ], [ -72.630932172102007, -39.360065006569201 ], [ -72.630499375453496, -39.360007031904402 ], [ -72.630315477141394, -39.360012776260199 ], [ -72.630103394616896, -39.360067063311 ], [ -72.629957544342005, -39.3602146094441 ], [ -72.629687861172201, -39.360342190582998 ], [ -72.629633959272297, -39.360486863797 ], [ -72.629454990309199, -39.360587779128799 ], [ -72.629332390669106, -39.360591607666201 ], [ -72.628891131349405, -39.360962861784103 ], [ -72.628533190611606, -39.361164690930302 ], [ -72.628322335744102, -39.361242769606001 ], [ -72.626714424695507, -39.361721937086102 ], [ -72.628424761569406, -39.362865732786503 ], [ -72.632697794898306, -39.367117275276499 ], [ -72.633122102754797, -39.367448742215998 ], [ -72.635064838427795, -39.3653998323488 ], [ -72.635948790034803, -39.365867878597598 ], [ -72.633944972398695, -39.368000877725898 ], [ -72.643883111641102, -39.373523937967803 ], [ -72.643881010955695, -39.373483580448699 ], [ -72.643693060038004, -39.372822189097803 ], [ -72.643185246601405, -39.372504468076102 ], [ -72.6420163592704, -39.371873821384803 ], [ -72.640939456523995, -39.371240280706402 ], [ -72.6403397042601, -39.370925427178697 ], [ -72.639927592361403, -39.370676187309002 ], [ -72.639730060714996, -39.370420226528701 ], [ -72.639622019513595, -39.370113799301102 ], [ -72.639482089265499, -39.369784539354796 ], [ -72.639441540537206, -39.369595156371403 ], [ -72.639396046189404, -39.369310601370302 ], [ -72.639349315595595, -39.369002253781801 ], [ -72.639505760898203, -39.367877268588401 ], [ -72.639587294883, -39.366492480651999 ], [ -72.6395662713593, -39.366088001969999 ], [ -72.639555141391497, -39.365873865441401 ], [ -72.639627310533498, -39.365490299493402 ], [ -72.639792671767395, -39.365127646160801 ], [ -72.640122150392102, -39.364378546507098 ], [ -72.640390321360002, -39.363631366351697 ], [ -72.640460330083897, -39.363302336876899 ], [ -72.640462581310899, -39.363061337886698 ], [ -72.640342685332001, -39.362892572927997 ], [ -72.639998302322098, -39.362645978418598 ], [ -72.639676020413305, -39.3624701845538 ], [ -72.639436946638696, -39.362477671399901 ], [ -72.639173547891104, -39.362371527821701 ], [ -72.638757092883395, -39.362155784158404 ], [ -72.638414942685301, -39.361952010839097 ], [ -72.637863680961701, -39.361268617571596 ], [ -72.637575967283595, -39.361048838752403 ], [ -72.637564764710206, -39.361051388939998 ], [ -72.637556835869404, -39.361035138579297 ], [ -72.637444271836301, -39.360995764730497 ], [ -72.6371095447453, -39.360934745568898 ], [ -72.636804186155601, -39.360729815918297 ], [ -72.636594483667693, -39.360593388098202 ], [ -72.636512029462395, -39.360424380511503 ], [ -72.636448706618495, -39.360269072325003 ], [ -72.636380936973495, -39.360028110345198 ], [ -72.636375007419403, -39.359913903254601 ], [ -72.636440412969904, -39.359754568216502 ], [ -72.636453614229396, -39.359654062415899 ], [ -72.636465333071897, -39.359525005066899 ], [ -72.636461627059504, -39.359453625298897 ], [ -72.636346101506703, -39.359357147129302 ], [ -72.636250448077405, -39.359288645035797 ], [ -72.636194818910894, -39.359286281792897 ], [ -72.636174666595906, -39.359248119076497 ], [ -72.635987805916002, -39.359196769216702 ], [ -72.635722942470395, -39.359062065374403 ], [ -72.635333664158097, -39.3586595712137 ], [ -72.635159268845996, -39.3584934374163 ], [ -72.635114163899402, -39.358436926302403 ], [ -72.635086503150504, -39.358481414334399 ], [ -72.634804488325997, -39.358371076068899 ], [ -72.634676954641904, -39.358279738329301 ], [ -72.634462412113095, -39.358286447530702 ], [ -72.634249104015495, -39.358316949057297 ], [ -72.6340983283241, -39.358369327166201 ], [ -72.633950021209799, -39.358469290544001 ] ] ] } },
{ "type": "Feature", "properties": { "id": "monoparte.9", "Name": null, "description": null, "timestamp": null, "begin": null, "end": null, "altitudeMode": null, "tessellate": -1, "extrude": 0, "visibility": -1, "drawOrder": null, "icon": null, "REG": "Araucanía", "COM": "Loncoche", "LOC": "Loncoche", "ZONA": "ZR-3", "NOM": "Zona ZR-3", "UPERM": "Zona libre de toda construcción salvo la necesaria para atender los requerimientos de la vía tales como andenes, garitas de vigilancia, vialidad, etc.", "UPROH": "Todo otro uso no indicado precedentemente.", "P_DO": "14/01/1991", "N_DOC": "28", "T_DO": "Resolución", "OBS": null }, "geometry": { "type": "Polygon", "coordinates": [ [ [ -72.622439575968102, -39.359774641412599 ], [ -72.626469859907303, -39.361794816936701 ], [ -72.626357161034306, -39.361828400490801 ], [ -72.627596905064095, -39.362647652427803 ], [ -72.627910810795697, -39.3627808439592 ], [ -72.628703212279007, -39.363682271124503 ], [ -72.628762409614197, -39.363694066066401 ], [ -72.631602862746405, -39.3663698168737 ], [ -72.628052621695105, -39.3643524931474 ], [ -72.628060904469606, -39.364342528386899 ], [ -72.627151008552701, -39.364115302133897 ], [ -72.626378556247502, -39.364020249668599 ], [ -72.625665137098594, -39.363999971383002 ], [ -72.625179443805806, -39.363986163133198 ], [ -72.624851804970305, -39.363991134871803 ], [ -72.616252367065798, -39.364121285770103 ], [ -72.611612978175103, -39.364275921942401 ], [ -72.611242549157396, -39.364288260330603 ], [ -72.611347987928099, -39.364170214383797 ], [ -72.606591176085402, -39.364280009343297 ], [ -72.606588521364003, -39.364443182861002 ], [ -72.606585621077997, -39.364621437671701 ], [ -72.606735856518895, -39.364615257734499 ], [ -72.611111312084603, -39.364435187021897 ], [ -72.611124205549899, -39.364420752185303 ], [ -72.611484334595502, -39.364414936632798 ], [ -72.619094424673307, -39.364291768826497 ], [ -72.61937724565, -39.364287181361803 ], [ -72.625523763757798, -39.364187322280699 ], [ -72.626335865560804, -39.364174103977902 ], [ -72.626367062092498, -39.364181772111998 ], [ -72.627733475567794, -39.3645176222822 ], [ -72.632175915837095, -39.367000129604698 ], [ -72.632208473498295, -39.367033665574098 ], [ -72.632409453014404, -39.367240679598403 ], [ -72.632672450960698, -39.367575635249601 ], [ -72.633735868252103, -39.368164944134698 ], [ -72.641541977895102, -39.372490194320598 ], [ -72.643854621817695, -39.373771386113901 ], [ -72.643890918650399, -39.373673922364503 ], [ -72.643883111641102, -39.373523937967803 ], [ -72.633944972398695, -39.368000877725898 ], [ -72.633542587880797, -39.3677772168544 ], [ -72.633122102754797, -39.367448742215998 ], [ -72.632697794898306, -39.367117275276499 ], [ -72.628424761569406, -39.362865732786503 ], [ -72.626714424695507, -39.361721937086102 ], [ -72.626696129188304, -39.3617273899211 ], [ -72.6226036799182, -39.3596121744052 ], [ -72.622439575968102, -39.359774641412599 ] ] ] } },
{ "type": "Feature", "properties": { "id": "monoparte.10", "Name": null, "description": null, "timestamp": null, "begin": null, "end": null, "altitudeMode": null, "tessellate": -1, "extrude": 0, "visibility": -1, "drawOrder": null, "icon": null, "REG": "Araucanía", "COM": "Loncoche", "LOC": "Loncoche", "ZONA": "ZR-6", "NOM": "Zona ZR-6", "UPERM": "No se permite ningun tipo de construcción.", "UPROH": "No se permite ningun tipo de construcción.", "P_DO": "14/01/1991", "N_DOC": "28", "T_DO": "Resolución", "OBS": null }, "geometry": { "type": "Polygon", "coordinates": [ [ [ -72.6092910635397, -39.366627036264099 ], [ -72.6094154636328, -39.3666504936959 ], [ -72.611484334595502, -39.364414936632798 ], [ -72.611612978175103, -39.364275921942401 ], [ -72.611718725765201, -39.3641616491226 ], [ -72.611347987928099, -39.364170214383797 ], [ -72.611242549157396, -39.364288260330603 ], [ -72.611124205549899, -39.364420752185303 ], [ -72.609157454570806, -39.366622558361399 ], [ -72.6092910635397, -39.366627036264099 ] ] ] } },
{ "type": "Feature", "properties": { "id": "monoparte.11", "Name": null, "description": null, "timestamp": null, "begin": null, "end": null, "altitudeMode": null, "tessellate": -1, "extrude": 0, "visibility": -1, "drawOrder": null, "icon": null, "REG": "Araucanía", "COM": "Loncoche", "LOC": "Loncoche", "ZONA": "Z-3", "NOM": "Zona Z-3", "UPERM": "Vivienda; actividades productivas inofensivas; equipamiento de salud (vec.), educación (excepto regional), seguridad, culto, cultura, organización comunitaria, áreas verdes, comercio minorista, servicios públicos, servicios profesionales.", "UPROH": "Actividades productivas molestas, insalubres y peligrosas, y cualquier equipamiento no señalado como permitido.", "P_DO": "14/01/1991", "N_DOC": "28", "T_DO": "Resolución", "OBS": null }, "geometry": { "type": "Polygon", "coordinates": [ [ [ -72.629041891841197, -39.3824194272227 ], [ -72.630027552340195, -39.382607430071502 ], [ -72.632478593003896, -39.381048114734199 ], [ -72.629835870183399, -39.380493617552702 ], [ -72.629753461089607, -39.380476325341803 ], [ -72.630074204914493, -39.379604083476401 ], [ -72.628016831148202, -39.379180994023599 ], [ -72.626360674258294, -39.3803827900512 ], [ -72.628135563630707, -39.3808169739007 ], [ -72.627729070580997, -39.381990161726399 ], [ -72.629032629913297, -39.382267072094102 ], [ -72.629028999625305, -39.382275962997198 ], [ -72.629041891841197, -39.3824194272227 ] ] ] } },
{ "type": "Feature", "properties": { "id": "monoparte.12", "Name": null, "description": null, "timestamp": null, "begin": null, "end": null, "altitudeMode": null, "tessellate": -1, "extrude": 0, "visibility": -1, "drawOrder": null, "icon": null, "REG": "Araucanía", "COM": "Loncoche", "LOC": "Loncoche", "ZONA": "Z-3", "NOM": "Zona Z-3", "UPERM": "Vivienda; actividades productivas inofensivas; equipamiento de salud (vec.), educación (excepto regional), seguridad, culto, cultura, organización comunitaria, áreas verdes, comercio minorista, servicios públicos, servicios profesionales.", "UPROH": "Actividades productivas molestas, insalubres y peligrosas, y cualquier equipamiento no señalado como permitido.", "P_DO": "14/01/1991", "N_DOC": "28", "T_DO": "Resolución", "OBS": null }, "geometry": { "type": "Polygon", "coordinates": [ [ [ -72.629998718586606, -39.379406108393901 ], [ -72.6320371746055, -39.379828434962697 ], [ -72.632646423438104, -39.378363966360403 ], [ -72.631211979846896, -39.377964702626898 ], [ -72.631163448346598, -39.377929953348001 ], [ -72.630599253797101, -39.377947581327597 ], [ -72.629998718586606, -39.379406108393901 ] ] ] } },
{ "type": "Feature", "properties": { "id": "monoparte.13", "Name": null, "description": null, "timestamp": null, "begin": null, "end": null, "altitudeMode": null, "tessellate": -1, "extrude": 0, "visibility": -1, "drawOrder": null, "icon": null, "REG": "Araucanía", "COM": "Loncoche", "LOC": "Loncoche", "ZONA": "Z-3", "NOM": "Zona Z-3", "UPERM": "Vivienda; actividades productivas inofensivas; equipamiento de salud (vec.), educación (excepto regional), seguridad, culto, cultura, organización comunitaria, áreas verdes, comercio minorista, servicios públicos, servicios profesionales.", "UPROH": "Actividades productivas molestas, insalubres y peligrosas, y cualquier equipamiento no señalado como permitido.", "P_DO": "14/01/1991", "N_DOC": "28", "T_DO": "Resolución", "OBS": null }, "geometry": { "type": "Polygon", "coordinates": [ [ [ -72.618321845911098, -39.365224629924903 ], [ -72.620125124290894, -39.366255199934997 ], [ -72.617228438971296, -39.3693767900713 ], [ -72.616945496474102, -39.369466768721303 ], [ -72.620548319282094, -39.369917892561297 ], [ -72.620999040700696, -39.369974320934801 ], [ -72.626077738866599, -39.364750881134903 ], [ -72.626088829605493, -39.364739473312497 ], [ -72.625417613023004, -39.364327994937199 ], [ -72.625370748162297, -39.364390101691498 ], [ -72.624927227255398, -39.364718513912798 ], [ -72.624883877369996, -39.364948650786502 ], [ -72.624280000773993, -39.365382155849701 ], [ -72.624109305481099, -39.3652873858737 ], [ -72.623286276159007, -39.366113792488903 ], [ -72.622910318670606, -39.365968223932697 ], [ -72.622266015502007, -39.366688959856901 ], [ -72.621525847196395, -39.366268756970399 ], [ -72.622450386430799, -39.365267608811997 ], [ -72.621559411071999, -39.364780611255199 ], [ -72.6210651240294, -39.365196385837201 ], [ -72.61937724565, -39.364287181361803 ], [ -72.619094424673307, -39.364291768826497 ], [ -72.619084589920703, -39.364300041092399 ], [ -72.618321845911098, -39.365224629924903 ] ] ] } },
{ "type": "Feature", "properties": { "id": "monoparte.14", "Name": null, "description": null, "timestamp": null, "begin": null, "end": null, "altitudeMode": null, "tessellate": -1, "extrude": 0, "visibility": -1, "drawOrder": null, "icon": null, "REG": "Araucanía", "COM": "Loncoche", "LOC": "Loncoche", "ZONA": "ZR-5", "NOM": "Zona ZR-5", "UPERM": "Se permitirá la construcción de obras afines al destino de las instalaciones, incluso vivienda del cuidador, bodegas y oficinas, de acuerdo a los requerimientos de funcionamiento de las instalaciones.", "UPROH": "Todo otro uso no indicado precedentemente.", "P_DO": "14/01/1991", "N_DOC": "28", "T_DO": "Resolución", "OBS": null }, "geometry": { "type": "Polygon", "coordinates": [ [ [ -72.620485586985097, -39.3718378139694 ], [ -72.620486638424097, -39.372178036063303 ], [ -72.620560950768095, -39.372190019938401 ], [ -72.620777977741298, -39.372111762552201 ], [ -72.620904515070904, -39.372064923091699 ], [ -72.621197330323199, -39.372027201439899 ], [ -72.621615203629403, -39.371914086937998 ], [ -72.621664811872904, -39.371903558052601 ], [ -72.621852099837994, -39.371863807260098 ], [ -72.621975006770398, -39.371821133046097 ], [ -72.622654600346095, -39.370995152103397 ], [ -72.621594870872897, -39.370453161667697 ], [ -72.620485586985097, -39.3718378139694 ] ] ] } },
{ "type": "Feature", "properties": { "id": "monoparte.15", "Name": null, "description": null, "timestamp": null, "begin": null, "end": null, "altitudeMode": null, "tessellate": -1, "extrude": 0, "visibility": -1, "drawOrder": null, "icon": null, "REG": "Araucanía", "COM": "Loncoche", "LOC": "Loncoche", "ZONA": "Z-4E", "NOM": "Zona Z-4E", "UPERM": "Vivienda, equipamiento de seguridad rubro bomberos (comunal), organización comunitaria, áreas verdes (vecinal).", "UPROH": "Actividades productivas de cualquier tipo, y cualquier equipamiento no señalado como permitido.", "P_DO": "14/01/1991", "N_DOC": "28", "T_DO": "Resolución", "OBS": null }, "geometry": { "type": "Polygon", "coordinates": [ [ [ -72.638640138249897, -39.375646164890803 ], [ -72.639959298793201, -39.376396020406901 ], [ -72.639490632423602, -39.3769240925525 ], [ -72.640202025746703, -39.377284484966502 ], [ -72.640921187861196, -39.377414477598201 ], [ -72.642163315583105, -39.377680597752402 ], [ -72.642412179715095, -39.3777716497817 ], [ -72.642721909761605, -39.377761941200603 ], [ -72.643126644147799, -39.377868411376099 ], [ -72.643374378152103, -39.377908307066903 ], [ -72.643595171384504, -39.378020542410503 ], [ -72.644377706211202, -39.378305814372901 ], [ -72.644783684893895, -39.3784360717612 ], [ -72.645075708486104, -39.378736722513999 ], [ -72.645267089001294, -39.3788737083838 ], [ -72.645583577326093, -39.379054432485802 ], [ -72.645897589617306, -39.379187570056999 ], [ -72.646294899240104, -39.379151272840097 ], [ -72.646689729021503, -39.379067388772398 ], [ -72.647725543268294, -39.378319932226397 ], [ -72.647990296882796, -39.3780971378063 ], [ -72.648412055459104, -39.377940907220001 ], [ -72.648774977461301, -39.377834186740003 ], [ -72.647610911987996, -39.377298774211397 ], [ -72.647175519074196, -39.377193281976503 ], [ -72.646779460776898, -39.377253373988303 ], [ -72.646597998497299, -39.377306731735402 ], [ -72.646193263078203, -39.3772002737498 ], [ -72.645880498778794, -39.377090928887803 ], [ -72.645603349605906, -39.377075792547103 ], [ -72.645416931326196, -39.377033977253397 ], [ -72.645257452275303, -39.376919822061502 ], [ -72.645307612931404, -39.376703764917998 ], [ -72.645392148924302, -39.376558123083001 ], [ -72.645374801620505, -39.376225025672198 ], [ -72.644685180843695, -39.375364888534598 ], [ -72.644551407377307, -39.375154599356399 ], [ -72.644174865458396, -39.374999587393397 ], [ -72.643619344272395, -39.374945510919602 ], [ -72.643208435143194, -39.374720078691396 ], [ -72.643164158874001, -39.3744593186535 ], [ -72.643179022522801, -39.374322282889402 ], [ -72.642110410311901, -39.373831071719202 ], [ -72.641600579098693, -39.3744190069621 ], [ -72.640514785272501, -39.373778234148503 ], [ -72.640434834603099, -39.373731050490903 ], [ -72.639273924802197, -39.375025720284903 ], [ -72.639400507909997, -39.375098017375997 ], [ -72.639184731212197, -39.375200101563699 ], [ -72.639084653509997, -39.375165104420603 ], [ -72.638592386606504, -39.375619020728998 ], [ -72.638640138249897, -39.375646164890803 ] ] ] } },
{ "type": "Feature", "properties": { "id": "monoparte.16", "Name": null, "description": null, "timestamp": null, "begin": null, "end": null, "altitudeMode": null, "tessellate": -1, "extrude": 0, "visibility": -1, "drawOrder": null, "icon": null, "REG": "Araucanía", "COM": "Loncoche", "LOC": "Loncoche", "ZONA": "ZR-4", "NOM": "Zona ZR-4", "UPERM": "Se permitirán las edificaciones necesarias complementarias al fin descrito, las que deberán ser aprobadas previamente, cuando corresponda, por la unidad del servicio de salud competente.", "UPROH": "Todo otro uso no indicado precedentemente.", "P_DO": "14/01/1991", "N_DOC": "28", "T_DO": "Resolución", "OBS": null }, "geometry": { "type": "Polygon", "coordinates": [ [ [ -72.637506511644105, -39.376272019803103 ], [ -72.638637676307596, -39.376856996384902 ], [ -72.6392631247206, -39.377180435063899 ], [ -72.639308385198603, -39.377129438416503 ], [ -72.639490632423602, -39.3769240925525 ], [ -72.639959298793201, -39.376396020406901 ], [ -72.638640138249897, -39.375646164890803 ], [ -72.638311935838402, -39.375894714609899 ], [ -72.638036223179796, -39.375788954858599 ], [ -72.637506511644105, -39.376272019803103 ] ] ] } },
{ "type": "Feature", "properties": { "id": "monoparte.17", "Name": null, "description": null, "timestamp": null, "begin": null, "end": null, "altitudeMode": null, "tessellate": -1, "extrude": 0, "visibility": -1, "drawOrder": null, "icon": null, "REG": "Araucanía", "COM": "Loncoche", "LOC": "Loncoche", "ZONA": "ZR-2B", "NOM": "Zona ZR-2B", "UPERM": "Áreas verdes, forestación (vecinal), esparcimiento y turismo (sólo zonas de picnic), ferias libres, y viviendas según especificaciones de la presente ordenanza.", "UPROH": "Todo otro uso no indicado precedentemente.", "P_DO": "14/01/1991", "N_DOC": "28", "T_DO": "Resolución", "OBS": null }, "geometry": { "type": "Polygon", "coordinates": [ [ [ -72.629562547853396, -39.374702392309203 ], [ -72.632298471850106, -39.376464136267401 ], [ -72.633150040754103, -39.375629942940897 ], [ -72.630735952296504, -39.374282322392297 ], [ -72.629562547853396, -39.374702392309203 ] ] ] } },
{ "type": "Feature", "properties": { "id": "monoparte.18", "Name": null, "description": null, "timestamp": null, "begin": null, "end": null, "altitudeMode": null, "tessellate": -1, "extrude": 0, "visibility": -1, "drawOrder": null, "icon": null, "REG": "Araucanía", "COM": "Loncoche", "LOC": "Loncoche", "ZONA": "Z-4", "NOM": "Zona Z-4", "UPERM": "Vivienda; equipamiento de seguridad rubro bomberos (comunal), organización comunitaria, áreas verdes (vecinal).", "UPROH": "Actividades productivas de cualquier tipo, y cualquier equipamiento no señalado como permitido.", "P_DO": "14/01/1991", "N_DOC": "28", "T_DO": "Resolución", "OBS": null }, "geometry": { "type": "Polygon", "coordinates": [ [ [ -72.640949991574004, -39.373157273956203 ], [ -72.640527981738799, -39.3736328066149 ], [ -72.640514785272501, -39.373778234148503 ], [ -72.641600579098693, -39.3744190069621 ], [ -72.642110410311901, -39.373831071719202 ], [ -72.643179022522801, -39.374322282889402 ], [ -72.643184908007299, -39.3742680155786 ], [ -72.643423960805507, -39.374141363076198 ], [ -72.643721847065393, -39.373965202946401 ], [ -72.643810097758902, -39.373890940356802 ], [ -72.643854621817695, -39.373771386113901 ], [ -72.641541977895102, -39.372490194320598 ], [ -72.640949991574004, -39.373157273956203 ] ] ] } },
{ "type": "Feature", "properties": { "id": "monoparte.19", "Name": null, "description": null, "timestamp": null, "begin": null, "end": null, "altitudeMode": null, "tessellate": -1, "extrude": 0, "visibility": -1, "drawOrder": null, "icon": null, "REG": "Araucanía", "COM": "Loncoche", "LOC": "Loncoche", "ZONA": "ZR-2A", "NOM": "Zona ZR-2A", "UPERM": "Áreas verdes, forestación, deportes a escala vecinal, esparcimiento y turismo (sólo zonas de picnic), balneario.", "UPROH": "Todo otro uso no indicado precedentemente.", "P_DO": "14/01/1991", "N_DOC": "28", "T_DO": "Resolución", "OBS": null }, "geometry": { "type": "Polygon", "coordinates": [ [ [ -72.640082355909001, -39.377833664414602 ], [ -72.640683662979498, -39.378301546758799 ], [ -72.641099652148796, -39.378539115209897 ], [ -72.641134212484801, -39.3785266463372 ], [ -72.641370807637202, -39.378352411484201 ], [ -72.6416343448563, -39.378105838167599 ], [ -72.641870937340599, -39.377931602409298 ], [ -72.642262052530995, -39.377776355265603 ], [ -72.642412179715095, -39.3777716497817 ], [ -72.642163315583105, -39.377680597752402 ], [ -72.640921187861196, -39.377414477598201 ], [ -72.640202025746703, -39.377284484966502 ], [ -72.639490632423602, -39.3769240925525 ], [ -72.639308385198603, -39.377129438416503 ], [ -72.639421872134704, -39.3771924123632 ], [ -72.639604258541794, -39.377322981862299 ], [ -72.639763624296705, -39.377493209314601 ], [ -72.640082355909001, -39.377833664414602 ] ] ] } },
{ "type": "Feature", "properties": { "id": "monoparte.20", "Name": null, "description": null, "timestamp": null, "begin": null, "end": null, "altitudeMode": null, "tessellate": -1, "extrude": 0, "visibility": -1, "drawOrder": null, "icon": null, "REG": "Araucanía", "COM": "Loncoche", "LOC": "Loncoche", "ZONA": "ZR-2A", "NOM": "Zona ZR-2A", "UPERM": "Áreas verdes, forestación, deportes a escala vecinal, esparcimiento y turismo (sólo zonas de picnic), balneario.", "UPROH": "Todo otro uso no indicado precedentemente.", "P_DO": "14/01/1991", "N_DOC": "28", "T_DO": "Resolución", "OBS": null }, "geometry": { "type": "Polygon", "coordinates": [ [ [ -72.629102082702303, -39.376522238823199 ], [ -72.629141236358606, -39.376793579080797 ], [ -72.629398739316301, -39.376921819105497 ], [ -72.629853577678801, -39.376985488442401 ], [ -72.630255303208301, -39.376992408776601 ], [ -72.630302600662006, -39.377012471106703 ], [ -72.630306401671803, -39.377010280705697 ], [ -72.630836375653203, -39.3770715989479 ], [ -72.631665880985395, -39.377104085357701 ], [ -72.632875093846494, -39.377202571653903 ], [ -72.633931012894706, -39.377247432620301 ], [ -72.634406864370703, -39.377232551448799 ], [ -72.636247052155497, -39.376921891010603 ], [ -72.636892153287903, -39.376784890984602 ], [ -72.637543311021304, -39.376764510444097 ], [ -72.638273645074406, -39.376819521889701 ], [ -72.638637676307596, -39.376856996384902 ], [ -72.637506511644105, -39.376272019803103 ], [ -72.637204016480197, -39.376115582395897 ], [ -72.637185756087604, -39.375968098887299 ], [ -72.6369306131472, -39.375785431371298 ], [ -72.636753003488593, -39.375676598230797 ], [ -72.636406686162402, -39.375630238940602 ], [ -72.636050481003096, -39.375393536018898 ], [ -72.635822834287893, -39.375267201429097 ], [ -72.635449028513705, -39.375164504370503 ], [ -72.635297923730704, -39.375092969990298 ], [ -72.635219406656404, -39.375000100131103 ], [ -72.635111422366805, -39.374812825054299 ], [ -72.634988798620697, -39.374816660701597 ], [ -72.634777957384998, -39.375013908401897 ], [ -72.634568104396095, -39.375230189487098 ], [ -72.634252243805605, -39.3752972645242 ], [ -72.633791207195401, -39.375407007649102 ], [ -72.633303668754706, -39.375479447303299 ], [ -72.633150040754103, -39.375629942940897 ], [ -72.632298471850106, -39.376464136267401 ], [ -72.629562547853396, -39.374702392309203 ], [ -72.629561595746296, -39.374701778930202 ], [ -72.629515771953507, -39.374824750850998 ], [ -72.629526380508395, -39.375029356321498 ], [ -72.629511414064694, -39.375224512133798 ], [ -72.629472411900394, -39.3754398877307 ], [ -72.629390374581504, -39.375792888408199 ], [ -72.629228164140599, -39.376051049115198 ], [ -72.629185557162202, -39.376210281698498 ], [ -72.629102082702303, -39.376522238823199 ] ] ] } },
{ "type": "Feature", "properties": { "id": "monoparte.21", "Name": null, "description": null, "timestamp": null, "begin": null, "end": null, "altitudeMode": null, "tessellate": -1, "extrude": 0, "visibility": -1, "drawOrder": null, "icon": null, "REG": "Araucanía", "COM": "Loncoche", "LOC": "Loncoche", "ZONA": "ZR-2A", "NOM": "Zona ZR-2A", "UPERM": "Áreas verdes, forestación, deportes a escala vecinal, esparcimiento y turismo (sólo zonas de picnic), balneario.", "UPROH": "Todo otro uso no indicado precedentemente.", "P_DO": "14/01/1991", "N_DOC": "28", "T_DO": "Resolución", "OBS": null }, "geometry": { "type": "Polygon", "coordinates": [ [ [ -72.620343058187004, -39.371539052373898 ], [ -72.617594127738499, -39.373166259757099 ], [ -72.617740285130594, -39.373221597329199 ], [ -72.618019139590004, -39.373270112228198 ], [ -72.6182704036149, -39.373299212867998 ], [ -72.619020193739502, -39.3730926910482 ], [ -72.6196810910469, -39.372809959498397 ], [ -72.620546727141004, -39.372330191493802 ], [ -72.621517855521205, -39.372109279226898 ], [ -72.621770820677298, -39.372069296834098 ], [ -72.621773438885398, -39.372066114046198 ], [ -72.621957112608598, -39.371842880269703 ], [ -72.621975006770398, -39.371821133046097 ], [ -72.621852099837994, -39.371863807260098 ], [ -72.621664811872904, -39.371903558052601 ], [ -72.621615203629403, -39.371914086937998 ], [ -72.621197330323199, -39.372027201439899 ], [ -72.620904515070904, -39.372064923091699 ], [ -72.620777977741298, -39.372111762552201 ], [ -72.620560950768095, -39.372190019938401 ], [ -72.620486638424097, -39.372178036063303 ], [ -72.620485586985097, -39.3718378139694 ], [ -72.620452741595798, -39.371878812253001 ], [ -72.620343058187004, -39.371539052373898 ] ] ] } },
{ "type": "Feature", "properties": { "id": "monoparte.22", "Name": null, "description": null, "timestamp": null, "begin": null, "end": null, "altitudeMode": null, "tessellate": -1, "extrude": 0, "visibility": -1, "drawOrder": null, "icon": null, "REG": "Araucanía", "COM": "Loncoche", "LOC": "Loncoche", "ZONA": "Z-5E", "NOM": "Zona Z-5E", "UPERM": "Actividades productivas inofensivas y molestas; equipamiento del tipo seguridad, rubro bomberos, del tipo de áreas verdes en el rubro plazas.", "UPROH": "Vivienda (con excepción de las del cuidador), Actividades productivas insalubres y peligrosas, cualquier equipamiento no señalado como permitido.", "P_DO": "14/01/1991", "N_DOC": "28", "T_DO": "Resolución", "OBS": null }, "geometry": { "type": "Polygon", "coordinates": [ [ [ -72.637415648587194, -39.3772992369951 ], [ -72.637067638694802, -39.377346395149701 ], [ -72.636531138365399, -39.377363185165997 ], [ -72.635994638746098, -39.377379972678298 ], [ -72.635952939862406, -39.377390843920402 ], [ -72.635590358288795, -39.379042701850402 ], [ -72.634719748428694, -39.378924873964401 ], [ -72.633203347377702, -39.378518974406603 ], [ -72.632646423438104, -39.378363966360403 ], [ -72.6320371746055, -39.379828434962697 ], [ -72.638207703756194, -39.381106589018103 ], [ -72.639341970943505, -39.378399421321497 ], [ -72.639341715342496, -39.378356515428699 ], [ -72.639398831843394, -39.378223534111903 ], [ -72.639457134535405, -39.378247022901803 ], [ -72.639182982814901, -39.377588426437697 ], [ -72.638914160792496, -39.377361118932903 ], [ -72.638558623481998, -39.377263455391898 ], [ -72.637927880270794, -39.377265070228702 ], [ -72.637415648587194, -39.3772992369951 ] ] ] } },
{ "type": "Feature", "properties": { "id": "monoparte.23", "Name": null, "description": null, "timestamp": null, "begin": null, "end": null, "altitudeMode": null, "tessellate": -1, "extrude": 0, "visibility": -1, "drawOrder": null, "icon": null, "REG": "Araucanía", "COM": "Loncoche", "LOC": "Loncoche", "ZONA": "Z-5E", "NOM": "Zona Z-5E", "UPERM": "Actividades productivas inofensivas y molestas; equipamiento del tipo seguridad, rubro bomberos, del tipo de áreas verdes en el rubro plazas.", "UPROH": "Vivienda (con excepción de las del cuidador), Actividades productivas insalubres y peligrosas, cualquier equipamiento no señalado como permitido.", "P_DO": "14/01/1991", "N_DOC": "28", "T_DO": "Resolución", "OBS": null }, "geometry": { "type": "Polygon", "coordinates": [ [ [ -72.614435699576106, -39.363988648908503 ], [ -72.612570831481406, -39.3641419581298 ], [ -72.611718725765201, -39.3641616491226 ], [ -72.611612978175103, -39.364275921942401 ], [ -72.616252367065798, -39.364121285770103 ], [ -72.624851804970305, -39.363991134871803 ], [ -72.624705546949201, -39.363905617782997 ], [ -72.624451097786803, -39.363734815426596 ], [ -72.624273894427304, -39.363573519329101 ], [ -72.624173320678494, -39.363409834289698 ], [ -72.624146913306504, -39.363196171901102 ], [ -72.624106345271201, -39.3627088867891 ], [ -72.624045594224597, -39.3624248011864 ], [ -72.623911293143095, -39.362202587337798 ], [ -72.623618199838106, -39.3618780813595 ], [ -72.623232540836298, -39.361544545576699 ], [ -72.623017926259394, -39.3612533393311 ], [ -72.622876861597007, -39.3609002606537 ], [ -72.622819809858996, -39.360687553968198 ], [ -72.622789099576295, -39.360390614541501 ], [ -72.622698321052695, -39.360119378819299 ], [ -72.622613696573296, -39.359967110784098 ], [ -72.622580042531695, -39.359845054984198 ], [ -72.622439575968102, -39.359774641412599 ], [ -72.621510825062899, -39.360694106440903 ], [ -72.620215091722699, -39.361759239197198 ], [ -72.618998977646996, -39.362583561216198 ], [ -72.617864956062405, -39.363214660634803 ], [ -72.615807670532206, -39.363802982765897 ], [ -72.614435699576106, -39.363988648908503 ] ] ] } },
{ "type": "Feature", "properties": { "id": "monoparte.24", "Name": null, "description": null, "timestamp": null, "begin": null, "end": null, "altitudeMode": null, "tessellate": -1, "extrude": 0, "visibility": -1, "drawOrder": null, "icon": null, "REG": "Araucanía", "COM": "Loncoche", "LOC": "Loncoche", "ZONA": "Z-5E", "NOM": "Zona Z-5E", "UPERM": "Actividades productivas inofensivas y molestas; equipamiento del tipo seguridad, rubro bomberos, del tipo de áreas verdes en el rubro plazas.", "UPROH": "Vivienda (con excepción de las del cuidador), Actividades productivas insalubres y peligrosas, cualquier equipamiento no señalado como permitido.", "P_DO": "14/01/1991", "N_DOC": "28", "T_DO": "Resolución", "OBS": null }, "geometry": { "type": "Polygon", "coordinates": [ [ [ -72.627227177632605, -39.353699975741002 ], [ -72.627179434265202, -39.353963614365803 ], [ -72.627110899080094, -39.354418555472002 ], [ -72.627103658835495, -39.354871584616397 ], [ -72.627184664891203, -39.355250363903203 ], [ -72.627368705540803, -39.355840413378402 ], [ -72.627609117779002, -39.356333375793596 ], [ -72.628029727065595, -39.356749217877002 ], [ -72.628440481396098, -39.356974711557399 ], [ -72.627556159361504, -39.357166742102699 ], [ -72.628022061926202, -39.357105426905697 ], [ -72.628603153140006, -39.357063455108701 ], [ -72.629458845438506, -39.356989073303303 ], [ -72.630069349209506, -39.3569223434381 ], [ -72.630927505233998, -39.3568955374678 ], [ -72.631632418212803, -39.356873513556799 ], [ -72.632095845027294, -39.356930527983501 ], [ -72.6327125132443, -39.356982750058002 ], [ -72.633576838669697, -39.3570748900772 ], [ -72.634164096302698, -39.357151855179801 ], [ -72.635158426619199, -39.357382907936 ], [ -72.635493353176599, -39.357448133178401 ], [ -72.635477081611995, -39.357134625036899 ], [ -72.635440258184204, -39.357016618461302 ], [ -72.635217076149203, -39.356856777294603 ], [ -72.635057661203305, -39.356742604861999 ], [ -72.635106610441994, -39.356502757094702 ], [ -72.635145681545197, -39.356072564978099 ], [ -72.635063395706695, -39.355670000663203 ], [ -72.634959106268099, -39.355434945500598 ], [ -72.634670932764806, -39.355205640858799 ], [ -72.634621337933197, -39.353658132850803 ], [ -72.637852841711805, -39.353819181669799 ], [ -72.639182579712696, -39.358734536688402 ], [ -72.639625525065497, -39.359578605453798 ], [ -72.639997289742595, -39.360234248647501 ], [ -72.640294426114394, -39.361225870513898 ], [ -72.640470207797705, -39.3622451249324 ], [ -72.640460330083897, -39.363302336876899 ], [ -72.640538357605607, -39.362935612297498 ], [ -72.640603099526601, -39.362409288933002 ], [ -72.640600354645997, -39.361765920453102 ], [ -72.640553626389405, -39.361457573042003 ], [ -72.640424572871893, -39.360746667096002 ], [ -72.642860546947205, -39.358001196676199 ], [ -72.642817524841803, -39.357764229647202 ], [ -72.638485698255593, -39.353562560242999 ], [ -72.626976332626697, -39.350633511405697 ], [ -72.626537726332501, -39.351648129632103 ], [ -72.626458103642605, -39.351888931332901 ], [ -72.626442235730806, -39.352175407461502 ], [ -72.626545259771902, -39.352386678086198 ], [ -72.626774566917803, -39.3526655041045 ], [ -72.626940118434703, -39.352898655508298 ], [ -72.627166965084101, -39.353129892921601 ], [ -72.6271780521963, -39.353344032866801 ], [ -72.627227177632605, -39.353699975741002 ] ] ] } },
{ "type": "Feature", "properties": { "id": "monoparte.25", "Name": null, "description": null, "timestamp": null, "begin": null, "end": null, "altitudeMode": null, "tessellate": -1, "extrude": 0, "visibility": -1, "drawOrder": null, "icon": null, "REG": "Araucanía", "COM": "Loncoche", "LOC": "Loncoche", "ZONA": "Z-5", "NOM": "Zona Z-5", "UPERM": "Actividades productivas inofensivas y molestas; equipamiento del tipo seguridad, rubro bomberos, del tipo de áreas verdes en el rubro plazas.", "UPROH": "Vivienda (con excepción de las del cuidador), Actividades productivas insalubres y peligrosas, cualquier equipamiento no señalado como permitido.", "P_DO": "14/01/1991", "N_DOC": "28", "T_DO": "Resolución", "OBS": null }, "geometry": { "type": "Polygon", "coordinates": [ [ [ -72.629469775596107, -39.377577957069597 ], [ -72.629433535803699, -39.377911464289603 ], [ -72.629354225463203, -39.377913941283602 ], [ -72.629507269966595, -39.377981692025799 ], [ -72.631163448346598, -39.377929953348001 ], [ -72.631211979846896, -39.377964702626898 ], [ -72.633203347377702, -39.378518974406603 ], [ -72.634719748428694, -39.378924873964401 ], [ -72.635590358288795, -39.379042701850402 ], [ -72.635952939862406, -39.377390843920402 ], [ -72.635441392473794, -39.377524211172002 ], [ -72.634655822245605, -39.377693846099497 ], [ -72.634115559265396, -39.377638211201898 ], [ -72.633692866977597, -39.377597030864898 ], [ -72.633436278392196, -39.377605053770402 ], [ -72.633150724713502, -39.377505185369898 ], [ -72.632449058827703, -39.3774908543839 ], [ -72.631467477216503, -39.377485266696802 ], [ -72.630603465732406, -39.3774941309483 ], [ -72.629974593427207, -39.3775319089102 ], [ -72.629469775596107, -39.377577957069597 ] ] ] } },
{ "type": "Feature", "properties": { "id": "monoparte.26", "Name": null, "description": null, "timestamp": null, "begin": null, "end": null, "altitudeMode": null, "tessellate": -1, "extrude": 0, "visibility": -1, "drawOrder": null, "icon": null, "REG": "Araucanía", "COM": "Loncoche", "LOC": "Loncoche", "ZONA": "Z-5", "NOM": "Zona Z-5", "UPERM": "Actividades productivas inofensivas y molestas; equipamiento del tipo seguridad, rubro bomberos, del tipo de áreas verdes en el rubro plazas.", "UPROH": "Vivienda (con excepción de las del cuidador), Actividades productivas insalubres y peligrosas, cualquier equipamiento no señalado como permitido.", "P_DO": "14/01/1991", "N_DOC": "28", "T_DO": "Resolución", "OBS": null }, "geometry": { "type": "Polygon", "coordinates": [ [ [ -72.616687809075501, -39.370323053349701 ], [ -72.617871589761705, -39.370414898613397 ], [ -72.618314493964604, -39.370429708781103 ], [ -72.619192921604593, -39.370316561155299 ], [ -72.619341540834895, -39.370340530758703 ], [ -72.619437194768693, -39.370409047646099 ], [ -72.619370265645401, -39.370539823091498 ], [ -72.618711864948907, -39.370989297190199 ], [ -72.6181042095115, -39.371351393793901 ], [ -72.617709152084501, -39.371549579455497 ], [ -72.617144127099294, -39.371667260067298 ], [ -72.616738738815201, -39.371665577916801 ], [ -72.616370874212606, -39.371677025701104 ], [ -72.615730797989102, -39.3717684368644 ], [ -72.615334993778902, -39.371952339679297 ], [ -72.615089281510905, -39.3721887675025 ], [ -72.615028239998395, -39.372433750413698 ], [ -72.615197466625901, -39.372499981290701 ], [ -72.615366694718503, -39.372566211869497 ], [ -72.6155182657876, -39.372647290531802 ], [ -72.615760329880402, -39.3726969555034 ], [ -72.615999445941696, -39.372689515657299 ], [ -72.616644692560996, -39.372698035037502 ], [ -72.616903675828297, -39.372718573958103 ], [ -72.617033905064602, -39.372743118798198 ], [ -72.617260528568494, -39.372850457201302 ], [ -72.6173782659572, -39.372989782499602 ], [ -72.617496003827199, -39.373129107654101 ], [ -72.617594127738499, -39.373166259757099 ], [ -72.620343058187004, -39.371539052373898 ], [ -72.620452741595798, -39.371878812253001 ], [ -72.620485586985097, -39.3718378139694 ], [ -72.621594870872897, -39.370453161667697 ], [ -72.620548319282094, -39.369917892561297 ], [ -72.616945496474102, -39.369466768721303 ], [ -72.616829701097998, -39.369503592142699 ], [ -72.616687809075501, -39.370323053349701 ] ] ] } },
{ "type": "Feature", "properties": { "id": "monoparte.27", "Name": null, "description": null, "timestamp": null, "begin": null, "end": null, "altitudeMode": null, "tessellate": -1, "extrude": 0, "visibility": -1, "drawOrder": null, "icon": null, "REG": "Araucanía", "COM": "Loncoche", "LOC": "Loncoche", "ZONA": "Z-5", "NOM": "Zona Z-5", "UPERM": "Actividades productivas inofensivas y molestas; equipamiento del tipo seguridad, rubro bomberos, del tipo de áreas verdes en el rubro plazas.", "UPROH": "Vivienda (con excepción de las del cuidador), Actividades productivas insalubres y peligrosas, cualquier equipamiento no señalado como permitido.", "P_DO": "14/01/1991", "N_DOC": "28", "T_DO": "Resolución", "OBS": null }, "geometry": { "type": "Polygon", "coordinates": [ [ [ -72.637556835869404, -39.361035138579297 ], [ -72.637564764710206, -39.361051388939998 ], [ -72.637575967283595, -39.361048838752403 ], [ -72.637863680961701, -39.361268617571596 ], [ -72.638414942685301, -39.361952010839097 ], [ -72.638757092883395, -39.362155784158404 ], [ -72.639173547891104, -39.362371527821701 ], [ -72.639436946638696, -39.362477671399901 ], [ -72.639676020413305, -39.3624701845538 ], [ -72.639998302322098, -39.362645978418598 ], [ -72.640342685332001, -39.362892572927997 ], [ -72.640462581310899, -39.363061337886698 ], [ -72.640470207797705, -39.3622451249324 ], [ -72.640294426114394, -39.361225870513898 ], [ -72.639997289742595, -39.360234248647501 ], [ -72.639625525065497, -39.359578605453798 ], [ -72.639182579712696, -39.358734536688402 ], [ -72.637852841711805, -39.353819181669799 ], [ -72.634621337933197, -39.353658132850803 ], [ -72.634670932764806, -39.355205640858799 ], [ -72.634959106268099, -39.355434945500598 ], [ -72.635063395706695, -39.355670000663203 ], [ -72.635145681545197, -39.356072564978099 ], [ -72.635106610441994, -39.356502757094702 ], [ -72.635057661203305, -39.356742604861999 ], [ -72.635217076149203, -39.356856777294603 ], [ -72.635440258184204, -39.357016618461302 ], [ -72.635477081611995, -39.357134625036899 ], [ -72.6354956050357, -39.357491519902098 ], [ -72.635413537597003, -39.3576847401824 ], [ -72.635300822712694, -39.357878919913901 ], [ -72.635313171338396, -39.358116849543599 ], [ -72.635114163899402, -39.358436926302403 ], [ -72.635159268845996, -39.3584934374163 ], [ -72.635333664158097, -39.3586595712137 ], [ -72.635722942470395, -39.359062065374403 ], [ -72.635987805916002, -39.359196769216702 ], [ -72.636174666595906, -39.359248119076497 ], [ -72.636194818910894, -39.359286281792897 ], [ -72.636250448077405, -39.359288645035797 ], [ -72.636346101506703, -39.359357147129302 ], [ -72.636461627059504, -39.359453625298897 ], [ -72.636465333071897, -39.359525005066899 ], [ -72.636453614229396, -39.359654062415899 ], [ -72.636440412969904, -39.359754568216502 ], [ -72.636375007419403, -39.359913903254601 ], [ -72.636380936973495, -39.360028110345198 ], [ -72.636448706618495, -39.360269072325003 ], [ -72.636512029462395, -39.360424380511503 ], [ -72.636594483667693, -39.360593388098202 ], [ -72.636804186155601, -39.360729815918297 ], [ -72.6371095447453, -39.360934745568898 ], [ -72.637444271836301, -39.360995764730497 ], [ -72.637556835869404, -39.361035138579297 ] ] ] } },
{ "type": "Feature", "properties": { "id": "monoparte.28", "Name": null, "description": null, "timestamp": null, "begin": null, "end": null, "altitudeMode": null, "tessellate": -1, "extrude": 0, "visibility": -1, "drawOrder": null, "icon": null, "REG": "Araucanía", "COM": "Loncoche", "LOC": "Loncoche", "ZONA": "Z-3E", "NOM": "Zona Z-3E", "UPERM": "Vivienda; actividades productivas inofensivas; equipamiento de salud (vec.), educación (excepto regional), seguridad, culto, cultura, organización comunitaria, áreas verdes, comercio minorista, servicios públicos, servicios profesionales.", "UPROH": "Actividades productivas molestas, insalubres y peligrosas, y cualquier equipamiento no señalado como permitido.", "P_DO": "14/01/1991", "N_DOC": "28", "T_DO": "Resolución", "OBS": null }, "geometry": { "type": "Polygon", "coordinates": [ [ [ -72.622817516605195, -39.379641062253398 ], [ -72.625000027948005, -39.381312912493897 ], [ -72.625250452376804, -39.381052077545597 ], [ -72.6285329572069, -39.383524481434698 ], [ -72.628965587241893, -39.382404872991401 ], [ -72.629041891841197, -39.3824194272227 ], [ -72.629028999625305, -39.382275962997198 ], [ -72.629032629913297, -39.382267072094102 ], [ -72.627729070580997, -39.381990161726399 ], [ -72.628135563630707, -39.3808169739007 ], [ -72.626360674258294, -39.3803827900512 ], [ -72.628016831148202, -39.379180994023599 ], [ -72.624380482034496, -39.378433092965501 ], [ -72.622817516605195, -39.379641062253398 ] ] ] } },
{ "type": "Feature", "properties": { "id": "monoparte.29", "Name": null, "description": null, "timestamp": null, "begin": null, "end": null, "altitudeMode": null, "tessellate": -1, "extrude": 0, "visibility": -1, "drawOrder": null, "icon": null, "REG": "Araucanía", "COM": "Loncoche", "LOC": "Loncoche", "ZONA": "Z-3E", "NOM": "Zona Z-3E", "UPERM": "Vivienda; actividades productivas inofensivas; equipamiento de salud (vec.), educación (excepto regional), seguridad, culto, cultura, organización comunitaria, áreas verdes, comercio minorista, servicios públicos, servicios profesionales.", "UPROH": "Actividades productivas molestas, insalubres y peligrosas, y cualquier equipamiento no señalado como permitido.", "P_DO": "14/01/1991", "N_DOC": "28", "T_DO": "Resolución", "OBS": null }, "geometry": { "type": "Polygon", "coordinates": [ [ [ -72.624561117560603, -39.3782793460216 ], [ -72.629998718586606, -39.379406108393901 ], [ -72.630599253797101, -39.377947581327597 ], [ -72.629507269966595, -39.377981692025799 ], [ -72.629354225463203, -39.377913941283602 ], [ -72.627614068596003, -39.377968275631297 ], [ -72.626865619184898, -39.3775020521133 ], [ -72.626480203609404, -39.377278353924702 ], [ -72.626077090414995, -39.377164003107403 ], [ -72.625597137826801, -39.377090988224701 ], [ -72.625430516859296, -39.3773111061086 ], [ -72.625104061704704, -39.377774609518397 ], [ -72.624658155149405, -39.378187439656301 ], [ -72.624561117560603, -39.3782793460216 ] ] ] } },
{ "type": "Feature", "properties": { "id": "monoparte.30", "Name": null, "description": null, "timestamp": null, "begin": null, "end": null, "altitudeMode": null, "tessellate": -1, "extrude": 0, "visibility": -1, "drawOrder": null, "icon": null, "REG": "Araucanía", "COM": "Loncoche", "LOC": "Loncoche", "ZONA": "Z-3E", "NOM": "Zona Z-3E", "UPERM": "Vivienda; actividades productivas inofensivas; equipamiento de salud (vec.), educación (excepto regional), seguridad, culto, cultura, organización comunitaria, áreas verdes, comercio minorista, servicios públicos, servicios profesionales.", "UPROH": "Actividades productivas molestas, insalubres y peligrosas, y cualquier equipamiento no señalado como permitido.", "P_DO": "14/01/1991", "N_DOC": "28", "T_DO": "Resolución", "OBS": null }, "geometry": { "type": "Polygon", "coordinates": [ [ [ -72.61937724565, -39.364287181361803 ], [ -72.6210651240294, -39.365196385837201 ], [ -72.621559411071999, -39.364780611255199 ], [ -72.622450386430799, -39.365267608811997 ], [ -72.621525847196395, -39.366268756970399 ], [ -72.622266015502007, -39.366688959856901 ], [ -72.622910318670606, -39.365968223932697 ], [ -72.623286276159007, -39.366113792488903 ], [ -72.624109305481099, -39.3652873858737 ], [ -72.624280000773993, -39.365382155849701 ], [ -72.624883877369996, -39.364948650786502 ], [ -72.624927227255398, -39.364718513912798 ], [ -72.625370748162297, -39.364390101691498 ], [ -72.625417613023004, -39.364327994937199 ], [ -72.625523763757798, -39.364187322280699 ], [ -72.61937724565, -39.364287181361803 ] ] ] } },
{ "type": "Feature", "properties": { "id": "monoparte.31", "Name": null, "description": null, "timestamp": null, "begin": null, "end": null, "altitudeMode": null, "tessellate": -1, "extrude": 0, "visibility": -1, "drawOrder": null, "icon": null, "REG": "Araucanía", "COM": "Loncoche", "LOC": "Loncoche", "ZONA": "Z-3E", "NOM": "Zona Z-3E", "UPERM": "Vivienda; actividades productivas inofensivas; equipamiento de salud (vec.), educación (excepto regional), seguridad, culto, cultura, organización comunitaria, áreas verdes, comercio minorista, servicios públicos, servicios profesionales.", "UPROH": "Actividades productivas molestas, insalubres y peligrosas, y cualquier equipamiento no señalado como permitido.", "P_DO": "14/01/1991", "N_DOC": "28", "T_DO": "Resolución", "OBS": null }, "geometry": { "type": "Polygon", "coordinates": [ [ [ -72.608921996073306, -39.366614665937199 ], [ -72.609157454570806, -39.366622558361399 ], [ -72.610266999076401, -39.365380426491299 ], [ -72.609834486686594, -39.365316971592897 ], [ -72.609425454186507, -39.365243880374798 ], [ -72.609030399561604, -39.365084560293603 ], [ -72.608621370267201, -39.365011467001999 ], [ -72.608213076149795, -39.364952648472297 ], [ -72.607767263974793, -39.364880694099902 ], [ -72.607488448586494, -39.364832151749503 ], [ -72.607006589950302, -39.364775612345603 ], [ -72.606875643112204, -39.364736779155102 ], [ -72.606735856518895, -39.364615257734499 ], [ -72.606585621077997, -39.364621437671701 ], [ -72.606561697050097, -39.366092140292402 ], [ -72.608548025135093, -39.366507119143797 ], [ -72.608921996073306, -39.366614665937199 ] ] ] } },
{ "type": "Feature", "properties": { "id": "monoparte.32", "Name": null, "description": null, "timestamp": null, "begin": null, "end": null, "altitudeMode": null, "tessellate": -1, "extrude": 0, "visibility": -1, "drawOrder": null, "icon": null, "REG": "Araucanía", "COM": "Loncoche", "LOC": "Loncoche", "ZONA": "Z-3E", "NOM": "Zona Z-3E", "UPERM": "Vivienda; actividades productivas inofensivas; equipamiento de salud (vec.), educación (excepto regional), seguridad, culto, cultura, organización comunitaria, áreas verdes, comercio minorista, servicios públicos, servicios profesionales.", "UPROH": "Actividades productivas molestas, insalubres y peligrosas, y cualquier equipamiento no señalado como permitido.", "P_DO": "14/01/1991", "N_DOC": "28", "T_DO": "Resolución", "OBS": null }, "geometry": { "type": "Polygon", "coordinates": [ [ [ -72.614241280302906, -39.370333941216799 ], [ -72.616408008538201, -39.370671676152 ], [ -72.616357759414697, -39.370887725853002 ], [ -72.616029156738406, -39.371064773140702 ], [ -72.615792517692796, -39.371238957399299 ], [ -72.615373173751095, -39.371442657444099 ], [ -72.614924402086302, -39.371671103660098 ], [ -72.614806693949404, -39.371770091427898 ], [ -72.614637503120605, -39.372061335079998 ], [ -72.614322401358706, -39.372500106625701 ], [ -72.614570105598304, -39.372540066319601 ], [ -72.614849692825302, -39.372602865148899 ], [ -72.615258047886002, -39.372780816305998 ], [ -72.615538865373694, -39.372867406557198 ], [ -72.615787800351001, -39.372931157607397 ], [ -72.616123786113604, -39.372896871244997 ], [ -72.616524770952907, -39.372932057122902 ], [ -72.616861985483695, -39.3729215626621 ], [ -72.617206576100202, -39.373053827681602 ], [ -72.617462888679398, -39.373260335498898 ], [ -72.617742482057494, -39.373323127065902 ], [ -72.618142239999699, -39.373334513217401 ], [ -72.6182704036149, -39.373299212867998 ], [ -72.618019139590004, -39.373270112228198 ], [ -72.617740285130594, -39.373221597329199 ], [ -72.617594127738499, -39.373166259757099 ], [ -72.617496003827199, -39.373129107654101 ], [ -72.6173782659572, -39.372989782499602 ], [ -72.617260528568494, -39.372850457201302 ], [ -72.617033905064602, -39.372743118798198 ], [ -72.616903675828297, -39.372718573958103 ], [ -72.616644692560996, -39.372698035037502 ], [ -72.615999445941696, -39.372689515657299 ], [ -72.615760329880402, -39.3726969555034 ], [ -72.6155182657876, -39.372647290531802 ], [ -72.615366694718503, -39.372566211869497 ], [ -72.615197466625901, -39.372499981290701 ], [ -72.615028239998395, -39.372433750413698 ], [ -72.615089281510905, -39.3721887675025 ], [ -72.615334993778902, -39.371952339679297 ], [ -72.615730797989102, -39.3717684368644 ], [ -72.616370874212606, -39.371677025701104 ], [ -72.616738738815201, -39.371665577916801 ], [ -72.617144127099294, -39.371667260067298 ], [ -72.617709152084501, -39.371549579455497 ], [ -72.6181042095115, -39.371351393793901 ], [ -72.618711864948907, -39.370989297190199 ], [ -72.619370265645401, -39.370539823091498 ], [ -72.619437194768693, -39.370409047646099 ], [ -72.619341540834895, -39.370340530758703 ], [ -72.619192921604593, -39.370316561155299 ], [ -72.618314493964604, -39.370429708781103 ], [ -72.617871589761705, -39.370414898613397 ], [ -72.616687809075501, -39.370323053349701 ], [ -72.616829701097998, -39.369503592142699 ], [ -72.616945496474102, -39.369466768721303 ], [ -72.617228438971296, -39.3693767900713 ], [ -72.620125124290894, -39.366255199934997 ], [ -72.618321845911098, -39.365224629924903 ], [ -72.619084589920703, -39.364300041092399 ], [ -72.619094424673307, -39.364291768826497 ], [ -72.611484334595502, -39.364414936632798 ], [ -72.6094154636328, -39.3666504936959 ], [ -72.609725116648406, -39.366708883090503 ], [ -72.610037784212196, -39.366818330277603 ], [ -72.610728110187495, -39.367106698100301 ], [ -72.611081250495104, -39.367405539044498 ], [ -72.611375540349499, -39.367753871327302 ], [ -72.6115410817509, -39.367987044027103 ], [ -72.611891806220299, -39.368834088011603 ], [ -72.612444846389394, -39.369436524521298 ], [ -72.613023639288699, -39.369942831079697 ], [ -72.613402546604405, -39.370145536023401 ], [ -72.614241280302906, -39.370333941216799 ] ] ] } },
{ "type": "Feature", "properties": { "id": "monoparte.33", "Name": null, "description": null, "timestamp": null, "begin": null, "end": null, "altitudeMode": null, "tessellate": -1, "extrude": 0, "visibility": -1, "drawOrder": null, "icon": null, "REG": "Araucanía", "COM": "Loncoche", "LOC": "Loncoche", "ZONA": "Z-3E", "NOM": "Zona Z-3E", "UPERM": "Vivienda; actividades productivas inofensivas; equipamiento de salud (vec.), educación (excepto regional), seguridad, culto, cultura, organización comunitaria, áreas verdes, comercio minorista, servicios públicos, servicios profesionales.", "UPROH": "Actividades productivas molestas, insalubres y peligrosas, y cualquier equipamiento no señalado como permitido.", "P_DO": "14/01/1991", "N_DOC": "28", "T_DO": "Resolución", "OBS": null }, "geometry": { "type": "Polygon", "coordinates": [ [ [ -72.625419956167505, -39.357926911836401 ], [ -72.623863132897299, -39.358690415635401 ], [ -72.622678996472601, -39.359537609407397 ], [ -72.6226036799182, -39.3596121744052 ], [ -72.626696129188304, -39.3617273899211 ], [ -72.628322335744102, -39.361242769606001 ], [ -72.628533190611606, -39.361164690930302 ], [ -72.628891131349405, -39.360962861784103 ], [ -72.629332390669106, -39.360591607666201 ], [ -72.629454990309199, -39.360587779128799 ], [ -72.629633959272297, -39.360486863797 ], [ -72.629687861172201, -39.360342190582998 ], [ -72.629957544342005, -39.3602146094441 ], [ -72.630103394616896, -39.360067063311 ], [ -72.630315477141394, -39.360012776260199 ], [ -72.630499375453496, -39.360007031904402 ], [ -72.630932172102007, -39.360065006569201 ], [ -72.631172437165802, -39.3599621730325 ], [ -72.631470297870806, -39.359786044504901 ], [ -72.631737509144301, -39.359610873868398 ], [ -72.632036601848597, -39.359458536755703 ], [ -72.632339395010305, -39.359377579026798 ], [ -72.632638484214596, -39.359225241401198 ], [ -72.632970691443205, -39.359119530459097 ], [ -72.633334779517497, -39.359036654161002 ], [ -72.633599514414897, -39.358813893196 ], [ -72.633801714873201, -39.358569254613698 ], [ -72.633950021209799, -39.358469290544001 ], [ -72.6340983283241, -39.358369327166201 ], [ -72.634249104015495, -39.358316949057297 ], [ -72.634462412113095, -39.358286447530702 ], [ -72.634676954641904, -39.358279738329301 ], [ -72.634804488325997, -39.358371076068899 ], [ -72.635086503150504, -39.358481414334399 ], [ -72.635313171338396, -39.358116849543599 ], [ -72.635300822712694, -39.357878919913901 ], [ -72.635413537597003, -39.3576847401824 ], [ -72.6354956050357, -39.357491519902098 ], [ -72.635493353176599, -39.357448133178401 ], [ -72.635158426619199, -39.357382907936 ], [ -72.634164096302698, -39.357151855179801 ], [ -72.633576838669697, -39.3570748900772 ], [ -72.6327125132443, -39.356982750058002 ], [ -72.632095845027294, -39.356930527983501 ], [ -72.631632418212803, -39.356873513556799 ], [ -72.630927505233998, -39.3568955374678 ], [ -72.630069349209506, -39.3569223434381 ], [ -72.629458845438506, -39.356989073303303 ], [ -72.628603153140006, -39.357063455108701 ], [ -72.628022061926202, -39.357105426905697 ], [ -72.627556159361504, -39.357166742102699 ], [ -72.627286925162295, -39.357225204510101 ], [ -72.625419956167505, -39.357926911836401 ] ] ] } },
{ "type": "Feature", "properties": { "id": "monoparte.34", "Name": null, "description": null, "timestamp": null, "begin": null, "end": null, "altitudeMode": null, "tessellate": -1, "extrude": 0, "visibility": -1, "drawOrder": null, "icon": null, "REG": "Araucanía", "COM": "Loncoche", "LOC": "Loncoche", "ZONA": "ZR-1", "NOM": "Zona de protección de vertientes y cursos naturales de agua", "UPERM": "Áreas verdes, forestación.", "UPROH": "Todo otro uso no indicado precedentemente.", "P_DO": "14/01/1991", "N_DOC": "28", "T_DO": "Resolución", "OBS": null }, "geometry": { "type": "Polygon", "coordinates": [ [ [ -72.6218397989214, -39.371985462283902 ], [ -72.623115329931593, -39.371852804225398 ], [ -72.624773249886104, -39.371837370553301 ], [ -72.626321108603705, -39.371952277432797 ], [ -72.627521917195295, -39.372132394331302 ], [ -72.628354227297706, -39.372414669277099 ], [ -72.629129708226301, -39.372952570617002 ], [ -72.629253979062696, -39.3735470720423 ], [ -72.629280258207402, -39.374053969578199 ], [ -72.629311230863095, -39.374651383588201 ], [ -72.629246085860203, -39.3751974020104 ], [ -72.628999966513106, -39.375857867477301 ], [ -72.628885352017704, -39.376351032291801 ], [ -72.628761349856504, -39.376663161264503 ], [ -72.628868732716995, -39.376931800026199 ], [ -72.628903321037697, -39.377148312760298 ], [ -72.629097439629703, -39.377287312979902 ], [ -72.629425884296396, -39.377313321290998 ], [ -72.629868145296498, -39.377281375403697 ], [ -72.630286139876503, -39.377232052569902 ], [ -72.631101617464907, -39.377188442393901 ], [ -72.631640937486196, -39.377225987587501 ], [ -72.633261717782901, -39.377392918023602 ], [ -72.633966202090406, -39.377461554108002 ], [ -72.634760232506594, -39.377454854560398 ], [ -72.635245380975405, -39.377349015284601 ], [ -72.635729587525105, -39.377225071058298 ], [ -72.636027184040202, -39.377106962872098 ], [ -72.636305215850996, -39.377061997563999 ], [ -72.636725083963, -39.377048858661396 ], [ -72.637473396515503, -39.377061703706097 ], [ -72.638364487371703, -39.377124471863702 ], [ -72.638908513916306, -39.377252499583101 ], [ -72.639147421336006, -39.377353814449201 ], [ -72.639342500868494, -39.377510900376798 ], [ -72.639447100075799, -39.377725216868399 ], [ -72.639548877179195, -39.377885224461899 ], [ -72.639603060621496, -39.378028589297003 ], [ -72.639611532795598, -39.378191518173097 ], [ -72.6396830421982, -39.378338034163797 ], [ -72.639837934857397, -39.378400434080604 ], [ -72.640057486027104, -39.378488883887599 ], [ -72.640399668491995, -39.378573491691597 ], [ -72.640772509960101, -39.378657137027801 ], [ -72.641099652148796, -39.378539115209897 ], [ -72.640683662979498, -39.378301546758799 ], [ -72.640082355909001, -39.377833664414602 ], [ -72.639763624296705, -39.377493209314601 ], [ -72.639604258541794, -39.377322981862299 ], [ -72.639421872134704, -39.3771924123632 ], [ -72.639308385198603, -39.377129438416503 ], [ -72.6392631247206, -39.377180435063899 ], [ -72.638637676307596, -39.376856996384902 ], [ -72.638273645074406, -39.376819521889701 ], [ -72.637543311021304, -39.376764510444097 ], [ -72.636892153287903, -39.376784890984602 ], [ -72.636247052155497, -39.376921891010603 ], [ -72.634406864370703, -39.377232551448799 ], [ -72.633931012894706, -39.377247432620301 ], [ -72.632875093846494, -39.377202571653903 ], [ -72.631665880985395, -39.377104085357701 ], [ -72.630836375653203, -39.3770715989479 ], [ -72.630306401671803, -39.377010280705697 ], [ -72.630302600662006, -39.377012471106703 ], [ -72.630255303208301, -39.376992408776601 ], [ -72.629853577678801, -39.376985488442401 ], [ -72.629398739316301, -39.376921819105497 ], [ -72.629141236358606, -39.376793579080797 ], [ -72.629102082702303, -39.376522238823199 ], [ -72.629185557162202, -39.376210281698498 ], [ -72.629228164140599, -39.376051049115198 ], [ -72.629390374581504, -39.375792888408199 ], [ -72.629472411900394, -39.3754398877307 ], [ -72.629511414064694, -39.375224512133798 ], [ -72.629526380508395, -39.375029356321498 ], [ -72.629515771953507, -39.374824750850998 ], [ -72.629561595746296, -39.374701778930202 ], [ -72.629598089476303, -39.374603845736097 ], [ -72.629524219402796, -39.3736528870634 ], [ -72.629410331323498, -39.373351399039301 ], [ -72.629400463015401, -39.373161053148799 ], [ -72.629344506956897, -39.373029343359399 ], [ -72.629384674000804, -39.372856501325401 ], [ -72.629005954567205, -39.372658609505201 ], [ -72.628702784156403, -39.372496488637303 ], [ -72.628375090592797, -39.372335132608598 ], [ -72.627997363071799, -39.372156271120197 ], [ -72.627448737708605, -39.371964347371502 ], [ -72.627446982590996, -39.371963733818703 ], [ -72.626582723861503, -39.371876314507098 ], [ -72.625916629136398, -39.371820838206702 ], [ -72.625621354974399, -39.371810984885101 ], [ -72.625471253648101, -39.371758471698598 ], [ -72.625098464073204, -39.371674773685903 ], [ -72.624706079586005, -39.371687012779098 ], [ -72.624143995805795, -39.371742673975902 ], [ -72.623898754887506, -39.371750321567703 ], [ -72.623406302453702, -39.3717275454038 ], [ -72.622938374681695, -39.371704003496603 ], [ -72.622695103453296, -39.3717497174733 ], [ -72.622327240834096, -39.3717611841072 ], [ -72.622012366091496, -39.3718472597185 ], [ -72.621957112608598, -39.371842880269703 ], [ -72.6218397989214, -39.371985462283902 ] ] ] } },
{ "type": "Feature", "properties": { "id": "monoparte.35", "Name": null, "description": null, "timestamp": null, "begin": null, "end": null, "altitudeMode": null, "tessellate": -1, "extrude": 0, "visibility": -1, "drawOrder": null, "icon": null, "REG": "Araucanía", "COM": "Loncoche", "LOC": "Loncoche", "ZONA": "Lecho de Cauce Natural", "NOM": "Lecho de cauce natural", "UPERM": "Sin información.", "UPROH": "Sin información.", "P_DO": "14/01/1991", "N_DOC": "28", "T_DO": "Resolución", "OBS": null }, "geometry": { "type": "Polygon", "coordinates": [ [ [ -72.621876598366796, -39.372220486112703 ], [ -72.622289694324706, -39.372150533932803 ], [ -72.623948559514602, -39.372153214959397 ], [ -72.625140929416403, -39.372170424896503 ], [ -72.626338925385298, -39.372296244420099 ], [ -72.627349390387806, -39.372409771662099 ], [ -72.627942826407804, -39.372590707839599 ], [ -72.628587607951701, -39.372860701768602 ], [ -72.628930108018096, -39.373158264998601 ], [ -72.628924613795604, -39.373502959270297 ], [ -72.628894855377794, -39.373830278777199 ], [ -72.628639486482001, -39.374763024397303 ], [ -72.628646993789403, -39.374907852210697 ], [ -72.628657316419805, -39.375106990333798 ], [ -72.628675146709597, -39.375450957142398 ], [ -72.628559591886997, -39.375926017702199 ], [ -72.628560664570102, -39.376397435709997 ], [ -72.628599945075706, -39.376704466943302 ], [ -72.628587879859793, -39.376922437420497 ], [ -72.628678505066105, -39.3773185284563 ], [ -72.628850236387805, -39.377476360571301 ], [ -72.629135784664001, -39.377576240740503 ], [ -72.629369985974293, -39.377587058977902 ], [ -72.629974593427207, -39.3775319089102 ], [ -72.630603465732406, -39.3774941309483 ], [ -72.631467477216503, -39.377485266696802 ], [ -72.632449058827703, -39.3774908543839 ], [ -72.633150724713502, -39.377505185369898 ], [ -72.633436278392196, -39.377605053770402 ], [ -72.633692866977597, -39.377597030864898 ], [ -72.634115559265396, -39.377638211201898 ], [ -72.634655822245605, -39.377693846099497 ], [ -72.635441392473794, -39.377524211172002 ], [ -72.635994638746098, -39.377379972678298 ], [ -72.636531138365399, -39.377363185165997 ], [ -72.637067638694802, -39.377346395149701 ], [ -72.637415648587194, -39.3772992369951 ], [ -72.637927880270794, -39.377265070228702 ], [ -72.638558623481998, -39.377263455391898 ], [ -72.638914160792496, -39.377361118932903 ], [ -72.639182982814901, -39.377588426437697 ], [ -72.639457134535405, -39.378247022901803 ], [ -72.6396830421982, -39.378338034163797 ], [ -72.639611532795598, -39.378191518173097 ], [ -72.639603060621496, -39.378028589297003 ], [ -72.639548877179195, -39.377885224461899 ], [ -72.639447100075799, -39.377725216868399 ], [ -72.639342500868494, -39.377510900376798 ], [ -72.639147421336006, -39.377353814449201 ], [ -72.638908513916306, -39.377252499583101 ], [ -72.638364487371703, -39.377124471863702 ], [ -72.637473396515503, -39.377061703706097 ], [ -72.636725083963, -39.377048858661396 ], [ -72.636305215850996, -39.377061997563999 ], [ -72.636027184040202, -39.377106962872098 ], [ -72.635729587525105, -39.377225071058298 ], [ -72.635245380975405, -39.377349015284601 ], [ -72.634760232506594, -39.377454854560398 ], [ -72.633966202090406, -39.377461554108002 ], [ -72.633261717782901, -39.377392918023602 ], [ -72.631640937486196, -39.377225987587501 ], [ -72.631101617464907, -39.377188442393901 ], [ -72.630286139876503, -39.377232052569902 ], [ -72.629868145296498, -39.377281375403697 ], [ -72.629425884296396, -39.377313321290998 ], [ -72.629097439629703, -39.377287312979902 ], [ -72.628903321037697, -39.377148312760298 ], [ -72.628868732716995, -39.376931800026199 ], [ -72.628761349856504, -39.376663161264503 ], [ -72.628885352017704, -39.376351032291801 ], [ -72.628999966513106, -39.375857867477301 ], [ -72.629246085860203, -39.3751974020104 ], [ -72.629311230863095, -39.374651383588201 ], [ -72.629280258207402, -39.374053969578199 ], [ -72.629253979062696, -39.3735470720423 ], [ -72.629129708226301, -39.372952570617002 ], [ -72.628354227297706, -39.372414669277099 ], [ -72.627521917195295, -39.372132394331302 ], [ -72.626321108603705, -39.371952277432797 ], [ -72.624773249886104, -39.371837370553301 ], [ -72.623115329931593, -39.371852804225398 ], [ -72.6218397989214, -39.371985462283902 ], [ -72.621773438885398, -39.372066114046198 ], [ -72.621876598366796, -39.372220486112703 ] ] ] } },
{ "type": "Feature", "properties": { "id": "monoparte.36", "Name": null, "description": null, "timestamp": null, "begin": null, "end": null, "altitudeMode": null, "tessellate": -1, "extrude": 0, "visibility": -1, "drawOrder": null, "icon": null, "REG": "Araucanía", "COM": "Loncoche", "LOC": "Loncoche", "ZONA": "Z-6", "NOM": "Zona Z-6", "UPERM": "Equipamiento de deportes y de áreas verdes de escala comunal y vecinal.", "UPROH": "Todos los usos de suelo no mencionados precedentemente y los señalados en el artículo 18 bis A de la presente Ordenanza.", "P_DO": "14/01/1991", "N_DOC": "28", "T_DO": "Resolución", "OBS": null }, "geometry": { "type": "Polygon", "coordinates": [ [ [ -72.633606658602901, -39.380330416904002 ], [ -72.630027552340195, -39.382607430071502 ], [ -72.628965587241893, -39.382404872991401 ], [ -72.6285329572069, -39.383524481434698 ], [ -72.625250452376804, -39.381052077545597 ], [ -72.625000027948005, -39.381312912493897 ], [ -72.628754317307596, -39.384188481423102 ], [ -72.634198796050697, -39.380591246935403 ], [ -72.638094829722405, -39.381375974835798 ], [ -72.638142238840103, -39.381262828328197 ], [ -72.638207703756194, -39.381106589018103 ], [ -72.624561117560603, -39.3782793460216 ], [ -72.624479978825093, -39.378356192648098 ], [ -72.624380482034496, -39.378433092965501 ], [ -72.633606658602901, -39.380330416904002 ] ] ] } },
{ "type": "Feature", "properties": { "id": "monoparte.37", "Name": null, "description": null, "timestamp": null, "begin": null, "end": null, "altitudeMode": null, "tessellate": -1, "extrude": 0, "visibility": -1, "drawOrder": null, "icon": null, "REG": "Araucanía", "COM": "Loncoche", "LOC": "Loncoche", "ZONA": "Z-6", "NOM": "Zona Z-6", "UPERM": "Equipamiento de deportes y de áreas verdes de escala comunal y vecinal.", "UPROH": "Todos los usos de suelo no mencionados precedentemente y los señalados en el artículo 18 bis A de la presente Ordenanza.", "P_DO": "14/01/1991", "N_DOC": "28", "T_DO": "Resolución", "OBS": null }, "geometry": { "type": "Polygon", "coordinates": [ [ [ -72.621876598366796, -39.372220486112703 ], [ -72.622100377111096, -39.372555357095997 ], [ -72.623101471592193, -39.3724878852356 ], [ -72.623917840699605, -39.372462431062097 ], [ -72.625367725562299, -39.372489740601999 ], [ -72.627034098903806, -39.372637205395499 ], [ -72.627503408801601, -39.372676956348201 ], [ -72.627232203566095, -39.373755255801903 ], [ -72.626911526018404, -39.374780700405502 ], [ -72.626773571442598, -39.375274591815298 ], [ -72.626645810715004, -39.375514305282202 ], [ -72.626498474163398, -39.375827160193502 ], [ -72.6262578332109, -39.3761429273573 ], [ -72.626084354739007, -39.376402199261797 ], [ -72.625885672687801, -39.376625992406098 ], [ -72.625824134164205, -39.376791107194599 ], [ -72.625597137826801, -39.377090988224701 ], [ -72.626077090414995, -39.377164003107403 ], [ -72.626480203609404, -39.377278353924702 ], [ -72.626865619184898, -39.3775020521133 ], [ -72.627614068596003, -39.377968275631297 ], [ -72.629433535803699, -39.377911464289603 ], [ -72.629469775596107, -39.377577957069597 ], [ -72.629369985974293, -39.377587058977902 ], [ -72.629135784664001, -39.377576240740503 ], [ -72.628850236387805, -39.377476360571301 ], [ -72.628678505066105, -39.3773185284563 ], [ -72.628587879859793, -39.376922437420497 ], [ -72.628599945075706, -39.376704466943302 ], [ -72.628560664570102, -39.376397435709997 ], [ -72.628559591886997, -39.375926017702199 ], [ -72.628675146709597, -39.375450957142398 ], [ -72.628657316419805, -39.375106990333798 ], [ -72.628646993789403, -39.374907852210697 ], [ -72.628639486482001, -39.374763024397303 ], [ -72.628894855377794, -39.373830278777199 ], [ -72.628924613795604, -39.373502959270297 ], [ -72.628930108018096, -39.373158264998601 ], [ -72.628587607951701, -39.372860701768602 ], [ -72.627942826407804, -39.372590707839599 ], [ -72.627349390387806, -39.372409771662099 ], [ -72.626338925385298, -39.372296244420099 ], [ -72.625140929416403, -39.372170424896503 ], [ -72.623948559514602, -39.372153214959397 ], [ -72.622289694324706, -39.372150533932803 ], [ -72.621876598366796, -39.372220486112703 ] ] ] } },
{ "type": "Feature", "properties": { "id": "monoparte.38", "Name": null, "description": null, "timestamp": null, "begin": null, "end": null, "altitudeMode": null, "tessellate": -1, "extrude": 0, "visibility": -1, "drawOrder": null, "icon": null, "REG": "Araucanía", "COM": "Loncoche", "LOC": "Loncoche", "ZONA": "Z-7", "NOM": "Zona Z-7", "UPERM": "Áreas verdes; equipamiento de todo tipo, excepto hospital, cárcel, estadio, cementerios.", "UPROH": "Todos los usos de suelo no mencionados expresamente como usos permitidos.", "P_DO": "14/01/1991", "N_DOC": "28", "T_DO": "Resolución", "OBS": null }, "geometry": { "type": "Polygon", "coordinates": [ [ [ -72.632478593003896, -39.381048114734199 ], [ -72.633606658602901, -39.380330416904002 ], [ -72.630074204914493, -39.379604083476401 ], [ -72.629753461089607, -39.380476325341803 ], [ -72.632478593003896, -39.381048114734199 ] ] ] } }
]
}
