{
"type": "FeatureCollection",
"name": "IPT_09_PRC_Lonquimay_Villa_Portales",
"crs": { "type": "name", "properties": { "name": "urn:ogc:def:crs:OGC:1.3:CRS84" } },
"features": [
{ "type": "Feature", "properties": { "id": "monoparte.1", "Name": null, "description": null, "timestamp": null, "begin": null, "end": null, "altitudeMode": null, "tessellate": -1, "extrude": 0, "visibility": -1, "drawOrder": null, "icon": null, "REG": "Araucanía", "COM": "Lonquimay", "LOC": "Villa Portales", "ZONA": "Industrial y Vivienda", "NOM": "Zona industrial y vivienda.", "UPERM": "Sin Información.", "UPROH": "Sin Información.", "P_DO": "13/09/1978", "N_DOC": "556", "T_DO": "Decreto", "OBS": null }, "geometry": { "type": "Polygon", "coordinates": [ [ [ -71.367609824961605, -38.448772979861999 ], [ -71.367618861093007, -38.448806429566702 ], [ -71.368960299607096, -38.449222727793597 ], [ -71.369387873349794, -38.448670520356202 ], [ -71.369616694745304, -38.448437024986397 ], [ -71.369785635139195, -38.448319173648301 ], [ -71.370016325315703, -38.448142855123898 ], [ -71.370729137428697, -38.447692151670701 ], [ -71.370353164801799, -38.447041772886699 ], [ -71.369859979717901, -38.446808261659598 ], [ -71.369335805652099, -38.447146785484897 ], [ -71.368707269603505, -38.447579087613903 ], [ -71.368293735665802, -38.447911678164402 ], [ -71.367919979706699, -38.448348359886097 ], [ -71.3676431640137, -38.448783080496199 ], [ -71.367609824961605, -38.448772979861999 ] ] ] } },
{ "type": "Feature", "properties": { "id": "monoparte.2", "Name": null, "description": null, "timestamp": null, "begin": null, "end": null, "altitudeMode": null, "tessellate": -1, "extrude": 0, "visibility": -1, "drawOrder": null, "icon": null, "REG": "Araucanía", "COM": "Lonquimay", "LOC": "Villa Portales", "ZONA": "Zona Militar", "NOM": "Zona militar.", "UPERM": "Sin Información.", "UPROH": "Sin Información.", "P_DO": "13/09/1978", "N_DOC": "556", "T_DO": "Decreto", "OBS": null }, "geometry": { "type": "Polygon", "coordinates": [ [ [ -71.363935489432393, -38.456837225822497 ], [ -71.363938470987705, -38.456836731327201 ], [ -71.364076216935601, -38.456876862653203 ], [ -71.364362685489795, -38.456457690393897 ], [ -71.366129164901693, -38.454011766952597 ], [ -71.367451616629197, -38.452175568465698 ], [ -71.368596943024698, -38.450640005320402 ], [ -71.367283397455395, -38.450229318791401 ], [ -71.368081239252504, -38.449040249618903 ], [ -71.366841886445897, -38.448686246774898 ], [ -71.366495816621494, -38.448671784304402 ], [ -71.366258302822203, -38.4487074005363 ], [ -71.366261376603703, -38.448801474204402 ], [ -71.366192091344601, -38.448907771167001 ], [ -71.366195516436605, -38.449012598917101 ], [ -71.366191494272897, -38.449260618037798 ], [ -71.366159498642801, -38.449394769672402 ], [ -71.365827681380793, -38.450002246502898 ], [ -71.365699048367702, -38.450147887010303 ], [ -71.365452031111403, -38.4503817424294 ], [ -71.365166790358899, -38.450559153011703 ], [ -71.364865071897796, -38.4506033914464 ], [ -71.364646627496398, -38.450598266970502 ], [ -71.364439056583095, -38.450554777693803 ], [ -71.364244537417406, -38.450539632717501 ], [ -71.364053440507703, -38.450629315298698 ], [ -71.364009322247497, -38.450763711105502 ], [ -71.364013988851795, -38.450906658708199 ], [ -71.364008714988898, -38.451116558204703 ], [ -71.363940979823496, -38.451270503172701 ], [ -71.363849320059103, -38.4514344668166 ], [ -71.3637439838988, -38.451551025855998 ], [ -71.363505031421397, -38.451660745971601 ], [ -71.363338168459407, -38.451749938285403 ], [ -71.363158253746207, -38.451810786477203 ], [ -71.362908114001499, -38.451949338436798 ], [ -71.362849074683794, -38.451998210351903 ], [ -71.362726029287202, -38.452315384007797 ], [ -71.362657669610698, -38.4524502684311 ], [ -71.362437671164201, -38.452769397914501 ], [ -71.362249675069506, -38.452954375363902 ], [ -71.362082807597204, -38.453043566915703 ], [ -71.361951674828205, -38.453112964128302 ], [ -71.361793507076698, -38.453097081923197 ], [ -71.361658333256401, -38.453042591819099 ], [ -71.361572257779201, -38.453006183811198 ], [ -71.361510419466399, -38.452969286056202 ], [ -71.361426207732706, -38.452990056723799 ], [ -71.361379286275593, -38.453038683541998 ], [ -71.361227022157195, -38.4532038672941 ], [ -71.361144675735304, -38.453281816520999 ], [ -71.360955121324295, -38.453419143643004 ], [ -71.360303485556699, -38.453890012042798 ], [ -71.360197829522605, -38.453997038642697 ], [ -71.360072595021293, -38.454247500681802 ], [ -71.359722367877097, -38.455036517459199 ], [ -71.363940583400307, -38.456830043479499 ], [ -71.363935489432393, -38.456837225822497 ] ] ] } },
{ "type": "Feature", "properties": { "id": "monoparte.3", "Name": null, "description": null, "timestamp": null, "begin": null, "end": null, "altitudeMode": null, "tessellate": -1, "extrude": 0, "visibility": -1, "drawOrder": null, "icon": null, "REG": "Araucanía", "COM": "Lonquimay", "LOC": "Villa Portales", "ZONA": "Vivienda y Comercio", "NOM": "Zona vivienda institucional y comercio preferencial.", "UPERM": "Sin Información.", "UPROH": "Sin Información.", "P_DO": "13/09/1978", "N_DOC": "556", "T_DO": "Decreto", "OBS": null }, "geometry": { "type": "Polygon", "coordinates": [ [ [ -71.371022495724503, -38.4513838239506 ], [ -71.370386183837795, -38.451949797597301 ], [ -71.370047217968207, -38.452338101177297 ], [ -71.369650460857997, -38.452813398633701 ], [ -71.369133174208599, -38.453682111692601 ], [ -71.368871584846303, -38.454211887161897 ], [ -71.368669028127897, -38.454692788302502 ], [ -71.368453453736194, -38.455517250106197 ], [ -71.368426136294502, -38.4557943492091 ], [ -71.368446439054395, -38.4567856885756 ], [ -71.368474730202493, -38.456909085529901 ], [ -71.368996495619498, -38.456917603062202 ], [ -71.369382179406799, -38.457187599343797 ], [ -71.370026297769996, -38.456515321904298 ], [ -71.370672898718198, -38.455891924602398 ], [ -71.371257642496602, -38.455231632579498 ], [ -71.371639160927302, -38.454661278305203 ], [ -71.371866247062798, -38.454189411144903 ], [ -71.372069093229499, -38.453718035482503 ], [ -71.372210404294407, -38.453219297943697 ], [ -71.372310675041106, -38.452578350087201 ], [ -71.372402259314995, -38.452042474898299 ], [ -71.372481724221899, -38.4515068451555 ], [ -71.372454618206405, -38.451049663180697 ], [ -71.372028284438301, -38.450991547879802 ], [ -71.371769113697894, -38.450853755811302 ], [ -71.371317347247597, -38.451129915024403 ], [ -71.371022495724503, -38.4513838239506 ] ], [ [ -71.369264180093793, -38.456181412850498 ], [ -71.369223745699799, -38.455872308896197 ], [ -71.369299049210497, -38.455393981751698 ], [ -71.369571621886095, -38.454458699955801 ], [ -71.369794121765807, -38.453846272910603 ], [ -71.370300541277302, -38.453108897807397 ], [ -71.370735889615503, -38.452516001068901 ], [ -71.371780999283502, -38.451565071249298 ], [ -71.371689464418495, -38.452472850853503 ], [ -71.371519454547396, -38.453298780279901 ], [ -71.371240667852703, -38.454043471056004 ], [ -71.370695435287303, -38.454984276994502 ], [ -71.370006825682495, -38.455713420547099 ], [ -71.369289682109098, -38.456251306203399 ], [ -71.369264180093793, -38.456181412850498 ] ] ] } },
{ "type": "Feature", "properties": { "id": "monoparte.4", "Name": null, "description": null, "timestamp": null, "begin": null, "end": null, "altitudeMode": null, "tessellate": -1, "extrude": 0, "visibility": -1, "drawOrder": null, "icon": null, "REG": "Araucanía", "COM": "Lonquimay", "LOC": "Villa Portales", "ZONA": "Vivienda Alta Densidad", "NOM": "Zona vivienda densidad alta.", "UPERM": "Sin Información.", "UPROH": "Sin Información.", "P_DO": "13/09/1978", "N_DOC": "556", "T_DO": "Decreto", "OBS": null }, "geometry": { "type": "Polygon", "coordinates": [ [ [ -71.370242073960398, -38.449482872319898 ], [ -71.370128832544694, -38.449635357643899 ], [ -71.370032131891307, -38.4497374433654 ], [ -71.369588855015195, -38.449531852823597 ], [ -71.369467459383401, -38.449713110686503 ], [ -71.368744419598002, -38.4506861138332 ], [ -71.368596943024698, -38.450640005320402 ], [ -71.367451616629197, -38.452175568465698 ], [ -71.366129164901693, -38.454011766952597 ], [ -71.365309857038497, -38.455146229828799 ], [ -71.365931381730604, -38.455251638373298 ], [ -71.364627484658996, -38.457101749376498 ], [ -71.365180573082796, -38.457326596676701 ], [ -71.365896559555196, -38.457247764540398 ], [ -71.3660082259739, -38.457603111001298 ], [ -71.366222216839205, -38.458027909973097 ], [ -71.366535031109805, -38.458414950638499 ], [ -71.366964615924402, -38.458756717826901 ], [ -71.367445472085095, -38.458997318292496 ], [ -71.367850105160699, -38.459132178100099 ], [ -71.368134231692494, -38.459197952494797 ], [ -71.368609948540296, -38.459281306421701 ], [ -71.369183084609702, -38.459284015434399 ], [ -71.369479306829504, -38.459242328471198 ], [ -71.369341725016696, -38.458572753081498 ], [ -71.369586215839604, -38.458539197533497 ], [ -71.370313602440206, -38.458252698240898 ], [ -71.370831683803701, -38.457963280035102 ], [ -71.371507757021504, -38.457499010260101 ], [ -71.371606896962206, -38.457540064997403 ], [ -71.371920603085499, -38.457202689236098 ], [ -71.372270763492693, -38.456785544527698 ], [ -71.372698884619695, -38.4561570265356 ], [ -71.373115192006296, -38.455538283071299 ], [ -71.373388560485495, -38.454998723133997 ], [ -71.373493259440593, -38.4548630961228 ], [ -71.373539172798601, -38.454853074849801 ], [ -71.373534446608105, -38.454840298346099 ], [ -71.373362591551796, -38.454777029707003 ], [ -71.373512329945399, -38.454535593048 ], [ -71.373692489740904, -38.4541123541525 ], [ -71.373879767171502, -38.453536394324701 ], [ -71.373919806667601, -38.4532781094914 ], [ -71.373922187032406, -38.453278472110298 ], [ -71.374025998688595, -38.452818225713798 ], [ -71.374091459064104, -38.452225662733397 ], [ -71.374099695111099, -38.451367250037102 ], [ -71.374733163757696, -38.451310962414603 ], [ -71.374630336425895, -38.450538296204002 ], [ -71.374422379851694, -38.450113390139499 ], [ -71.374243661798602, -38.4498404681786 ], [ -71.373855810484002, -38.449476424523603 ], [ -71.373399001828403, -38.449228209723699 ], [ -71.373288064123699, -38.449173241838999 ], [ -71.373251397236899, -38.449164449205398 ], [ -71.372812390432799, -38.449459426970101 ], [ -71.372764853390606, -38.4494889983389 ], [ -71.372581830682805, -38.449454562774001 ], [ -71.372046753075097, -38.449408186351697 ], [ -71.371791957725407, -38.4494038115145 ], [ -71.371602693851699, -38.4491787785987 ], [ -71.371498683557107, -38.4489926631801 ], [ -71.371128986289307, -38.449071554563197 ], [ -71.370949319273194, -38.4491395611822 ], [ -71.370733998004994, -38.449229745020098 ], [ -71.370564121328101, -38.449319008516703 ], [ -71.370242073960398, -38.449482872319898 ] ], [ [ -71.372210404294407, -38.453219297943697 ], [ -71.372069093229499, -38.453718035482503 ], [ -71.371866247062798, -38.454189411144903 ], [ -71.371639160927302, -38.454661278305203 ], [ -71.371257642496602, -38.455231632579498 ], [ -71.370672898718198, -38.455891924602398 ], [ -71.370026297769996, -38.456515321904298 ], [ -71.369382179406799, -38.457187599343797 ], [ -71.368996495619498, -38.456917603062202 ], [ -71.368474730202493, -38.456909085529901 ], [ -71.368446439054395, -38.4567856885756 ], [ -71.368426136294502, -38.4557943492091 ], [ -71.368453453736194, -38.455517250106197 ], [ -71.368669028127897, -38.454692788302502 ], [ -71.368871584846303, -38.454211887161897 ], [ -71.369133174208599, -38.453682111692601 ], [ -71.369650460857997, -38.452813398633701 ], [ -71.370047217968207, -38.452338101177297 ], [ -71.370386183837795, -38.451949797597301 ], [ -71.371022495724503, -38.4513838239506 ], [ -71.371317347247597, -38.451129915024403 ], [ -71.371769113697894, -38.450853755811302 ], [ -71.372028284438301, -38.450991547879802 ], [ -71.372454618206405, -38.451049663180697 ], [ -71.372481724221899, -38.4515068451555 ], [ -71.372402259314995, -38.452042474898299 ], [ -71.372310675041106, -38.452578350087201 ], [ -71.372210404294407, -38.453219297943697 ] ] ] } },
{ "type": "Feature", "properties": { "id": "monoparte.5", "Name": null, "description": null, "timestamp": null, "begin": null, "end": null, "altitudeMode": null, "tessellate": -1, "extrude": 0, "visibility": -1, "drawOrder": null, "icon": null, "REG": "Araucanía", "COM": "Lonquimay", "LOC": "Villa Portales", "ZONA": "Vivienda Baja Densidad", "NOM": "Zona vivienda baja densidad.", "UPERM": "Sin Información.", "UPROH": "Sin Información.", "P_DO": "13/09/1978", "N_DOC": "556", "T_DO": "Decreto", "OBS": null }, "geometry": { "type": "Polygon", "coordinates": [ [ [ -71.364362685489795, -38.456457690393897 ], [ -71.364076216935601, -38.456876862653203 ], [ -71.363938470987705, -38.456836731327201 ], [ -71.363935489432393, -38.456837225822497 ], [ -71.362931900947601, -38.458252205060901 ], [ -71.368955735276003, -38.460733835371101 ], [ -71.3690495782173, -38.460636575743401 ], [ -71.369447315404202, -38.460189869482299 ], [ -71.369629148731505, -38.459971559543803 ], [ -71.369479306829504, -38.459242328471198 ], [ -71.369183084609702, -38.459284015434399 ], [ -71.368609948540296, -38.459281306421701 ], [ -71.368134231692494, -38.459197952494797 ], [ -71.367850105160699, -38.459132178100099 ], [ -71.367445472085095, -38.458997318292496 ], [ -71.366964615924402, -38.458756717826901 ], [ -71.366535031109805, -38.458414950638499 ], [ -71.366222216839205, -38.458027909973097 ], [ -71.3660082259739, -38.457603111001298 ], [ -71.365896559555196, -38.457247764540398 ], [ -71.365180573082796, -38.457326596676701 ], [ -71.364627484658996, -38.457101749376498 ], [ -71.365931381730604, -38.455251638373298 ], [ -71.365309857038497, -38.455146229828799 ], [ -71.364362685489795, -38.456457690393897 ] ] ] } },
{ "type": "Feature", "properties": { "id": "monoparte.6", "Name": null, "description": null, "timestamp": null, "begin": null, "end": null, "altitudeMode": null, "tessellate": -1, "extrude": 0, "visibility": -1, "drawOrder": null, "icon": null, "REG": "Araucanía", "COM": "Lonquimay", "LOC": "Villa Portales", "ZONA": "Vivienda Baja Densidad", "NOM": "Zona vivienda baja densidad.", "UPERM": "Sin Información.", "UPROH": "Sin Información.", "P_DO": "13/09/1978", "N_DOC": "556", "T_DO": "Decreto", "OBS": null }, "geometry": { "type": "Polygon", "coordinates": [ [ [ -71.374630336425895, -38.450538296204002 ], [ -71.374733163757696, -38.451310962414603 ], [ -71.375490203984896, -38.451243689455097 ], [ -71.375470417225202, -38.451749502260697 ], [ -71.3754288947394, -38.452332044580302 ], [ -71.376124214302607, -38.452370753977704 ], [ -71.377949961518496, -38.450614955755 ], [ -71.377960514840197, -38.450567060953901 ], [ -71.378031973404603, -38.450527465969799 ], [ -71.378079507698104, -38.4504978925372 ], [ -71.378126730149901, -38.450458789680098 ], [ -71.378221799644294, -38.4503996418009 ], [ -71.378291067034397, -38.450293338289299 ], [ -71.378313739219095, -38.450245198226803 ], [ -71.378323040346999, -38.450159184970197 ], [ -71.378344147524203, -38.450063395290002 ], [ -71.3783907424273, -38.450005232695901 ], [ -71.3786249701797, -38.449752537853001 ], [ -71.378452497353706, -38.449670215826501 ], [ -71.3774505816952, -38.449070717574799 ], [ -71.377115884349905, -38.448848647221403 ], [ -71.376885334973807, -38.448659928858497 ], [ -71.374333220833506, -38.448503602789501 ], [ -71.373263202729305, -38.449154673300001 ], [ -71.373259544803702, -38.449166403337998 ], [ -71.373288064123699, -38.449173241838999 ], [ -71.373399001828403, -38.449228209723699 ], [ -71.373855810484002, -38.449476424523603 ], [ -71.374243661798602, -38.4498404681786 ], [ -71.374422379851694, -38.450113390139499 ], [ -71.374630336425895, -38.450538296204002 ] ] ] } },
{ "type": "Feature", "properties": { "id": "monoparte.7", "Name": null, "description": null, "timestamp": null, "begin": null, "end": null, "altitudeMode": null, "tessellate": -1, "extrude": 0, "visibility": -1, "drawOrder": null, "icon": null, "REG": "Araucanía", "COM": "Lonquimay", "LOC": "Villa Portales", "ZONA": "Zona Especial", "NOM": "Zona especial existente.", "UPERM": "Sin Información.", "UPROH": "Sin Información.", "P_DO": "13/09/1978", "N_DOC": "556", "T_DO": "Decreto", "OBS": null }, "geometry": { "type": "Polygon", "coordinates": [ [ [ -71.352789597546803, -38.463298730198197 ], [ -71.352078189326704, -38.463427456590701 ], [ -71.3517142554158, -38.463425229976302 ], [ -71.351640601933994, -38.463398101068201 ], [ -71.351541158569603, -38.463323809441597 ], [ -71.351358418479506, -38.463298871104399 ], [ -71.351247163611802, -38.463234353079102 ], [ -71.351091183707695, -38.463400622122698 ], [ -71.351092123467495, -38.463403586614298 ], [ -71.350752551984598, -38.463833387644399 ], [ -71.351039775737505, -38.4639441872825 ], [ -71.351188012168393, -38.464027035321202 ], [ -71.351708546477099, -38.464369416596 ], [ -71.352537066965894, -38.464858185416801 ], [ -71.353859430324604, -38.465613567319203 ], [ -71.354268106853098, -38.465872361004003 ], [ -71.354777788195193, -38.466253091230897 ], [ -71.355595158967901, -38.466770669239601 ], [ -71.355706421985204, -38.466835183721699 ], [ -71.355845984837003, -38.466651190142002 ], [ -71.355949182119005, -38.4664679281289 ], [ -71.355650516645696, -38.466235536280401 ], [ -71.355547963654004, -38.466065949616002 ], [ -71.355151739183398, -38.465444539644103 ], [ -71.354866472018799, -38.464878113029002 ], [ -71.354723839596801, -38.464594898949599 ], [ -71.354663263995704, -38.464224210024099 ], [ -71.354641842865107, -38.463938558179102 ], [ -71.354660814562394, -38.463776063381196 ], [ -71.354753750988195, -38.463650225953202 ], [ -71.354835185632197, -38.463543691284698 ], [ -71.355021677064599, -38.463311074257597 ], [ -71.355205685536703, -38.463002219020403 ], [ -71.355113709630302, -38.462784739387303 ], [ -71.354989091950102, -38.462682348886297 ], [ -71.354615211951398, -38.462747084314699 ], [ -71.354259031865595, -38.462983112649503 ], [ -71.353876127166401, -38.463143387489602 ], [ -71.353743729836694, -38.463174657189001 ], [ -71.353272260164303, -38.463222278544599 ], [ -71.352789597546803, -38.463298730198197 ] ] ] } },
{ "type": "Feature", "properties": { "id": "monoparte.8", "Name": null, "description": null, "timestamp": null, "begin": null, "end": null, "altitudeMode": null, "tessellate": -1, "extrude": 0, "visibility": -1, "drawOrder": null, "icon": null, "REG": "Araucanía", "COM": "Lonquimay", "LOC": "Villa Portales", "ZONA": "Zona Especial", "NOM": "Zona especial existente.", "UPERM": "Sin Información.", "UPROH": "Sin Información.", "P_DO": "13/09/1978", "N_DOC": "556", "T_DO": "Decreto", "OBS": null }, "geometry": { "type": "Polygon", "coordinates": [ [ [ -71.369341725016696, -38.458572753081498 ], [ -71.369629148731505, -38.459971559543803 ], [ -71.369657365959696, -38.459937680541898 ], [ -71.369891967458301, -38.459694531878299 ], [ -71.370077775949696, -38.459442832843301 ], [ -71.370606010759403, -38.458907656897701 ], [ -71.370733399970703, -38.458723892430299 ], [ -71.370873220069697, -38.458549412771298 ], [ -71.3710385278481, -38.458412560707501 ], [ -71.371084821661498, -38.458344870416099 ], [ -71.371127058939805, -38.4581532940378 ], [ -71.371182663856203, -38.4579995917045 ], [ -71.371356655460801, -38.457757666615798 ], [ -71.371604300117198, -38.457542857665402 ], [ -71.371606896962206, -38.457540064997403 ], [ -71.371507757021504, -38.457499010260101 ], [ -71.370831683803701, -38.457963280035102 ], [ -71.370313602440206, -38.458252698240898 ], [ -71.369586215839604, -38.458539197533497 ], [ -71.369341725016696, -38.458572753081498 ] ] ] } },
{ "type": "Feature", "properties": { "id": "monoparte.9", "Name": null, "description": null, "timestamp": null, "begin": null, "end": null, "altitudeMode": null, "tessellate": -1, "extrude": 0, "visibility": -1, "drawOrder": null, "icon": null, "REG": "Araucanía", "COM": "Lonquimay", "LOC": "Villa Portales", "ZONA": "Zona Especial", "NOM": "Zona especial existente.", "UPERM": "Sin Información.", "UPROH": "Sin Información.", "P_DO": "13/09/1978", "N_DOC": "556", "T_DO": "Decreto", "OBS": null }, "geometry": { "type": "Polygon", "coordinates": [ [ [ -71.373534446608105, -38.454840298346099 ], [ -71.373539172798601, -38.454853074849801 ], [ -71.373541424371894, -38.454852583194302 ], [ -71.3736396264555, -38.4548887373696 ], [ -71.3737999881116, -38.454971310970102 ], [ -71.373934236651195, -38.454997197510203 ], [ -71.374005701794403, -38.454957604799802 ], [ -71.374052929287799, -38.454918502548303 ], [ -71.374098280754694, -38.454822222978798 ], [ -71.374459911128895, -38.454385767833202 ], [ -71.374517069010693, -38.4542797120573 ], [ -71.374606520820805, -38.454049032258702 ], [ -71.374731702760798, -38.453798556314503 ], [ -71.374849142349902, -38.453681742117702 ], [ -71.375065720256202, -38.453629669031002 ], [ -71.375488946230902, -38.453592475977402 ], [ -71.375590968874306, -38.4535331774211 ], [ -71.373919806667601, -38.4532781094914 ], [ -71.373879767171502, -38.453536394324701 ], [ -71.373692489740904, -38.4541123541525 ], [ -71.373512329945399, -38.454535593048 ], [ -71.373362591551796, -38.454777029707003 ], [ -71.373534446608105, -38.454840298346099 ] ] ] } },
{ "type": "Feature", "properties": { "id": "monoparte.10", "Name": null, "description": null, "timestamp": null, "begin": null, "end": null, "altitudeMode": null, "tessellate": -1, "extrude": 0, "visibility": -1, "drawOrder": null, "icon": null, "REG": "Araucanía", "COM": "Lonquimay", "LOC": "Villa Portales", "ZONA": "Zona Especial", "NOM": "Zona especial existente.", "UPERM": "Sin Información.", "UPROH": "Sin Información.", "P_DO": "13/09/1978", "N_DOC": "556", "T_DO": "Decreto", "OBS": null }, "geometry": { "type": "Polygon", "coordinates": [ [ [ -71.3725240729772, -38.447691559759399 ], [ -71.373492185884501, -38.448881042826798 ], [ -71.374806069619197, -38.448131643540897 ], [ -71.373782965729603, -38.446884090183197 ], [ -71.3725240729772, -38.447691559759399 ] ] ] } },
{ "type": "Feature", "properties": { "id": "monoparte.11", "Name": null, "description": null, "timestamp": null, "begin": null, "end": null, "altitudeMode": null, "tessellate": -1, "extrude": 0, "visibility": -1, "drawOrder": null, "icon": null, "REG": "Araucanía", "COM": "Lonquimay", "LOC": "Villa Portales", "ZONA": "Área Verde", "NOM": "Áreas verdes.", "UPERM": "Sin Información.", "UPROH": "Sin Información.", "P_DO": "13/09/1978", "N_DOC": "556", "T_DO": "Decreto", "OBS": null }, "geometry": { "type": "Polygon", "coordinates": [ [ [ -71.373922187032406, -38.453278472110298 ], [ -71.375590968874306, -38.4535331774211 ], [ -71.375607946405296, -38.453523309869603 ], [ -71.375664163961105, -38.453388664508402 ], [ -71.375670654436405, -38.453216883228002 ], [ -71.375622416879807, -38.452855492054397 ], [ -71.376045560690997, -38.452446392272499 ], [ -71.376124214302607, -38.452370753977704 ], [ -71.3754288947394, -38.452332044580302 ], [ -71.375470417225202, -38.451749502260697 ], [ -71.375490203984896, -38.451243689455097 ], [ -71.374099695111099, -38.451367250037102 ], [ -71.374091459064104, -38.452225662733397 ], [ -71.374025998688595, -38.452818225713798 ], [ -71.373922187032406, -38.453278472110298 ] ] ] } },
{ "type": "Feature", "properties": { "id": "monoparte.12", "Name": null, "description": null, "timestamp": null, "begin": null, "end": null, "altitudeMode": null, "tessellate": -1, "extrude": 0, "visibility": -1, "drawOrder": null, "icon": null, "REG": "Araucanía", "COM": "Lonquimay", "LOC": "Villa Portales", "ZONA": "Vivienda Alta Densidad", "NOM": "Zona vivienda densidad alta.", "UPERM": "Sin Información.", "UPROH": "Sin Información.", "P_DO": "13/09/1978", "N_DOC": "556", "T_DO": "Decreto", "OBS": null }, "geometry": { "type": "Polygon", "coordinates": [ [ [ -71.348191243210294, -38.462876089715898 ], [ -71.348533406619794, -38.4629550519386 ], [ -71.348752817653903, -38.462988795797301 ], [ -71.349046807691707, -38.4630782585823 ], [ -71.349281123383506, -38.463197527029301 ], [ -71.349958904790199, -38.463527225457803 ], [ -71.350752551984598, -38.463833387644399 ], [ -71.351092123467495, -38.463403586614298 ], [ -71.351091183707695, -38.463400622122698 ], [ -71.351083045717999, -38.4634092977035 ], [ -71.350401547256197, -38.462965247663 ], [ -71.3505644291469, -38.462752183926298 ], [ -71.349252107285395, -38.461929809776898 ], [ -71.348191243210294, -38.462876089715898 ] ], [ [ -71.350005178290203, -38.463345707403398 ], [ -71.349718903138907, -38.4631950608156 ], [ -71.3500629287104, -38.462883001250503 ], [ -71.350276045770798, -38.463021765590398 ], [ -71.350066536261096, -38.463292981178 ], [ -71.3500103093061, -38.463345999081703 ], [ -71.350005178290203, -38.463345707403398 ] ] ] } },
{ "type": "Feature", "properties": { "id": "monoparte.13", "Name": null, "description": null, "timestamp": null, "begin": null, "end": null, "altitudeMode": null, "tessellate": -1, "extrude": 0, "visibility": -1, "drawOrder": null, "icon": null, "REG": "Araucanía", "COM": "Lonquimay", "LOC": "Villa Portales", "ZONA": "Educación", "NOM": "Equipamiento Educacional", "UPERM": "Sin Información.", "UPROH": "Sin Información.", "P_DO": "13/09/1978", "N_DOC": "556", "T_DO": "Decreto", "OBS": null }, "geometry": { "type": "Polygon", "coordinates": [ [ [ -71.350005178290203, -38.463345707403398 ], [ -71.3500103093061, -38.463345999081703 ], [ -71.350066536261096, -38.463292981178 ], [ -71.350276045770798, -38.463021765590398 ], [ -71.3500629287104, -38.462883001250503 ], [ -71.349718903138907, -38.4631950608156 ], [ -71.350005178290203, -38.463345707403398 ] ] ] } },
{ "type": "Feature", "properties": { "id": "monoparte.14", "Name": null, "description": null, "timestamp": null, "begin": null, "end": null, "altitudeMode": null, "tessellate": -1, "extrude": 0, "visibility": -1, "drawOrder": null, "icon": null, "REG": "Araucanía", "COM": "Lonquimay", "LOC": "Villa Portales", "ZONA": "Área Verde", "NOM": "Áreas verdes.", "UPERM": "Sin Información.", "UPROH": "Sin Información.", "P_DO": "13/09/1978", "N_DOC": "556", "T_DO": "Decreto", "OBS": null }, "geometry": { "type": "Polygon", "coordinates": [ [ [ -71.374014347031604, -38.446346861884699 ], [ -71.371725166415104, -38.447836480507902 ], [ -71.371431954827997, -38.447491967307698 ], [ -71.370816549693799, -38.447862030979103 ], [ -71.371486446529005, -38.448971283232602 ], [ -71.3714903269084, -38.448977709287803 ], [ -71.371499280921, -38.4489925357489 ], [ -71.371498683557107, -38.4489926631801 ], [ -71.371602693851699, -38.4491787785987 ], [ -71.371791957725407, -38.4494038115145 ], [ -71.372046753075097, -38.449408186351697 ], [ -71.372581830682805, -38.449454562774001 ], [ -71.372764853390606, -38.4494889983389 ], [ -71.372812390432799, -38.449459426970101 ], [ -71.373251397236899, -38.449164449205398 ], [ -71.373259544803702, -38.449166403337998 ], [ -71.373263202729305, -38.449154673300001 ], [ -71.373565291817499, -38.448970864739202 ], [ -71.374333220833506, -38.448503602789501 ], [ -71.376885334973807, -38.448659928858497 ], [ -71.376467915480305, -38.448318243434201 ], [ -71.374462854049, -38.446709176322301 ], [ -71.374014347031604, -38.446346861884699 ] ], [ [ -71.373492185884501, -38.448881042826798 ], [ -71.372968300758302, -38.449244453880503 ], [ -71.3720044872899, -38.4480481323845 ], [ -71.3725240729772, -38.447691559759399 ], [ -71.373782965729603, -38.446884090183197 ], [ -71.374806069619197, -38.448131643540897 ], [ -71.373492185884501, -38.448881042826798 ] ] ] } },
{ "type": "Feature", "properties": { "id": "monoparte.15", "Name": null, "description": null, "timestamp": null, "begin": null, "end": null, "altitudeMode": null, "tessellate": -1, "extrude": 0, "visibility": -1, "drawOrder": null, "icon": null, "REG": "Araucanía", "COM": "Lonquimay", "LOC": "Villa Portales", "ZONA": "Vivienda Baja Densidad", "NOM": "Zona vivienda baja densidad.", "UPERM": "Sin Información.", "UPROH": "Sin Información.", "P_DO": "13/09/1978", "N_DOC": "556", "T_DO": "Decreto", "OBS": null }, "geometry": { "type": "Polygon", "coordinates": [ [ [ -71.368081239252504, -38.449040249618903 ], [ -71.368533611864606, -38.449259774167501 ], [ -71.367710017605702, -38.450362706361503 ], [ -71.368744419598002, -38.4506861138332 ], [ -71.369467459383401, -38.449713110686503 ], [ -71.369588855015195, -38.449531852823597 ], [ -71.370032131891307, -38.4497374433654 ], [ -71.370128832544694, -38.449635357643899 ], [ -71.370242073960398, -38.449482872319898 ], [ -71.370564121328101, -38.449319008516703 ], [ -71.370733998004994, -38.449229745020098 ], [ -71.370949319273194, -38.4491395611822 ], [ -71.371128986289307, -38.449071554563197 ], [ -71.371499280921, -38.4489925357489 ], [ -71.370816549693799, -38.447862030979103 ], [ -71.371431954827997, -38.447491967307698 ], [ -71.371725166415104, -38.447836480507902 ], [ -71.374014347031604, -38.446346861884699 ], [ -71.373852527453295, -38.446216138970598 ], [ -71.373105480233406, -38.4456209711893 ], [ -71.3725063527163, -38.4450990905029 ], [ -71.369859979717901, -38.446808261659598 ], [ -71.370353164801799, -38.447041772886699 ], [ -71.370729137428697, -38.447692151670701 ], [ -71.370016325315703, -38.448142855123898 ], [ -71.369785635139195, -38.448319173648301 ], [ -71.369616694745304, -38.448437024986397 ], [ -71.369387873349794, -38.448670520356202 ], [ -71.368960299607096, -38.449222727793597 ], [ -71.367618861093007, -38.448806429566702 ], [ -71.367609824961605, -38.448772979861999 ], [ -71.3669940461984, -38.4485864098693 ], [ -71.366762243241595, -38.448543414449503 ], [ -71.3663256783409, -38.448542700343502 ], [ -71.366278761860102, -38.448591328984499 ], [ -71.366257017313004, -38.448668057150897 ], [ -71.366258302822203, -38.4487074005363 ], [ -71.366495816621494, -38.448671784304402 ], [ -71.366841886445897, -38.448686246774898 ], [ -71.368081239252504, -38.449040249618903 ] ] ] } },
{ "type": "Feature", "properties": { "id": "monoparte.16", "Name": null, "description": null, "timestamp": null, "begin": null, "end": null, "altitudeMode": null, "tessellate": -1, "extrude": 0, "visibility": -1, "drawOrder": null, "icon": null, "REG": "Araucanía", "COM": "Lonquimay", "LOC": "Villa Portales", "ZONA": "Educación", "NOM": "Equipamiento Educacional", "UPERM": "Sin Información.", "UPROH": "Sin Información.", "P_DO": "13/09/1978", "N_DOC": "556", "T_DO": "Decreto", "OBS": null }, "geometry": { "type": "Polygon", "coordinates": [ [ [ -71.373492185884501, -38.448881042826798 ], [ -71.3725240729772, -38.447691559759399 ], [ -71.3720044872899, -38.4480481323845 ], [ -71.372968300758302, -38.449244453880503 ], [ -71.373492185884501, -38.448881042826798 ] ] ] } },
{ "type": "Feature", "properties": { "id": "monoparte.17", "Name": null, "description": null, "timestamp": null, "begin": null, "end": null, "altitudeMode": null, "tessellate": -1, "extrude": 0, "visibility": -1, "drawOrder": null, "icon": null, "REG": "Araucanía", "COM": "Lonquimay", "LOC": "Villa Portales", "ZONA": "Educación", "NOM": "Equipamiento Educacional", "UPERM": "Sin Información.", "UPROH": "Sin Información.", "P_DO": "13/09/1978", "N_DOC": "556", "T_DO": "Decreto", "OBS": null }, "geometry": { "type": "Polygon", "coordinates": [ [ [ -71.367710017605702, -38.450362706361503 ], [ -71.368533611864606, -38.449259774167501 ], [ -71.368081239252504, -38.449040249618903 ], [ -71.367283397455395, -38.450229318791401 ], [ -71.367710017605702, -38.450362706361503 ] ] ] } },
{ "type": "Feature", "properties": { "id": "monoparte.18", "Name": null, "description": null, "timestamp": null, "begin": null, "end": null, "altitudeMode": null, "tessellate": -1, "extrude": 0, "visibility": -1, "drawOrder": null, "icon": null, "REG": "Araucanía", "COM": "Lonquimay", "LOC": "Villa Portales", "ZONA": "Institucional", "NOM": "Zona Institucional", "UPERM": "Sin Información.", "UPROH": "Sin Información.", "P_DO": "13/09/1978", "N_DOC": "556", "T_DO": "Decreto", "OBS": null }, "geometry": { "type": "Polygon", "coordinates": [ [ [ -71.370257146885393, -38.453172083368102 ], [ -71.370838449770403, -38.453328900756603 ], [ -71.371408732427398, -38.453594540288101 ], [ -71.371519454547396, -38.453298780279901 ], [ -71.371689464418495, -38.452472850853503 ], [ -71.371780999283502, -38.451565071249298 ], [ -71.370735889615503, -38.452516001068901 ], [ -71.370300541277302, -38.453108897807397 ], [ -71.370257146885393, -38.453172083368102 ] ] ] } },
{ "type": "Feature", "properties": { "id": "monoparte.19", "Name": null, "description": null, "timestamp": null, "begin": null, "end": null, "altitudeMode": null, "tessellate": -1, "extrude": 0, "visibility": -1, "drawOrder": null, "icon": null, "REG": "Araucanía", "COM": "Lonquimay", "LOC": "Villa Portales", "ZONA": "Institucional", "NOM": "Zona Institucional", "UPERM": "Sin Información.", "UPROH": "Sin Información.", "P_DO": "13/09/1978", "N_DOC": "556", "T_DO": "Decreto", "OBS": null }, "geometry": { "type": "Polygon", "coordinates": [ [ [ -71.370829884312599, -38.454752284382799 ], [ -71.3695957611978, -38.454392256868097 ], [ -71.369571621886095, -38.454458699955801 ], [ -71.369299049210497, -38.455393981751698 ], [ -71.369223745699799, -38.455872308896197 ], [ -71.369264180093793, -38.456181412850498 ], [ -71.369289682109098, -38.456251306203399 ], [ -71.370006825682495, -38.455713420547099 ], [ -71.370695435287303, -38.454984276994502 ], [ -71.370829884312599, -38.454752284382799 ] ] ] } },
{ "type": "Feature", "properties": { "id": "monoparte.20", "Name": null, "description": null, "timestamp": null, "begin": null, "end": null, "altitudeMode": null, "tessellate": -1, "extrude": 0, "visibility": -1, "drawOrder": null, "icon": null, "REG": "Araucanía", "COM": "Lonquimay", "LOC": "Villa Portales", "ZONA": "Área Verde", "NOM": "Áreas verdes.", "UPERM": "Sin Información.", "UPROH": "Sin Información.", "P_DO": "13/09/1978", "N_DOC": "556", "T_DO": "Decreto", "OBS": null }, "geometry": { "type": "Polygon", "coordinates": [ [ [ -71.3695957611978, -38.454392256868097 ], [ -71.370829884312599, -38.454752284382799 ], [ -71.371240667852703, -38.454043471056004 ], [ -71.371408732427398, -38.453594540288101 ], [ -71.370838449770403, -38.453328900756603 ], [ -71.370257146885393, -38.453172083368102 ], [ -71.369794121765807, -38.453846272910603 ], [ -71.3695957611978, -38.454392256868097 ] ] ] } }
]
}
