{
"type": "FeatureCollection",
"name": "IPT_09_PRC_Renaico_Tijeral",
"crs": { "type": "name", "properties": { "name": "urn:ogc:def:crs:OGC:1.3:CRS84" } },
"features": [
{ "type": "Feature", "properties": { "id": "monoparte.1", "Name": null, "description": null, "timestamp": null, "begin": null, "end": null, "altitudeMode": null, "tessellate": -1, "extrude": 0, "visibility": -1, "drawOrder": null, "icon": null, "REG": "Araucanía", "COM": "Renaico", "LOC": "Tijeral", "ZONA": "Z-1", "NOM": "Zona Centro", "UPERM": "Residencial; actividades productivas inofensivas, industria, bodegaje y talleres; equipamiento científico, comercio, culto y cultura, deporte, educación, esparcimiento, salud, seguridad, servicios, social.", "UPROH": "Todos aquellos no señalados como permitidos.", "P_DO": "28/07/2012", "N_DOC": "4", "T_DO": "Decreto", "OBS": null }, "geometry": { "type": "Polygon", "coordinates": [ [ [ -72.615098545253701, -37.729961768416402 ], [ -72.614930866326304, -37.730031274143499 ], [ -72.614795672070301, -37.730028274130902 ], [ -72.614614832020706, -37.730012374897797 ], [ -72.614351694205894, -37.729970398239203 ], [ -72.614074051747295, -37.730000374351597 ], [ -72.613703731214798, -37.729975987960103 ], [ -72.613328199905396, -37.729844499955803 ], [ -72.613040136235099, -37.729660270909903 ], [ -72.6130952009037, -37.730051871135402 ], [ -72.613145402927202, -37.730343510447803 ], [ -72.613081515172894, -37.730695857875503 ], [ -72.613041082067596, -37.730790057690598 ], [ -72.612901411665604, -37.730880153623197 ], [ -72.612850598272502, -37.730946069048798 ], [ -72.612791141650106, -37.731019400867197 ], [ -72.612793573186295, -37.7310693817494 ], [ -72.612698503897704, -37.731150957564097 ], [ -72.612645953437493, -37.731181173054402 ], [ -72.612397707232503, -37.731260297833302 ], [ -72.612164660914999, -37.731281749947399 ], [ -72.611756252301106, -37.731029703010101 ], [ -72.611490334062594, -37.730930599485397 ], [ -72.611398698321196, -37.730897656454403 ], [ -72.611102190985704, -37.730947687624599 ], [ -72.614095236968893, -37.736522684388099 ], [ -72.616342366108, -37.740707644783697 ], [ -72.618554908177103, -37.738257681028898 ], [ -72.619827890943299, -37.738511723382103 ], [ -72.620254636733705, -37.738584409602502 ], [ -72.620897511760504, -37.7386575959057 ], [ -72.621674552663293, -37.738712350556398 ], [ -72.622149673128902, -37.738669129479497 ], [ -72.622712609099807, -37.738580299880802 ], [ -72.623629180907997, -37.738173101265197 ], [ -72.623642110793497, -37.738168617788702 ], [ -72.623646116886505, -37.738151128306697 ], [ -72.623710724135407, -37.737998974500897 ], [ -72.623792964009695, -37.737839127629002 ], [ -72.624154262791507, -37.737677840072898 ], [ -72.624288774515406, -37.737666547726 ], [ -72.624494165658206, -37.737631621293602 ], [ -72.624682969644297, -37.737625808011103 ], [ -72.624879369236098, -37.737591157767199 ], [ -72.624958486789396, -37.737588721512701 ], [ -72.624987256806406, -37.737587835588897 ], [ -72.625032559160402, -37.737593591708197 ], [ -72.625049494544299, -37.737571617674597 ], [ -72.625046200125894, -37.737504145417702 ], [ -72.625041127747195, -37.737400258703303 ], [ -72.625071512293403, -37.737284911963499 ], [ -72.625181417980002, -37.737138512722296 ], [ -72.625294459891904, -37.737056374383599 ], [ -72.625354953888007, -37.737004456106 ], [ -72.625405759395704, -37.736938534789402 ], [ -72.625417778409798, -37.736929156796499 ], [ -72.625501169444803, -37.736864089506199 ], [ -72.625559221430294, -37.736762191943598 ], [ -72.625545001624502, -37.736655369055299 ], [ -72.625534781102502, -37.736601453878102 ], [ -72.625525003493607, -37.7365498718369 ], [ -72.625520744877605, -37.736527403652303 ], [ -72.625534890685103, -37.736448309929301 ], [ -72.625609878433195, -37.736324438233602 ], [ -72.625740550899806, -37.736234605357801 ], [ -72.625810731218607, -37.736196690811603 ], [ -72.625940706929498, -37.7360925768972 ], [ -72.626055839745106, -37.736053277612697 ], [ -72.626163376215104, -37.7360428140721 ], [ -72.626280252381207, -37.736039213875301 ], [ -72.626307910624206, -37.736038361887204 ], [ -72.626379146536905, -37.736036167496799 ], [ -72.626502921229104, -37.7359894504268 ], [ -72.626586896792006, -37.7358653021668 ], [ -72.626594576233899, -37.735841680691699 ], [ -72.626610379936594, -37.7357930709233 ], [ -72.626580619371495, -37.735736782221302 ], [ -72.626436075653203, -37.735726933634901 ], [ -72.626344427034397, -37.735694003853098 ], [ -72.626243092345604, -37.735647070080397 ], [ -72.626147260607993, -37.735528459795297 ], [ -72.626114709824805, -37.735415051376201 ], [ -72.625976723769995, -37.735446326037 ], [ -72.625785329151995, -37.735489704669199 ], [ -72.625384471555407, -37.735580556084898 ], [ -72.624627257931806, -37.735746887782703 ], [ -72.6240321468904, -37.735729455728602 ], [ -72.623786617288999, -37.735679808477101 ], [ -72.623031004203597, -37.735509996549197 ], [ -72.622929670507304, -37.735463059833897 ], [ -72.622817044301797, -37.735409121206999 ], [ -72.622804459572393, -37.735403094260299 ], [ -72.622747151760507, -37.735431493132303 ], [ -72.622605395617995, -37.735478759607702 ], [ -72.622455345041502, -37.735540583444802 ], [ -72.622420428407906, -37.735563109516399 ], [ -72.622158030681504, -37.735721348604997 ], [ -72.622094748751095, -37.735716144548 ], [ -72.6220044961387, -37.735711771181101 ], [ -72.621923929943307, -37.735721400223703 ], [ -72.621809144548095, -37.7357678359499 ], [ -72.621719936720396, -37.735784882772599 ], [ -72.621594069350806, -37.7357887550274 ], [ -72.6214027682623, -37.735558665581003 ], [ -72.621095289152507, -37.735346451750601 ], [ -72.621002947780596, -37.735299237639801 ], [ -72.620912740668402, -37.735257452249897 ], [ -72.621468749405906, -37.734363897040701 ], [ -72.620929395382902, -37.7337684208685 ], [ -72.620876989043794, -37.733721954809702 ], [ -72.620185758009697, -37.733109077431799 ], [ -72.619780209067997, -37.732793451417699 ], [ -72.619390272760796, -37.732489972407699 ], [ -72.618207198056297, -37.731553008550897 ], [ -72.618060453751596, -37.731436788380201 ], [ -72.616553917521301, -37.730211320933002 ], [ -72.616286141951605, -37.729993495691701 ], [ -72.615688647989998, -37.729507452420798 ], [ -72.615662026912304, -37.729515420270999 ], [ -72.615637838012901, -37.729573368887898 ], [ -72.615552459367805, -37.7296689507426 ], [ -72.615466037686303, -37.729743111968901 ], [ -72.615368887546893, -37.7297818494634 ], [ -72.6152976644549, -37.729798338092102 ], [ -72.615218841281902, -37.729843662932502 ], [ -72.615157651143704, -37.729881295086997 ], [ -72.615132419057701, -37.729917823939402 ], [ -72.615098545253701, -37.729961768416402 ] ] ] } },
{ "type": "Feature", "properties": { "id": "monoparte.2", "Name": null, "description": null, "timestamp": null, "begin": null, "end": null, "altitudeMode": null, "tessellate": -1, "extrude": 0, "visibility": -1, "drawOrder": null, "icon": null, "REG": "Araucanía", "COM": "Renaico", "LOC": "Tijeral", "ZONA": "Z-AV", "NOM": "Zona Área Verde", "UPERM": "Áreas verdes.", "UPROH": "Todos aquellos no señalados como permitidos.", "P_DO": "28/07/2012", "N_DOC": "4", "T_DO": "Decreto", "OBS": null }, "geometry": { "type": "Polygon", "coordinates": [ [ [ -72.615380911035999, -37.729473998932598 ], [ -72.615348080301104, -37.7295393631466 ], [ -72.615296226134603, -37.729583859836097 ], [ -72.615225350806099, -37.729607488906403 ], [ -72.615163465717899, -37.729630840965697 ], [ -72.615111264964398, -37.729668197952101 ], [ -72.615059064157904, -37.7297055549178 ], [ -72.614963651561993, -37.729779991865897 ], [ -72.614884480618599, -37.729818175995398 ], [ -72.614777645740901, -37.729842908943397 ], [ -72.614641755644797, -37.729825628674099 ], [ -72.614441547642201, -37.729781720942299 ], [ -72.614252413928, -37.729780376301498 ], [ -72.614001742078898, -37.7298095242325 ], [ -72.613883484322201, -37.729784551536 ], [ -72.613701951180403, -37.729754369812397 ], [ -72.613581956475798, -37.729693696068999 ], [ -72.613471299739302, -37.729639886758697 ], [ -72.613378275339201, -37.7295783858929 ], [ -72.613211247464804, -37.729476250975701 ], [ -72.613027283767906, -37.729396088176898 ], [ -72.612980944980507, -37.729368907384 ], [ -72.612896911585295, -37.729307129294199 ], [ -72.612824993587907, -37.729309336304297 ], [ -72.612773139099602, -37.729353831917201 ], [ -72.612732705098296, -37.729448032560299 ], [ -72.612818211385203, -37.729910206020101 ], [ -72.612870843704599, -37.730251826401997 ], [ -72.612878832965393, -37.730416048277398 ], [ -72.612777594730403, -37.730740937998 ], [ -72.612694642462799, -37.7308864989079 ], [ -72.612538033461803, -37.730998565025999 ], [ -72.612307419233005, -37.7310699982838 ], [ -72.612198845001302, -37.7310590282409 ], [ -72.611716433383705, -37.7307663473782 ], [ -72.611423546945602, -37.730668071019601 ], [ -72.611243399993995, -37.730666445894201 ], [ -72.610852356173098, -37.730771400186001 ], [ -72.610640414955697, -37.7308565589138 ], [ -72.610486543642295, -37.730839825322199 ], [ -72.610439858783806, -37.7308055038663 ], [ -72.610372415904195, -37.730714612267903 ], [ -72.6102759212866, -37.730581707176199 ], [ -72.6102088259521, -37.730497955992803 ], [ -72.610153498035402, -37.730471049735598 ], [ -72.610035241319807, -37.730446073124099 ], [ -72.609927014096499, -37.730442240588303 ], [ -72.609864432340999, -37.730451310706201 ], [ -72.6096629023248, -37.7307506702777 ], [ -72.609629718917105, -37.730808893533698 ], [ -72.609581678981201, -37.7309319292903 ], [ -72.609507016506996, -37.731062931550802 ], [ -72.609430617482801, -37.731158233819002 ], [ -72.609400557076, -37.731280718269197 ], [ -72.609387782543607, -37.7313883703915 ], [ -72.609410968224495, -37.731494920911103 ], [ -72.609425510377903, -37.731608886705096 ], [ -72.609407216827094, -37.7317882162125 ], [ -72.609382675319694, -37.731839024175301 ], [ -72.609257855113, -37.731864302697304 ], [ -72.609249906694799, -37.731885999012697 ], [ -72.609227100168795, -37.731972506943301 ], [ -72.609231264518797, -37.732058188007699 ], [ -72.609252021055497, -37.732114758380497 ], [ -72.609255144332096, -37.732179018725802 ], [ -72.609249972156405, -37.732257835748101 ], [ -72.609194675241795, -37.732416847031601 ], [ -72.609110325988794, -37.732533844581504 ], [ -72.6090166387267, -37.732643978064097 ], [ -72.6090017815051, -37.732708790527099 ], [ -72.609022885045604, -37.7327724996752 ], [ -72.609110391014895, -37.732905681319899 ], [ -72.609173355314098, -37.73308967082 ], [ -72.609196194358105, -37.733189080808401 ], [ -72.609214174868299, -37.733188529565503 ], [ -72.6092287172646, -37.733302495356099 ], [ -72.609302515082703, -37.733435470983501 ], [ -72.609453381303993, -37.733707315348198 ], [ -72.609516127203804, -37.7336583710672 ], [ -72.609512656437403, -37.733586970222298 ], [ -72.609520918908601, -37.733386496558197 ], [ -72.609518142317995, -37.733329375879997 ], [ -72.609534387460201, -37.733293123712997 ], [ -72.609531957963995, -37.733243143569297 ], [ -72.6095201905175, -37.733186297654001 ], [ -72.609452053368699, -37.733081126304199 ], [ -72.609422305596297, -37.7330248325501 ], [ -72.609297417420805, -37.732678274528503 ], [ -72.609331990000896, -37.732648611673497 ], [ -72.609422206240097, -37.732467077097603 ], [ -72.609521411644494, -37.7322852668484 ], [ -72.609522767030995, -37.732127909296103 ], [ -72.609454976869301, -37.732029877555 ], [ -72.609551786305204, -37.731984005012798 ], [ -72.6096133282159, -37.731953515187598 ], [ -72.609686257023796, -37.731786811928004 ], [ -72.609673101553199, -37.731701406568398 ], [ -72.609679662690098, -37.731651149854201 ], [ -72.609707987407901, -37.731492965376901 ], [ -72.609632249349602, -37.731416629151603 ], [ -72.609661268243002, -37.731272724852502 ], [ -72.609792960953698, -37.731018411021097 ], [ -72.609852420618907, -37.730945079667201 ], [ -72.6098755721532, -37.730865712226297 ], [ -72.609935031666893, -37.7307923817391 ], [ -72.610035275118193, -37.730631990997203 ], [ -72.610074011614003, -37.730688008985503 ], [ -72.610248326642505, -37.730940090631897 ], [ -72.610304697466404, -37.7309884174826 ], [ -72.610432987051496, -37.731034537845098 ], [ -72.6106145224485, -37.731064724517701 ], [ -72.610880751300897, -37.730985051932798 ], [ -72.611102190985704, -37.730947687624599 ], [ -72.611398698321196, -37.730897656454403 ], [ -72.611490334062594, -37.730930599485397 ], [ -72.611756252301106, -37.731029703010101 ], [ -72.612164660914999, -37.731281749947399 ], [ -72.612397707232503, -37.731260297833302 ], [ -72.612645953437493, -37.731181173054402 ], [ -72.612698503897704, -37.731150957564097 ], [ -72.612793573186295, -37.7310693817494 ], [ -72.612791141650106, -37.731019400867197 ], [ -72.612850598272502, -37.730946069048798 ], [ -72.612901411665604, -37.730880153623197 ], [ -72.613041082067596, -37.730790057690598 ], [ -72.613081515172894, -37.730695857875503 ], [ -72.613145402927202, -37.730343510447803 ], [ -72.6130952009037, -37.730051871135402 ], [ -72.613040136235099, -37.729660270909903 ], [ -72.613328199905396, -37.729844499955803 ], [ -72.613703731214798, -37.729975987960103 ], [ -72.614074051747295, -37.730000374351597 ], [ -72.614351694205894, -37.729970398239203 ], [ -72.614614832020706, -37.730012374897797 ], [ -72.614795672070301, -37.730028274130902 ], [ -72.614930866326304, -37.730031274143499 ], [ -72.615098545253701, -37.729961768416402 ], [ -72.615132419057701, -37.729917823939402 ], [ -72.615157651143704, -37.729881295086997 ], [ -72.615218841281902, -37.729843662932502 ], [ -72.6152976644549, -37.729798338092102 ], [ -72.615368887546893, -37.7297818494634 ], [ -72.615466037686303, -37.729743111968901 ], [ -72.615552459367805, -37.7296689507426 ], [ -72.615637838012901, -37.729573368887898 ], [ -72.615662026912304, -37.729515420270999 ], [ -72.615688647989998, -37.729507452420798 ], [ -72.616286141951605, -37.729993495691701 ], [ -72.616553917521301, -37.730211320933002 ], [ -72.618060453751596, -37.731436788380201 ], [ -72.618207198056297, -37.731553008550897 ], [ -72.619390272760796, -37.732489972407699 ], [ -72.619780209067997, -37.732793451417699 ], [ -72.620185758009697, -37.733109077431799 ], [ -72.620876989043794, -37.733721954809702 ], [ -72.620929395382902, -37.7337684208685 ], [ -72.621468749405906, -37.734363897040701 ], [ -72.620912740668402, -37.735257452249897 ], [ -72.621002947780596, -37.735299237639801 ], [ -72.621095289152507, -37.735346451750601 ], [ -72.6214027682623, -37.735558665581003 ], [ -72.621594069350806, -37.7357887550274 ], [ -72.621719936720396, -37.735784882772599 ], [ -72.621809144548095, -37.7357678359499 ], [ -72.621923929943307, -37.735721400223703 ], [ -72.6220044961387, -37.735711771181101 ], [ -72.622094748751095, -37.735716144548 ], [ -72.622158030681504, -37.735721348604997 ], [ -72.622420428407906, -37.735563109516399 ], [ -72.622455345041502, -37.735540583444802 ], [ -72.622605395617995, -37.735478759607702 ], [ -72.622747151760507, -37.735431493132303 ], [ -72.622804459572393, -37.735403094260299 ], [ -72.622817044301797, -37.735409121206999 ], [ -72.622929670507304, -37.735463059833897 ], [ -72.623031004203597, -37.735509996549197 ], [ -72.623786617288999, -37.735679808477101 ], [ -72.6240321468904, -37.735729455728602 ], [ -72.624627257931806, -37.735746887782703 ], [ -72.625384471555407, -37.735580556084898 ], [ -72.625785329151995, -37.735489704669199 ], [ -72.625976723769995, -37.735446326037 ], [ -72.626114709824805, -37.735415051376201 ], [ -72.626147260607993, -37.735528459795297 ], [ -72.626243092345604, -37.735647070080397 ], [ -72.626344427034397, -37.735694003853098 ], [ -72.626436075653203, -37.735726933634901 ], [ -72.626580619371495, -37.735736782221302 ], [ -72.626610379936594, -37.7357930709233 ], [ -72.626594576233899, -37.735841680691699 ], [ -72.626586896792006, -37.7358653021668 ], [ -72.626502921229104, -37.7359894504268 ], [ -72.626379146536905, -37.736036167496799 ], [ -72.626307910624206, -37.736038361887204 ], [ -72.626280252381207, -37.736039213875301 ], [ -72.626163376215104, -37.7360428140721 ], [ -72.626055839745106, -37.736053277612697 ], [ -72.625940706929498, -37.7360925768972 ], [ -72.625810731218607, -37.736196690811603 ], [ -72.625740550899806, -37.736234605357801 ], [ -72.625609878433195, -37.736324438233602 ], [ -72.625534890685103, -37.736448309929301 ], [ -72.625520744877605, -37.736527403652303 ], [ -72.625525003493607, -37.7365498718369 ], [ -72.625534781102502, -37.736601453878102 ], [ -72.625545001624502, -37.736655369055299 ], [ -72.625559221430294, -37.736762191943598 ], [ -72.625501169444803, -37.736864089506199 ], [ -72.625426086520505, -37.736922674987703 ], [ -72.625417778409798, -37.736929156796499 ], [ -72.625405759395704, -37.736938534789402 ], [ -72.625354953888007, -37.737004456106 ], [ -72.625294459891904, -37.737056374383599 ], [ -72.625181417980002, -37.737138512722296 ], [ -72.625071512293403, -37.737284911963499 ], [ -72.625041127747195, -37.737400258703303 ], [ -72.625046200125894, -37.737504145417702 ], [ -72.625049494544299, -37.737571617674597 ], [ -72.625032559160402, -37.737593591708197 ], [ -72.624987256806406, -37.737587835588897 ], [ -72.624958486789396, -37.737588721512701 ], [ -72.624879369236098, -37.737591157767199 ], [ -72.624682969644297, -37.737625808011103 ], [ -72.624494165658206, -37.737631621293602 ], [ -72.624288774515406, -37.737666547726 ], [ -72.624154262791507, -37.737677840072898 ], [ -72.623792964009695, -37.737839127629002 ], [ -72.623710724135407, -37.737998974500897 ], [ -72.623646116886505, -37.738151128306697 ], [ -72.623642110793497, -37.738168617788702 ], [ -72.623787456989305, -37.738118212527503 ], [ -72.6240364812774, -37.738031850540402 ], [ -72.624131892976294, -37.7379574062712 ], [ -72.624281598180403, -37.737888440622399 ], [ -72.624521906911198, -37.737830987470502 ], [ -72.624638786101301, -37.737827388757204 ], [ -72.624755664137894, -37.737823789963102 ], [ -72.624892267613703, -37.737855336667202 ], [ -72.624993257168001, -37.737895131037 ], [ -72.625091457814307, -37.737877805664297 ], [ -72.625231124757903, -37.737787696321298 ], [ -72.625316847517894, -37.737699248109799 ], [ -72.625339636238806, -37.737612737999797 ], [ -72.625296351089702, -37.737463906040603 ], [ -72.625293213309305, -37.737399645993698 ], [ -72.625342974341294, -37.7373123052406 ], [ -72.625566618459899, -37.737098047092701 ], [ -72.625711787765198, -37.736936260834803 ], [ -72.625788169220996, -37.736840948867503 ], [ -72.625819947157396, -37.736754161805102 ], [ -72.625793249130695, -37.7365762163708 ], [ -72.625807045994705, -37.736489983127498 ], [ -72.625831577250594, -37.736439172268099 ], [ -72.626075639284295, -37.7362743396247 ], [ -72.626137526930293, -37.736250980800598 ], [ -72.626227431494002, -37.736248211448903 ], [ -72.626353646610994, -37.736251474639701 ], [ -72.626434561266393, -37.736248982060403 ], [ -72.6265241170331, -37.736239072085603 ], [ -72.626568023637205, -37.736216267863803 ], [ -72.626791660979194, -37.736002007705899 ], [ -72.626866646172203, -37.735878135332499 ], [ -72.626861763386401, -37.735778176106002 ], [ -72.626839248607496, -37.735685910337402 ], [ -72.626782167448695, -37.735623312255598 ], [ -72.626708151931197, -37.735582688372403 ], [ -72.626608211076004, -37.735564315639401 ], [ -72.626470913830701, -37.735518489943601 ], [ -72.626415228043498, -37.735484452353397 ], [ -72.6263840728448, -37.735399602889899 ], [ -72.626258054803301, -37.735031648807599 ], [ -72.626316105577899, -37.734929750038901 ], [ -72.626401823953799, -37.734841301238497 ], [ -72.626451929777701, -37.734761100575199 ], [ -72.626438406743304, -37.734668557711302 ], [ -72.626408645693402, -37.734612268962103 ], [ -72.626342924824698, -37.734557087920798 ], [ -72.626288633468107, -37.734551609164299 ], [ -72.626243682782899, -37.734552993801998 ], [ -72.626155175016606, -37.7345843228685 ], [ -72.626066667171202, -37.734615651872197 ], [ -72.6260033861317, -37.734610450783002 ], [ -72.625902749363107, -37.734577796564899 ], [ -72.6258564040115, -37.7345506212393 ], [ -72.625827340754299, -37.734508612225802 ], [ -72.625798975966106, -37.734480883078 ], [ -72.625743987393804, -37.734461124154798 ], [ -72.625663773030993, -37.734477896037198 ], [ -72.625504388943597, -37.734532859999298 ], [ -72.625360892338406, -37.734544430319602 ], [ -72.625244716733405, -37.734562309367803 ], [ -72.625117457534301, -37.734537624540302 ], [ -72.625054526277907, -37.734539562409402 ], [ -72.624912424945805, -37.734579691996998 ], [ -72.624860573583405, -37.734624192759902 ], [ -72.624782798711095, -37.7346909442469 ], [ -72.624694987174706, -37.734736552179903 ], [ -72.624569819067702, -37.734754707449 ], [ -72.624452248781196, -37.734744025881298 ], [ -72.624354052032004, -37.7347613505219 ], [ -72.6242136923305, -37.734837178688103 ], [ -72.6240636444725, -37.734899003547802 ], [ -72.623887671392694, -37.734983078828101 ], [ -72.623808151752399, -37.735014129468297 ], [ -72.623691625311096, -37.735024866652502 ], [ -72.623596198751798, -37.7350442044375 ], [ -72.6235668059891, -37.735050161277101 ], [ -72.623478296351493, -37.735081488415297 ], [ -72.6233987764152, -37.7351125387924 ], [ -72.623002504263795, -37.735110433673803 ], [ -72.622767012164104, -37.735081927861899 ], [ -72.6226854028193, -37.735070136966797 ], [ -72.622352344251098, -37.734887317310303 ], [ -72.622251360112699, -37.734847519473 ], [ -72.621845272031507, -37.734459574599299 ], [ -72.621703452017897, -37.734320922793501 ], [ -72.6216359934906, -37.734230039436603 ], [ -72.621483142891506, -37.734049521555399 ], [ -72.621435357690004, -37.733993086846503 ], [ -72.621396959188601, -37.733944212696002 ], [ -72.621262739025099, -37.733776724617499 ], [ -72.621186638980603, -37.733693257046298 ], [ -72.621071791737705, -37.733553775627101 ], [ -72.620922029895098, -37.733436819641099 ], [ -72.620790596969897, -37.733326449974101 ], [ -72.620459230955504, -37.732993407344601 ], [ -72.620344387302396, -37.732853924141303 ], [ -72.6202942147101, -37.732748206938702 ], [ -72.620226062068497, -37.7326430417247 ], [ -72.620160695446799, -37.732594996438898 ], [ -72.620096372036897, -37.732568371603598 ], [ -72.620059367542396, -37.732548057833 ], [ -72.620001946421198, -37.732478316461801 ], [ -72.619954559069001, -37.732429718198603 ], [ -72.619898878411803, -37.732395676335699 ], [ -72.6198615259798, -37.732368222041302 ], [ -72.619821389174305, -37.732283647695603 ], [ -72.619745292344703, -37.732200179012601 ], [ -72.619678882345497, -37.7321307138523 ], [ -72.619594143262503, -37.7320546610406 ], [ -72.619519090960907, -37.731992611755601 ], [ -72.619451288194398, -37.731894586447297 ], [ -72.619283204364095, -37.731771041271799 ], [ -72.619208500618299, -37.731716132217898 ], [ -72.619042504258204, -37.731635426756199 ], [ -72.618939091695907, -37.731545646066998 ], [ -72.618872333947806, -37.731469039948003 ], [ -72.618774431827802, -37.731307582620403 ], [ -72.618719796366804, -37.731294960616303 ], [ -72.618665160922504, -37.7312823385858 ], [ -72.6185901102278, -37.731220289520799 ], [ -72.618497023532896, -37.7309728754039 ], [ -72.618408808048301, -37.730825421421898 ], [ -72.618371109053797, -37.730790826111502 ], [ -72.618251110348396, -37.730730158288203 ], [ -72.618106521490802, -37.730534381202801 ], [ -72.617950161447595, -37.730281760873297 ], [ -72.617814563552798, -37.730085707079198 ], [ -72.617526488648906, -37.729901489649698 ], [ -72.617198630735103, -37.729639836416197 ], [ -72.617009794340603, -37.729459718775097 ], [ -72.616890840919694, -37.7294204690632 ], [ -72.6167116915733, -37.729254355634602 ], [ -72.616285647673607, -37.729010016534303 ], [ -72.6161715625299, -37.729070726556799 ], [ -72.615994897546699, -37.729140509764697 ], [ -72.615818231082301, -37.729210292758196 ], [ -72.615730072062206, -37.729248753489998 ], [ -72.615572428439293, -37.729339403587304 ], [ -72.615519880477606, -37.729369620243503 ], [ -72.615422383230097, -37.729401217265099 ], [ -72.615380911035999, -37.729473998932598 ] ] ] } },
{ "type": "Feature", "properties": { "id": "monoparte.3", "Name": null, "description": null, "timestamp": null, "begin": null, "end": null, "altitudeMode": null, "tessellate": -1, "extrude": 0, "visibility": -1, "drawOrder": null, "icon": null, "REG": "Araucanía", "COM": "Renaico", "LOC": "Tijeral", "ZONA": "Z-3", "NOM": "Zona de Apoyo a la Ruta", "UPERM": "Residencial; actividades productivas inofensivas y molestas; intraestructura de transporte, sanitaria, energética; equipamiento científico, comercio, culto y cultura, deporte, educación, esparcimiento, salud, seguridad, servicios, social.", "UPROH": "Todos aquellos no señalados como permitidos.", "P_DO": "28/07/2012", "N_DOC": "4", "T_DO": "Decreto", "OBS": null }, "geometry": { "type": "Polygon", "coordinates": [ [ [ -72.612646586614005, -37.739549337548397 ], [ -72.6126876249796, -37.739624909461099 ], [ -72.616316524572397, -37.740736258617297 ], [ -72.616342366108, -37.740707644783697 ], [ -72.614095236968893, -37.736522684388099 ], [ -72.612646586614005, -37.739549337548397 ] ] ] } },
{ "type": "Feature", "properties": { "id": "monoparte.4", "Name": null, "description": null, "timestamp": null, "begin": null, "end": null, "altitudeMode": null, "tessellate": -1, "extrude": 0, "visibility": -1, "drawOrder": null, "icon": null, "REG": "Araucanía", "COM": "Renaico", "LOC": "Tijeral", "ZONA": "Z-2", "NOM": "Zona Borde Centro", "UPERM": "Residencial; actividades productivas inofensivas, industria, bodegaje y talleres; equipamiento cientifico, comercio, culto y cultura, deporte, educación, esparcimiento, salud, seguridad, servicios, social.", "UPROH": "Todos aquellos no señalados como permitidos.", "P_DO": "28/07/2012", "N_DOC": "4", "T_DO": "Decreto", "OBS": null }, "geometry": { "type": "Polygon", "coordinates": [ [ [ -72.612646586614005, -37.739549337548397 ], [ -72.614095236968893, -37.736522684388099 ], [ -72.611102190985704, -37.730947687624599 ], [ -72.610880751300897, -37.730985051932798 ], [ -72.6106145224485, -37.731064724517701 ], [ -72.610432987051496, -37.731034537845098 ], [ -72.610304697466404, -37.7309884174826 ], [ -72.610248326642505, -37.730940090631897 ], [ -72.610074011614003, -37.730688008985503 ], [ -72.610035275118193, -37.730631990997203 ], [ -72.609935031666893, -37.7307923817391 ], [ -72.6098755721532, -37.730865712226297 ], [ -72.609852420618907, -37.730945079667201 ], [ -72.609792960953698, -37.731018411021097 ], [ -72.609661268243002, -37.731272724852502 ], [ -72.609632249349602, -37.731416629151603 ], [ -72.609707987407901, -37.731492965376901 ], [ -72.609679662690098, -37.731651149854201 ], [ -72.609673101553199, -37.731701406568398 ], [ -72.609686257023796, -37.731786811928004 ], [ -72.6096133282159, -37.731953515187598 ], [ -72.609551786305204, -37.731984005012798 ], [ -72.609454976869301, -37.732029877555 ], [ -72.609522767030995, -37.732127909296103 ], [ -72.609521411644494, -37.7322852668484 ], [ -72.609422206240097, -37.732467077097603 ], [ -72.609331990000896, -37.732648611673497 ], [ -72.609297417420805, -37.732678274528503 ], [ -72.609422305596297, -37.7330248325501 ], [ -72.609452053368699, -37.733081126304199 ], [ -72.6095201905175, -37.733186297654001 ], [ -72.609531957963995, -37.733243143569297 ], [ -72.609534387460201, -37.733293123712997 ], [ -72.609518142317995, -37.733329375879997 ], [ -72.609520918908601, -37.733386496558197 ], [ -72.609512656437403, -37.733586970222298 ], [ -72.609516127203804, -37.7336583710672 ], [ -72.609453381303993, -37.733707315348198 ], [ -72.610422775333703, -37.735454007785499 ], [ -72.612646586614005, -37.739549337548397 ] ] ] } },
{ "type": "Feature", "properties": { "id": "monoparte.5", "Name": null, "description": null, "timestamp": null, "begin": null, "end": null, "altitudeMode": null, "tessellate": -1, "extrude": 0, "visibility": -1, "drawOrder": null, "icon": null, "REG": "Araucanía", "COM": "Renaico", "LOC": "Tijeral", "ZONA": "AV", "NOM": "AV Área Verde", "UPERM": "Área verde.", "UPROH": "Todos aquellos no señalados como permitidos.", "P_DO": "28/07/2012", "N_DOC": "4", "T_DO": "Decreto", "OBS": null }, "geometry": { "type": "Polygon", "coordinates": [ [ [ -72.614833296866394, -37.7373754454172 ], [ -72.615025640473107, -37.737701711305903 ], [ -72.615173616263704, -37.7375970571157 ], [ -72.615005871862394, -37.737480645840201 ], [ -72.615073279186504, -37.737385617042499 ], [ -72.614898631147597, -37.737312321877098 ], [ -72.614833296866394, -37.7373754454172 ] ] ] } },
{ "type": "Feature", "properties": { "id": "monoparte.6", "Name": null, "description": null, "timestamp": null, "begin": null, "end": null, "altitudeMode": null, "tessellate": -1, "extrude": 0, "visibility": -1, "drawOrder": null, "icon": null, "REG": "Araucanía", "COM": "Renaico", "LOC": "Tijeral", "ZONA": "AV", "NOM": "AV Área Verde", "UPERM": "Área verde.", "UPROH": "Todos aquellos no señalados como permitidos.", "P_DO": "28/07/2012", "N_DOC": "4", "T_DO": "Decreto", "OBS": null }, "geometry": { "type": "Polygon", "coordinates": [ [ [ -72.618971354166206, -37.7370012692679 ], [ -72.619282095067703, -37.737272687599699 ], [ -72.619534342793102, -37.737098372669401 ], [ -72.619497684133506, -37.737085198394396 ], [ -72.619352441874796, -37.737061061184001 ], [ -72.619161549931903, -37.737024025829903 ], [ -72.618988291340102, -37.736979296919699 ], [ -72.618971354166206, -37.7370012692679 ] ] ] } },
{ "type": "Feature", "properties": { "id": "monoparte.7", "Name": null, "description": null, "timestamp": null, "begin": null, "end": null, "altitudeMode": null, "tessellate": -1, "extrude": 0, "visibility": -1, "drawOrder": null, "icon": null, "REG": "Araucanía", "COM": "Renaico", "LOC": "Tijeral", "ZONA": "AV", "NOM": "AV Área Verde", "UPERM": "Área verde.", "UPROH": "Todos aquellos no señalados como permitidos.", "P_DO": "28/07/2012", "N_DOC": "4", "T_DO": "Decreto", "OBS": null }, "geometry": { "type": "Polygon", "coordinates": [ [ [ -72.618956795708996, -37.736887305545103 ], [ -72.619231640737397, -37.736969062503697 ], [ -72.619024196175801, -37.736792274796997 ], [ -72.618956795708996, -37.736887305545103 ] ] ] } },
{ "type": "Feature", "properties": { "id": "monoparte.8", "Name": null, "description": null, "timestamp": null, "begin": null, "end": null, "altitudeMode": null, "tessellate": -1, "extrude": 0, "visibility": -1, "drawOrder": null, "icon": null, "REG": "Araucanía", "COM": "Renaico", "LOC": "Tijeral", "ZONA": "AV", "NOM": "AV Área Verde", "UPERM": "Área verde.", "UPROH": "Todos aquellos no señalados como permitidos.", "P_DO": "28/07/2012", "N_DOC": "4", "T_DO": "Decreto", "OBS": null }, "geometry": { "type": "Polygon", "coordinates": [ [ [ -72.618456742907796, -37.736788265743201 ], [ -72.618795101987004, -37.737042254078297 ], [ -72.6189322595026, -37.736938115216503 ], [ -72.618675302337294, -37.736838753195997 ], [ -72.618456742907796, -37.736788265743201 ] ] ] } },
{ "type": "Feature", "properties": { "id": "monoparte.9", "Name": null, "description": null, "timestamp": null, "begin": null, "end": null, "altitudeMode": null, "tessellate": -1, "extrude": 0, "visibility": -1, "drawOrder": null, "icon": null, "REG": "Araucanía", "COM": "Renaico", "LOC": "Tijeral", "ZONA": "AV", "NOM": "AV Área Verde", "UPERM": "Área verde.", "UPROH": "Todos aquellos no señalados como permitidos.", "P_DO": "28/07/2012", "N_DOC": "4", "T_DO": "Decreto", "OBS": null }, "geometry": { "type": "Polygon", "coordinates": [ [ [ -72.618263764272101, -37.736708388804502 ], [ -72.618343177348095, -37.736808207322497 ], [ -72.618401407436394, -37.736761363784296 ], [ -72.618263764272101, -37.736708388804502 ] ] ] } },
{ "type": "Feature", "properties": { "id": "monoparte.10", "Name": null, "description": null, "timestamp": null, "begin": null, "end": null, "altitudeMode": null, "tessellate": -1, "extrude": 0, "visibility": -1, "drawOrder": null, "icon": null, "REG": "Araucanía", "COM": "Renaico", "LOC": "Tijeral", "ZONA": "AV", "NOM": "AV Área Verde", "UPERM": "Área verde.", "UPROH": "Todos aquellos no señalados como permitidos.", "P_DO": "28/07/2012", "N_DOC": "4", "T_DO": "Decreto", "OBS": null }, "geometry": { "type": "Polygon", "coordinates": [ [ [ -72.614253107559307, -37.7362595335157 ], [ -72.614583519220901, -37.736905178024898 ], [ -72.614863520081798, -37.736591176676598 ], [ -72.614278688409499, -37.736230144379398 ], [ -72.614253107559307, -37.7362595335157 ] ] ] } },
{ "type": "Feature", "properties": { "id": "monoparte.11", "Name": null, "description": null, "timestamp": null, "begin": null, "end": null, "altitudeMode": null, "tessellate": -1, "extrude": 0, "visibility": -1, "drawOrder": null, "icon": null, "REG": "Araucanía", "COM": "Renaico", "LOC": "Tijeral", "ZONA": "AV", "NOM": "AV Área Verde", "UPERM": "Área verde.", "UPROH": "Todos aquellos no señalados como permitidos.", "P_DO": "28/07/2012", "N_DOC": "4", "T_DO": "Decreto", "OBS": null }, "geometry": { "type": "Polygon", "coordinates": [ [ [ -72.620027586499802, -37.735395636368096 ], [ -72.620104383437607, -37.735493384644599 ], [ -72.620421773163699, -37.735354911426299 ], [ -72.620341551298395, -37.735246832040701 ], [ -72.620027586499802, -37.735395636368096 ] ] ] } },
{ "type": "Feature", "properties": { "id": "monoparte.12", "Name": null, "description": null, "timestamp": null, "begin": null, "end": null, "altitudeMode": null, "tessellate": -1, "extrude": 0, "visibility": -1, "drawOrder": null, "icon": null, "REG": "Araucanía", "COM": "Renaico", "LOC": "Tijeral", "ZONA": "AV", "NOM": "AV Área Verde", "UPERM": "Área verde.", "UPROH": "Todos aquellos no señalados como permitidos.", "P_DO": "28/07/2012", "N_DOC": "4", "T_DO": "Decreto", "OBS": null }, "geometry": { "type": "Polygon", "coordinates": [ [ [ -72.613820015254703, -37.732726066579801 ], [ -72.614278542990803, -37.733692422703001 ], [ -72.615395524341096, -37.733278353606401 ], [ -72.614821305369603, -37.7323949947505 ], [ -72.613820015254703, -37.732726066579801 ] ] ] } }
]
}
