{
"type": "FeatureCollection",
"name": "IPT_09_PRC_Victoria",
"crs": { "type": "name", "properties": { "name": "urn:ogc:def:crs:OGC:1.3:CRS84" } },
"features": [
{ "type": "Feature", "properties": { "id": "monoparte.1", "Name": null, "description": null, "timestamp": null, "begin": null, "end": null, "altitudeMode": null, "tessellate": -1, "extrude": 0, "visibility": -1, "drawOrder": null, "icon": null, "REG": "Araucanía", "COM": "Victoria", "LOC": "Victoria", "ZONA": "ZE-1", "NOM": "Zona ZE-1", "UPERM": "Vivienda; equipamiento, actividades productivas inofensivas, terminales de buses, playas de estacionamiento, y similares. Mayor detalle en Ordenanza.", "UPROH": "Actividades productivas molestas, insalubres y peligrosas.", "P_DO": "03/10/1992", "N_DOC": "20", "T_DO": "Resolución", "OBS": null }, "geometry": { "type": "Polygon", "coordinates": [ [ [ -72.343751804295906, -38.242354762010102 ], [ -72.343204836254898, -38.241796109907099 ], [ -72.342618432068093, -38.241365903395298 ], [ -72.3418385683498, -38.241000799024 ], [ -72.341741764555707, -38.240972178569699 ], [ -72.341119624028494, -38.242921809492202 ], [ -72.343317949420907, -38.242511485548803 ], [ -72.343751804295906, -38.242354762010102 ] ] ] } },
{ "type": "Feature", "properties": { "id": "monoparte.2", "Name": null, "description": null, "timestamp": null, "begin": null, "end": null, "altitudeMode": null, "tessellate": -1, "extrude": 0, "visibility": -1, "drawOrder": null, "icon": null, "REG": "Araucanía", "COM": "Victoria", "LOC": "Victoria", "ZONA": "ZE-1", "NOM": "Zona ZE-1", "UPERM": "Vivienda; equipamiento, actividades productivas inofensivas, terminales de buses, playas de estacionamiento, y similares. Mayor detalle en Ordenanza.", "UPROH": "Actividades productivas molestas, insalubres y peligrosas.", "P_DO": "03/10/1992", "N_DOC": "20", "T_DO": "Resolución", "OBS": null }, "geometry": { "type": "Polygon", "coordinates": [ [ [ -72.338178408164296, -38.240270811535197 ], [ -72.337661502014697, -38.241358156031097 ], [ -72.336247806765599, -38.241011057313997 ], [ -72.333571465394797, -38.243933313606497 ], [ -72.340970113610695, -38.242710659993001 ], [ -72.341538466126096, -38.240912071323898 ], [ -72.341379000386496, -38.240864922389797 ], [ -72.340269858286803, -38.240568783124601 ], [ -72.339016621921203, -38.240425712428497 ], [ -72.338178408164296, -38.240270811535197 ] ] ] } },
{ "type": "Feature", "properties": { "id": "monoparte.3", "Name": null, "description": null, "timestamp": null, "begin": null, "end": null, "altitudeMode": null, "tessellate": -1, "extrude": 0, "visibility": -1, "drawOrder": null, "icon": null, "REG": "Araucanía", "COM": "Victoria", "LOC": "Victoria", "ZONA": "ZE-1", "NOM": "Zona ZE-1", "UPERM": "Vivienda; equipamiento, actividades productivas inofensivas, terminales de buses, playas de estacionamiento, y similares. Mayor detalle en Ordenanza.", "UPROH": "Actividades productivas molestas, insalubres y peligrosas.", "P_DO": "03/10/1992", "N_DOC": "20", "T_DO": "Resolución", "OBS": null }, "geometry": { "type": "Polygon", "coordinates": [ [ [ -72.343751804295906, -38.242354762010102 ], [ -72.344565288613694, -38.241640309326499 ], [ -72.345713597658104, -38.240005626933801 ], [ -72.3450523758369, -38.237791998375599 ], [ -72.342845274644205, -38.237975589697299 ], [ -72.342704183722603, -38.238194137490403 ], [ -72.342936225025696, -38.238878074612202 ], [ -72.343726777429097, -38.241487038245701 ], [ -72.343839597921303, -38.241970077315798 ], [ -72.343751804295906, -38.242354762010102 ] ] ] } },
{ "type": "Feature", "properties": { "id": "monoparte.4", "Name": null, "description": null, "timestamp": null, "begin": null, "end": null, "altitudeMode": null, "tessellate": -1, "extrude": 0, "visibility": -1, "drawOrder": null, "icon": null, "REG": "Araucanía", "COM": "Victoria", "LOC": "Victoria", "ZONA": "ZE-1", "NOM": "Zona ZE-1", "UPERM": "Vivienda; equipamiento, actividades productivas inofensivas, terminales de buses, playas de estacionamiento, y similares. Mayor detalle en Ordenanza.", "UPROH": "Actividades productivas molestas, insalubres y peligrosas.", "P_DO": "03/10/1992", "N_DOC": "20", "T_DO": "Resolución", "OBS": null }, "geometry": { "type": "Polygon", "coordinates": [ [ [ -72.322010512989294, -38.235016043600901 ], [ -72.321942785153198, -38.235990749006 ], [ -72.321877353218198, -38.237208252917 ], [ -72.321824755395298, -38.238044012054303 ], [ -72.321732214600402, -38.238666376887601 ], [ -72.321503760653201, -38.238958884987703 ], [ -72.320460355003505, -38.239274476903702 ], [ -72.318079258559806, -38.240080815849602 ], [ -72.3164501447378, -38.240756189769499 ], [ -72.316684310132203, -38.241171591544301 ], [ -72.319966724730506, -38.246302775853202 ], [ -72.331097514493294, -38.244319034158501 ], [ -72.330646016017297, -38.244088485029799 ], [ -72.330601694264402, -38.243779873661502 ], [ -72.329783440192202, -38.243731609075297 ], [ -72.329815481280306, -38.2434404930802 ], [ -72.3281684247969, -38.2434437628661 ], [ -72.3260636475121, -38.243417686845 ], [ -72.326055829162598, -38.243246287273003 ], [ -72.325242140190397, -38.243297973187701 ], [ -72.324502443902404, -38.244177056292301 ], [ -72.324143597820097, -38.244659189342499 ], [ -72.323571849298204, -38.244847021435199 ], [ -72.322880784672805, -38.244008506523201 ], [ -72.322629832526999, -38.244072826168697 ], [ -72.322530163756795, -38.243875425991398 ], [ -72.3224033861392, -38.243879018951702 ], [ -72.322306973454502, -38.2437530357847 ], [ -72.322465417159094, -38.243648433468302 ], [ -72.322197545575804, -38.243341386055398 ], [ -72.320678924188101, -38.243842067343202 ], [ -72.320246657837004, -38.243110619048799 ], [ -72.321353923125301, -38.242736013032101 ], [ -72.321142343566805, -38.242470273394403 ], [ -72.3232811357381, -38.241651671113999 ], [ -72.323287413530807, -38.240993613136901 ], [ -72.322323657202304, -38.240935118418797 ], [ -72.322235167535794, -38.241380980410199 ], [ -72.3220579669686, -38.241471812144901 ], [ -72.320693820937194, -38.241381743889498 ], [ -72.320663251139095, -38.240710426691201 ], [ -72.320118639114497, -38.2406972478189 ], [ -72.320129726420504, -38.239745866364203 ], [ -72.321310137241099, -38.239783941075999 ], [ -72.321340502719593, -38.239654364360398 ], [ -72.323372084728206, -38.239668301460298 ], [ -72.323708175152703, -38.235504114128098 ], [ -72.322932090014902, -38.2355833199477 ], [ -72.322928613691502, -38.234711011069997 ], [ -72.323623142656899, -38.234433892320702 ], [ -72.323798372008, -38.234300209166001 ], [ -72.323855375073407, -38.232367855838099 ], [ -72.323193939868503, -38.232972977547099 ], [ -72.323062086927095, -38.2332627503353 ], [ -72.322916679275096, -38.2336530192892 ], [ -72.322670424962993, -38.234217766923301 ], [ -72.322246983390698, -38.234873345498499 ], [ -72.322010512989294, -38.235016043600901 ] ], [ [ -72.328093321424504, -38.244447015731097 ], [ -72.328163777440196, -38.243505845711098 ], [ -72.329740892806299, -38.243832986162701 ], [ -72.329429081245095, -38.2445759410694 ], [ -72.328093321424504, -38.244447015731097 ] ] ] } },
{ "type": "Feature", "properties": { "id": "monoparte.5", "Name": null, "description": null, "timestamp": null, "begin": null, "end": null, "altitudeMode": null, "tessellate": -1, "extrude": 0, "visibility": -1, "drawOrder": null, "icon": null, "REG": "Araucanía", "COM": "Victoria", "LOC": "Victoria", "ZONA": "ZE-1", "NOM": "Zona ZE-1", "UPERM": "Vivienda; equipamiento, actividades productivas inofensivas, terminales de buses, playas de estacionamiento, y similares. Mayor detalle en Ordenanza.", "UPROH": "Actividades productivas molestas, insalubres y peligrosas.", "P_DO": "03/10/1992", "N_DOC": "20", "T_DO": "Resolución", "OBS": null }, "geometry": { "type": "Polygon", "coordinates": [ [ [ -72.346183541803796, -38.232695301935102 ], [ -72.3482682255719, -38.232685442908803 ], [ -72.347792774515497, -38.230753991913602 ], [ -72.347524121790897, -38.230158137409802 ], [ -72.347040744933196, -38.230220180365897 ], [ -72.345913048762199, -38.2304149986862 ], [ -72.346183541803796, -38.232695301935102 ] ] ] } },
{ "type": "Feature", "properties": { "id": "monoparte.6", "Name": null, "description": null, "timestamp": null, "begin": null, "end": null, "altitudeMode": null, "tessellate": -1, "extrude": 0, "visibility": -1, "drawOrder": null, "icon": null, "REG": "Araucanía", "COM": "Victoria", "LOC": "Victoria", "ZONA": "ZE-1", "NOM": "Zona ZE-1", "UPERM": "Vivienda; equipamiento, actividades productivas inofensivas, terminales de buses, playas de estacionamiento, y similares. Mayor detalle en Ordenanza.", "UPROH": "Actividades productivas molestas, insalubres y peligrosas.", "P_DO": "03/10/1992", "N_DOC": "20", "T_DO": "Resolución", "OBS": null }, "geometry": { "type": "Polygon", "coordinates": [ [ [ -72.340776812035003, -38.223820342901703 ], [ -72.342388639427796, -38.225520407538902 ], [ -72.3423818833882, -38.224977135360703 ], [ -72.342711063687403, -38.225039259536103 ], [ -72.342761017510298, -38.225338171549701 ], [ -72.342944696279503, -38.225390141479402 ], [ -72.342896702111304, -38.2263211207217 ], [ -72.341929424744507, -38.226577521820502 ], [ -72.341933317320795, -38.229037304922301 ], [ -72.344436247147499, -38.229452193305498 ], [ -72.3447466872924, -38.229500544230099 ], [ -72.345791005710794, -38.229342032570401 ], [ -72.345853422823495, -38.229912318752902 ], [ -72.345890859089494, -38.230227925676999 ], [ -72.347448160082095, -38.229989655708401 ], [ -72.345585956539594, -38.2258590646831 ], [ -72.342881817215897, -38.220802521155697 ], [ -72.339714904747396, -38.2225030992551 ], [ -72.340776812035003, -38.223820342901703 ] ] ] } },
{ "type": "Feature", "properties": { "id": "monoparte.7", "Name": null, "description": null, "timestamp": null, "begin": null, "end": null, "altitudeMode": null, "tessellate": -1, "extrude": 0, "visibility": -1, "drawOrder": null, "icon": null, "REG": "Araucanía", "COM": "Victoria", "LOC": "Victoria", "ZONA": "ZR-6", "NOM": "ZR-6; Zona de protección de plantas e instalaciones anexas agua potable", "UPERM": "Construcción de obras afines al destino de las instalaciones, incluye bodegas, oficinas. Mayor detalle en Ordenanza.", "UPROH": "Todo lo no indicado como permitido.", "P_DO": "03/10/1992", "N_DOC": "20", "T_DO": "Resolución", "OBS": null }, "geometry": { "type": "Polygon", "coordinates": [ [ [ -72.328093321424504, -38.244447015731097 ], [ -72.329429081245095, -38.2445759410694 ], [ -72.329740892806299, -38.243832986162701 ], [ -72.328163777440196, -38.243505845711098 ], [ -72.328093321424504, -38.244447015731097 ] ] ] } },
{ "type": "Feature", "properties": { "id": "monoparte.8", "Name": null, "description": null, "timestamp": null, "begin": null, "end": null, "altitudeMode": null, "tessellate": -1, "extrude": 0, "visibility": -1, "drawOrder": null, "icon": null, "REG": "Araucanía", "COM": "Victoria", "LOC": "Victoria", "ZONA": "ZR-6", "NOM": "ZR-6; Zona de protección de plantas e instalaciones anexas agua potable", "UPERM": "Construcción de obras afines al destino de las instalaciones, incluye bodegas, oficinas. Mayor detalle en Ordenanza.", "UPROH": "Todo lo no indicado como permitido.", "P_DO": "03/10/1992", "N_DOC": "20", "T_DO": "Resolución", "OBS": null }, "geometry": { "type": "Polygon", "coordinates": [ [ [ -72.326573770924995, -38.240305289061702 ], [ -72.326612731220493, -38.240761839178703 ], [ -72.327737382879505, -38.240372378722803 ], [ -72.327733472137794, -38.240286678589001 ], [ -72.327025873439695, -38.2402781581049 ], [ -72.326573770924995, -38.240305289061702 ] ] ] } },
{ "type": "Feature", "properties": { "id": "monoparte.9", "Name": null, "description": null, "timestamp": null, "begin": null, "end": null, "altitudeMode": null, "tessellate": -1, "extrude": 0, "visibility": -1, "drawOrder": null, "icon": null, "REG": "Araucanía", "COM": "Victoria", "LOC": "Victoria", "ZONA": "ZR-1", "NOM": "ZR-1; Zona de protección de vertientes y cursos naturales de agua", "UPERM": "Áreas Verdes, forestación, esparcimiento, turismo y deportes a escala vecinal.", "UPROH": "Todo lo no indicado como permitido.", "P_DO": "03/10/1992", "N_DOC": "20", "T_DO": "Resolución", "OBS": null }, "geometry": { "type": "Polygon", "coordinates": [ [ [ -72.3251232797368, -38.232226428066802 ], [ -72.323859386042301, -38.230188701958298 ], [ -72.323612158941003, -38.229537828698398 ], [ -72.323121465852907, -38.228626811626597 ], [ -72.323035979973994, -38.228808886886199 ], [ -72.3225878107813, -38.229584349707402 ], [ -72.322092281989896, -38.230647187649303 ], [ -72.322113964045599, -38.231123298297703 ], [ -72.322138899080699, -38.2316708263373 ], [ -72.322131485355698, -38.232171598176599 ], [ -72.322130578056402, -38.232815203907499 ], [ -72.322216960947799, -38.233384826580199 ], [ -72.322235393205204, -38.233789521338998 ], [ -72.322008038244107, -38.234105835071702 ], [ -72.322034059363702, -38.234677168095402 ], [ -72.322010512989294, -38.235016043600901 ], [ -72.322246983390698, -38.234873345498499 ], [ -72.322670424962993, -38.234217766923301 ], [ -72.322916679275096, -38.2336530192892 ], [ -72.323062086927095, -38.2332627503353 ], [ -72.323193939868503, -38.232972977547099 ], [ -72.323855375073407, -38.232367855838099 ], [ -72.323886715493799, -38.2321470774109 ], [ -72.3251232797368, -38.232226428066802 ] ] ] } },
{ "type": "Feature", "properties": { "id": "monoparte.10", "Name": null, "description": null, "timestamp": null, "begin": null, "end": null, "altitudeMode": null, "tessellate": -1, "extrude": 0, "visibility": -1, "drawOrder": null, "icon": null, "REG": "Araucanía", "COM": "Victoria", "LOC": "Victoria", "ZONA": "Z-3", "NOM": "Zona Z-3", "UPERM": "Vivienda; equipamiento a escala regional; actividades productivas inofensivas, terminales de buses, playas de estacionamiento y similares. Mayor detalle en Ordenanza.", "UPROH": "Equipamiento a escala no regional; actividades productivas molestas, insalubres y peligrosas. Mayor detalle en Ordenanza.", "P_DO": "03/10/1992", "N_DOC": "20", "T_DO": "Resolución", "OBS": null }, "geometry": { "type": "Polygon", "coordinates": [ [ [ -72.319298740395396, -38.222487899711901 ], [ -72.322896651155503, -38.227740203170498 ], [ -72.323228797340406, -38.228398205611398 ], [ -72.323845605371005, -38.229488305730101 ], [ -72.323896788381106, -38.229815795576698 ], [ -72.325113575433605, -38.231769238051399 ], [ -72.3256041780174, -38.232534176001899 ], [ -72.325650229309105, -38.226592273939701 ], [ -72.328235327303304, -38.2266261846842 ], [ -72.328211979958695, -38.226114368100298 ], [ -72.329601782128293, -38.226110664252701 ], [ -72.329650066983803, -38.225513386430599 ], [ -72.330903514555104, -38.225501620537898 ], [ -72.332174767155294, -38.225548926737297 ], [ -72.336159996264101, -38.225673963650202 ], [ -72.336336009934001, -38.225227984554799 ], [ -72.336360987405897, -38.224452597243499 ], [ -72.336308431685893, -38.224332138585197 ], [ -72.332200038959698, -38.224353622891599 ], [ -72.3322468215502, -38.222731428953097 ], [ -72.324024759198096, -38.222654933580102 ], [ -72.319298740395396, -38.222487899711901 ] ] ] } },
{ "type": "Feature", "properties": { "id": "monoparte.11", "Name": null, "description": null, "timestamp": null, "begin": null, "end": null, "altitudeMode": null, "tessellate": -1, "extrude": 0, "visibility": -1, "drawOrder": null, "icon": null, "REG": "Araucanía", "COM": "Victoria", "LOC": "Victoria", "ZONA": "ZR-5", "NOM": "ZR-5; Zona cementerio", "UPERM": "Construcciones asociadas al cementerio existente. Mayor detalle en Ordenanza.", "UPROH": "Todo lo no indicado como permitido.", "P_DO": "03/10/1992", "N_DOC": "20", "T_DO": "Resolución", "OBS": null }, "geometry": { "type": "Polygon", "coordinates": [ [ [ -72.337166739973597, -38.223871304187199 ], [ -72.338328260670806, -38.225117647320999 ], [ -72.340776812035003, -38.223820342901703 ], [ -72.339714904747396, -38.2225030992551 ], [ -72.337166739973597, -38.223871304187199 ] ] ] } },
{ "type": "Feature", "properties": { "id": "monoparte.12", "Name": null, "description": null, "timestamp": null, "begin": null, "end": null, "altitudeMode": null, "tessellate": -1, "extrude": 0, "visibility": -1, "drawOrder": null, "icon": null, "REG": "Araucanía", "COM": "Victoria", "LOC": "Victoria", "ZONA": "ZE-2", "NOM": "Zona ZE-2", "UPERM": "Equipamiento del tipo comercio, turismo, esparcimiento, seguridad y deporte. Actividades productivas inofensivas y molestas, terminales de buses, playas de estacionamiento, y similares. Mayor detalle en Ordenanza", "UPROH": "Vivienda, equipamientos a cierta escala; actividades productivas insalubres y peligrosas. Mayor detalle en Ordenanza.", "P_DO": "03/10/1992", "N_DOC": "20", "T_DO": "Resolución", "OBS": null }, "geometry": { "type": "Polygon", "coordinates": [ [ [ -72.345585956539594, -38.2258590646831 ], [ -72.347448160082095, -38.229989655708401 ], [ -72.350051110454999, -38.229591349613102 ], [ -72.347791589951797, -38.2256733599095 ], [ -72.344418222561799, -38.219977439451299 ], [ -72.342881817215897, -38.220802521155697 ], [ -72.345585956539594, -38.2258590646831 ] ] ] } },
{ "type": "Feature", "properties": { "id": "monoparte.13", "Name": null, "description": null, "timestamp": null, "begin": null, "end": null, "altitudeMode": null, "tessellate": -1, "extrude": 0, "visibility": -1, "drawOrder": null, "icon": null, "REG": "Araucanía", "COM": "Victoria", "LOC": "Victoria", "ZONA": "ZE-2", "NOM": "Zona ZE-2", "UPERM": "Equipamiento del tipo comercio, turismo, esparcimiento, seguridad y deporte. Actividades productivas inofensivas y molestas, terminales de buses, playas de estacionamiento, y similares. Mayor detalle en Ordenanza", "UPROH": "Vivienda, equipamientos a cierta escala; actividades productivas insalubres y peligrosas. Mayor detalle en Ordenanza.", "P_DO": "03/10/1992", "N_DOC": "20", "T_DO": "Resolución", "OBS": null }, "geometry": { "type": "Polygon", "coordinates": [ [ [ -72.347792774515497, -38.230753991913602 ], [ -72.3482682255719, -38.232685442908803 ], [ -72.351696465802803, -38.232444066116301 ], [ -72.350126531307694, -38.229722119269098 ], [ -72.349868694934798, -38.2297818731682 ], [ -72.349201320630797, -38.229890324748098 ], [ -72.348234888641201, -38.230066903696198 ], [ -72.347524121790897, -38.230158137409802 ], [ -72.347792774515497, -38.230753991913602 ] ] ] } },
{ "type": "Feature", "properties": { "id": "monoparte.14", "Name": null, "description": null, "timestamp": null, "begin": null, "end": null, "altitudeMode": null, "tessellate": -1, "extrude": 0, "visibility": -1, "drawOrder": null, "icon": null, "REG": "Araucanía", "COM": "Victoria", "LOC": "Victoria", "ZONA": "ZR-2", "NOM": "ZR-2; Zona de propiedad de las fuerzas armadas", "UPERM": "Equipamiento de seguridad escala regional, comunal, vecinal.", "UPROH": "Todo lo no indicado como permitido.", "P_DO": "03/10/1992", "N_DOC": "20", "T_DO": "Resolución", "OBS": null }, "geometry": { "type": "Polygon", "coordinates": [ [ [ -72.339241010516602, -38.232975773926398 ], [ -72.343115456089393, -38.232865359826 ], [ -72.343137984483505, -38.2326585347083 ], [ -72.343193896008501, -38.231942279580799 ], [ -72.342363465099695, -38.2298929779707 ], [ -72.344436247147499, -38.229452193305498 ], [ -72.341933317320795, -38.229037304922301 ], [ -72.341929424744507, -38.226577521820502 ], [ -72.339580443694203, -38.227188214400101 ], [ -72.339276183069202, -38.227406638960602 ], [ -72.339276446866606, -38.227940562315197 ], [ -72.339219973239807, -38.228819342013999 ], [ -72.339225467635202, -38.229467530700497 ], [ -72.339182069428404, -38.230631972428903 ], [ -72.339094742898297, -38.231893010240697 ], [ -72.339144168157802, -38.2324446015202 ], [ -72.339241010516602, -38.232975773926398 ] ] ] } },
{ "type": "Feature", "properties": { "id": "monoparte.15", "Name": null, "description": null, "timestamp": null, "begin": null, "end": null, "altitudeMode": null, "tessellate": -1, "extrude": 0, "visibility": -1, "drawOrder": null, "icon": null, "REG": "Araucanía", "COM": "Victoria", "LOC": "Victoria", "ZONA": "ZR-2", "NOM": "ZR-2; Zona de propiedad de las fuerzas armadas", "UPERM": "Equipamiento de seguridad escala regional, comunal, vecinal.", "UPROH": "Todo lo no indicado como permitido.", "P_DO": "03/10/1992", "N_DOC": "20", "T_DO": "Resolución", "OBS": null }, "geometry": { "type": "Polygon", "coordinates": [ [ [ -72.343296813004599, -38.232860188368001 ], [ -72.343562799945005, -38.2328526031461 ], [ -72.343329837483793, -38.232277739553602 ], [ -72.343307735987096, -38.232439168278603 ], [ -72.343296813004599, -38.232860188368001 ] ] ] } },
{ "type": "Feature", "properties": { "id": "monoparte.16", "Name": null, "description": null, "timestamp": null, "begin": null, "end": null, "altitudeMode": null, "tessellate": -1, "extrude": 0, "visibility": -1, "drawOrder": null, "icon": null, "REG": "Araucanía", "COM": "Victoria", "LOC": "Victoria", "ZONA": "ZR-3-2", "NOM": "ZR-3-2; Zona de restricción del aeródromo \"Victoria\"", "UPERM": "Vivienda; equipamiento; actividades productivas inofensivas, salvo terminales de buses, playas de estacionamiento, servicios automotrices y similares.", "UPROH": "Actividades productivas molestas, insalubres y peligrosas, junto con equipamientos concentradores de personas.", "P_DO": "03/10/1992", "N_DOC": "20", "T_DO": "Resolución", "OBS": null }, "geometry": { "type": "Polygon", "coordinates": [ [ [ -72.345791005710794, -38.229342032570401 ], [ -72.3447466872924, -38.229500544230099 ], [ -72.344436247147499, -38.229452193305498 ], [ -72.342363465099695, -38.2298929779707 ], [ -72.343193896008501, -38.231942279580799 ], [ -72.343227205721107, -38.2314403461653 ], [ -72.343324501112207, -38.230793995762603 ], [ -72.343424635652198, -38.230605217704699 ], [ -72.345890859089494, -38.230227925676999 ], [ -72.345853422823495, -38.229912318752902 ], [ -72.345791005710794, -38.229342032570401 ] ] ] } },
{ "type": "Feature", "properties": { "id": "monoparte.17", "Name": null, "description": null, "timestamp": null, "begin": null, "end": null, "altitudeMode": null, "tessellate": -1, "extrude": 0, "visibility": -1, "drawOrder": null, "icon": null, "REG": "Araucanía", "COM": "Victoria", "LOC": "Victoria", "ZONA": "ZR-3-2", "NOM": "ZR-3-2; Zona de restricción del aeródromo \"Victoria\"", "UPERM": "Vivienda; equipamiento; actividades productivas inofensivas, salvo terminales de buses, playas de estacionamiento, servicios automotrices y similares.", "UPROH": "Actividades productivas molestas, insalubres y peligrosas, junto con equipamientos concentradores de personas.", "P_DO": "03/10/1992", "N_DOC": "20", "T_DO": "Resolución", "OBS": null }, "geometry": { "type": "Polygon", "coordinates": [ [ [ -72.343562799945005, -38.2328526031461 ], [ -72.344788313342093, -38.236907929054702 ], [ -72.347355250149803, -38.2364723579567 ], [ -72.346327005332597, -38.2330311704631 ], [ -72.346183541803796, -38.232695301935102 ], [ -72.345913048762199, -38.2304149986862 ], [ -72.343528474242703, -38.230826912982302 ], [ -72.343329837483793, -38.232277739553602 ], [ -72.343562799945005, -38.2328526031461 ] ] ] } },
{ "type": "Feature", "properties": { "id": "monoparte.18", "Name": null, "description": null, "timestamp": null, "begin": null, "end": null, "altitudeMode": null, "tessellate": -1, "extrude": 0, "visibility": -1, "drawOrder": null, "icon": null, "REG": "Araucanía", "COM": "Victoria", "LOC": "Victoria", "ZONA": "Z-4", "NOM": "Zona Z-4", "UPERM": "Equipamiento del tipo comercio, esparcimiento y turismo. Actividades productivas inofensivas y molestas, terminales de buses, playas de estacionamientos, y similares. Mayor detalle en Ordenanza", "UPROH": "Vivienda; equipamientos a cierta escala; actividades productivas insalubres y peligrosas. Mayor detalle en Ordenanza.", "P_DO": "03/10/1992", "N_DOC": "20", "T_DO": "Resolución", "OBS": null }, "geometry": { "type": "Polygon", "coordinates": [ [ [ -72.343498887886199, -38.241597125949603 ], [ -72.343812868178603, -38.241855638251501 ], [ -72.343726777429097, -38.241487038245701 ], [ -72.342936225025696, -38.238878074612202 ], [ -72.342417330280895, -38.238998470217403 ], [ -72.342177796336401, -38.239765248251899 ], [ -72.341813155417299, -38.240736198180798 ], [ -72.342195169928502, -38.240847707770598 ], [ -72.342968304584303, -38.241230878939099 ], [ -72.343498887886199, -38.241597125949603 ] ] ] } },
{ "type": "Feature", "properties": { "id": "monoparte.19", "Name": null, "description": null, "timestamp": null, "begin": null, "end": null, "altitudeMode": null, "tessellate": -1, "extrude": 0, "visibility": -1, "drawOrder": null, "icon": null, "REG": "Araucanía", "COM": "Victoria", "LOC": "Victoria", "ZONA": "Z-4", "NOM": "Zona Z-4", "UPERM": "Equipamiento del tipo comercio, esparcimiento y turismo. Actividades productivas inofensivas y molestas, terminales de buses, playas de estacionamientos, y similares. Mayor detalle en Ordenanza", "UPROH": "Vivienda; equipamientos a cierta escala; actividades productivas insalubres y peligrosas. Mayor detalle en Ordenanza.", "P_DO": "03/10/1992", "N_DOC": "20", "T_DO": "Resolución", "OBS": null }, "geometry": { "type": "Polygon", "coordinates": [ [ [ -72.333075037225001, -38.237950159712597 ], [ -72.336057046899398, -38.2397150303632 ], [ -72.336272934093998, -38.239413318284001 ], [ -72.335776582033205, -38.239079922656302 ], [ -72.335352595317303, -38.238796417005297 ], [ -72.334616771585303, -38.238302487008198 ], [ -72.333199973728, -38.237456070029801 ], [ -72.3314017746915, -38.236463154785703 ], [ -72.329946175896197, -38.235665472099598 ], [ -72.329475678804499, -38.235421402875801 ], [ -72.328313855017598, -38.234862764311302 ], [ -72.328321880523902, -38.236469098463303 ], [ -72.330485949175994, -38.236474384668398 ], [ -72.333075037225001, -38.237950159712597 ] ] ] } },
{ "type": "Feature", "properties": { "id": "monoparte.20", "Name": null, "description": null, "timestamp": null, "begin": null, "end": null, "altitudeMode": null, "tessellate": -1, "extrude": 0, "visibility": -1, "drawOrder": null, "icon": null, "REG": "Araucanía", "COM": "Victoria", "LOC": "Victoria", "ZONA": "Z-4", "NOM": "Zona Z-4", "UPERM": "Equipamiento del tipo comercio, esparcimiento y turismo. Actividades productivas inofensivas y molestas, terminales de buses, playas de estacionamientos, y similares. Mayor detalle en Ordenanza", "UPROH": "Vivienda; equipamientos a cierta escala; actividades productivas insalubres y peligrosas. Mayor detalle en Ordenanza.", "P_DO": "03/10/1992", "N_DOC": "20", "T_DO": "Resolución", "OBS": null }, "geometry": { "type": "Polygon", "coordinates": [ [ [ -72.3359367129177, -38.238880704878397 ], [ -72.336619793328296, -38.2392783985119 ], [ -72.337853801163206, -38.239827258084098 ], [ -72.338864010686507, -38.240108361896901 ], [ -72.339412212637896, -38.240200010800898 ], [ -72.340388724358306, -38.2403390435638 ], [ -72.341153665710607, -38.240543689268002 ], [ -72.341655080490696, -38.240690055908701 ], [ -72.341818236096699, -38.2402617554175 ], [ -72.342121739354496, -38.239366398981502 ], [ -72.342198876237504, -38.239049156268202 ], [ -72.340406333003003, -38.239465046658303 ], [ -72.339219843005495, -38.238898175383497 ], [ -72.339098308018094, -38.239016051225803 ], [ -72.336990400339104, -38.238918749684998 ], [ -72.336214767623702, -38.2386118858145 ], [ -72.333659322303603, -38.237054181809398 ], [ -72.329601954216102, -38.234766790378302 ], [ -72.329494753391302, -38.235198886954201 ], [ -72.330269636136094, -38.235561733805703 ], [ -72.331154272177599, -38.236072917198399 ], [ -72.3320652953295, -38.236499916383899 ], [ -72.333044308470505, -38.237091829058102 ], [ -72.3359367129177, -38.238880704878397 ] ] ] } },
{ "type": "Feature", "properties": { "id": "monoparte.21", "Name": null, "description": null, "timestamp": null, "begin": null, "end": null, "altitudeMode": null, "tessellate": -1, "extrude": 0, "visibility": -1, "drawOrder": null, "icon": null, "REG": "Araucanía", "COM": "Victoria", "LOC": "Victoria", "ZONA": "Z-4", "NOM": "Zona Z-4", "UPERM": "Equipamiento del tipo comercio, esparcimiento y turismo. Actividades productivas inofensivas y molestas, terminales de buses, playas de estacionamientos, y similares. Mayor detalle en Ordenanza", "UPROH": "Vivienda; equipamientos a cierta escala; actividades productivas insalubres y peligrosas. Mayor detalle en Ordenanza.", "P_DO": "03/10/1992", "N_DOC": "20", "T_DO": "Resolución", "OBS": null }, "geometry": { "type": "Polygon", "coordinates": [ [ [ -72.3482682255719, -38.232685442908803 ], [ -72.348423826644805, -38.233943817825299 ], [ -72.351101207902403, -38.233810114054201 ], [ -72.351880228082393, -38.234979649556102 ], [ -72.3535081811726, -38.238171108012899 ], [ -72.354826331066604, -38.238033908315003 ], [ -72.352782151285993, -38.2343262829379 ], [ -72.351696465802803, -38.232444066116301 ], [ -72.3482682255719, -38.232685442908803 ] ] ] } },
{ "type": "Feature", "properties": { "id": "monoparte.22", "Name": null, "description": null, "timestamp": null, "begin": null, "end": null, "altitudeMode": null, "tessellate": -1, "extrude": 0, "visibility": -1, "drawOrder": null, "icon": null, "REG": "Araucanía", "COM": "Victoria", "LOC": "Victoria", "ZONA": "ZR-3-1", "NOM": "ZR-3-1; Zona de restricción del aeródromo \"Victoria\"", "UPERM": "Sólo aquellos usos que permitan el normal funcionamiento del aeródromo.", "UPROH": "Todo lo no indicado como permitido.", "P_DO": "03/10/1992", "N_DOC": "20", "T_DO": "Resolución", "OBS": null }, "geometry": { "type": "Polygon", "coordinates": [ [ [ -72.344788313342093, -38.236907929054702 ], [ -72.345713597658104, -38.240005626933801 ], [ -72.346068895053094, -38.239499824620196 ], [ -72.346933950569394, -38.238593195375202 ], [ -72.347556851962096, -38.238337049468001 ], [ -72.347899198520807, -38.238324268283499 ], [ -72.347355250149803, -38.2364723579567 ], [ -72.344788313342093, -38.236907929054702 ] ] ] } },
{ "type": "Feature", "properties": { "id": "monoparte.23", "Name": null, "description": null, "timestamp": null, "begin": null, "end": null, "altitudeMode": null, "tessellate": -1, "extrude": 0, "visibility": -1, "drawOrder": null, "icon": null, "REG": "Araucanía", "COM": "Victoria", "LOC": "Victoria", "ZONA": "Z-1", "NOM": "Zona Z-1", "UPERM": "Equipamientos de salud, educación, culto, cultura, áreas verdes, esparcimiento y turismo, servicios públicos y profesionales. Actividades productivas inofensivas. Mayor detalle en Ordenanza.", "UPROH": "Ciertos equipamientos a escala regional e interurbana; servicios automotrices, actividades productivas molestas, insalubres y peligrosas. Mayor detalle en Ordenanza.", "P_DO": "03/10/1992", "N_DOC": "20", "T_DO": "Resolución", "OBS": null }, "geometry": { "type": "Polygon", "coordinates": [ [ [ -72.327577870128295, -38.231818803147199 ], [ -72.3275437244736, -38.234083099692697 ], [ -72.328045766460704, -38.234439129524397 ], [ -72.329494753391302, -38.235198886954201 ], [ -72.329601954216102, -38.234766790378302 ], [ -72.333659322303603, -38.237054181809398 ], [ -72.334612059299005, -38.2376349489315 ], [ -72.335301228496107, -38.237620370936902 ], [ -72.335468293418899, -38.235193860965801 ], [ -72.335471745087403, -38.2318328590571 ], [ -72.327577870128295, -38.231818803147199 ] ], [ [ -72.330891681714405, -38.234457318752597 ], [ -72.330894555816499, -38.233527624410399 ], [ -72.332156244426002, -38.233523507613299 ], [ -72.332144874011306, -38.234436605463401 ], [ -72.332146233407997, -38.234466362113103 ], [ -72.330891681714405, -38.234457318752597 ] ] ] } },
{ "type": "Feature", "properties": { "id": "monoparte.24", "Name": null, "description": null, "timestamp": null, "begin": null, "end": null, "altitudeMode": null, "tessellate": -1, "extrude": 0, "visibility": -1, "drawOrder": null, "icon": null, "REG": "Araucanía", "COM": "Victoria", "LOC": "Victoria", "ZONA": "ZR-4", "NOM": "ZR-4; Zona de protección de los trazados ferroviarios", "UPERM": "Construcciones necesarias para el funcionamiento de la línea férrea.", "UPROH": "Todo lo no indicado como permitido.", "P_DO": "03/10/1992", "N_DOC": "20", "T_DO": "Resolución", "OBS": null }, "geometry": { "type": "Polygon", "coordinates": [ [ [ -72.343204836254898, -38.241796109907099 ], [ -72.343751804295906, -38.242354762010102 ], [ -72.343839597921303, -38.241970077315798 ], [ -72.343812868178603, -38.241855638251501 ], [ -72.343498887886199, -38.241597125949603 ], [ -72.342968304584303, -38.241230878939099 ], [ -72.342195169928502, -38.240847707770598 ], [ -72.341813155417299, -38.240736198180798 ], [ -72.341655080490696, -38.240690055908701 ], [ -72.341153665710607, -38.240543689268002 ], [ -72.340388724358306, -38.2403390435638 ], [ -72.339412212637896, -38.240200010800898 ], [ -72.338864010686507, -38.240108361896901 ], [ -72.337853801163206, -38.239827258084098 ], [ -72.336619793328296, -38.2392783985119 ], [ -72.3359367129177, -38.238880704878397 ], [ -72.333044308470505, -38.237091829058102 ], [ -72.3320652953295, -38.236499916383899 ], [ -72.331154272177599, -38.236072917198399 ], [ -72.330269636136094, -38.235561733805703 ], [ -72.329494753391302, -38.235198886954201 ], [ -72.328045766460704, -38.234439129524397 ], [ -72.326097002963493, -38.233057104879002 ], [ -72.325699144988405, -38.232682243605403 ], [ -72.325113575433605, -38.231769238051399 ], [ -72.323896788381106, -38.229815795576698 ], [ -72.323845605371005, -38.229488305730101 ], [ -72.323228797340406, -38.228398205611398 ], [ -72.323121465852907, -38.228626811626597 ], [ -72.323612158941003, -38.229537828698398 ], [ -72.323859386042301, -38.230188701958298 ], [ -72.3251232797368, -38.232226428066802 ], [ -72.325203959628595, -38.2324052957294 ], [ -72.325501153872295, -38.232825919217703 ], [ -72.325930278531203, -38.233223730108399 ], [ -72.326919601280906, -38.233977489928002 ], [ -72.327590623873903, -38.234377965034199 ], [ -72.328313855017598, -38.234862764311302 ], [ -72.329475678804499, -38.235421402875801 ], [ -72.329946175896197, -38.235665472099598 ], [ -72.3314017746915, -38.236463154785703 ], [ -72.333199973728, -38.237456070029801 ], [ -72.334616771585303, -38.238302487008198 ], [ -72.335352595317303, -38.238796417005297 ], [ -72.335776582033205, -38.239079922656302 ], [ -72.336272934093998, -38.239413318284001 ], [ -72.338178408164296, -38.240270811535197 ], [ -72.339016621921203, -38.240425712428497 ], [ -72.340269858286803, -38.240568783124601 ], [ -72.341379000386496, -38.240864922389797 ], [ -72.3418385683498, -38.241000799024 ], [ -72.342618432068093, -38.241365903395298 ], [ -72.343204836254898, -38.241796109907099 ] ] ] } },
{ "type": "Feature", "properties": { "id": "monoparte.25", "Name": null, "description": null, "timestamp": null, "begin": null, "end": null, "altitudeMode": null, "tessellate": -1, "extrude": 0, "visibility": -1, "drawOrder": null, "icon": null, "REG": "Araucanía", "COM": "Victoria", "LOC": "Victoria", "ZONA": "Z-2", "NOM": "Zona Z-2", "UPERM": "Vivienda; equipamiento; actividades productivas inofensivas, terminales de buses, playas de estacionamiento, y similares. Mayor detalle en Ordenanza.", "UPROH": "Actividades productivas molestas, insalubres y peligrosas.", "P_DO": "03/10/1992", "N_DOC": "20", "T_DO": "Resolución", "OBS": null }, "geometry": { "type": "Polygon", "coordinates": [ [ [ -72.342704183722603, -38.238194137490403 ], [ -72.342417330280895, -38.238998470217403 ], [ -72.342936225025696, -38.238878074612202 ], [ -72.342704183722603, -38.238194137490403 ] ] ] } },
{ "type": "Feature", "properties": { "id": "monoparte.26", "Name": null, "description": null, "timestamp": null, "begin": null, "end": null, "altitudeMode": null, "tessellate": -1, "extrude": 0, "visibility": -1, "drawOrder": null, "icon": null, "REG": "Araucanía", "COM": "Victoria", "LOC": "Victoria", "ZONA": "Z-2", "NOM": "Zona Z-2", "UPERM": "Vivienda; equipamiento; actividades productivas inofensivas, terminales de buses, playas de estacionamiento, y similares. Mayor detalle en Ordenanza.", "UPROH": "Actividades productivas molestas, insalubres y peligrosas.", "P_DO": "03/10/1992", "N_DOC": "20", "T_DO": "Resolución", "OBS": null }, "geometry": { "type": "Polygon", "coordinates": [ [ [ -72.342704183722603, -38.238194137490403 ], [ -72.342845274644205, -38.237975589697299 ], [ -72.3450523758369, -38.237791998375599 ], [ -72.344788313342093, -38.236907929054702 ], [ -72.343562799945005, -38.2328526031461 ], [ -72.343296813004599, -38.232860188368001 ], [ -72.343232748742693, -38.233275572528001 ], [ -72.343121671394002, -38.234148759502297 ], [ -72.343072041029401, -38.234549430303602 ], [ -72.343037777552297, -38.235450221985701 ], [ -72.3429565603074, -38.236480471889998 ], [ -72.342901200047905, -38.236756166637399 ], [ -72.342821205427697, -38.237318596961302 ], [ -72.342844937320393, -38.237836355663198 ], [ -72.342704183722603, -38.238194137490403 ] ] ] } },
{ "type": "Feature", "properties": { "id": "monoparte.27", "Name": null, "description": null, "timestamp": null, "begin": null, "end": null, "altitudeMode": null, "tessellate": -1, "extrude": 0, "visibility": -1, "drawOrder": null, "icon": null, "REG": "Araucanía", "COM": "Victoria", "LOC": "Victoria", "ZONA": "Z-2", "NOM": "Zona Z-2", "UPERM": "Vivienda; equipamiento; actividades productivas inofensivas, terminales de buses, playas de estacionamiento, y similares. Mayor detalle en Ordenanza.", "UPROH": "Actividades productivas molestas, insalubres y peligrosas.", "P_DO": "03/10/1992", "N_DOC": "20", "T_DO": "Resolución", "OBS": null }, "geometry": { "type": "Polygon", "coordinates": [ [ [ -72.346327005332597, -38.2330311704631 ], [ -72.347355250149803, -38.2364723579567 ], [ -72.347899198520807, -38.238324268283499 ], [ -72.350272145325803, -38.238235650141803 ], [ -72.352299809002005, -38.238296868469398 ], [ -72.3535081811726, -38.238171108012899 ], [ -72.351880228082393, -38.234979649556102 ], [ -72.351101207902403, -38.233810114054201 ], [ -72.348423826644805, -38.233943817825299 ], [ -72.3482682255719, -38.232685442908803 ], [ -72.346183541803796, -38.232695301935102 ], [ -72.346327005332597, -38.2330311704631 ] ] ] } },
{ "type": "Feature", "properties": { "id": "monoparte.28", "Name": null, "description": null, "timestamp": null, "begin": null, "end": null, "altitudeMode": null, "tessellate": -1, "extrude": 0, "visibility": -1, "drawOrder": null, "icon": null, "REG": "Araucanía", "COM": "Victoria", "LOC": "Victoria", "ZONA": "Z-2", "NOM": "Zona Z-2", "UPERM": "Vivienda; equipamiento; actividades productivas inofensivas, terminales de buses, playas de estacionamiento, y similares. Mayor detalle en Ordenanza.", "UPROH": "Actividades productivas molestas, insalubres y peligrosas.", "P_DO": "03/10/1992", "N_DOC": "20", "T_DO": "Resolución", "OBS": null }, "geometry": { "type": "Polygon", "coordinates": [ [ [ -72.322928613691502, -38.234711011069997 ], [ -72.322932090014902, -38.2355833199477 ], [ -72.323708175152703, -38.235504114128098 ], [ -72.323372084728206, -38.239668301460298 ], [ -72.321340502719593, -38.239654364360398 ], [ -72.321310137241099, -38.239783941075999 ], [ -72.320129726420504, -38.239745866364203 ], [ -72.320118639114497, -38.2406972478189 ], [ -72.320663251139095, -38.240710426691201 ], [ -72.320693820937194, -38.241381743889498 ], [ -72.3220579669686, -38.241471812144901 ], [ -72.322235167535794, -38.241380980410199 ], [ -72.322323657202304, -38.240935118418797 ], [ -72.323287413530807, -38.240993613136901 ], [ -72.3232811357381, -38.241651671113999 ], [ -72.321142343566805, -38.242470273394403 ], [ -72.321353923125301, -38.242736013032101 ], [ -72.320246657837004, -38.243110619048799 ], [ -72.320678924188101, -38.243842067343202 ], [ -72.322197545575804, -38.243341386055398 ], [ -72.322465417159094, -38.243648433468302 ], [ -72.322306973454502, -38.2437530357847 ], [ -72.3224033861392, -38.243879018951702 ], [ -72.322530163756795, -38.243875425991398 ], [ -72.322629832526999, -38.244072826168697 ], [ -72.322880784672805, -38.244008506523201 ], [ -72.323571849298204, -38.244847021435199 ], [ -72.324143597820097, -38.244659189342499 ], [ -72.324502443902404, -38.244177056292301 ], [ -72.325242140190397, -38.243297973187701 ], [ -72.326055829162598, -38.243246287273003 ], [ -72.3260636475121, -38.243417686845 ], [ -72.3281684247969, -38.2434437628661 ], [ -72.329815481280306, -38.2434404930802 ], [ -72.329783440192202, -38.243731609075297 ], [ -72.330601694264402, -38.243779873661502 ], [ -72.330646016017297, -38.244088485029799 ], [ -72.331097514493294, -38.244319034158501 ], [ -72.333571465394797, -38.243933313606497 ], [ -72.336247806765599, -38.241011057313997 ], [ -72.337661502014697, -38.241358156031097 ], [ -72.338178408164296, -38.240270811535197 ], [ -72.336272934093998, -38.239413318284001 ], [ -72.336057046899398, -38.2397150303632 ], [ -72.333075037225001, -38.237950159712597 ], [ -72.331262998545895, -38.236917313792603 ], [ -72.331098101816707, -38.236823321407897 ], [ -72.330485949175994, -38.236474384668398 ], [ -72.328321880523902, -38.236469098463303 ], [ -72.328313855017598, -38.234862764311302 ], [ -72.327590623873903, -38.234377965034199 ], [ -72.326919601280906, -38.233977489928002 ], [ -72.325930278531203, -38.233223730108399 ], [ -72.325501153872295, -38.232825919217703 ], [ -72.325203959628595, -38.2324052957294 ], [ -72.3251232797368, -38.232226428066802 ], [ -72.323886715493799, -38.2321470774109 ], [ -72.323855375073407, -38.232367855838099 ], [ -72.323798372008, -38.234300209166001 ], [ -72.323623142656899, -38.234433892320702 ], [ -72.322928613691502, -38.234711011069997 ] ], [ [ -72.327737382879505, -38.240372378722803 ], [ -72.326612731220493, -38.240761839178703 ], [ -72.326573770924995, -38.240305289061702 ], [ -72.327025873439695, -38.2402781581049 ], [ -72.327733472137794, -38.240286678589001 ], [ -72.327737382879505, -38.240372378722803 ] ] ] } },
{ "type": "Feature", "properties": { "id": "monoparte.29", "Name": null, "description": null, "timestamp": null, "begin": null, "end": null, "altitudeMode": null, "tessellate": -1, "extrude": 0, "visibility": -1, "drawOrder": null, "icon": null, "REG": "Araucanía", "COM": "Victoria", "LOC": "Victoria", "ZONA": "Z-2", "NOM": "Zona Z-2", "UPERM": "Vivienda; equipamiento; actividades productivas inofensivas, terminales de buses, playas de estacionamiento, y similares. Mayor detalle en Ordenanza.", "UPROH": "Actividades productivas molestas, insalubres y peligrosas.", "P_DO": "03/10/1992", "N_DOC": "20", "T_DO": "Resolución", "OBS": null }, "geometry": { "type": "Polygon", "coordinates": [ [ [ -72.336360987405897, -38.224452597243499 ], [ -72.336336009934001, -38.225227984554799 ], [ -72.336159996264101, -38.225673963650202 ], [ -72.332174767155294, -38.225548926737297 ], [ -72.330903514555104, -38.225501620537898 ], [ -72.329650066983803, -38.225513386430599 ], [ -72.329601782128293, -38.226110664252701 ], [ -72.328211979958695, -38.226114368100298 ], [ -72.328235327303304, -38.2266261846842 ], [ -72.325650229309105, -38.226592273939701 ], [ -72.3256041780174, -38.232534176001899 ], [ -72.325699144988405, -38.232682243605403 ], [ -72.326097002963493, -38.233057104879002 ], [ -72.3275437244736, -38.234083099692697 ], [ -72.327577870128295, -38.231818803147199 ], [ -72.335471745087403, -38.2318328590571 ], [ -72.335468293418899, -38.235193860965801 ], [ -72.335301228496107, -38.237620370936902 ], [ -72.334612059299005, -38.2376349489315 ], [ -72.336214767623702, -38.2386118858145 ], [ -72.336990400339104, -38.238918749684998 ], [ -72.339098308018094, -38.239016051225803 ], [ -72.339219843005495, -38.238898175383497 ], [ -72.340406333003003, -38.239465046658303 ], [ -72.342198876237504, -38.239049156268202 ], [ -72.342335343603494, -38.238487906443801 ], [ -72.3425090163352, -38.237925189417503 ], [ -72.342666541451706, -38.237405836622898 ], [ -72.342662393043597, -38.2369196975406 ], [ -72.342848712004397, -38.235841758734402 ], [ -72.342888414919301, -38.235125541750101 ], [ -72.342908700025902, -38.234381275945701 ], [ -72.3430614127561, -38.233361501537203 ], [ -72.343115456089393, -38.232865359826 ], [ -72.339241010516602, -38.232975773926398 ], [ -72.339144168157802, -38.2324446015202 ], [ -72.339094742898297, -38.231893010240697 ], [ -72.339182069428404, -38.230631972428903 ], [ -72.339225467635202, -38.229467530700497 ], [ -72.339219973239807, -38.228819342013999 ], [ -72.339276446866606, -38.227940562315197 ], [ -72.339276183069202, -38.227406638960602 ], [ -72.339580443694203, -38.227188214400101 ], [ -72.341929424744507, -38.226577521820502 ], [ -72.342896702111304, -38.2263211207217 ], [ -72.342944696279503, -38.225390141479402 ], [ -72.342761017510298, -38.225338171549701 ], [ -72.342711063687403, -38.225039259536103 ], [ -72.3423818833882, -38.224977135360703 ], [ -72.342388639427796, -38.225520407538902 ], [ -72.340776812035003, -38.223820342901703 ], [ -72.338328260670806, -38.225117647320999 ], [ -72.337166739973597, -38.223871304187199 ], [ -72.336308431685893, -38.224332138585197 ], [ -72.336360987405897, -38.224452597243499 ] ], [ [ -72.329368801574702, -38.2293533123092 ], [ -72.329389170653002, -38.230191000155997 ], [ -72.328328246350793, -38.230185367254798 ], [ -72.328271365816903, -38.2293360281448 ], [ -72.329368801574702, -38.2293533123092 ] ] ] } },
{ "type": "Feature", "properties": { "id": "monoparte.30", "Name": null, "description": null, "timestamp": null, "begin": null, "end": null, "altitudeMode": null, "tessellate": -1, "extrude": 0, "visibility": -1, "drawOrder": null, "icon": null, "REG": "Araucanía", "COM": "Victoria", "LOC": "Victoria", "ZONA": "ZR-7", "NOM": "ZR-7; Zona de protección de trazado de líneas de alta tensión", "UPERM": "Ningún tipo de construcción.", "UPROH": "Todo lo no indicado como permitido.", "P_DO": "03/10/1992", "N_DOC": "20", "T_DO": "Resolución", "OBS": null }, "geometry": { "type": "Polygon", "coordinates": [ [ [ -72.319966724730506, -38.246302775853202 ], [ -72.320289649624002, -38.246807535453399 ], [ -72.331469579513396, -38.244722481608001 ], [ -72.333531120229097, -38.244337877237598 ], [ -72.341119624028494, -38.242921809492202 ], [ -72.341741764555707, -38.240972178569699 ], [ -72.341538466126096, -38.240912071323898 ], [ -72.340970113610695, -38.242710659993001 ], [ -72.333571465394797, -38.243933313606497 ], [ -72.331097514493294, -38.244319034158501 ], [ -72.319966724730506, -38.246302775853202 ] ] ] } },
{ "type": "Feature", "properties": { "id": "monoparte.31", "Name": null, "description": null, "timestamp": null, "begin": null, "end": null, "altitudeMode": null, "tessellate": -1, "extrude": 0, "visibility": -1, "drawOrder": null, "icon": null, "REG": "Araucanía", "COM": "Victoria", "LOC": "Victoria", "ZONA": "ZR-7", "NOM": "ZR-7; Zona de protección de trazado de líneas de alta tensión", "UPERM": "Ningún tipo de construcción.", "UPROH": "Todo lo no indicado como permitido.", "P_DO": "03/10/1992", "N_DOC": "20", "T_DO": "Resolución", "OBS": null }, "geometry": { "type": "Polygon", "coordinates": [ [ [ -72.341655080490696, -38.240690055908701 ], [ -72.341813155417299, -38.240736198180798 ], [ -72.342177796336401, -38.239765248251899 ], [ -72.342417330280895, -38.238998470217403 ], [ -72.342704183722603, -38.238194137490403 ], [ -72.342844937320393, -38.237836355663198 ], [ -72.342821205427697, -38.237318596961302 ], [ -72.342901200047905, -38.236756166637399 ], [ -72.3429565603074, -38.236480471889998 ], [ -72.343037777552297, -38.235450221985701 ], [ -72.343072041029401, -38.234549430303602 ], [ -72.343121671394002, -38.234148759502297 ], [ -72.343232748742693, -38.233275572528001 ], [ -72.343296813004599, -38.232860188368001 ], [ -72.343307735987096, -38.232439168278603 ], [ -72.343528474242703, -38.230826912982302 ], [ -72.347040744933196, -38.230220180365897 ], [ -72.348234888641201, -38.230066903696198 ], [ -72.349201320630797, -38.229890324748098 ], [ -72.349868694934798, -38.2297818731682 ], [ -72.350126531307694, -38.229722119269098 ], [ -72.350051110454999, -38.229591349613102 ], [ -72.343424635652198, -38.230605217704699 ], [ -72.343324501112207, -38.230793995762603 ], [ -72.343227205721107, -38.2314403461653 ], [ -72.343193896008501, -38.231942279580799 ], [ -72.343137984483505, -38.2326585347083 ], [ -72.3430614127561, -38.233361501537203 ], [ -72.342908700025902, -38.234381275945701 ], [ -72.342888414919301, -38.235125541750101 ], [ -72.342848712004397, -38.235841758734402 ], [ -72.342662393043597, -38.2369196975406 ], [ -72.342666541451706, -38.237405836622898 ], [ -72.3425090163352, -38.237925189417503 ], [ -72.342335343603494, -38.238487906443801 ], [ -72.342121739354496, -38.239366398981502 ], [ -72.341818236096699, -38.2402617554175 ], [ -72.341655080490696, -38.240690055908701 ] ] ] } },
{ "type": "Feature", "properties": { "id": "monoparte.32", "Name": null, "description": null, "timestamp": null, "begin": null, "end": null, "altitudeMode": null, "tessellate": -1, "extrude": 0, "visibility": -1, "drawOrder": null, "icon": null, "REG": "Araucanía", "COM": "Victoria", "LOC": "Victoria", "ZONA": "Z-4", "NOM": "Zona Z-4", "UPERM": "Equipamiento del tipo comercio, esparcimiento y turismo. Actividades productivas inofensivas y molestas, terminales de buses, playas de estacionamientos, y similares. Mayor detalle en Ordenanza", "UPROH": "Vivienda; equipamientos a cierta escala; actividades productivas insalubres y peligrosas. Mayor detalle en Ordenanza.", "P_DO": "03/10/1992", "N_DOC": "20", "T_DO": "Resolución", "OBS": null }, "geometry": { "type": "Polygon", "coordinates": [ [ [ -72.3184257946629, -38.243894049301403 ], [ -72.317374557772496, -38.242250682437501 ], [ -72.317012532063103, -38.241684717692998 ], [ -72.31678479771, -38.241328691225704 ], [ -72.316684310132203, -38.241171591544301 ], [ -72.3164501447378, -38.240756189769499 ], [ -72.314881196146302, -38.2413702305954 ], [ -72.314782683172794, -38.245186822686399 ], [ -72.3184257946629, -38.243894049301403 ] ] ] } },
{ "type": "Feature", "properties": { "id": "monoparte.33", "Name": null, "description": null, "timestamp": null, "begin": null, "end": null, "altitudeMode": null, "tessellate": -1, "extrude": 0, "visibility": -1, "drawOrder": null, "icon": null, "REG": "Araucanía", "COM": "Victoria", "LOC": "Victoria", "ZONA": "Z-2", "NOM": "Zona Z-2", "UPERM": "Vivienda; equipamiento; actividades productivas inofensivas, terminales de buses, playas de estacionamiento, y similares. Mayor detalle en Ordenanza.", "UPROH": "Actividades productivas molestas, insalubres y peligrosas.", "P_DO": "03/10/1992", "N_DOC": "20", "T_DO": "Resolución", "OBS": null }, "geometry": { "type": "Polygon", "coordinates": [ [ [ -72.332146233407997, -38.234466362113103 ], [ -72.330894555816499, -38.233527624410399 ], [ -72.330891681714405, -38.234457318752597 ], [ -72.332146233407997, -38.234466362113103 ] ] ] } },
{ "type": "Feature", "properties": { "id": "monoparte.34", "Name": null, "description": null, "timestamp": null, "begin": null, "end": null, "altitudeMode": null, "tessellate": -1, "extrude": 0, "visibility": -1, "drawOrder": null, "icon": null, "REG": "Araucanía", "COM": "Victoria", "LOC": "Victoria", "ZONA": "Z-2", "NOM": "Zona Z-2", "UPERM": "Vivienda; equipamiento; actividades productivas inofensivas, terminales de buses, playas de estacionamiento, y similares. Mayor detalle en Ordenanza.", "UPROH": "Actividades productivas molestas, insalubres y peligrosas.", "P_DO": "03/10/1992", "N_DOC": "20", "T_DO": "Resolución", "OBS": null }, "geometry": { "type": "Polygon", "coordinates": [ [ [ -72.328328246350793, -38.230185367254798 ], [ -72.329389170653002, -38.230191000155997 ], [ -72.329368801574702, -38.2293533123092 ], [ -72.328271365816903, -38.2293360281448 ], [ -72.328328246350793, -38.230185367254798 ] ] ] } },
{ "type": "Feature", "properties": { "id": "monoparte.35", "Name": null, "description": null, "timestamp": null, "begin": null, "end": null, "altitudeMode": null, "tessellate": -1, "extrude": 0, "visibility": -1, "drawOrder": null, "icon": null, "REG": "Araucanía", "COM": "Victoria", "LOC": "Victoria", "ZONA": "Área Verde", "NOM": "Área verde", "UPERM": "Área verde.", "UPROH": "Todo lo no indicado como permitido.", "P_DO": "03/10/1992", "N_DOC": "20", "T_DO": "Resolución", "OBS": null }, "geometry": { "type": "Polygon", "coordinates": [ [ [ -72.332146233407997, -38.234466362113103 ], [ -72.332144874011306, -38.234436605463401 ], [ -72.332156244426002, -38.233523507613299 ], [ -72.330894555816499, -38.233527624410399 ], [ -72.332146233407997, -38.234466362113103 ] ] ] } },
{ "type": "Feature", "properties": { "id": "monoparte.36", "Name": null, "description": null, "timestamp": null, "begin": null, "end": null, "altitudeMode": null, "tessellate": -1, "extrude": 0, "visibility": -1, "drawOrder": null, "icon": null, "REG": "Araucanía", "COM": "Victoria", "LOC": "Victoria", "ZONA": "Z-2", "NOM": "Zona Z-2", "UPERM": "Vivienda; equipamiento; actividades productivas inofensivas, terminales de buses, playas de estacionamiento, y similares. Mayor detalle en Ordenanza.", "UPROH": "Actividades productivas molestas, insalubres y peligrosas.", "P_DO": "03/10/1992", "N_DOC": "20", "T_DO": "Resolución", "OBS": null }, "geometry": { "type": "Polygon", "coordinates": [ [ [ -72.331469579513396, -38.244722481608001 ], [ -72.332722197377706, -38.2453872309218 ], [ -72.333531120229097, -38.244337877237598 ], [ -72.331469579513396, -38.244722481608001 ] ] ] } }
]
}
