{
"type": "FeatureCollection",
"name": "IPT_09_PRC_Puerto_Saavedra",
"crs": { "type": "name", "properties": { "name": "urn:ogc:def:crs:OGC:1.3:CRS84" } },
"features": [
{ "type": "Feature", "properties": { "id": "monoparte.1", "Name": null, "description": null, "timestamp": null, "begin": null, "end": null, "altitudeMode": null, "tessellate": -1, "extrude": 0, "visibility": -1, "drawOrder": null, "icon": null, "REG": "Araucanía", "COM": "Puerto Saavedra", "LOC": "Puerto Saavedra", "ZONA": "Inundable restringida", "NOM": "Sin información", "UPERM": "Sin información.", "UPROH": "Sin información.", "P_DO": "06/01/1964", "N_DOC": "1749", "T_DO": "Decreto", "OBS": null }, "geometry": { "type": "Polygon", "coordinates": [ [ [ -73.400123091294503, -38.792487596506803 ], [ -73.399013864730904, -38.792346081832797 ], [ -73.398850933824903, -38.793457858209898 ], [ -73.396083416736403, -38.793114239635401 ], [ -73.396527132579607, -38.790924374791899 ], [ -73.395177715639903, -38.7907655472656 ], [ -73.395668092013693, -38.7882450970055 ], [ -73.395989775348696, -38.7865459299233 ], [ -73.396223010570097, -38.785388615635298 ], [ -73.397442118429097, -38.783036079746701 ], [ -73.399122500887401, -38.781452468679497 ], [ -73.400198390266198, -38.780434925444098 ], [ -73.402354811695304, -38.781935748437903 ], [ -73.404308156526099, -38.780041525700298 ], [ -73.404701503639203, -38.779616222955099 ], [ -73.401333301129895, -38.777466112701902 ], [ -73.398294316948594, -38.780318618443701 ], [ -73.396425847523503, -38.782011768935 ], [ -73.396235921875601, -38.7821904920619 ], [ -73.396055983874405, -38.782383134498801 ], [ -73.395296770734305, -38.783848593840901 ], [ -73.394614612479998, -38.7850823932746 ], [ -73.394508437290497, -38.785286551112897 ], [ -73.393990683762794, -38.7884513933436 ], [ -73.393539900593197, -38.791220544125302 ], [ -73.393151175830596, -38.793365437135897 ], [ -73.389962604136599, -38.7930565938155 ], [ -73.389913440980905, -38.793278833708101 ], [ -73.391978053112496, -38.793530430965603 ], [ -73.393929933177006, -38.793780973622098 ], [ -73.396564687339307, -38.794143945207502 ], [ -73.399041032519705, -38.794505207261899 ], [ -73.399174839642399, -38.794502542955897 ], [ -73.399337011901494, -38.794515488385699 ], [ -73.399530293303798, -38.794539173974201 ], [ -73.399686974396204, -38.7945618570403 ], [ -73.399856685932306, -38.794598345212002 ], [ -73.400027531701497, -38.794603813534501 ], [ -73.400165401973297, -38.7946176746728 ], [ -73.400283874194898, -38.7946132046945 ], [ -73.400405236696301, -38.7946062425709 ], [ -73.400476570137201, -38.794627378906902 ], [ -73.400636983966706, -38.7946117950288 ], [ -73.400822394221194, -38.794557141980199 ], [ -73.400890319522105, -38.794473563232998 ], [ -73.400962123286703, -38.794354095354798 ], [ -73.401013980918606, -38.794256825062597 ], [ -73.400956187866896, -38.7941589275799 ], [ -73.400890192393206, -38.793927901421597 ], [ -73.400817942711001, -38.7938424633344 ], [ -73.400714763410804, -38.7936009253349 ], [ -73.400675674763505, -38.793559509556601 ], [ -73.400640756734603, -38.793486959591 ], [ -73.400610635349196, -38.793442822453002 ], [ -73.400594030700304, -38.793331456637503 ], [ -73.400550548503205, -38.7932187220107 ], [ -73.400521530087104, -38.793103535057199 ], [ -73.400407426510299, -38.792951527128899 ], [ -73.400334666188897, -38.792837990547902 ], [ -73.400290542604097, -38.792793905212001 ], [ -73.400221383528702, -38.792699294633302 ], [ -73.4001487706918, -38.792627690286601 ], [ -73.400121510540103, -38.792541030710602 ], [ -73.400123091294503, -38.792487596506803 ] ] ] } },
{ "type": "Feature", "properties": { "id": "monoparte.2", "Name": null, "description": null, "timestamp": null, "begin": null, "end": null, "altitudeMode": null, "tessellate": -1, "extrude": 0, "visibility": -1, "drawOrder": null, "icon": null, "REG": "Araucanía", "COM": "Puerto Saavedra", "LOC": "Puerto Saavedra", "ZONA": "Zona Residencial", "NOM": "Zona Residencial", "UPERM": "Vivienda y los centros de equipamientos de barrio.", "UPROH": "Sin información.", "P_DO": "06/01/1964", "N_DOC": "1749", "T_DO": "Decreto", "OBS": null }, "geometry": { "type": "Polygon", "coordinates": [ [ [ -73.397562812783207, -38.799146704700298 ], [ -73.398210663215096, -38.799382000922698 ], [ -73.398789925926195, -38.799591287599497 ], [ -73.398867634965299, -38.799814724148803 ], [ -73.399099507455105, -38.799772617920901 ], [ -73.399281162977601, -38.799706195646003 ], [ -73.399394956057606, -38.799625652403201 ], [ -73.399471415927096, -38.799532220544101 ], [ -73.399519508339395, -38.799423178933999 ], [ -73.399625614543098, -38.799316714609503 ], [ -73.3997529485043, -38.799159409678097 ], [ -73.399824356475094, -38.799082848080801 ], [ -73.399908723423707, -38.799117790755702 ], [ -73.400014497826106, -38.798956533029298 ], [ -73.400099885091706, -38.798810342242497 ], [ -73.400204524810206, -38.798680104863998 ], [ -73.400315679754897, -38.798556769570702 ], [ -73.400451429654794, -38.7984372711703 ], [ -73.400570564306506, -38.798344611338401 ], [ -73.400395825062006, -38.798177258942502 ], [ -73.400212694554597, -38.7980948723091 ], [ -73.399934612442806, -38.798334532812802 ], [ -73.399691589022396, -38.798739250102599 ], [ -73.399438386106496, -38.799077632309903 ], [ -73.399251867237695, -38.799213340769398 ], [ -73.398885044997698, -38.799289131478297 ], [ -73.398338946648906, -38.799123869060701 ], [ -73.397696148553905, -38.798871702195598 ], [ -73.397313517915507, -38.798690739426704 ], [ -73.397085054500394, -38.798442008149699 ], [ -73.396923134592797, -38.798186002487803 ], [ -73.3968596056134, -38.797925034336899 ], [ -73.395819353657998, -38.798228327028099 ], [ -73.395910485137705, -38.798422666903399 ], [ -73.396176352748597, -38.798586591074702 ], [ -73.396507336925694, -38.798769505617003 ], [ -73.396896298497396, -38.798904959535498 ], [ -73.397562812783207, -38.799146704700298 ] ] ] } },
{ "type": "Feature", "properties": { "id": "monoparte.3", "Name": null, "description": null, "timestamp": null, "begin": null, "end": null, "altitudeMode": null, "tessellate": -1, "extrude": 0, "visibility": -1, "drawOrder": null, "icon": null, "REG": "Araucanía", "COM": "Puerto Saavedra", "LOC": "Puerto Saavedra", "ZONA": "Zona Residencial", "NOM": "Zona Residencial", "UPERM": "Vivienda y los centros de equipamientos de barrio.", "UPROH": "Sin información.", "P_DO": "06/01/1964", "N_DOC": "1749", "T_DO": "Decreto", "OBS": null }, "geometry": { "type": "Polygon", "coordinates": [ [ [ -73.3891307467551, -38.799134337681899 ], [ -73.389181916873198, -38.799719184168303 ], [ -73.389226628265106, -38.800384694168599 ], [ -73.389255890105503, -38.800922708285 ], [ -73.389419963497303, -38.801300763835201 ], [ -73.389624784311096, -38.801474745024997 ], [ -73.389833545875106, -38.801589007606502 ], [ -73.390192243132006, -38.801727409928702 ], [ -73.3904808998916, -38.801779091885003 ], [ -73.390768461852602, -38.8018129438248 ], [ -73.391062522063194, -38.801828678055898 ], [ -73.391388567022005, -38.801807465206601 ], [ -73.391692882859502, -38.801742392125597 ], [ -73.391979266293703, -38.801633315104098 ], [ -73.392089172975901, -38.801563648555003 ], [ -73.392284737613807, -38.801401398719499 ], [ -73.392401609337497, -38.801197434937997 ], [ -73.392581940839605, -38.800973209375798 ], [ -73.392762678459505, -38.800817474693602 ], [ -73.392961263794007, -38.800580647031602 ], [ -73.393411315208098, -38.800224140045799 ], [ -73.393665988018995, -38.800032855005703 ], [ -73.393962797183306, -38.799845939268401 ], [ -73.394431911589393, -38.799613808211397 ], [ -73.395012063894796, -38.799392383847596 ], [ -73.395288180976493, -38.799364106196599 ], [ -73.395494562627505, -38.799395145994602 ], [ -73.395937449555305, -38.799461754618903 ], [ -73.396657497784403, -38.799658000004897 ], [ -73.397275520345303, -38.799804474654103 ], [ -73.397393916190694, -38.799830672837103 ], [ -73.397542228913295, -38.799491531042896 ], [ -73.396653401725303, -38.799212298365099 ], [ -73.396041516124797, -38.799041760112999 ], [ -73.395659717771096, -38.798960838967801 ], [ -73.395536622129498, -38.798972775251997 ], [ -73.395465314388304, -38.799199448756802 ], [ -73.395494445878896, -38.7992769843448 ], [ -73.395443420781206, -38.799338478207503 ], [ -73.395400718321795, -38.799357464634603 ], [ -73.394806439301206, -38.7991188404553 ], [ -73.392284541005296, -38.798613377815599 ], [ -73.391571487008704, -38.798406713337798 ], [ -73.390670085078, -38.798207136545201 ], [ -73.390070496010793, -38.798062911395199 ], [ -73.389670548588896, -38.7980746871593 ], [ -73.389550923355898, -38.798105820443801 ], [ -73.389312493124095, -38.798251806680703 ], [ -73.389181522604602, -38.7984741695238 ], [ -73.389153996742095, -38.7987075321834 ], [ -73.3891307467551, -38.799134337681899 ] ], [ [ -73.390872667971294, -38.799524925372502 ], [ -73.391195927387898, -38.799631895398697 ], [ -73.391458281365402, -38.799738775010702 ], [ -73.391684912381294, -38.799858914151201 ], [ -73.3920105781975, -38.800103994728097 ], [ -73.392142032603104, -38.800232467080697 ], [ -73.391946941812407, -38.800356588308503 ], [ -73.391713292253698, -38.800122339367 ], [ -73.3914351289189, -38.799956484926902 ], [ -73.391166113004303, -38.799840324227198 ], [ -73.390706549696205, -38.7996955951673 ], [ -73.390265100869996, -38.799597839121901 ], [ -73.390080921745707, -38.799573795675897 ], [ -73.390123475433498, -38.799374419397203 ], [ -73.390516283073893, -38.799423967487598 ], [ -73.390872667971294, -38.799524925372502 ] ] ] } },
{ "type": "Feature", "properties": { "id": "monoparte.4", "Name": null, "description": null, "timestamp": null, "begin": null, "end": null, "altitudeMode": null, "tessellate": -1, "extrude": 0, "visibility": -1, "drawOrder": null, "icon": null, "REG": "Araucanía", "COM": "Puerto Saavedra", "LOC": "Puerto Saavedra", "ZONA": "Zona Residencial", "NOM": "Zona Residencial", "UPERM": "Vivienda y los centros de equipamientos de barrio.", "UPROH": "Sin información.", "P_DO": "06/01/1964", "N_DOC": "1749", "T_DO": "Decreto", "OBS": null }, "geometry": { "type": "Polygon", "coordinates": [ [ [ -73.390954932831903, -38.794191589112799 ], [ -73.391176376840207, -38.794376260807802 ], [ -73.391585502198794, -38.794196440207301 ], [ -73.391853925611102, -38.794550905835401 ], [ -73.392195355725207, -38.795052738802198 ], [ -73.391448028643097, -38.795377544053999 ], [ -73.390822661090894, -38.795698944454202 ], [ -73.390629769952994, -38.795780669602998 ], [ -73.390673483539203, -38.795996457357397 ], [ -73.390668707459795, -38.796166413839401 ], [ -73.390629802535699, -38.796231497509901 ], [ -73.391242175584793, -38.796287196516502 ], [ -73.391537133746098, -38.7967264443717 ], [ -73.391758980166401, -38.796620394642602 ], [ -73.391965084047897, -38.796555445231803 ], [ -73.392181470040001, -38.796509170219899 ], [ -73.392439249788197, -38.796492313544398 ], [ -73.392761440865499, -38.796532600024598 ], [ -73.392962702507006, -38.796586972759101 ], [ -73.393139808635794, -38.796644638046999 ], [ -73.393174494289198, -38.796812511787998 ], [ -73.393220746291703, -38.796970418807902 ], [ -73.393275819126799, -38.797123228466397 ], [ -73.393385688339805, -38.797226317038898 ], [ -73.393538672361203, -38.797337312220797 ], [ -73.393767570755102, -38.7973954073695 ], [ -73.393676894281995, -38.797653786461701 ], [ -73.394278128084096, -38.797874181559799 ], [ -73.394781679174898, -38.798041067768501 ], [ -73.395086270115499, -38.798141581573901 ], [ -73.395246659253701, -38.798075966179297 ], [ -73.395348449950703, -38.797998262177202 ], [ -73.395547788645501, -38.7977739121377 ], [ -73.395721652129794, -38.797531459122503 ], [ -73.3957959690932, -38.797398022243399 ], [ -73.394830480205499, -38.797097297066898 ], [ -73.395225482968101, -38.796259684689701 ], [ -73.393756247041594, -38.795808155755203 ], [ -73.393179740159496, -38.795543934339896 ], [ -73.392834111626499, -38.795271014661203 ], [ -73.392455053126895, -38.794751538014303 ], [ -73.391896174668304, -38.793981485839403 ], [ -73.391636491912493, -38.793719622661698 ], [ -73.391335807945694, -38.7935832093344 ], [ -73.3908971427376, -38.793480584128901 ], [ -73.390253374296407, -38.793409506287901 ], [ -73.389887716234497, -38.793395125121002 ], [ -73.389755302247707, -38.7939937010092 ], [ -73.390544303265699, -38.794049782172998 ], [ -73.390954932831903, -38.794191589112799 ] ] ] } },
{ "type": "Feature", "properties": { "id": "monoparte.5", "Name": null, "description": null, "timestamp": null, "begin": null, "end": null, "altitudeMode": null, "tessellate": -1, "extrude": 0, "visibility": -1, "drawOrder": null, "icon": null, "REG": "Araucanía", "COM": "Puerto Saavedra", "LOC": "Puerto Saavedra", "ZONA": "Zona Residencial", "NOM": "Zona Residencial", "UPERM": "Vivienda y los centros de equipamientos de barrio.", "UPROH": "Sin información.", "P_DO": "06/01/1964", "N_DOC": "1749", "T_DO": "Decreto", "OBS": null }, "geometry": { "type": "Polygon", "coordinates": [ [ [ -73.398254580096705, -38.784315999570801 ], [ -73.398014585644304, -38.784868334039302 ], [ -73.396724957695994, -38.784420016606099 ], [ -73.396223010570097, -38.785388615635298 ], [ -73.395989775348696, -38.7865459299233 ], [ -73.395668092013693, -38.7882450970055 ], [ -73.395177715639903, -38.7907655472656 ], [ -73.396527132579607, -38.790924374791899 ], [ -73.396083416736403, -38.793114239635401 ], [ -73.398850933824903, -38.793457858209898 ], [ -73.399013864730904, -38.792346081832797 ], [ -73.400123091294503, -38.792487596506803 ], [ -73.400165778990399, -38.792468829645003 ], [ -73.400241698692, -38.792475496220099 ], [ -73.400285323583304, -38.792471943701102 ], [ -73.400279612731495, -38.79241878461 ], [ -73.400236248832201, -38.792307951028597 ], [ -73.400165042251899, -38.792259168695402 ], [ -73.400128617505203, -38.792142354491801 ], [ -73.400042332295897, -38.7920464842733 ], [ -73.399921966052304, -38.791871837004201 ], [ -73.399834158657299, -38.791751243314401 ], [ -73.399749717935705, -38.791645771391202 ], [ -73.3996540646136, -38.791555973940802 ], [ -73.399609618739206, -38.791387993215402 ], [ -73.399467266957899, -38.791212268243797 ], [ -73.399377177072097, -38.791133697313597 ], [ -73.399306294478293, -38.791050589574397 ], [ -73.399221036757396, -38.7909318048507 ], [ -73.399169009098102, -38.790838454817198 ], [ -73.399091188179199, -38.790761326516602 ], [ -73.399013776842395, -38.790611746156003 ], [ -73.398934726006203, -38.790593758392099 ], [ -73.398839924953194, -38.790557302659103 ], [ -73.398826456844603, -38.7904968107173 ], [ -73.398842618919204, -38.790442825639701 ], [ -73.398809008179299, -38.790371655873003 ], [ -73.398745768458994, -38.790293977363199 ], [ -73.398635713578301, -38.790128471591999 ], [ -73.398608046568398, -38.7899560453655 ], [ -73.398593935852105, -38.789805982940798 ], [ -73.398581581725907, -38.789684448119097 ], [ -73.398613757859593, -38.7895345456499 ], [ -73.398621985855101, -38.789391266048803 ], [ -73.398658173089999, -38.7891878376915 ], [ -73.398697171728699, -38.789030053462 ], [ -73.398703963442102, -38.788982140581098 ], [ -73.398711985839, -38.788875087913098 ], [ -73.398774171029004, -38.788777429093798 ], [ -73.398839137739898, -38.788685384106003 ], [ -73.398767116218707, -38.788623288345399 ], [ -73.398663328887906, -38.788638640277199 ], [ -73.398641898660301, -38.788607041543997 ], [ -73.398794286093107, -38.788273417646401 ], [ -73.3988065239148, -38.788234830339597 ], [ -73.398821748871796, -38.788165630853797 ], [ -73.398884430638205, -38.788115610886798 ], [ -73.398969011439704, -38.787946575470798 ], [ -73.399036318215195, -38.787892567868901 ], [ -73.399019250406099, -38.787813148833301 ], [ -73.399074261624193, -38.787717667017297 ], [ -73.399185366531597, -38.787583850195901 ], [ -73.399191163192796, -38.787440662270797 ], [ -73.399144027335296, -38.787228939093602 ], [ -73.399120372446802, -38.787161206067402 ], [ -73.399123797832104, -38.787098170381 ], [ -73.399153834983196, -38.787032224376198 ], [ -73.399105558005701, -38.786999732686603 ], [ -73.399052421590795, -38.7869674242638 ], [ -73.399048674318394, -38.786906564771797 ], [ -73.399091213184604, -38.786845866015902 ], [ -73.399167566380797, -38.7868201109994 ], [ -73.399216721190598, -38.7867877574121 ], [ -73.399209109358395, -38.7866641372092 ], [ -73.399158782992103, -38.786519253062302 ], [ -73.399118001488901, -38.7864502594622 ], [ -73.399157758514306, -38.786383947741903 ], [ -73.399101929227001, -38.786307896385402 ], [ -73.399143999371603, -38.786239590866501 ], [ -73.399159691640506, -38.786019779091603 ], [ -73.399165488469706, -38.785876590246701 ], [ -73.3991538373228, -38.785839462332497 ], [ -73.399141248656406, -38.7857993482857 ], [ -73.399168503788403, -38.785727788443701 ], [ -73.399183305318203, -38.785721054777497 ], [ -73.399340362201698, -38.785089976177296 ], [ -73.399578613380797, -38.784702223635399 ], [ -73.398254580096705, -38.784315999570801 ] ], [ [ -73.398659523091396, -38.7868546269289 ], [ -73.398491689712003, -38.787796708028701 ], [ -73.397207782590201, -38.787637815316202 ], [ -73.397368754612302, -38.786691721097803 ], [ -73.398659523091396, -38.7868546269289 ] ] ] } },
{ "type": "Feature", "properties": { "id": "monoparte.6", "Name": null, "description": null, "timestamp": null, "begin": null, "end": null, "altitudeMode": null, "tessellate": -1, "extrude": 0, "visibility": -1, "drawOrder": null, "icon": null, "REG": "Araucanía", "COM": "Puerto Saavedra", "LOC": "Puerto Saavedra", "ZONA": "Zona Residencial", "NOM": "Zona Residencial", "UPERM": "Vivienda y los centros de equipamientos de barrio.", "UPROH": "Sin información.", "P_DO": "06/01/1964", "N_DOC": "1749", "T_DO": "Decreto", "OBS": null }, "geometry": { "type": "Polygon", "coordinates": [ [ [ -73.398557294488597, -38.783694579710499 ], [ -73.399733351740593, -38.7844503847897 ], [ -73.399772026941406, -38.784387438686799 ], [ -73.402354811695304, -38.781935748437903 ], [ -73.400198390266198, -38.780434925444098 ], [ -73.399122500887401, -38.781452468679497 ], [ -73.397937498302497, -38.782569236776297 ], [ -73.398957989998607, -38.783317278439597 ], [ -73.398557294488597, -38.783694579710499 ] ] ] } },
{ "type": "Feature", "properties": { "id": "monoparte.7", "Name": null, "description": null, "timestamp": null, "begin": null, "end": null, "altitudeMode": null, "tessellate": -1, "extrude": 0, "visibility": -1, "drawOrder": null, "icon": null, "REG": "Araucanía", "COM": "Puerto Saavedra", "LOC": "Puerto Saavedra", "ZONA": "Área verde", "NOM": "Áreas verdes", "UPERM": "Reservadas para el desarrollo de jardines. No obstante, se aceptarán elementos constructivos que ayudan y acentúan la función recreativa y el descanso.", "UPROH": "Sin información.", "P_DO": "06/01/1964", "N_DOC": "1749", "T_DO": "Decreto", "OBS": null }, "geometry": { "type": "Polygon", "coordinates": [ [ [ -73.391713292253698, -38.800122339367 ], [ -73.391946941812407, -38.800356588308503 ], [ -73.392142032603104, -38.800232467080697 ], [ -73.3920105781975, -38.800103994728097 ], [ -73.391684912381294, -38.799858914151201 ], [ -73.391458281365402, -38.799738775010702 ], [ -73.391195927387898, -38.799631895398697 ], [ -73.390872667971294, -38.799524925372502 ], [ -73.390516283073893, -38.799423967487598 ], [ -73.390123475433498, -38.799374419397203 ], [ -73.390080921745707, -38.799573795675897 ], [ -73.390265100869996, -38.799597839121901 ], [ -73.390706549696205, -38.7996955951673 ], [ -73.391166113004303, -38.799840324227198 ], [ -73.3914351289189, -38.799956484926902 ], [ -73.391713292253698, -38.800122339367 ] ] ] } },
{ "type": "Feature", "properties": { "id": "monoparte.8", "Name": null, "description": null, "timestamp": null, "begin": null, "end": null, "altitudeMode": null, "tessellate": -1, "extrude": 0, "visibility": -1, "drawOrder": null, "icon": null, "REG": "Araucanía", "COM": "Puerto Saavedra", "LOC": "Puerto Saavedra", "ZONA": "Área verde", "NOM": "Áreas verdes", "UPERM": "Reservadas para el desarrollo de jardines. No obstante, se aceptarán elementos constructivos que ayudan y acentúan la función recreativa y el descanso.", "UPROH": "Sin información.", "P_DO": "06/01/1964", "N_DOC": "1749", "T_DO": "Decreto", "OBS": null }, "geometry": { "type": "Polygon", "coordinates": [ [ [ -73.395723043743303, -38.7986869580728 ], [ -73.395536622129498, -38.798972775251997 ], [ -73.395659717771096, -38.798960838967801 ], [ -73.396041516124797, -38.799041760112999 ], [ -73.396653401725303, -38.799212298365099 ], [ -73.397542228913295, -38.799491531042896 ], [ -73.397393916190694, -38.799830672837103 ], [ -73.397862068936206, -38.799934261511801 ], [ -73.398191761854505, -38.799972462837303 ], [ -73.398484350107694, -38.799964406897502 ], [ -73.398819762527907, -38.799910055589301 ], [ -73.398842728431205, -38.799907069326103 ], [ -73.398870799027094, -38.799814150000799 ], [ -73.398867634965299, -38.799814724148803 ], [ -73.398789925926195, -38.799591287599497 ], [ -73.398210663215096, -38.799382000922698 ], [ -73.397562812783207, -38.799146704700298 ], [ -73.396896298497396, -38.798904959535498 ], [ -73.396507336925694, -38.798769505617003 ], [ -73.396176352748597, -38.798586591074702 ], [ -73.395910485137705, -38.798422666903399 ], [ -73.395895416158794, -38.798390531642802 ], [ -73.395723043743303, -38.7986869580728 ] ] ] } },
{ "type": "Feature", "properties": { "id": "monoparte.9", "Name": null, "description": null, "timestamp": null, "begin": null, "end": null, "altitudeMode": null, "tessellate": -1, "extrude": 0, "visibility": -1, "drawOrder": null, "icon": null, "REG": "Araucanía", "COM": "Puerto Saavedra", "LOC": "Puerto Saavedra", "ZONA": "Área verde", "NOM": "Áreas verdes", "UPERM": "Reservadas para el desarrollo de jardines. No obstante, se aceptarán elementos constructivos que ayudan y acentúan la función recreativa y el descanso.", "UPROH": "Sin información.", "P_DO": "06/01/1964", "N_DOC": "1749", "T_DO": "Decreto", "OBS": null }, "geometry": { "type": "Polygon", "coordinates": [ [ [ -73.388988694083096, -38.796575161492697 ], [ -73.389227139924699, -38.797358479582797 ], [ -73.389719626952598, -38.797196972684901 ], [ -73.390083791132199, -38.797734295125601 ], [ -73.390039433659496, -38.797941483517398 ], [ -73.389831893100194, -38.798032694633399 ], [ -73.389670548588896, -38.7980746871593 ], [ -73.390070496010793, -38.798062911395199 ], [ -73.390670085078, -38.798207136545201 ], [ -73.391571487008704, -38.798406713337798 ], [ -73.3920951581797, -38.7985584891032 ], [ -73.392154372459103, -38.798229451080303 ], [ -73.392221192365099, -38.797858142647002 ], [ -73.392286282689795, -38.797676683513203 ], [ -73.392342059474799, -38.7975211862462 ], [ -73.392492068973795, -38.7972867842903 ], [ -73.392522121953704, -38.797260888699199 ], [ -73.392753829848601, -38.797360767622202 ], [ -73.393078949665096, -38.797448599595299 ], [ -73.393220261504197, -38.797518335539799 ], [ -73.393449688770602, -38.797609772115997 ], [ -73.393584250348894, -38.797644019100801 ], [ -73.393676894281995, -38.797653786461701 ], [ -73.393767570755102, -38.7973954073695 ], [ -73.393538672361203, -38.797337312220797 ], [ -73.393385688339805, -38.797226317038898 ], [ -73.393275819126799, -38.797123228466397 ], [ -73.393220746291703, -38.796970418807902 ], [ -73.393174494289198, -38.796812511787998 ], [ -73.393139808635794, -38.796644638046999 ], [ -73.392962702507006, -38.796586972759101 ], [ -73.392761440865499, -38.796532600024598 ], [ -73.392439249788197, -38.796492313544398 ], [ -73.3922869938242, -38.796502269956598 ], [ -73.392181470040001, -38.796509170219899 ], [ -73.391965084047897, -38.796555445231803 ], [ -73.391758980166401, -38.796620394642602 ], [ -73.391537133746098, -38.7967264443717 ], [ -73.391373364075804, -38.796868313769899 ], [ -73.391246525939593, -38.7970339306681 ], [ -73.3911212275043, -38.797348416415197 ], [ -73.390599043804698, -38.797150643341197 ], [ -73.390146820924699, -38.796914492325499 ], [ -73.390412259024302, -38.796588774457099 ], [ -73.390521536539197, -38.796387863273203 ], [ -73.389585934434194, -38.796508005750802 ], [ -73.388988694083096, -38.796575161492697 ] ] ] } },
{ "type": "Feature", "properties": { "id": "monoparte.10", "Name": null, "description": null, "timestamp": null, "begin": null, "end": null, "altitudeMode": null, "tessellate": -1, "extrude": 0, "visibility": -1, "drawOrder": null, "icon": null, "REG": "Araucanía", "COM": "Puerto Saavedra", "LOC": "Puerto Saavedra", "ZONA": "Área verde", "NOM": "Áreas verdes", "UPERM": "Reservadas para el desarrollo de jardines. No obstante, se aceptarán elementos constructivos que ayudan y acentúan la función recreativa y el descanso.", "UPROH": "Sin información.", "P_DO": "06/01/1964", "N_DOC": "1749", "T_DO": "Decreto", "OBS": null }, "geometry": { "type": "Polygon", "coordinates": [ [ [ -73.396834575435705, -38.797341054926399 ], [ -73.396718036144506, -38.797426465132702 ], [ -73.396636628131802, -38.797377707772696 ], [ -73.396473114730398, -38.797318344008701 ], [ -73.396232235807702, -38.797300617488901 ], [ -73.396027545451702, -38.797314290864499 ], [ -73.395820016464398, -38.797405512066 ], [ -73.3957959690932, -38.797398022243399 ], [ -73.395721652129794, -38.797531459122503 ], [ -73.395547788645501, -38.7977739121377 ], [ -73.395350090233194, -38.797996416279098 ], [ -73.395819353657998, -38.798228327028099 ], [ -73.3968596056134, -38.797925034336899 ], [ -73.396923134592797, -38.798186002487803 ], [ -73.397085054500394, -38.798442008149699 ], [ -73.397313517915507, -38.798690739426704 ], [ -73.397696148553905, -38.798871702195598 ], [ -73.398338946648906, -38.799123869060701 ], [ -73.398885044997698, -38.799289131478297 ], [ -73.399251867237695, -38.799213340769398 ], [ -73.399438386106496, -38.799077632309903 ], [ -73.399691589022396, -38.798739250102599 ], [ -73.399934612442806, -38.798334532812802 ], [ -73.400212694554597, -38.7980948723091 ], [ -73.400466525516407, -38.797959750268497 ], [ -73.400682322730006, -38.797903950673998 ], [ -73.400904719973695, -38.798152903573801 ], [ -73.401128446113702, -38.798621024528401 ], [ -73.401167399405296, -38.798857836867803 ], [ -73.401127583743204, -38.7990023094695 ], [ -73.401136374280199, -38.799144946803899 ], [ -73.401170640804196, -38.799305685527301 ], [ -73.401086319488002, -38.799518556341098 ], [ -73.400851744930307, -38.799701310459099 ], [ -73.401882693547407, -38.799583007424502 ], [ -73.401687779009507, -38.7993848465754 ], [ -73.401709085451699, -38.799112995562297 ], [ -73.401790283982294, -38.798886541493601 ], [ -73.401784873592206, -38.798675270379 ], [ -73.401750233004293, -38.798545522751297 ], [ -73.401719255701195, -38.798475207435899 ], [ -73.401683016163901, -38.798381261949302 ], [ -73.401680952271306, -38.798286027436902 ], [ -73.401617446895301, -38.798243745953997 ], [ -73.401547080197105, -38.798213638238998 ], [ -73.401528545236204, -38.798098174858097 ], [ -73.401560059522097, -38.797930187573499 ], [ -73.401658692463897, -38.797801367151699 ], [ -73.401753846284095, -38.7976160856321 ], [ -73.401759511399305, -38.797460987894397 ], [ -73.401748436456501, -38.797404814471498 ], [ -73.400874684609605, -38.797746959170098 ], [ -73.400923466547894, -38.797535759286603 ], [ -73.401001417550603, -38.797318363964003 ], [ -73.401071612019507, -38.797172744965003 ], [ -73.401072414193195, -38.797086933229501 ], [ -73.400967076072604, -38.797057548692102 ], [ -73.400866133920601, -38.797099483626802 ], [ -73.400790448941507, -38.797254840672501 ], [ -73.400537689706496, -38.797402581658098 ], [ -73.400349711297494, -38.797514518951402 ], [ -73.400162828409194, -38.7975453981717 ], [ -73.399772442338403, -38.797436220671699 ], [ -73.399184630864298, -38.797285641103201 ], [ -73.398738421570897, -38.797147588099001 ], [ -73.398117308186201, -38.796950602395498 ], [ -73.397626083513103, -38.796823178356497 ], [ -73.397194519808494, -38.796675632234297 ], [ -73.396915260356806, -38.796590847833698 ], [ -73.396526200912703, -38.796453610609497 ], [ -73.396251471654097, -38.796380568652303 ], [ -73.395932411236302, -38.796267496835 ], [ -73.395800926015298, -38.7962337318774 ], [ -73.395444260986494, -38.7961280335266 ], [ -73.395089930956402, -38.795998418132299 ], [ -73.394865299595594, -38.795935398770503 ], [ -73.394530872543697, -38.795819923824297 ], [ -73.394083947583198, -38.795669965531097 ], [ -73.393711184683298, -38.7955499760305 ], [ -73.393456501933997, -38.795431493567001 ], [ -73.393199993318504, -38.7952832939297 ], [ -73.392991205093594, -38.795106489966699 ], [ -73.392882871219797, -38.795077806994598 ], [ -73.392781625191802, -38.795102470272198 ], [ -73.392762828927403, -38.795173326505797 ], [ -73.392834111626499, -38.795271014661203 ], [ -73.393179740159496, -38.795543934339896 ], [ -73.393756247041594, -38.795808155755203 ], [ -73.397126730981597, -38.796843943366298 ], [ -73.397042692269295, -38.7970615667533 ], [ -73.396961216488805, -38.797221904847099 ], [ -73.396834575435705, -38.797341054926399 ] ] ] } },
{ "type": "Feature", "properties": { "id": "monoparte.11", "Name": null, "description": null, "timestamp": null, "begin": null, "end": null, "altitudeMode": null, "tessellate": -1, "extrude": 0, "visibility": -1, "drawOrder": null, "icon": null, "REG": "Araucanía", "COM": "Puerto Saavedra", "LOC": "Puerto Saavedra", "ZONA": "Área verde", "NOM": "Áreas verdes", "UPERM": "Reservadas para el desarrollo de jardines. No obstante, se aceptarán elementos constructivos que ayudan y acentúan la función recreativa y el descanso.", "UPROH": "Sin información.", "P_DO": "06/01/1964", "N_DOC": "1749", "T_DO": "Decreto", "OBS": null }, "geometry": { "type": "Polygon", "coordinates": [ [ [ -73.397053049910198, -38.783786888820401 ], [ -73.398317108443607, -38.784187641242497 ], [ -73.398557294488597, -38.783694579710499 ], [ -73.397442118429097, -38.783036079746701 ], [ -73.397053049910198, -38.783786888820401 ] ] ] } },
{ "type": "Feature", "properties": { "id": "monoparte.12", "Name": null, "description": null, "timestamp": null, "begin": null, "end": null, "altitudeMode": null, "tessellate": -1, "extrude": 0, "visibility": -1, "drawOrder": null, "icon": null, "REG": "Araucanía", "COM": "Puerto Saavedra", "LOC": "Puerto Saavedra", "ZONA": "Áreas no edificables", "NOM": "Sin información", "UPERM": "Sin información.", "UPROH": "Sin información.", "P_DO": "06/01/1964", "N_DOC": "1749", "T_DO": "Decreto", "OBS": null }, "geometry": { "type": "Polygon", "coordinates": [ [ [ -73.392762828927403, -38.795173326505797 ], [ -73.392781625191802, -38.795102470272198 ], [ -73.392882871219797, -38.795077806994598 ], [ -73.392991205093594, -38.795106489966699 ], [ -73.393199993318504, -38.7952832939297 ], [ -73.393456501933997, -38.795431493567001 ], [ -73.393711184683298, -38.7955499760305 ], [ -73.394083947583198, -38.795669965531097 ], [ -73.394530872543697, -38.795819923824297 ], [ -73.394865299595594, -38.795935398770503 ], [ -73.395089930956402, -38.795998418132299 ], [ -73.395444260986494, -38.7961280335266 ], [ -73.395800926015298, -38.7962337318774 ], [ -73.395932411236302, -38.796267496835 ], [ -73.396251471654097, -38.796380568652303 ], [ -73.396526200912703, -38.796453610609497 ], [ -73.396915260356806, -38.796590847833698 ], [ -73.397194519808494, -38.796675632234297 ], [ -73.397626083513103, -38.796823178356497 ], [ -73.398117308186201, -38.796950602395498 ], [ -73.398738421570897, -38.797147588099001 ], [ -73.399184630864298, -38.797285641103201 ], [ -73.399772442338403, -38.797436220671699 ], [ -73.400162828409194, -38.7975453981717 ], [ -73.400349711297494, -38.797514518951402 ], [ -73.400537689706496, -38.797402581658098 ], [ -73.400790448941507, -38.797254840672501 ], [ -73.400866133920601, -38.797099483626802 ], [ -73.400967076072604, -38.797057548692102 ], [ -73.401072414193195, -38.797086933229501 ], [ -73.401071612019507, -38.797172744965003 ], [ -73.401001417550603, -38.797318363964003 ], [ -73.400923466547894, -38.797535759286603 ], [ -73.400874684609605, -38.797746959170098 ], [ -73.401748436456501, -38.797404814471498 ], [ -73.401821269193903, -38.797351430526 ], [ -73.401901464397895, -38.7972322406224 ], [ -73.401957959546706, -38.797099053049699 ], [ -73.402089667671902, -38.796951111580398 ], [ -73.402171461016096, -38.796796119365098 ], [ -73.402240446336094, -38.796680331552302 ], [ -73.402303985983394, -38.796537942232497 ], [ -73.402291164237198, -38.796329929161601 ], [ -73.402250394618605, -38.796224240895803 ], [ -73.402185060476498, -38.796152244322002 ], [ -73.402126171852103, -38.795999583293302 ], [ -73.402008676097196, -38.795822328281602 ], [ -73.401941742310498, -38.795786133756501 ], [ -73.401938628790504, -38.795735616356097 ], [ -73.401918495133501, -38.795655956081802 ], [ -73.401983549185701, -38.7955998874138 ], [ -73.402021472066096, -38.795535906224401 ], [ -73.402028468229304, -38.795464157606702 ], [ -73.401942865277903, -38.795372076316099 ], [ -73.401909508585902, -38.795263129839199 ], [ -73.401844358866995, -38.795194104342499 ], [ -73.401792591618701, -38.795082873556403 ], [ -73.401625877499797, -38.794996236396599 ], [ -73.401516919543894, -38.794957457042003 ], [ -73.401361593046602, -38.795006210813199 ], [ -73.401170360852305, -38.795015809842504 ], [ -73.401106021106202, -38.795058746575201 ], [ -73.401050978628902, -38.795153753230998 ], [ -73.400997910424493, -38.795181967634797 ], [ -73.400910255116997, -38.7951924234562 ], [ -73.400818643745694, -38.795138692835501 ], [ -73.400705584681006, -38.795033348839702 ], [ -73.400535540963901, -38.794942069785101 ], [ -73.400420361297506, -38.794901142081201 ], [ -73.4003134156561, -38.794845606666399 ], [ -73.400237032516699, -38.794841340646499 ], [ -73.400109263187403, -38.794793738729503 ], [ -73.399991924731694, -38.794767188956598 ], [ -73.399819174802602, -38.794730815621598 ], [ -73.399670434438093, -38.794688770317102 ], [ -73.399545300414701, -38.794683960005401 ], [ -73.399398903168006, -38.794679951674802 ], [ -73.399307624505596, -38.7946810119821 ], [ -73.399180147709401, -38.794638163928099 ], [ -73.399036349189302, -38.794626908199497 ], [ -73.398900492088799, -38.794596290789201 ], [ -73.398815289350594, -38.794597121530501 ], [ -73.398811921911403, -38.794542442923998 ], [ -73.398919377134604, -38.794507413964702 ], [ -73.399041032519705, -38.794505207261899 ], [ -73.396564687339307, -38.794143945207502 ], [ -73.393929933177006, -38.793780973622098 ], [ -73.391978053112496, -38.793530430965603 ], [ -73.389913440980905, -38.793278833708101 ], [ -73.389887716234497, -38.793395125121002 ], [ -73.390253374296407, -38.793409506287901 ], [ -73.3908971427376, -38.793480584128901 ], [ -73.391335807945694, -38.7935832093344 ], [ -73.391636491912493, -38.793719622661698 ], [ -73.391896174668304, -38.793981485839403 ], [ -73.392455053126895, -38.794751538014303 ], [ -73.392762828927403, -38.795173326505797 ] ] ] } },
{ "type": "Feature", "properties": { "id": "monoparte.13", "Name": null, "description": null, "timestamp": null, "begin": null, "end": null, "altitudeMode": null, "tessellate": -1, "extrude": 0, "visibility": -1, "drawOrder": null, "icon": null, "REG": "Araucanía", "COM": "Puerto Saavedra", "LOC": "Puerto Saavedra", "ZONA": "Área verde", "NOM": "Áreas verdes", "UPERM": "Reservadas para el desarrollo de jardines. No obstante, se aceptarán elementos constructivos que ayudan y acentúan la función recreativa y el descanso.", "UPROH": "Sin información.", "P_DO": "06/01/1964", "N_DOC": "1749", "T_DO": "Decreto", "OBS": null }, "geometry": { "type": "Polygon", "coordinates": [ [ [ -73.400212694554597, -38.7980948723091 ], [ -73.400395825062006, -38.798177258942502 ], [ -73.400519714641405, -38.798295911377998 ], [ -73.400570564306506, -38.798344611338401 ], [ -73.400537805619805, -38.7983700905163 ], [ -73.400532005949103, -38.798374601586097 ], [ -73.400553600086596, -38.798439104950603 ], [ -73.400563430800005, -38.7985245163649 ], [ -73.400575019347997, -38.798638454368202 ], [ -73.400548232677394, -38.798796731164003 ], [ -73.400566737148097, -38.798874666371901 ], [ -73.4006162605626, -38.798937134175802 ], [ -73.400621534253503, -38.799022716636898 ], [ -73.400577121956005, -38.799117321988398 ], [ -73.400552475312494, -38.799236201751903 ], [ -73.400579712195906, -38.799381718439903 ], [ -73.400575270760896, -38.799532003142197 ], [ -73.400607819928496, -38.7997256424649 ], [ -73.400722375343506, -38.7997161547678 ], [ -73.400851744930307, -38.799701310459099 ], [ -73.401086319488002, -38.799518556341098 ], [ -73.401170640804196, -38.799305685527301 ], [ -73.401136374280199, -38.799144946803899 ], [ -73.401127583743204, -38.7990023094695 ], [ -73.401167399405296, -38.798857836867803 ], [ -73.401128446113702, -38.798621024528401 ], [ -73.400904719973695, -38.798152903573801 ], [ -73.400682322730006, -38.797903950673998 ], [ -73.400466525516407, -38.797959750268497 ], [ -73.400212694554597, -38.7980948723091 ] ] ] } },
{ "type": "Feature", "properties": { "id": "monoparte.14", "Name": null, "description": null, "timestamp": null, "begin": null, "end": null, "altitudeMode": null, "tessellate": -1, "extrude": 0, "visibility": -1, "drawOrder": null, "icon": null, "REG": "Araucanía", "COM": "Puerto Saavedra", "LOC": "Puerto Saavedra", "ZONA": "Áreas de Equipamiento", "NOM": "Áreas de Equipamiento Urbano", "UPERM": "Equipamiento de educación, culto y cultura, comercio y servicios públicos y profesionales", "UPROH": "Todo lo no indicado como permitido", "P_DO": "06/01/1964", "N_DOC": "1749", "T_DO": "Decreto", "OBS": null }, "geometry": { "type": "Polygon", "coordinates": [ [ [ -73.390599043804698, -38.797150643341197 ], [ -73.3911212275043, -38.797348416415197 ], [ -73.391246525939593, -38.7970339306681 ], [ -73.391373364075804, -38.796868313769899 ], [ -73.391537133746098, -38.7967264443717 ], [ -73.391242175584793, -38.796287196516502 ], [ -73.390629802535699, -38.796231497509901 ], [ -73.390537562958002, -38.796385805461099 ], [ -73.390521536539197, -38.796387863273203 ], [ -73.390412259024302, -38.796588774457099 ], [ -73.390146820924699, -38.796914492325499 ], [ -73.390599043804698, -38.797150643341197 ] ] ] } },
{ "type": "Feature", "properties": { "id": "monoparte.15", "Name": null, "description": null, "timestamp": null, "begin": null, "end": null, "altitudeMode": null, "tessellate": -1, "extrude": 0, "visibility": -1, "drawOrder": null, "icon": null, "REG": "Araucanía", "COM": "Puerto Saavedra", "LOC": "Puerto Saavedra", "ZONA": "Áreas de Equipamiento", "NOM": "Áreas de Equipamiento Urbano", "UPERM": "Equipamiento de educación, culto y cultura, comercio y servicios públicos y profesionales", "UPROH": "Todo lo no indicado como permitido", "P_DO": "06/01/1964", "N_DOC": "1749", "T_DO": "Decreto", "OBS": null }, "geometry": { "type": "Polygon", "coordinates": [ [ [ -73.394830480205499, -38.797097297066898 ], [ -73.395820016464398, -38.797405512066 ], [ -73.396027545451702, -38.797314290864499 ], [ -73.396232235807702, -38.797300617488901 ], [ -73.396473114730398, -38.797318344008701 ], [ -73.396636628131802, -38.797377707772696 ], [ -73.396718036144506, -38.797426465132702 ], [ -73.396834575435705, -38.797341054926399 ], [ -73.396961216488805, -38.797221904847099 ], [ -73.397042692269295, -38.7970615667533 ], [ -73.397126730981597, -38.796843943366298 ], [ -73.395225482968101, -38.796259684689701 ], [ -73.394830480205499, -38.797097297066898 ] ] ] } },
{ "type": "Feature", "properties": { "id": "monoparte.16", "Name": null, "description": null, "timestamp": null, "begin": null, "end": null, "altitudeMode": null, "tessellate": -1, "extrude": 0, "visibility": -1, "drawOrder": null, "icon": null, "REG": "Araucanía", "COM": "Puerto Saavedra", "LOC": "Puerto Saavedra", "ZONA": "Áreas de Equipamiento", "NOM": "Áreas de Equipamiento Urbano", "UPERM": "Equipamiento de educación, culto y cultura, comercio y servicios públicos y profesionales", "UPROH": "Todo lo no indicado como permitido", "P_DO": "06/01/1964", "N_DOC": "1749", "T_DO": "Decreto", "OBS": null }, "geometry": { "type": "Polygon", "coordinates": [ [ [ -73.392221192365099, -38.797858142647002 ], [ -73.3920951581797, -38.7985584891032 ], [ -73.392284541005296, -38.798613377815599 ], [ -73.394806439301206, -38.7991188404553 ], [ -73.395400718321795, -38.799357464634603 ], [ -73.395443420781206, -38.799338478207503 ], [ -73.395494445878896, -38.7992769843448 ], [ -73.395465314388304, -38.799199448756802 ], [ -73.395536622129498, -38.798972775251997 ], [ -73.395723043743303, -38.7986869580728 ], [ -73.395895416158794, -38.798390531642802 ], [ -73.395819353657998, -38.798228327028099 ], [ -73.395350090233194, -38.797996416279098 ], [ -73.395348449950703, -38.797998262177202 ], [ -73.395246659253701, -38.798075966179297 ], [ -73.395086270115499, -38.798141581573901 ], [ -73.394781679174898, -38.798041067768501 ], [ -73.394278128084096, -38.797874181559799 ], [ -73.393676894281995, -38.797653786461701 ], [ -73.393584250348894, -38.797644019100801 ], [ -73.393449688770602, -38.797609772115997 ], [ -73.393220261504197, -38.797518335539799 ], [ -73.393078949665096, -38.797448599595299 ], [ -73.392753829848601, -38.797360767622202 ], [ -73.392522121953704, -38.797260888699199 ], [ -73.392492068973795, -38.7972867842903 ], [ -73.392342059474799, -38.7975211862462 ], [ -73.392221192365099, -38.797858142647002 ] ] ] } },
{ "type": "Feature", "properties": { "id": "monoparte.17", "Name": null, "description": null, "timestamp": null, "begin": null, "end": null, "altitudeMode": null, "tessellate": -1, "extrude": 0, "visibility": -1, "drawOrder": null, "icon": null, "REG": "Araucanía", "COM": "Puerto Saavedra", "LOC": "Puerto Saavedra", "ZONA": "Áreas de Equipamiento", "NOM": "Áreas de Equipamiento Urbano", "UPERM": "Equipamiento de educación, culto y cultura, comercio y servicios públicos y profesionales", "UPROH": "Todo lo no indicado como permitido", "P_DO": "06/01/1964", "N_DOC": "1749", "T_DO": "Decreto", "OBS": null }, "geometry": { "type": "Polygon", "coordinates": [ [ [ -73.400014497826106, -38.798956533029298 ], [ -73.399908723423707, -38.799117790755702 ], [ -73.399824356475094, -38.799082848080801 ], [ -73.3997529485043, -38.799159409678097 ], [ -73.399625614543098, -38.799316714609503 ], [ -73.399519508339395, -38.799423178933999 ], [ -73.399471415927096, -38.799532220544101 ], [ -73.399394956057606, -38.799625652403201 ], [ -73.399281162977601, -38.799706195646003 ], [ -73.399099507455105, -38.799772617920901 ], [ -73.398870799027094, -38.799814150000799 ], [ -73.398842728431205, -38.799907069326103 ], [ -73.399174710323095, -38.799863902982899 ], [ -73.400127824031699, -38.799765396236701 ], [ -73.400607819928496, -38.7997256424649 ], [ -73.400575270760896, -38.799532003142197 ], [ -73.400579712195906, -38.799381718439903 ], [ -73.400552475312494, -38.799236201751903 ], [ -73.400577121956005, -38.799117321988398 ], [ -73.400621534253503, -38.799022716636898 ], [ -73.4006162605626, -38.798937134175802 ], [ -73.400566737148097, -38.798874666371901 ], [ -73.400548232677394, -38.798796731164003 ], [ -73.400575019347997, -38.798638454368202 ], [ -73.400563430800005, -38.7985245163649 ], [ -73.400553600086596, -38.798439104950603 ], [ -73.400532005949103, -38.798374601586097 ], [ -73.400451429654794, -38.7984372711703 ], [ -73.400315679754897, -38.798556769570702 ], [ -73.400204524810206, -38.798680104863998 ], [ -73.400099885091706, -38.798810342242497 ], [ -73.400014497826106, -38.798956533029298 ] ] ] } },
{ "type": "Feature", "properties": { "id": "monoparte.18", "Name": null, "description": null, "timestamp": null, "begin": null, "end": null, "altitudeMode": null, "tessellate": -1, "extrude": 0, "visibility": -1, "drawOrder": null, "icon": null, "REG": "Araucanía", "COM": "Puerto Saavedra", "LOC": "Puerto Saavedra", "ZONA": "Área Administrativa", "NOM": "Área Administrativa", "UPERM": "Equipamiento de servicios", "UPROH": "Todo lo no indicado como permitido", "P_DO": "06/01/1964", "N_DOC": "1749", "T_DO": "Decreto", "OBS": null }, "geometry": { "type": "Polygon", "coordinates": [ [ [ -73.397207782590201, -38.787637815316202 ], [ -73.398491689712003, -38.787796708028701 ], [ -73.398659523091396, -38.7868546269289 ], [ -73.397368754612302, -38.786691721097803 ], [ -73.397207782590201, -38.787637815316202 ] ] ] } },
{ "type": "Feature", "properties": { "id": "monoparte.19", "Name": null, "description": null, "timestamp": null, "begin": null, "end": null, "altitudeMode": null, "tessellate": -1, "extrude": 0, "visibility": -1, "drawOrder": null, "icon": null, "REG": "Araucanía", "COM": "Puerto Saavedra", "LOC": "Puerto Saavedra", "ZONA": "Área Administrativa", "NOM": "Área Administrativa", "UPERM": "Equipamiento de servicios", "UPROH": "Todo lo no indicado como permitido", "P_DO": "06/01/1964", "N_DOC": "1749", "T_DO": "Decreto", "OBS": null }, "geometry": { "type": "Polygon", "coordinates": [ [ [ -73.399578613380797, -38.784702223635399 ], [ -73.399733351740593, -38.7844503847897 ], [ -73.398557294488597, -38.783694579710499 ], [ -73.398317108443607, -38.784187641242497 ], [ -73.397053049910198, -38.783786888820401 ], [ -73.396724957695994, -38.784420016606099 ], [ -73.398014585644304, -38.784868334039302 ], [ -73.398254580096705, -38.784315999570801 ], [ -73.399578613380797, -38.784702223635399 ] ] ] } },
{ "type": "Feature", "properties": { "id": "monoparte.20", "Name": null, "description": null, "timestamp": null, "begin": null, "end": null, "altitudeMode": null, "tessellate": -1, "extrude": 0, "visibility": -1, "drawOrder": null, "icon": null, "REG": "Araucanía", "COM": "Puerto Saavedra", "LOC": "Puerto Saavedra", "ZONA": "Área Administrativa", "NOM": "Área Administrativa", "UPERM": "Equipamiento de servicios", "UPROH": "Todo lo no indicado como permitido", "P_DO": "06/01/1964", "N_DOC": "1749", "T_DO": "Decreto", "OBS": null }, "geometry": { "type": "Polygon", "coordinates": [ [ [ -73.398557294488597, -38.783694579710499 ], [ -73.398957989998607, -38.783317278439597 ], [ -73.397937498302497, -38.782569236776297 ], [ -73.397442118429097, -38.783036079746701 ], [ -73.398557294488597, -38.783694579710499 ] ] ] } },
{ "type": "Feature", "properties": { "id": "monoparte.21", "Name": null, "description": null, "timestamp": null, "begin": null, "end": null, "altitudeMode": null, "tessellate": -1, "extrude": 0, "visibility": -1, "drawOrder": null, "icon": null, "REG": "Araucanía", "COM": "Puerto Saavedra", "LOC": "Puerto Saavedra", "ZONA": "Playa", "NOM": "Playa", "UPERM": "Playa", "UPROH": "Playa", "P_DO": "06/01/1964", "N_DOC": "1749", "T_DO": "Decreto", "OBS": null }, "geometry": { "type": "Polygon", "coordinates": [ [ [ -73.399733351740593, -38.7844503847897 ], [ -73.399578613380797, -38.784702223635399 ], [ -73.399340362201698, -38.785089976177296 ], [ -73.399183305318203, -38.785721054777497 ], [ -73.399232472496294, -38.785698687417003 ], [ -73.399284992469205, -38.785681456641598 ], [ -73.399361168280393, -38.785573738852896 ], [ -73.399430083178302, -38.785506326306503 ], [ -73.399535914573306, -38.785445146505701 ], [ -73.399584805031907, -38.785368958239701 ], [ -73.399574616612398, -38.785203498195401 ], [ -73.399565365113105, -38.785053252562399 ], [ -73.399570840109504, -38.784944389376001 ], [ -73.399646545191104, -38.784829063847397 ], [ -73.399787857219295, -38.784711263362297 ], [ -73.399943045238302, -38.784581502602698 ], [ -73.400036257520199, -38.784513173104401 ], [ -73.400141735591404, -38.784446287346299 ], [ -73.400304211849104, -38.784316250265498 ], [ -73.4005064728061, -38.784159931175502 ], [ -73.400634958949695, -38.784071207475201 ], [ -73.400735312679998, -38.783960670941603 ], [ -73.400824775017, -38.783831481516998 ], [ -73.400947932413203, -38.783735334127798 ], [ -73.401064650957295, -38.783692805063097 ], [ -73.401222355342796, -38.783683041880401 ], [ -73.401327423406002, -38.783688608003601 ], [ -73.401432608645905, -38.783696076165903 ], [ -73.401559543893896, -38.783700816864098 ], [ -73.401668769483706, -38.7836947891413 ], [ -73.401799949092805, -38.783649806136197 ], [ -73.401887390882095, -38.783606474618999 ], [ -73.401995530353901, -38.783543299902398 ], [ -73.402115732515398, -38.783517793722801 ], [ -73.402266497194006, -38.783514009826497 ], [ -73.402409270519499, -38.783499089839999 ], [ -73.402472852600894, -38.783424251544901 ], [ -73.402545154415705, -38.783253771585599 ], [ -73.402576765209005, -38.783134389913101 ], [ -73.402617159172195, -38.782999426945203 ], [ -73.4026400437251, -38.782817469110498 ], [ -73.402682983596307, -38.782684315676299 ], [ -73.402748260055901, -38.782557945282598 ], [ -73.4028215286381, -38.7824427097948 ], [ -73.402897844968706, -38.782376922462198 ], [ -73.402941049310996, -38.782287603441503 ], [ -73.403002464891998, -38.782256691149698 ], [ -73.403072694305493, -38.782250227717697 ], [ -73.403167658377299, -38.782210423518599 ], [ -73.403333256167201, -38.782091702083299 ], [ -73.403397335961003, -38.7820645021174 ], [ -73.403502167231593, -38.782066263046701 ], [ -73.403577607051105, -38.782065320461399 ], [ -73.403670843709406, -38.7820370195126 ], [ -73.403707055503105, -38.782031839174401 ], [ -73.403765572735594, -38.781993411500302 ], [ -73.403812175896107, -38.7819592449532 ], [ -73.403946324426897, -38.781725429145801 ], [ -73.404001645239703, -38.781595620901598 ], [ -73.404139128986898, -38.781336897340701 ], [ -73.404265549922997, -38.781135778130299 ], [ -73.404371776559401, -38.781002141801302 ], [ -73.404434885665097, -38.7809196959468 ], [ -73.404541633454699, -38.7807155071567 ], [ -73.404539949526907, -38.780490632352503 ], [ -73.404594415212202, -38.7803074807073 ], [ -73.404648210120001, -38.780152949097399 ], [ -73.404650511503803, -38.779992735862798 ], [ -73.404631532004302, -38.779842858153202 ], [ -73.404648764341403, -38.779687800729199 ], [ -73.404721539395993, -38.779722700816997 ], [ -73.404907555799298, -38.779832206243 ], [ -73.404897810803703, -38.779866161886403 ], [ -73.404847325916094, -38.780034866406702 ], [ -73.404805073463606, -38.780188962193499 ], [ -73.404812506790805, -38.780260166931001 ], [ -73.404841200042696, -38.780330567869797 ], [ -73.404851522990398, -38.780399279604701 ], [ -73.404817315555107, -38.780486352946703 ], [ -73.404787570807997, -38.780547046889602 ], [ -73.404765326099096, -38.780581246729902 ], [ -73.404761049777605, -38.780660041691803 ], [ -73.404763434208405, -38.780748116082599 ], [ -73.404742401570999, -38.780851371735501 ], [ -73.404750712970298, -38.7809368393239 ], [ -73.404822552926504, -38.781065181419002 ], [ -73.404871081372903, -38.781161044096997 ], [ -73.404935195149505, -38.781213428311702 ], [ -73.405034141608596, -38.781238285188998 ], [ -73.405132462892496, -38.7812035949852 ], [ -73.4052430788267, -38.7811708233058 ], [ -73.405346740653997, -38.781124017273697 ], [ -73.405428263979402, -38.781063750440701 ], [ -73.405498956868001, -38.781025337549799 ], [ -73.405547510179801, -38.780973463969502 ], [ -73.405611250091894, -38.780921017633901 ], [ -73.405653037501196, -38.780907525266002 ], [ -73.405810740049603, -38.780799106943299 ], [ -73.405973783822901, -38.7806785718074 ], [ -73.406120509936102, -38.7805896305658 ], [ -73.406129627998695, -38.780580578284003 ], [ -73.406151832940694, -38.780541974899798 ], [ -73.404701503639203, -38.779616222955099 ], [ -73.404308156526099, -38.780041525700298 ], [ -73.402354811695304, -38.781935748437903 ], [ -73.399772026941406, -38.784387438686799 ], [ -73.399733351740593, -38.7844503847897 ] ] ] } }
]
}
