{
"type": "FeatureCollection",
"name": "IPT_09_PRC_Lautaro",
"crs": { "type": "name", "properties": { "name": "urn:ogc:def:crs:OGC:1.3:CRS84" } },
"features": [
{ "type": "Feature", "properties": { "id": "monoparte.1", "Name": null, "description": null, "timestamp": null, "begin": null, "end": null, "altitudeMode": null, "tessellate": -1, "extrude": 0, "visibility": -1, "drawOrder": null, "icon": null, "REG": "Araucanía", "COM": "Lautaro", "LOC": "Pillanlelbun", "ZONA": "ZU1", "NOM": "Área Consolidada ZU1", "UPERM": "Vivienda; equipamiento a escala regional, comunal y vecinal; almacenamiento inofensivo.", "UPROH": "Industria de todo tipo y almacenamientos molestos y todos los no mencionados anteriormente.", "P_DO": "19/02/1988", "N_DOC": "1", "T_DO": "Decreto", "OBS": null }, "geometry": { "type": "Polygon", "coordinates": [ [ [ -72.454352844698207, -38.6327225773923 ], [ -72.454176835123704, -38.632780367854402 ], [ -72.453910330522106, -38.632350010853798 ], [ -72.452638675249702, -38.632860883432699 ], [ -72.452931694578595, -38.633378107000901 ], [ -72.452469258727405, -38.633547935327996 ], [ -72.455710115135105, -38.638642437533903 ], [ -72.456253064732493, -38.639453306749097 ], [ -72.456811697563694, -38.639240911490297 ], [ -72.457437444430397, -38.640168984102701 ], [ -72.459781730544506, -38.639188070439403 ], [ -72.459977971409799, -38.639550376463497 ], [ -72.460984392602796, -38.639099866785102 ], [ -72.461226522321795, -38.639022577306598 ], [ -72.461490126578497, -38.638927122008603 ], [ -72.461757102173493, -38.6389016838814 ], [ -72.461247985923706, -38.638199846233903 ], [ -72.460791925151895, -38.638351805012 ], [ -72.460307668504598, -38.6385063815354 ], [ -72.455796723596805, -38.6316105935324 ], [ -72.454870827500699, -38.631410089237797 ], [ -72.454352844698207, -38.6327225773923 ] ] ] } },
{ "type": "Feature", "properties": { "id": "monoparte.2", "Name": null, "description": null, "timestamp": null, "begin": null, "end": null, "altitudeMode": null, "tessellate": -1, "extrude": 0, "visibility": -1, "drawOrder": null, "icon": null, "REG": "Araucanía", "COM": "Lautaro", "LOC": "Pillanlelbun", "ZONA": "ZU1", "NOM": "Área Consolidada ZU1", "UPERM": "Vivienda; equipamiento a escala regional, comunal y vecinal; almacenamiento inofensivo.", "UPROH": "Industria de todo tipo y almacenamientos molestos y todos los no mencionados anteriormente.", "P_DO": "19/02/1988", "N_DOC": "1", "T_DO": "Decreto", "OBS": null }, "geometry": { "type": "Polygon", "coordinates": [ [ [ -72.450018984395896, -38.631360607475699 ], [ -72.445613953215599, -38.6331733990814 ], [ -72.445334061654293, -38.632820661683297 ], [ -72.445307056806499, -38.632831858855901 ], [ -72.445063759869299, -38.632418324866499 ], [ -72.443979357281606, -38.632876295254697 ], [ -72.444304806132607, -38.6333697569588 ], [ -72.442786938701303, -38.632941190445102 ], [ -72.442545957318401, -38.633509231931797 ], [ -72.4449013123523, -38.634158527934702 ], [ -72.446474446117193, -38.636671437006697 ], [ -72.447680941088294, -38.636197611076298 ], [ -72.450292054727498, -38.640310070404198 ], [ -72.4540636072594, -38.638796294982903 ], [ -72.454313132630801, -38.639198183119397 ], [ -72.455396396075301, -38.638767243331003 ], [ -72.452990918661598, -38.635023115326298 ], [ -72.452506675021894, -38.6352312520021 ], [ -72.450018984395896, -38.631360607475699 ] ] ] } },
{ "type": "Feature", "properties": { "id": "monoparte.3", "Name": null, "description": null, "timestamp": null, "begin": null, "end": null, "altitudeMode": null, "tessellate": -1, "extrude": 0, "visibility": -1, "drawOrder": null, "icon": null, "REG": "Araucanía", "COM": "Lautaro", "LOC": "Pillanlelbun", "ZONA": "ZR1", "NOM": "Área de Protección ZR1", "UPERM": "Correponde a la faja de protección de la línea de ferrocarril a cada costado de la misma.", "UPROH": "Sin información.", "P_DO": "19/02/1988", "N_DOC": "1", "T_DO": "Decreto", "OBS": null }, "geometry": { "type": "Polygon", "coordinates": [ [ [ -72.455710115135105, -38.638642437533903 ], [ -72.450614003758901, -38.630631153220897 ], [ -72.450263093187402, -38.630776682034202 ], [ -72.455396396075301, -38.638767243331003 ], [ -72.455710115135105, -38.638642437533903 ] ] ] } },
{ "type": "Feature", "properties": { "id": "monoparte.4", "Name": null, "description": null, "timestamp": null, "begin": null, "end": null, "altitudeMode": null, "tessellate": -1, "extrude": 0, "visibility": -1, "drawOrder": null, "icon": null, "REG": "Araucanía", "COM": "Lautaro", "LOC": "Pillanlelbun", "ZONA": "ZE1", "NOM": "Área de Extensión Urbana ZE1", "UPERM": "Vivienda; equipamiento a escala comunal y vecinal.", "UPROH": "Todos los no mencionados anteriormente.", "P_DO": "19/02/1988", "N_DOC": "1", "T_DO": "Decreto", "OBS": null }, "geometry": { "type": "Polygon", "coordinates": [ [ [ -72.450315213719094, -38.6403269158059 ], [ -72.450537078034898, -38.640700245757998 ], [ -72.454313132630801, -38.639198183119397 ], [ -72.4540636072594, -38.638796294982903 ], [ -72.450316768244505, -38.640300151323103 ], [ -72.450315213719094, -38.6403269158059 ] ] ] } },
{ "type": "Feature", "properties": { "id": "monoparte.5", "Name": null, "description": null, "timestamp": null, "begin": null, "end": null, "altitudeMode": null, "tessellate": -1, "extrude": 0, "visibility": -1, "drawOrder": null, "icon": null, "REG": "Araucanía", "COM": "Lautaro", "LOC": "Pillanlelbun", "ZONA": "ZE1", "NOM": "Área de Extensión Urbana ZE1", "UPERM": "Vivienda; equipamiento a escala comunal y vecinal.", "UPROH": "Todos los no mencionados anteriormente.", "P_DO": "19/02/1988", "N_DOC": "1", "T_DO": "Decreto", "OBS": null }, "geometry": { "type": "Polygon", "coordinates": [ [ [ -72.460984392602796, -38.639099866785102 ], [ -72.459977971409799, -38.639550376463497 ], [ -72.459781730544506, -38.639188070439403 ], [ -72.457437444430397, -38.640168984102701 ], [ -72.456811697563694, -38.639240911490297 ], [ -72.456253064732493, -38.639453306749097 ], [ -72.457540182275906, -38.641375470478202 ], [ -72.461548692503698, -38.639679149175898 ], [ -72.461726397846405, -38.639656355559701 ], [ -72.4619744301542, -38.639701595714598 ], [ -72.462265412910597, -38.6397105034658 ], [ -72.462648199625406, -38.639769278514898 ], [ -72.463030987979494, -38.639828051345702 ], [ -72.463455038480603, -38.639815483200898 ], [ -72.463855083378704, -38.639768566783097 ], [ -72.464098056508604, -38.639708775524902 ], [ -72.464297234223807, -38.639667812263497 ], [ -72.464517043563106, -38.639591177713903 ], [ -72.464258886781195, -38.6393358921908 ], [ -72.463179111331797, -38.638263550223499 ], [ -72.462209320613695, -38.638081936288103 ], [ -72.462030776286696, -38.638087226250697 ], [ -72.461718324175294, -38.638096483014003 ], [ -72.461519148948099, -38.638137441750096 ], [ -72.461253861821902, -38.6381978885479 ], [ -72.461247985923706, -38.638199846233903 ], [ -72.461757102173493, -38.6389016838814 ], [ -72.461490126578497, -38.638927122008603 ], [ -72.461226522321795, -38.639022577306598 ], [ -72.460984392602796, -38.639099866785102 ] ] ] } },
{ "type": "Feature", "properties": { "id": "monoparte.6", "Name": null, "description": null, "timestamp": null, "begin": null, "end": null, "altitudeMode": null, "tessellate": -1, "extrude": 0, "visibility": -1, "drawOrder": null, "icon": null, "REG": "Araucanía", "COM": "Lautaro", "LOC": "Pillanlelbun", "ZONA": "ZE1", "NOM": "Área de Extensión Urbana ZE1", "UPERM": "Vivienda; equipamiento a escala comunal y vecinal.", "UPROH": "Todos los no mencionados anteriormente.", "P_DO": "19/02/1988", "N_DOC": "1", "T_DO": "Decreto", "OBS": null }, "geometry": { "type": "Polygon", "coordinates": [ [ [ -72.441821139580895, -38.632373639301001 ], [ -72.441461333238806, -38.6332607080518 ], [ -72.442381483434005, -38.633822154131202 ], [ -72.4425236405215, -38.633509889367303 ], [ -72.442547094652795, -38.633506552685901 ], [ -72.442786938701303, -38.632941190445102 ], [ -72.444304806132607, -38.6333697569588 ], [ -72.443979357281606, -38.632876295254697 ], [ -72.443858983023901, -38.6329271310141 ], [ -72.441821139580895, -38.632373639301001 ] ] ] } },
{ "type": "Feature", "properties": { "id": "monoparte.7", "Name": null, "description": null, "timestamp": null, "begin": null, "end": null, "altitudeMode": null, "tessellate": -1, "extrude": 0, "visibility": -1, "drawOrder": null, "icon": null, "REG": "Araucanía", "COM": "Lautaro", "LOC": "Pillanlelbun", "ZONA": "ZE1", "NOM": "Área de Extensión Urbana ZE1", "UPERM": "Vivienda; equipamiento a escala comunal y vecinal.", "UPROH": "Todos los no mencionados anteriormente.", "P_DO": "19/02/1988", "N_DOC": "1", "T_DO": "Decreto", "OBS": null }, "geometry": { "type": "Polygon", "coordinates": [ [ [ -72.450263093187402, -38.630776682034202 ], [ -72.445334061654293, -38.632820661683297 ], [ -72.445613953215599, -38.6331733990814 ], [ -72.450018984395896, -38.631360607475699 ], [ -72.452506675021894, -38.6352312520021 ], [ -72.452990918661598, -38.635023115326298 ], [ -72.450263093187402, -38.630776682034202 ] ] ] } },
{ "type": "Feature", "properties": { "id": "monoparte.8", "Name": null, "description": null, "timestamp": null, "begin": null, "end": null, "altitudeMode": null, "tessellate": -1, "extrude": 0, "visibility": -1, "drawOrder": null, "icon": null, "REG": "Araucanía", "COM": "Lautaro", "LOC": "Pillanlelbun", "ZONA": "ZE1", "NOM": "Área de Extensión Urbana ZE1", "UPERM": "Vivienda; equipamiento a escala comunal y vecinal.", "UPROH": "Todos los no mencionados anteriormente.", "P_DO": "19/02/1988", "N_DOC": "1", "T_DO": "Decreto", "OBS": null }, "geometry": { "type": "Polygon", "coordinates": [ [ [ -72.450614003758901, -38.630631153220897 ], [ -72.452469258727405, -38.633547935327996 ], [ -72.452931694578595, -38.633378107000901 ], [ -72.452638675249702, -38.632860883432699 ], [ -72.453910330522106, -38.632350010853798 ], [ -72.454176835123704, -38.632780367854402 ], [ -72.454352844698207, -38.6327225773923 ], [ -72.454870827500699, -38.631410089237797 ], [ -72.455796723596805, -38.6316105935324 ], [ -72.460307668504598, -38.6385063815354 ], [ -72.460791925151895, -38.638351805012 ], [ -72.456302420404995, -38.6314378738142 ], [ -72.456821202126207, -38.630142883144899 ], [ -72.455956022469096, -38.628415534082599 ], [ -72.450614003758901, -38.630631153220897 ] ] ] } },
{ "type": "Feature", "properties": { "id": "monoparte.9", "Name": null, "description": null, "timestamp": null, "begin": null, "end": null, "altitudeMode": null, "tessellate": -1, "extrude": 0, "visibility": -1, "drawOrder": null, "icon": null, "REG": "Araucanía", "COM": "Lautaro", "LOC": "Pillanlelbun", "ZONA": "ZE2", "NOM": "Área de Extensión Urbana ZE2", "UPERM": "Equipamiento cultural, deportivo, recreacional, turístico y de áreas verdes a escala comunal.", "UPROH": "Todos los no mencionados anteriormente.", "P_DO": "19/02/1988", "N_DOC": "1", "T_DO": "Decreto", "OBS": null }, "geometry": { "type": "Polygon", "coordinates": [ [ [ -72.450537078034898, -38.640700245757998 ], [ -72.450315213719094, -38.6403269158059 ], [ -72.450316768244505, -38.640300151323103 ], [ -72.450292054727498, -38.640310070404198 ], [ -72.447680941088294, -38.636197611076298 ], [ -72.446474446117193, -38.636671437006697 ], [ -72.4449013123523, -38.634158527934702 ], [ -72.442545957318401, -38.633509231931797 ], [ -72.442547094652795, -38.633506552685901 ], [ -72.4425236405215, -38.633509889367303 ], [ -72.442381483434005, -38.633822154131202 ], [ -72.442612385351197, -38.6339630405419 ], [ -72.442864580117501, -38.634095846571199 ], [ -72.443073817240801, -38.6342649753852 ], [ -72.443194625485305, -38.6344542395709 ], [ -72.443315434394606, -38.634643503597196 ], [ -72.443508227454203, -38.6349358236792 ], [ -72.443863114229302, -38.635346071294798 ], [ -72.444002889514806, -38.635464657624901 ], [ -72.444117832004594, -38.635531387900002 ], [ -72.444276570853603, -38.635579297923002 ], [ -72.444434471159894, -38.635609702281798 ], [ -72.444665196329495, -38.6357606663314 ], [ -72.444875282599895, -38.635947296854098 ], [ -72.445084529952396, -38.636116422452197 ], [ -72.445236053610799, -38.636480072248403 ], [ -72.445265922840903, -38.636636956703697 ], [ -72.445521487833105, -38.636839774350797 ], [ -72.4459341192605, -38.6370554899041 ], [ -72.446047387747001, -38.637087208153901 ], [ -72.446229288217395, -38.637151961635702 ], [ -72.446549294756693, -38.637300288680997 ], [ -72.446713074805402, -38.6374532220783 ], [ -72.446925689539597, -38.637692362756098 ], [ -72.447068832126206, -38.6378809637689 ], [ -72.447438516806798, -38.638132999162302 ], [ -72.447556824832006, -38.638269743577901 ], [ -72.447678491644396, -38.638476506631299 ], [ -72.447686887489198, -38.638651553129499 ], [ -72.447761398773906, -38.638807119647097 ], [ -72.447900348819701, -38.638908196144698 ], [ -72.448017818258606, -38.639027435549302 ], [ -72.448089812720497, -38.639130487480998 ], [ -72.448142846687205, -38.639304216716504 ], [ -72.448129765105605, -38.639497426153099 ], [ -72.448097723798, -38.639761312907297 ], [ -72.448020204102207, -38.640009012386798 ], [ -72.448070719513296, -38.640130227336897 ], [ -72.448122075989104, -38.640268946677999 ], [ -72.448308185315597, -38.640421219603802 ], [ -72.448468618382805, -38.640504132132698 ], [ -72.448628210797906, -38.640569540010603 ], [ -72.448832442313005, -38.640633629254403 ], [ -72.449084671927096, -38.640766420107902 ], [ -72.449312062207298, -38.640847355042602 ], [ -72.449473337401798, -38.640947770519197 ], [ -72.4495693352073, -38.641085171312703 ], [ -72.450537078034898, -38.640700245757998 ] ] ] } },
{ "type": "Feature", "properties": { "id": "monoparte.10", "Name": null, "description": null, "timestamp": null, "begin": null, "end": null, "altitudeMode": null, "tessellate": -1, "extrude": 0, "visibility": -1, "drawOrder": null, "icon": null, "REG": "Araucanía", "COM": "Lautaro", "LOC": "Lautaro", "ZONA": "ZU2", "NOM": "Área Consolidada ZU2", "UPERM": "Vivienda; equipamiento a escala regional, comunal y vecinal; almacenamiento inofensivo.", "UPROH": "Industria de todo tipo y almacenamiento molestos y todos los no mencionados anteriormente.", "P_DO": "19/02/1988", "N_DOC": "1", "T_DO": "Decreto", "OBS": null }, "geometry": { "type": "Polygon", "coordinates": [ [ [ -72.431693697493998, -38.533485523537202 ], [ -72.432309410180693, -38.533952285073198 ], [ -72.4345400789325, -38.533257050998102 ], [ -72.4324381743983, -38.528875942035299 ], [ -72.434174894327995, -38.528422846861503 ], [ -72.434110532469006, -38.528312015106799 ], [ -72.433602159376804, -38.527310178190199 ], [ -72.433386513815606, -38.5273798778789 ], [ -72.432760806682793, -38.527493583637799 ], [ -72.430147259003505, -38.528270259179699 ], [ -72.430328928136703, -38.528777655296501 ], [ -72.4303873647995, -38.528985688416903 ], [ -72.430242119124003, -38.5295047817566 ], [ -72.430253178892897, -38.530248105824398 ], [ -72.430275807478594, -38.530724138958099 ], [ -72.430346918561099, -38.531198750921298 ], [ -72.430443177742603, -38.531691693315501 ], [ -72.430640931240802, -38.532276997382297 ], [ -72.430855687337797, -38.532709258804204 ], [ -72.431290433218606, -38.533173201846701 ], [ -72.431693697493998, -38.533485523537202 ] ] ] } },
{ "type": "Feature", "properties": { "id": "monoparte.11", "Name": null, "description": null, "timestamp": null, "begin": null, "end": null, "altitudeMode": null, "tessellate": -1, "extrude": 0, "visibility": -1, "drawOrder": null, "icon": null, "REG": "Araucanía", "COM": "Lautaro", "LOC": "Lautaro", "ZONA": "ZU2", "NOM": "Área Consolidada ZU2", "UPERM": "Vivienda; equipamiento a escala regional, comunal y vecinal; almacenamiento inofensivo.", "UPROH": "Industria de todo tipo y almacenamiento molestos y todos los no mencionados anteriormente.", "P_DO": "19/02/1988", "N_DOC": "1", "T_DO": "Decreto", "OBS": null }, "geometry": { "type": "Polygon", "coordinates": [ [ [ -72.435090570251205, -38.529522646611603 ], [ -72.436595869052894, -38.532773131973201 ], [ -72.439596985037994, -38.531888089305603 ], [ -72.440617115185603, -38.533936478308298 ], [ -72.437530316605503, -38.5347907699052 ], [ -72.437904600512397, -38.535598879766603 ], [ -72.439313167807896, -38.538665522839402 ], [ -72.439961293450494, -38.540038412199699 ], [ -72.440480049391894, -38.541243492469803 ], [ -72.440731279644396, -38.541956426523399 ], [ -72.441219106747894, -38.541976833066499 ], [ -72.441263679479903, -38.541384418773703 ], [ -72.441251870394296, -38.541136884715002 ], [ -72.4411403594831, -38.540835080232803 ], [ -72.441051277419007, -38.540494481266997 ], [ -72.441044010931705, -38.540342152144703 ], [ -72.441100393048004, -38.5399972719229 ], [ -72.441094943218005, -38.539883025527601 ], [ -72.440882828360202, -38.539507910384202 ], [ -72.440878287170705, -38.539412704425501 ], [ -72.440723742290103, -38.539226573286101 ], [ -72.440720109549702, -38.539150408682801 ], [ -72.440910425790094, -38.539068537579098 ], [ -72.440853765229605, -38.538898594552897 ], [ -72.441860181099301, -38.538621096854001 ], [ -72.442075896209502, -38.538535063073098 ], [ -72.442443973001701, -38.534065769085302 ], [ -72.442761642137597, -38.530547935817097 ], [ -72.441067890534597, -38.526954982832798 ], [ -72.434759956744202, -38.528797822838897 ], [ -72.435090570251205, -38.529522646611603 ] ] ] } },
{ "type": "Feature", "properties": { "id": "monoparte.12", "Name": null, "description": null, "timestamp": null, "begin": null, "end": null, "altitudeMode": null, "tessellate": -1, "extrude": 0, "visibility": -1, "drawOrder": null, "icon": null, "REG": "Araucanía", "COM": "Lautaro", "LOC": "Lautaro", "ZONA": "ZU6", "NOM": "Área Consolidada ZU6", "UPERM": "Equipamiento cultural, deportivo, esparcimiento, turismo y áreas verdes a escala regional, comunal.", "UPROH": "Todos los no mencionados anteriormente.", "P_DO": "19/02/1988", "N_DOC": "1", "T_DO": "Decreto", "OBS": null }, "geometry": { "type": "Polygon", "coordinates": [ [ [ -72.428291450552507, -38.5479352208745 ], [ -72.430103241038196, -38.548605779549398 ], [ -72.430188435111205, -38.548288220002803 ], [ -72.430244872988993, -38.547943343612999 ], [ -72.430898630812493, -38.547905096233002 ], [ -72.431698775183307, -38.547881617462401 ], [ -72.431868501407607, -38.547876636452301 ], [ -72.432194584732002, -38.548095880782 ], [ -72.432494609010703, -38.548277752859498 ], [ -72.432665243493503, -38.548291811226903 ], [ -72.432959832258803, -38.548359434757799 ], [ -72.433451115683695, -38.548478485830799 ], [ -72.4337941992042, -38.548544683324401 ], [ -72.434110315773495, -38.548554468331503 ], [ -72.433926080102694, -38.548254792592203 ], [ -72.433892766190894, -38.548065092494497 ], [ -72.433758840093105, -38.5478020752875 ], [ -72.433674314361795, -38.547556675458402 ], [ -72.433515235569701, -38.547275328381097 ], [ -72.433178276204501, -38.546827593275701 ], [ -72.433197763527104, -38.546216850474501 ], [ -72.433234471739496, -38.545967890849397 ], [ -72.433202973955204, -38.545816272470098 ], [ -72.433117546526603, -38.545551830467801 ], [ -72.432910891111803, -38.545290947263197 ], [ -72.432732107280103, -38.545105517077701 ], [ -72.432689736074195, -38.544725403861598 ], [ -72.432704696005601, -38.544019454128403 ], [ -72.432698352441406, -38.543886165282899 ], [ -72.432643518691407, -38.543754299812903 ], [ -72.432638081465797, -38.543640051576098 ], [ -72.432653265133993, -38.543448927344897 ], [ -72.432689068340096, -38.543180926248802 ], [ -72.432581213553405, -38.542955278271698 ], [ -72.429780472135107, -38.536134881063496 ], [ -72.428643392580895, -38.535195760600502 ], [ -72.427632077584207, -38.534348281560497 ], [ -72.427298836718194, -38.533976689968902 ], [ -72.426970122416193, -38.5337003046589 ], [ -72.426387235477804, -38.533183481778202 ], [ -72.425930085699406, -38.532758311663201 ], [ -72.425544762396996, -38.532311968573197 ], [ -72.425064286376298, -38.5319065471542 ], [ -72.424901983222696, -38.531830639509799 ], [ -72.424629181824102, -38.532146638655703 ], [ -72.424645108240895, -38.532281112546499 ], [ -72.424732453707506, -38.533098475828503 ], [ -72.424820544047705, -38.533420050765798 ], [ -72.424901404583196, -38.533589293706498 ], [ -72.425054088108993, -38.533737365891497 ], [ -72.425256161300197, -38.533903058619202 ], [ -72.425577638184606, -38.534027118144103 ], [ -72.425897307919698, -38.534113094253797 ], [ -72.426189120051802, -38.534123612909397 ], [ -72.426603047340706, -38.534149622026703 ], [ -72.426895762835002, -38.534179180610003 ], [ -72.427142707780902, -38.534267284243903 ], [ -72.4274453748274, -38.534506296935199 ], [ -72.427601683734395, -38.534730531156498 ], [ -72.427715841369306, -38.535089475027704 ], [ -72.427977265521207, -38.535482238520601 ], [ -72.428260221427905, -38.535817166597298 ], [ -72.428541370257804, -38.536114010592897 ], [ -72.428937400842898, -38.536274010268002 ], [ -72.429135869885897, -38.536363530811698 ], [ -72.429281327353806, -38.536359265622998 ], [ -72.430180930627202, -38.5384303503184 ], [ -72.430747301956899, -38.540129845763097 ], [ -72.429765058970005, -38.540406539605698 ], [ -72.430200867729795, -38.543444617012199 ], [ -72.429609220687695, -38.5437670567254 ], [ -72.429683064173204, -38.544298791639001 ], [ -72.428291450552507, -38.5479352208745 ] ] ] } },
{ "type": "Feature", "properties": { "id": "monoparte.13", "Name": null, "description": null, "timestamp": null, "begin": null, "end": null, "altitudeMode": null, "tessellate": -1, "extrude": 0, "visibility": -1, "drawOrder": null, "icon": null, "REG": "Araucanía", "COM": "Lautaro", "LOC": "Lautaro", "ZONA": "ZU6", "NOM": "Área Consolidada ZU6", "UPERM": "Equipamiento cultural, deportivo, esparcimiento, turismo y áreas verdes a escala regional, comunal.", "UPROH": "Todos los no mencionados anteriormente.", "P_DO": "19/02/1988", "N_DOC": "1", "T_DO": "Decreto", "OBS": null }, "geometry": { "type": "Polygon", "coordinates": [ [ [ -72.426621889586301, -38.523299423182102 ], [ -72.426695685497705, -38.523388354609502 ], [ -72.429283752848093, -38.522771404603901 ], [ -72.428794279588004, -38.5221755811557 ], [ -72.428562053498396, -38.520727265421101 ], [ -72.427017361519603, -38.518692294634299 ], [ -72.426670629695494, -38.518855166436602 ], [ -72.425541654140602, -38.522062690040698 ], [ -72.425769598744594, -38.522218449792199 ], [ -72.425947400577797, -38.5223848538539 ], [ -72.426074918170301, -38.522514594196302 ], [ -72.426231195262801, -38.522738831094699 ], [ -72.4263596178982, -38.522887612784302 ], [ -72.426468322827503, -38.523132311142298 ], [ -72.426621889586301, -38.523299423182102 ] ] ] } },
{ "type": "Feature", "properties": { "id": "monoparte.14", "Name": null, "description": null, "timestamp": null, "begin": null, "end": null, "altitudeMode": null, "tessellate": -1, "extrude": 0, "visibility": -1, "drawOrder": null, "icon": null, "REG": "Araucanía", "COM": "Lautaro", "LOC": "Lautaro", "ZONA": "ZE1", "NOM": "Área de Extensión Urbana ZE1", "UPERM": "Vivienda; equipamiento a escala comunal y vecinal.", "UPROH": "Todos los no mencionados anteriormente.", "P_DO": "19/02/1988", "N_DOC": "1", "T_DO": "Decreto", "OBS": null }, "geometry": { "type": "Polygon", "coordinates": [ [ [ -72.426498005447897, -38.5472714116124 ], [ -72.428291450552507, -38.5479352208745 ], [ -72.429683064173204, -38.544298791639001 ], [ -72.429619813485203, -38.543843330300398 ], [ -72.427638367102105, -38.544458757702301 ], [ -72.426498005447897, -38.5472714116124 ] ] ] } },
{ "type": "Feature", "properties": { "id": "monoparte.15", "Name": null, "description": null, "timestamp": null, "begin": null, "end": null, "altitudeMode": null, "tessellate": -1, "extrude": 0, "visibility": -1, "drawOrder": null, "icon": null, "REG": "Araucanía", "COM": "Lautaro", "LOC": "Lautaro", "ZONA": "ZE1", "NOM": "Área de Extensión Urbana ZE1", "UPERM": "Vivienda; equipamiento a escala comunal y vecinal.", "UPROH": "Todos los no mencionados anteriormente.", "P_DO": "19/02/1988", "N_DOC": "1", "T_DO": "Decreto", "OBS": null }, "geometry": { "type": "Polygon", "coordinates": [ [ [ -72.417321475111706, -38.532952968181903 ], [ -72.419195861251396, -38.537433149216596 ], [ -72.419640685828, -38.536813173194403 ], [ -72.419478077304404, -38.536455637525599 ], [ -72.423100398550503, -38.537074248516497 ], [ -72.423195264418297, -38.5360036680135 ], [ -72.423404415755499, -38.535806866658199 ], [ -72.422133705482096, -38.5351194756499 ], [ -72.422289624225598, -38.534813733566601 ], [ -72.420990417271199, -38.534046984585302 ], [ -72.420117563146505, -38.533557679511802 ], [ -72.419717955439495, -38.5333214819291 ], [ -72.419446779230995, -38.533234070830702 ], [ -72.419250134579102, -38.533182616483501 ], [ -72.418953815862494, -38.533076871988101 ], [ -72.418733831656098, -38.533045166367302 ], [ -72.418438416298699, -38.532958462340403 ], [ -72.418169046911402, -38.532909131826202 ], [ -72.4178763385151, -38.532879550070902 ], [ -72.417562994295693, -38.532926843451399 ], [ -72.417321475111706, -38.532952968181903 ] ] ] } },
{ "type": "Feature", "properties": { "id": "monoparte.16", "Name": null, "description": null, "timestamp": null, "begin": null, "end": null, "altitudeMode": null, "tessellate": -1, "extrude": 0, "visibility": -1, "drawOrder": null, "icon": null, "REG": "Araucanía", "COM": "Lautaro", "LOC": "Lautaro", "ZONA": "ZE1", "NOM": "Área de Extensión Urbana ZE1", "UPERM": "Vivienda; equipamiento a escala comunal y vecinal.", "UPROH": "Todos los no mencionados anteriormente.", "P_DO": "19/02/1988", "N_DOC": "1", "T_DO": "Decreto", "OBS": null }, "geometry": { "type": "Polygon", "coordinates": [ [ [ -72.4247874516211, -38.515153936281401 ], [ -72.427330487557398, -38.518545206551103 ], [ -72.427406612807403, -38.518509447303401 ], [ -72.428106221672294, -38.519442341735797 ], [ -72.4286061616815, -38.519237008594899 ], [ -72.427669431422203, -38.517910639568697 ], [ -72.4294276766406, -38.517115452050803 ], [ -72.429323494738895, -38.516965962866003 ], [ -72.428632393594597, -38.517234106222197 ], [ -72.427826816105593, -38.516113641623598 ], [ -72.4289451167773, -38.515642300143497 ], [ -72.429853983113603, -38.516893204560503 ], [ -72.4296897554797, -38.5170124275446 ], [ -72.431220157925907, -38.5190840822683 ], [ -72.431127734278903, -38.519182132661399 ], [ -72.433378546712504, -38.522109745187898 ], [ -72.436276901271796, -38.521300048056801 ], [ -72.436011631824101, -38.520316310675298 ], [ -72.436567278557405, -38.520261849716597 ], [ -72.435838768539199, -38.517194252673796 ], [ -72.436685387534297, -38.516932238476997 ], [ -72.435256644006202, -38.5161816844385 ], [ -72.434761958787604, -38.515986464978504 ], [ -72.434216992197506, -38.515754584229803 ], [ -72.433597510491893, -38.515486752854898 ], [ -72.433242815945903, -38.515173009041902 ], [ -72.433058679533204, -38.514873327312202 ], [ -72.432940913912205, -38.514438221843399 ], [ -72.433047606264196, -38.514130003101698 ], [ -72.4330304048177, -38.513768217878301 ], [ -72.432995305372899, -38.513540433431601 ], [ -72.432861456050702, -38.513277410799297 ], [ -72.432534632197004, -38.513039118403 ], [ -72.431961839561794, -38.512731771242898 ], [ -72.431288493820205, -38.5123510990501 ], [ -72.431167958480103, -38.512140839020503 ], [ -72.4247874516211, -38.515153936281401 ] ] ] } },
{ "type": "Feature", "properties": { "id": "monoparte.17", "Name": null, "description": null, "timestamp": null, "begin": null, "end": null, "altitudeMode": null, "tessellate": -1, "extrude": 0, "visibility": -1, "drawOrder": null, "icon": null, "REG": "Araucanía", "COM": "Lautaro", "LOC": "Lautaro", "ZONA": "ZU3", "NOM": "Área Consolidada ZU3", "UPERM": "Vivienda; equipamiento a escala comunal vecinal; industria inofensiva y almacenamiento inofensivo.", "UPROH": "Todos los no mencionados anteriormente.", "P_DO": "19/02/1988", "N_DOC": "1", "T_DO": "Decreto", "OBS": null }, "geometry": { "type": "Polygon", "coordinates": [ [ [ -72.427867166949497, -38.5438944058888 ], [ -72.427638367102105, -38.544458757702301 ], [ -72.429619813485203, -38.543843330300398 ], [ -72.429609220687695, -38.5437670567254 ], [ -72.430200867729795, -38.543444617012199 ], [ -72.429765058970005, -38.540406539605698 ], [ -72.430747301956899, -38.540129845763097 ], [ -72.430180930627202, -38.5384303503184 ], [ -72.429281327353806, -38.536359265622998 ], [ -72.429135869885897, -38.536363530811698 ], [ -72.428937400842898, -38.536274010268002 ], [ -72.428541370257804, -38.536114010592897 ], [ -72.428260221427905, -38.535817166597298 ], [ -72.427977265521207, -38.535482238520601 ], [ -72.427715841369306, -38.535089475027704 ], [ -72.427601683734395, -38.534730531156498 ], [ -72.4274453748274, -38.534506296935199 ], [ -72.427142707780902, -38.534267284243903 ], [ -72.426895762835002, -38.534179180610003 ], [ -72.426603047340706, -38.534149622026703 ], [ -72.426189120051802, -38.534123612909397 ], [ -72.425897307919698, -38.534113094253797 ], [ -72.425577638184606, -38.534027118144103 ], [ -72.425256161300197, -38.533903058619202 ], [ -72.425054088108993, -38.533737365891497 ], [ -72.424901404583196, -38.533589293706498 ], [ -72.424820544047705, -38.533420050765798 ], [ -72.424732453707506, -38.533098475828503 ], [ -72.424645108240895, -38.532281112546499 ], [ -72.424629181824102, -38.532146638655703 ], [ -72.423560559870694, -38.533384443508503 ], [ -72.423605727693598, -38.533398415826099 ], [ -72.425124266730094, -38.534192940546298 ], [ -72.425647819365196, -38.534482692333498 ], [ -72.426377073070299, -38.535014298757702 ], [ -72.426633968098599, -38.535311858150898 ], [ -72.426766938920807, -38.535555844561699 ], [ -72.426875666427506, -38.535800542091103 ], [ -72.426888328398803, -38.536067120875103 ], [ -72.426828261694496, -38.536335831680098 ], [ -72.426743951177798, -38.536605252836701 ], [ -72.426632684541403, -38.536818260176197 ], [ -72.426350808970199, -38.537017197916803 ], [ -72.426260167025504, -38.5371533288899 ], [ -72.426195574752995, -38.537326832953902 ], [ -72.426180375113802, -38.5375179572085 ], [ -72.426067295849705, -38.5376928808126 ], [ -72.425886912119296, -38.5379841840737 ], [ -72.425662449534101, -38.538513531788702 ], [ -72.427907514033805, -38.543721611697499 ], [ -72.427867166949497, -38.5438944058888 ] ] ] } },
{ "type": "Feature", "properties": { "id": "monoparte.18", "Name": null, "description": null, "timestamp": null, "begin": null, "end": null, "altitudeMode": null, "tessellate": -1, "extrude": 0, "visibility": -1, "drawOrder": null, "icon": null, "REG": "Araucanía", "COM": "Lautaro", "LOC": "Lautaro", "ZONA": "ZU3", "NOM": "Área Consolidada ZU3", "UPERM": "Vivienda; equipamiento a escala comunal vecinal; industria inofensiva y almacenamiento inofensivo.", "UPROH": "Todos los no mencionados anteriormente.", "P_DO": "19/02/1988", "N_DOC": "1", "T_DO": "Decreto", "OBS": null }, "geometry": { "type": "Polygon", "coordinates": [ [ [ -72.436795533036801, -38.516899194092296 ], [ -72.436700400674198, -38.516940124758001 ], [ -72.436685387534297, -38.516932238476997 ], [ -72.435838768539199, -38.517194252673796 ], [ -72.436567278557405, -38.520261849716597 ], [ -72.436011631824101, -38.520316310675298 ], [ -72.436276901271796, -38.521300048056801 ], [ -72.433409770495501, -38.522101022795702 ], [ -72.433403146223498, -38.522116649611696 ], [ -72.431414917766901, -38.522670763792803 ], [ -72.427811595712996, -38.517846345500097 ], [ -72.427669431422203, -38.517910639568697 ], [ -72.4286061616815, -38.519237008594899 ], [ -72.428106221672294, -38.519442341735797 ], [ -72.427406612807403, -38.518509447303401 ], [ -72.427340696685704, -38.5185404112786 ], [ -72.429020011033401, -38.520796072964899 ], [ -72.429534618802506, -38.521410226877997 ], [ -72.429791473661695, -38.521707781537202 ], [ -72.430244045769101, -38.522037732087497 ], [ -72.430848386315603, -38.522496704444599 ], [ -72.431180680922907, -38.522849246534598 ], [ -72.431698944638597, -38.5235395538201 ], [ -72.431917297319103, -38.524047980278397 ], [ -72.432062937873397, -38.524558540857697 ], [ -72.432202241208003, -38.524935810910499 ], [ -72.432356731524493, -38.525121956133702 ], [ -72.432723246617897, -38.525683236188002 ], [ -72.433237923853895, -38.526297370258398 ], [ -72.434017656054905, -38.527380416317499 ], [ -72.434575626542397, -38.5283936975815 ], [ -72.434759956744202, -38.528797822838897 ], [ -72.441067890534597, -38.526954982832798 ], [ -72.441006224790698, -38.526824161688303 ], [ -72.438946278412402, -38.522308460849501 ], [ -72.438937206784303, -38.5221180488819 ], [ -72.438878752829396, -38.521910020722999 ], [ -72.438864238765603, -38.521605361708502 ], [ -72.438902735361694, -38.5213944829718 ], [ -72.438869426183004, -38.521204783609498 ], [ -72.438658291875697, -38.520848700933001 ], [ -72.438743645246106, -38.520823526305001 ], [ -72.438677086300899, -38.520733741312199 ], [ -72.438513521754203, -38.520357192508499 ], [ -72.438422670592004, -38.519978505843298 ], [ -72.438404531692001, -38.519597681538599 ], [ -72.438547233080996, -38.519536282844797 ], [ -72.438623069814696, -38.518580658523902 ], [ -72.438445250263996, -38.518414275483103 ], [ -72.438211702828596, -38.518096986906002 ], [ -72.438006929345704, -38.517874191011799 ], [ -72.437847001588196, -38.517573805804901 ], [ -72.437644044143795, -38.517389092150701 ], [ -72.437466229841505, -38.517222706451399 ], [ -72.437316279302706, -38.5171317742507 ], [ -72.437214801164998, -38.517039416514301 ], [ -72.436916713591899, -38.516895633370197 ], [ -72.436795533036801, -38.516899194092296 ] ] ] } },
{ "type": "Feature", "properties": { "id": "monoparte.19", "Name": null, "description": null, "timestamp": null, "begin": null, "end": null, "altitudeMode": null, "tessellate": -1, "extrude": 0, "visibility": -1, "drawOrder": null, "icon": null, "REG": "Araucanía", "COM": "Lautaro", "LOC": "Lautaro", "ZONA": "ZU4", "NOM": "Área Consolidada ZU4", "UPERM": "Vivienda; equipamiento a escala vecinal.", "UPROH": "Todos los no mencionados anteriormente.", "P_DO": "19/02/1988", "N_DOC": "1", "T_DO": "Decreto", "OBS": null }, "geometry": { "type": "Polygon", "coordinates": [ [ [ -72.437814229043795, -38.551459215421097 ], [ -72.437962701631406, -38.551514149859301 ], [ -72.439962133415193, -38.546673992274101 ], [ -72.440439230720202, -38.545477751495497 ], [ -72.440577158881197, -38.5448063194752 ], [ -72.440616287015999, -38.544099658966097 ], [ -72.440581493501199, -38.542861273140403 ], [ -72.440427574017804, -38.542179360228097 ], [ -72.440193658752804, -38.541347257397597 ], [ -72.439653386082696, -38.540200011167698 ], [ -72.438108128072699, -38.5368132396178 ], [ -72.437224605580099, -38.534898059813401 ], [ -72.433657539858999, -38.535938788752802 ], [ -72.433680844162396, -38.535963224517197 ], [ -72.434482897620299, -38.536492641398198 ], [ -72.435060428373305, -38.536895171642698 ], [ -72.435364944115307, -38.537172245019399 ], [ -72.435727924106999, -38.537657345705902 ], [ -72.435914857279599, -38.538014143485398 ], [ -72.436186313113694, -38.538616338467897 ], [ -72.436490181541998, -38.539389191476999 ], [ -72.436537102959605, -38.5398645092043 ], [ -72.436550709601505, -38.5401501274564 ], [ -72.436616432769, -38.540510484805701 ], [ -72.436603075149407, -38.540739691988101 ], [ -72.436772127397305, -38.541230487598398 ], [ -72.436927573272996, -38.541435665664999 ], [ -72.437064220129997, -38.541755802875599 ], [ -72.437344521283094, -38.542033582148598 ], [ -72.437428143996001, -38.542259937801902 ], [ -72.437620543891597, -38.542730978446798 ], [ -72.437730227635399, -38.5429947039433 ], [ -72.437891126871307, -38.543314127063802 ], [ -72.438032319085394, -38.543729468908502 ], [ -72.438125930512101, -38.544165276656699 ], [ -72.438044379968801, -38.544491827441099 ], [ -72.437981626567506, -38.544703418757798 ], [ -72.437965550562097, -38.544875501559403 ], [ -72.437999779528397, -38.545084241596903 ], [ -72.438395236686802, -38.545739988784803 ], [ -72.438569762301498, -38.546345026922999 ], [ -72.438657934237796, -38.546666587216897 ], [ -72.4386463992156, -38.546933876071201 ], [ -72.438567571393406, -38.547317551339098 ], [ -72.438540866967202, -38.547775964416502 ], [ -72.438512347752393, -38.548196294659299 ], [ -72.438460489122505, -38.548636379259797 ], [ -72.438401366960406, -38.548924135417003 ], [ -72.438335889260401, -38.5490786036166 ], [ -72.438295565379207, -38.5492513993606 ], [ -72.438284937205296, -38.549537729554501 ], [ -72.438273399991402, -38.549805018383502 ], [ -72.438285202525506, -38.550052552850602 ], [ -72.438228802579502, -38.5503974322164 ], [ -72.438024192408307, -38.5506894649915 ], [ -72.4379847761587, -38.550881302024102 ], [ -72.437872615744894, -38.551075278663603 ], [ -72.437925650909307, -38.551169058023198 ], [ -72.437814229043795, -38.551459215421097 ] ] ] } },
{ "type": "Feature", "properties": { "id": "monoparte.20", "Name": null, "description": null, "timestamp": null, "begin": null, "end": null, "altitudeMode": null, "tessellate": -1, "extrude": 0, "visibility": -1, "drawOrder": null, "icon": null, "REG": "Araucanía", "COM": "Lautaro", "LOC": "Lautaro", "ZONA": "ZU4", "NOM": "Área Consolidada ZU4", "UPERM": "Vivienda; equipamiento a escala vecinal.", "UPROH": "Todos los no mencionados anteriormente.", "P_DO": "19/02/1988", "N_DOC": "1", "T_DO": "Decreto", "OBS": null }, "geometry": { "type": "Polygon", "coordinates": [ [ [ -72.423560559870694, -38.533384443508503 ], [ -72.422314099657598, -38.534828177663599 ], [ -72.422289624225598, -38.534813733566601 ], [ -72.422133705482096, -38.5351194756499 ], [ -72.423404415755499, -38.535806866658199 ], [ -72.423195264418297, -38.5360036680135 ], [ -72.423100398550503, -38.537074248516497 ], [ -72.419478077304404, -38.536455637525599 ], [ -72.419640685828, -38.536813173194403 ], [ -72.419195861251396, -38.537433149216596 ], [ -72.419402109780506, -38.537926089120397 ], [ -72.423173582346607, -38.538616607173502 ], [ -72.423347807403402, -38.538706847213199 ], [ -72.423570521351294, -38.538795666589898 ], [ -72.423863255225896, -38.538825232837503 ], [ -72.425642836677596, -38.5384680308306 ], [ -72.425662449534101, -38.538513531788702 ], [ -72.425886912119296, -38.5379841840737 ], [ -72.426067295849705, -38.5376928808126 ], [ -72.426180375113802, -38.5375179572085 ], [ -72.426195574752995, -38.537326832953902 ], [ -72.426260167025504, -38.5371533288899 ], [ -72.426350808970199, -38.537017197916803 ], [ -72.426632684541403, -38.536818260176197 ], [ -72.426743951177798, -38.536605252836701 ], [ -72.426828261694496, -38.536335831680098 ], [ -72.426888328398803, -38.536067120875103 ], [ -72.426875666427506, -38.535800542091103 ], [ -72.426766938920807, -38.535555844561699 ], [ -72.426633968098599, -38.535311858150898 ], [ -72.426377073070299, -38.535014298757702 ], [ -72.425647819365196, -38.534482692333498 ], [ -72.425124266730094, -38.534192940546298 ], [ -72.423605727693598, -38.533398415826099 ], [ -72.423560559870694, -38.533384443508503 ] ] ] } },
{ "type": "Feature", "properties": { "id": "monoparte.21", "Name": null, "description": null, "timestamp": null, "begin": null, "end": null, "altitudeMode": null, "tessellate": -1, "extrude": 0, "visibility": -1, "drawOrder": null, "icon": null, "REG": "Araucanía", "COM": "Lautaro", "LOC": "Lautaro", "ZONA": "ZU4", "NOM": "Área Consolidada ZU4", "UPERM": "Vivienda; equipamiento a escala vecinal.", "UPROH": "Todos los no mencionados anteriormente.", "P_DO": "19/02/1988", "N_DOC": "1", "T_DO": "Decreto", "OBS": null }, "geometry": { "type": "Polygon", "coordinates": [ [ [ -72.442443973001701, -38.534065769085302 ], [ -72.442075896209502, -38.538535063073098 ], [ -72.442169894812196, -38.538497574341299 ], [ -72.442335055315695, -38.538397373307198 ], [ -72.442416581370296, -38.538070820470502 ], [ -72.4425726542771, -38.537780208413601 ], [ -72.442830241598799, -38.537581947211798 ], [ -72.443094188763197, -38.537516973040603 ], [ -72.443261163354705, -38.5374548535111 ], [ -72.443531471670497, -38.537523165881503 ], [ -72.443702081470704, -38.537537209230898 ], [ -72.443914814057393, -38.537416537968603 ], [ -72.444054817378998, -38.537298008232199 ], [ -72.444072697578804, -38.537164006860202 ], [ -72.444016031512106, -38.536994065599004 ], [ -72.443984516604104, -38.536842450806198 ], [ -72.443977244879704, -38.536690122058999 ], [ -72.444064217035603, -38.5364778145073 ], [ -72.444152097726601, -38.5362845482247 ], [ -72.444233613783396, -38.5359579945166 ], [ -72.4442021002274, -38.535806380626497 ], [ -72.444324828799296, -38.535326070193001 ], [ -72.444224223766597, -38.535252761705102 ], [ -72.444172103968995, -38.535178025218698 ], [ -72.444177257174601, -38.534777448971802 ], [ -72.444207562839694, -38.5343952000446 ], [ -72.444215442922697, -38.534051746831999 ], [ -72.444210898269802, -38.533956542018103 ], [ -72.444107569804103, -38.533826110214001 ], [ -72.444003331695697, -38.533676637004703 ], [ -72.443972727659002, -38.533544063398303 ], [ -72.443965456859999, -38.533391735462899 ], [ -72.444159090452203, -38.532871200879804 ], [ -72.444394234001905, -38.532711733639204 ], [ -72.444630284324603, -38.5325713064232 ], [ -72.444883301654002, -38.532277836027802 ], [ -72.444993599147196, -38.532045773552603 ], [ -72.445032080938503, -38.531834893679303 ], [ -72.445025717393904, -38.531701606283697 ], [ -72.444926027234004, -38.531647339442401 ], [ -72.444722100102993, -38.531443599846902 ], [ -72.444491207352797, -38.531183450687401 ], [ -72.444356369462, -38.530901404049899 ], [ -72.444201538727199, -38.530200454137798 ], [ -72.444053073884007, -38.529632791361301 ], [ -72.443972174518294, -38.529463563462201 ], [ -72.443882188588304, -38.529103923836303 ], [ -72.443801290301806, -38.5289346957601 ], [ -72.4438388659579, -38.528704774755397 ], [ -72.443831596699098, -38.528552446672499 ], [ -72.443705853195098, -38.528460809635 ], [ -72.443605260003807, -38.5283875000354 ], [ -72.443692223954898, -38.528175192961498 ], [ -72.443923718266205, -38.527939562760501 ], [ -72.444042191499904, -38.527878870633302 ], [ -72.444034921984198, -38.527726541661899 ], [ -72.444003412556, -38.5275749264908 ], [ -72.443999777914598, -38.527498762898198 ], [ -72.443996143243993, -38.527422598404797 ], [ -72.443988873944093, -38.527270269414103 ], [ -72.443979787417803, -38.5270798586184 ], [ -72.443897074269202, -38.526872547762601 ], [ -72.443721946965994, -38.526763297626502 ], [ -72.443522581660403, -38.5266547608595 ], [ -72.443325032697103, -38.526584305586198 ], [ -72.443176871798201, -38.526531464107897 ], [ -72.442955083854798, -38.5264617217886 ], [ -72.442805106791397, -38.526370797064601 ], [ -72.442721489668102, -38.526144444683403 ], [ -72.442610000624398, -38.525842640177999 ], [ -72.442517302705298, -38.5254258764407 ], [ -72.442241312445006, -38.524728489141303 ], [ -72.4421522508283, -38.524387888663298 ], [ -72.442119839229903, -38.524217231265297 ], [ -72.442111666690394, -38.5240458613927 ], [ -72.441857477915505, -38.523805459971797 ], [ -72.441724481973594, -38.523561491696803 ], [ -72.441587856538604, -38.523241358445603 ], [ -72.441580593401895, -38.523089028959802 ], [ -72.441520314067603, -38.522842920650099 ], [ -72.441417915533094, -38.522731525813299 ], [ -72.441265223909596, -38.522583476194797 ], [ -72.441111626268807, -38.522416383988698 ], [ -72.440983175370405, -38.522267620776603 ], [ -72.440952583249299, -38.522135045684202 ], [ -72.440822316738704, -38.521948199427001 ], [ -72.440697497736494, -38.521875599752399 ], [ -72.440551162434403, -38.521860836373897 ], [ -72.440427251394695, -38.5218072778273 ], [ -72.439887667528197, -38.521689673477901 ], [ -72.439766479313604, -38.521693237645998 ], [ -72.4395447094156, -38.521623487961499 ], [ -72.439394746888496, -38.521532559030902 ], [ -72.439192679803895, -38.5213668894677 ], [ -72.439092101348294, -38.521293575237102 ], [ -72.438743645246106, -38.520823526305001 ], [ -72.438658291875697, -38.520848700933001 ], [ -72.438869426183004, -38.521204783609498 ], [ -72.438902735361694, -38.5213944829718 ], [ -72.438864238765603, -38.521605361708502 ], [ -72.438878752829396, -38.521910020722999 ], [ -72.438937206784303, -38.5221180488819 ], [ -72.438946278412402, -38.522308460849501 ], [ -72.441006224790698, -38.526824161688303 ], [ -72.442761642137597, -38.530547935817097 ], [ -72.442443973001701, -38.534065769085302 ] ] ] } },
{ "type": "Feature", "properties": { "id": "monoparte.22", "Name": null, "description": null, "timestamp": null, "begin": null, "end": null, "altitudeMode": null, "tessellate": -1, "extrude": 0, "visibility": -1, "drawOrder": null, "icon": null, "REG": "Araucanía", "COM": "Lautaro", "LOC": "Lautaro", "ZONA": "ZU4", "NOM": "Área Consolidada ZU4", "UPERM": "Vivienda; equipamiento a escala vecinal.", "UPROH": "Todos los no mencionados anteriormente.", "P_DO": "19/02/1988", "N_DOC": "1", "T_DO": "Decreto", "OBS": null }, "geometry": { "type": "Polygon", "coordinates": [ [ [ -72.427826816105593, -38.516113641623598 ], [ -72.428632393594597, -38.517234106222197 ], [ -72.429323494738895, -38.516965962866003 ], [ -72.4294276766406, -38.517115452050803 ], [ -72.427811595712996, -38.517846345500097 ], [ -72.431414917766901, -38.522670763792803 ], [ -72.433403146223498, -38.522116649611696 ], [ -72.433409770495501, -38.522101022795702 ], [ -72.433378546712504, -38.522109745187898 ], [ -72.431127734278903, -38.519182132661399 ], [ -72.431220157925907, -38.5190840822683 ], [ -72.4296897554797, -38.5170124275446 ], [ -72.429853983113603, -38.516893204560503 ], [ -72.4289451167773, -38.515642300143497 ], [ -72.427826816105593, -38.516113641623598 ] ] ] } },
{ "type": "Feature", "properties": { "id": "monoparte.23", "Name": null, "description": null, "timestamp": null, "begin": null, "end": null, "altitudeMode": null, "tessellate": -1, "extrude": 0, "visibility": -1, "drawOrder": null, "icon": null, "REG": "Araucanía", "COM": "Lautaro", "LOC": "Lautaro", "ZONA": "ZR3", "NOM": "Área Especial ZR3", "UPERM": "Equipamiento de áreas verdes.", "UPROH": "Todos los no mencionados anteriormente.", "P_DO": "19/02/1988", "N_DOC": "1", "T_DO": "Decreto", "OBS": null }, "geometry": { "type": "Polygon", "coordinates": [ [ [ -72.437814229043795, -38.551459215421097 ], [ -72.437925650909307, -38.551169058023198 ], [ -72.437872615744894, -38.551075278663603 ], [ -72.4379847761587, -38.550881302024102 ], [ -72.438024192408307, -38.5506894649915 ], [ -72.438228802579502, -38.5503974322164 ], [ -72.438285202525506, -38.550052552850602 ], [ -72.438273399991402, -38.549805018383502 ], [ -72.438284937205296, -38.549537729554501 ], [ -72.438295565379207, -38.5492513993606 ], [ -72.438335889260401, -38.5490786036166 ], [ -72.438401366960406, -38.548924135417003 ], [ -72.438460489122505, -38.548636379259797 ], [ -72.438512347752393, -38.548196294659299 ], [ -72.438540866967202, -38.547775964416502 ], [ -72.438567571393406, -38.547317551339098 ], [ -72.4386463992156, -38.546933876071201 ], [ -72.438657934237796, -38.546666587216897 ], [ -72.438569762301498, -38.546345026922999 ], [ -72.438395236686802, -38.545739988784803 ], [ -72.437999779528397, -38.545084241596903 ], [ -72.437965550562097, -38.544875501559403 ], [ -72.437981626567506, -38.544703418757798 ], [ -72.438044379968801, -38.544491827441099 ], [ -72.438125930512101, -38.544165276656699 ], [ -72.438032319085394, -38.543729468908502 ], [ -72.437891126871307, -38.543314127063802 ], [ -72.437730227635399, -38.5429947039433 ], [ -72.437620543891597, -38.542730978446798 ], [ -72.437428143996001, -38.542259937801902 ], [ -72.437344521283094, -38.542033582148598 ], [ -72.437064220129997, -38.541755802875599 ], [ -72.436927573272996, -38.541435665664999 ], [ -72.436772127397305, -38.541230487598398 ], [ -72.436603075149407, -38.540739691988101 ], [ -72.436616432769, -38.540510484805701 ], [ -72.436550709601505, -38.5401501274564 ], [ -72.436537102959605, -38.5398645092043 ], [ -72.436490181541998, -38.539389191476999 ], [ -72.436186313113694, -38.538616338467897 ], [ -72.435914857279599, -38.538014143485398 ], [ -72.435727924106999, -38.537657345705902 ], [ -72.435364944115307, -38.537172245019399 ], [ -72.435060428373305, -38.536895171642698 ], [ -72.434482897620299, -38.536492641398198 ], [ -72.433680844162396, -38.535963224517197 ], [ -72.433220916429505, -38.535480963100902 ], [ -72.432927067847402, -38.5349175521863 ], [ -72.432734722783195, -38.534446501808702 ], [ -72.432323296317705, -38.533962811966902 ], [ -72.431693697493998, -38.533485523537202 ], [ -72.431290433218606, -38.533173201846701 ], [ -72.430855687337797, -38.532709258804204 ], [ -72.430640931240802, -38.532276997382297 ], [ -72.430443177742603, -38.531691693315501 ], [ -72.430346918561099, -38.531198750921298 ], [ -72.430275807478594, -38.530724138958099 ], [ -72.430253178892897, -38.530248105824398 ], [ -72.430242119124003, -38.5295047817566 ], [ -72.4303873647995, -38.528985688416903 ], [ -72.430328928136703, -38.528777655296501 ], [ -72.430132998959195, -38.528230433098898 ], [ -72.429928928341994, -38.527511837529097 ], [ -72.429564041926895, -38.526473802819403 ], [ -72.429544132537501, -38.526452922208001 ], [ -72.424901983222696, -38.531830639509799 ], [ -72.425064286376298, -38.5319065471542 ], [ -72.425544762396996, -38.532311968573197 ], [ -72.425930085699406, -38.532758311663201 ], [ -72.426387235477804, -38.533183481778202 ], [ -72.426970122416193, -38.5337003046589 ], [ -72.427298836718194, -38.533976689968902 ], [ -72.427632077584207, -38.534348281560497 ], [ -72.428643392580895, -38.535195760600502 ], [ -72.429780472135107, -38.536134881063496 ], [ -72.432581213553405, -38.542955278271698 ], [ -72.432689068340096, -38.543180926248802 ], [ -72.432653265133993, -38.543448927344897 ], [ -72.432638081465797, -38.543640051576098 ], [ -72.432643518691407, -38.543754299812903 ], [ -72.432698352441406, -38.543886165282899 ], [ -72.432704696005601, -38.544019454128403 ], [ -72.432689736074195, -38.544725403861598 ], [ -72.432732107280103, -38.545105517077701 ], [ -72.432910891111803, -38.545290947263197 ], [ -72.433117546526603, -38.545551830467801 ], [ -72.433202973955204, -38.545816272470098 ], [ -72.433234471739496, -38.545967890849397 ], [ -72.433197763527104, -38.546216850474501 ], [ -72.433178276204501, -38.546827593275701 ], [ -72.433515235569701, -38.547275328381097 ], [ -72.433674314361795, -38.547556675458402 ], [ -72.433758840093105, -38.5478020752875 ], [ -72.433892766190894, -38.548065092494497 ], [ -72.433926080102694, -38.548254792592203 ], [ -72.434110315773495, -38.548554468331503 ], [ -72.4337941992042, -38.548544683324401 ], [ -72.433451115683695, -38.548478485830799 ], [ -72.432959832258803, -38.548359434757799 ], [ -72.432665243493503, -38.548291811226903 ], [ -72.432494609010703, -38.548277752859498 ], [ -72.432194584732002, -38.548095880782 ], [ -72.431868501407607, -38.547876636452301 ], [ -72.431698775183307, -38.547881617462401 ], [ -72.430898630812493, -38.547905096233002 ], [ -72.430244872988993, -38.547943343612999 ], [ -72.430188435111205, -38.548288220002803 ], [ -72.430103241038196, -38.548605779549398 ], [ -72.437814229043795, -38.551459215421097 ] ] ] } },
{ "type": "Feature", "properties": { "id": "monoparte.24", "Name": null, "description": null, "timestamp": null, "begin": null, "end": null, "altitudeMode": null, "tessellate": -1, "extrude": 0, "visibility": -1, "drawOrder": null, "icon": null, "REG": "Araucanía", "COM": "Lautaro", "LOC": "Lautaro", "ZONA": "ZE3", "NOM": "Área de Extensión Urbana ZE3", "UPERM": "Industria inofensiva, molesta y almacenamiento inofensivo y molesto.", "UPROH": "Vivienda, a excepción de la habitación de ciudades de las instalaciones mencionadas en los usos permitidos y todos los no mencionados anteriormente.", "P_DO": "19/02/1988", "N_DOC": "1", "T_DO": "Decreto", "OBS": null }, "geometry": { "type": "Polygon", "coordinates": [ [ [ -72.446937462407405, -38.539408795686597 ], [ -72.447236211170903, -38.540369528734701 ], [ -72.450583326435705, -38.539794119398103 ], [ -72.4589205873406, -38.543352158892603 ], [ -72.460364264125005, -38.540591968537797 ], [ -72.460562359919507, -38.540166616791304 ], [ -72.460648372230494, -38.539935258105402 ], [ -72.460710140473395, -38.539704617726997 ], [ -72.460750406359097, -38.539531815868202 ], [ -72.460761860110907, -38.539264528429399 ], [ -72.460669529424095, -38.538352009051401 ], [ -72.460624278111297, -38.537914790247399 ], [ -72.460410739773096, -38.537005857187197 ], [ -72.449746854225197, -38.538903543792102 ], [ -72.446954643293097, -38.539405370554597 ], [ -72.446937462407405, -38.539408795686597 ] ] ] } },
{ "type": "Feature", "properties": { "id": "monoparte.25", "Name": null, "description": null, "timestamp": null, "begin": null, "end": null, "altitudeMode": null, "tessellate": -1, "extrude": 0, "visibility": -1, "drawOrder": null, "icon": null, "REG": "Araucanía", "COM": "Lautaro", "LOC": "Lautaro", "ZONA": "ZR2", "NOM": "Área Especial ZR2", "UPERM": "Equipamiento de áreas verdes.", "UPROH": "Todos los no mencionados precedentemente.", "P_DO": "19/02/1988", "N_DOC": "1", "T_DO": "Decreto", "OBS": null }, "geometry": { "type": "Polygon", "coordinates": [ [ [ -72.448166955507205, -38.540209532736398 ], [ -72.4481665786045, -38.540532777520902 ], [ -72.448254999494694, -38.540691747495302 ], [ -72.448253864917902, -38.540682745535001 ], [ -72.448516907161405, -38.540598718522403 ], [ -72.448781769396703, -38.540552771565302 ], [ -72.449070874327205, -38.540506109905998 ], [ -72.449362711438397, -38.5405165693101 ], [ -72.449703035815602, -38.5405255985563 ], [ -72.458429439440707, -38.544291145559598 ], [ -72.4589205873406, -38.543352158892603 ], [ -72.450583326435705, -38.539794119398103 ], [ -72.448166955507205, -38.540209532736398 ] ] ] } },
{ "type": "Feature", "properties": { "id": "monoparte.26", "Name": null, "description": null, "timestamp": null, "begin": null, "end": null, "altitudeMode": null, "tessellate": -1, "extrude": 0, "visibility": -1, "drawOrder": null, "icon": null, "REG": "Araucanía", "COM": "Lautaro", "LOC": "Lautaro", "ZONA": "ZE2", "NOM": "Área de Extensión Urbana ZE2", "UPERM": "Equipamiento cultural, deportivo recreacional turístico y de áreas verdes a escala comunal.", "UPROH": "Todos los no mencionados precedentemente.", "P_DO": "19/02/1988", "N_DOC": "1", "T_DO": "Decreto", "OBS": null }, "geometry": { "type": "Polygon", "coordinates": [ [ [ -72.442694094174499, -38.541342317083 ], [ -72.442448724512701, -38.543682753074499 ], [ -72.445517239837201, -38.543104493311198 ], [ -72.4450914957213, -38.540831240008401 ], [ -72.442694094174499, -38.541342317083 ] ] ] } },
{ "type": "Feature", "properties": { "id": "monoparte.27", "Name": null, "description": null, "timestamp": null, "begin": null, "end": null, "altitudeMode": null, "tessellate": -1, "extrude": 0, "visibility": -1, "drawOrder": null, "icon": null, "REG": "Araucanía", "COM": "Lautaro", "LOC": "Lautaro", "ZONA": "ZE2", "NOM": "Área de Extensión Urbana ZE2", "UPERM": "Equipamiento cultural, deportivo recreacional turístico y de áreas verdes a escala comunal.", "UPROH": "Todos los no mencionados precedentemente.", "P_DO": "19/02/1988", "N_DOC": "1", "T_DO": "Decreto", "OBS": null }, "geometry": { "type": "Polygon", "coordinates": [ [ [ -72.425368232454204, -38.521944186537802 ], [ -72.425541654140602, -38.522062690040698 ], [ -72.426670629695494, -38.518855166436602 ], [ -72.427057533013894, -38.518673425004899 ], [ -72.424495471523002, -38.515291805158199 ], [ -72.4211710287816, -38.516861477361701 ], [ -72.421158521813297, -38.517109726577601 ], [ -72.421216921532704, -38.517317766251097 ], [ -72.421300460038296, -38.517544138796097 ], [ -72.421382194306503, -38.517732427586203 ], [ -72.4215357373442, -38.517899547513302 ], [ -72.421736853333002, -38.518046208193802 ], [ -72.421913732710607, -38.5181935766756 ], [ -72.4221642266223, -38.518357860205498 ], [ -72.422338399637297, -38.5184481034266 ], [ -72.422613132881906, -38.518611676720703 ], [ -72.422765777872897, -38.518759752990299 ], [ -72.422967801594496, -38.518925453106 ], [ -72.423145588551193, -38.519091861282597 ], [ -72.423275803878596, -38.519278729713001 ], [ -72.423559572612902, -38.519632715668003 ], [ -72.423819106232699, -38.519987409397601 ], [ -72.423971756748003, -38.520135484713599 ], [ -72.424102880584201, -38.520341393745603 ], [ -72.424470210749206, -38.520921745888998 ], [ -72.424625574675503, -38.521126943651502 ], [ -72.424859074081198, -38.521444262494697 ], [ -72.425212863365999, -38.521738989099397 ], [ -72.425368232454204, -38.521944186537802 ] ] ] } },
{ "type": "Feature", "properties": { "id": "monoparte.28", "Name": null, "description": null, "timestamp": null, "begin": null, "end": null, "altitudeMode": null, "tessellate": -1, "extrude": 0, "visibility": -1, "drawOrder": null, "icon": null, "REG": "Araucanía", "COM": "Lautaro", "LOC": "Lautaro", "ZONA": "ZU7", "NOM": "Área Consolidada ZU7", "UPERM": "Cementerio.", "UPROH": "Todos los no mencionados precedentemente.", "P_DO": "19/02/1988", "N_DOC": "1", "T_DO": "Decreto", "OBS": null }, "geometry": { "type": "Polygon", "coordinates": [ [ [ -72.4450914957213, -38.540831240008401 ], [ -72.445517239837201, -38.543104493311198 ], [ -72.448488537386794, -38.542544469876198 ], [ -72.448254999494694, -38.540691747495302 ], [ -72.4481665786045, -38.540532777520902 ], [ -72.448166955507205, -38.540209532736398 ], [ -72.447263462271195, -38.540364843706001 ], [ -72.447260455349493, -38.540368814061303 ], [ -72.4450914957213, -38.540831240008401 ] ] ] } },
{ "type": "Feature", "properties": { "id": "monoparte.29", "Name": null, "description": null, "timestamp": null, "begin": null, "end": null, "altitudeMode": null, "tessellate": -1, "extrude": 0, "visibility": -1, "drawOrder": null, "icon": null, "REG": "Araucanía", "COM": "Lautaro", "LOC": "Lautaro", "ZONA": "ZR4", "NOM": "Área Especial ZR4", "UPERM": "Equipamiento de áreas verdes.", "UPROH": "Todos los no mencionados precedentemente.", "P_DO": "19/02/1988", "N_DOC": "1", "T_DO": "Decreto", "OBS": null }, "geometry": { "type": "Polygon", "coordinates": [ [ [ -72.431167958480103, -38.512140839020503 ], [ -72.431288493820205, -38.5123510990501 ], [ -72.431961839561794, -38.512731771242898 ], [ -72.432534632197004, -38.513039118403 ], [ -72.432861456050702, -38.513277410799297 ], [ -72.432995305372899, -38.513540433431601 ], [ -72.4330304048177, -38.513768217878301 ], [ -72.433047606264196, -38.514130003101698 ], [ -72.432940913912205, -38.514438221843399 ], [ -72.433058679533204, -38.514873327312202 ], [ -72.433242815945903, -38.515173009041902 ], [ -72.433597510491893, -38.515486752854898 ], [ -72.434216992197506, -38.515754584229803 ], [ -72.434761958787604, -38.515986464978504 ], [ -72.435256644006202, -38.5161816844385 ], [ -72.436700400674198, -38.516940124758001 ], [ -72.436795533036801, -38.516899194092296 ], [ -72.436916713591899, -38.516895633370197 ], [ -72.437214801164998, -38.517039416514301 ], [ -72.437316279302706, -38.5171317742507 ], [ -72.437466229841505, -38.517222706451399 ], [ -72.437644044143795, -38.517389092150701 ], [ -72.437847001588196, -38.517573805804901 ], [ -72.438006929345704, -38.517874191011799 ], [ -72.438211702828596, -38.518096986906002 ], [ -72.438445250263996, -38.518414275483103 ], [ -72.438623069814696, -38.518580658523902 ], [ -72.438547233080996, -38.519536282844797 ], [ -72.438404531692001, -38.519597681538599 ], [ -72.438422670592004, -38.519978505843298 ], [ -72.438513521754203, -38.520357192508499 ], [ -72.438677086300899, -38.520733741312199 ], [ -72.439092101348294, -38.521293575237102 ], [ -72.439192679803895, -38.5213668894677 ], [ -72.439394746888496, -38.521532559030902 ], [ -72.4395447094156, -38.521623487961499 ], [ -72.439766479313604, -38.521693237645998 ], [ -72.439887667528197, -38.521689673477901 ], [ -72.440427251394695, -38.5218072778273 ], [ -72.440551162434403, -38.521860836373897 ], [ -72.440697497736494, -38.521875599752399 ], [ -72.440822316738704, -38.521948199427001 ], [ -72.440952583249299, -38.522135045684202 ], [ -72.440983175370405, -38.522267620776603 ], [ -72.441111626268807, -38.522416383988698 ], [ -72.441265223909596, -38.522583476194797 ], [ -72.441417915533094, -38.522731525813299 ], [ -72.441520314067603, -38.522842920650099 ], [ -72.441580593401895, -38.523089028959802 ], [ -72.441587856538604, -38.523241358445603 ], [ -72.441724481973594, -38.523561491696803 ], [ -72.441857477915505, -38.523805459971797 ], [ -72.442111666690394, -38.5240458613927 ], [ -72.442119839229903, -38.524217231265297 ], [ -72.4421522508283, -38.524387888663298 ], [ -72.442241312445006, -38.524728489141303 ], [ -72.442517302705298, -38.5254258764407 ], [ -72.442610000624398, -38.525842640177999 ], [ -72.442721489668102, -38.526144444683403 ], [ -72.442805106791397, -38.526370797064601 ], [ -72.442955083854798, -38.5264617217886 ], [ -72.443176871798201, -38.526531464107897 ], [ -72.443325032697103, -38.526584305586198 ], [ -72.443522581660403, -38.5266547608595 ], [ -72.443721946965994, -38.526763297626502 ], [ -72.443897074269202, -38.526872547762601 ], [ -72.443979787417803, -38.5270798586184 ], [ -72.443988873944093, -38.527270269414103 ], [ -72.443996143243993, -38.527422598404797 ], [ -72.443999777914598, -38.527498762898198 ], [ -72.444003412556, -38.5275749264908 ], [ -72.444034921984198, -38.527726541661899 ], [ -72.444042191499904, -38.527878870633302 ], [ -72.443923718266205, -38.527939562760501 ], [ -72.443692223954898, -38.528175192961498 ], [ -72.443605260003807, -38.5283875000354 ], [ -72.443705853195098, -38.528460809635 ], [ -72.443831596699098, -38.528552446672499 ], [ -72.4438388659579, -38.528704774755397 ], [ -72.443801290301806, -38.5289346957601 ], [ -72.443882188588304, -38.529103923836303 ], [ -72.443972174518294, -38.529463563462201 ], [ -72.444053073884007, -38.529632791361301 ], [ -72.444201538727199, -38.530200454137798 ], [ -72.444356369462, -38.530901404049899 ], [ -72.444491207352797, -38.531183450687401 ], [ -72.444722100102993, -38.531443599846902 ], [ -72.444926027234004, -38.531647339442401 ], [ -72.445025717393904, -38.531701606283697 ], [ -72.445032080938503, -38.531834893679303 ], [ -72.444993599147196, -38.532045773552603 ], [ -72.444883301654002, -38.532277836027802 ], [ -72.444630284324603, -38.5325713064232 ], [ -72.444394234001905, -38.532711733639204 ], [ -72.444159090452203, -38.532871200879804 ], [ -72.443965456859999, -38.533391735462899 ], [ -72.443972727659002, -38.533544063398303 ], [ -72.444003331695697, -38.533676637004703 ], [ -72.444107569804103, -38.533826110214001 ], [ -72.444210898269802, -38.533956542018103 ], [ -72.444215442922697, -38.534051746831999 ], [ -72.444207562839694, -38.5343952000446 ], [ -72.444177257174601, -38.534777448971802 ], [ -72.444172103968995, -38.535178025218698 ], [ -72.444224223766597, -38.535252761705102 ], [ -72.444324828799296, -38.535326070193001 ], [ -72.4442021002274, -38.535806380626497 ], [ -72.444233613783396, -38.5359579945166 ], [ -72.444152097726601, -38.5362845482247 ], [ -72.444064217035603, -38.5364778145073 ], [ -72.443977244879704, -38.536690122058999 ], [ -72.443984516604104, -38.536842450806198 ], [ -72.444016031512106, -38.536994065599004 ], [ -72.444072697578804, -38.537164006860202 ], [ -72.444054817378998, -38.537298008232199 ], [ -72.443914814057393, -38.537416537968603 ], [ -72.443702081470704, -38.537537209230898 ], [ -72.443531471670497, -38.537523165881503 ], [ -72.443261163354705, -38.5374548535111 ], [ -72.443094188763197, -38.537516973040603 ], [ -72.442830241598799, -38.537581947211798 ], [ -72.4425726542771, -38.537780208413601 ], [ -72.442416581370296, -38.538070820470502 ], [ -72.442335055315695, -38.538397373307198 ], [ -72.442169894812196, -38.538497574341299 ], [ -72.441860181099301, -38.538621096854001 ], [ -72.440853765229605, -38.538898594552897 ], [ -72.440910425790094, -38.539068537579098 ], [ -72.440720109549702, -38.539150408682801 ], [ -72.440723742290103, -38.539226573286101 ], [ -72.440878287170705, -38.539412704425501 ], [ -72.440882828360202, -38.539507910384202 ], [ -72.441094943218005, -38.539883025527601 ], [ -72.441100393048004, -38.5399972719229 ], [ -72.441044010931705, -38.540342152144703 ], [ -72.441051277419007, -38.540494481266997 ], [ -72.4411403594831, -38.540835080232803 ], [ -72.441251870394296, -38.541136884715002 ], [ -72.441263679479903, -38.541384418773703 ], [ -72.441219106747894, -38.541976833066499 ], [ -72.440683909670895, -38.5419544448145 ], [ -72.440822390688993, -38.542312659515801 ], [ -72.440903579730403, -38.542996711898503 ], [ -72.440892333218898, -38.543778824479098 ], [ -72.440691944947304, -38.545176671057199 ], [ -72.440458850442894, -38.545889038395302 ], [ -72.439028415191999, -38.549496798296303 ], [ -72.438198720256295, -38.551447046899497 ], [ -72.438119416604707, -38.551572134328303 ], [ -72.438337220389002, -38.5516527197709 ], [ -72.440274530000394, -38.546962259443802 ], [ -72.440424269939896, -38.546538362513502 ], [ -72.440660091510594, -38.5458831174628 ], [ -72.440809827378999, -38.545459220183297 ], [ -72.440895000852507, -38.545208832521098 ], [ -72.441053253131102, -38.543945699453303 ], [ -72.442448724512701, -38.543682753074499 ], [ -72.442694094174499, -38.541342317083 ], [ -72.447260455349493, -38.540368814061303 ], [ -72.447263462271195, -38.540364843706001 ], [ -72.447236211170903, -38.540369528734701 ], [ -72.446937462407405, -38.539408795686597 ], [ -72.446617962946107, -38.539472497166003 ], [ -72.442990801238494, -38.540284851696001 ], [ -72.443232968134197, -38.5382374644702 ], [ -72.445006051108393, -38.537746686185699 ], [ -72.445622942697497, -38.5303301966565 ], [ -72.442226858634399, -38.522745856865598 ], [ -72.441680360980101, -38.521465324875798 ], [ -72.439736549366401, -38.5209123350078 ], [ -72.439371727169402, -38.5147832048415 ], [ -72.435340249163303, -38.514215234364102 ], [ -72.433182041913994, -38.5111895971907 ], [ -72.431167958480103, -38.512140839020503 ] ] ] } },
{ "type": "Feature", "properties": { "id": "monoparte.30", "Name": null, "description": null, "timestamp": null, "begin": null, "end": null, "altitudeMode": null, "tessellate": -1, "extrude": 0, "visibility": -1, "drawOrder": null, "icon": null, "REG": "Araucanía", "COM": "Lautaro", "LOC": "Lautaro", "ZONA": "ZR1", "NOM": "Área Especial ZR1", "UPERM": "Corresponde a la faja de protección de la línea de ferrocarril a cada costado de la misma.", "UPROH": "Sin información.", "P_DO": "19/02/1988", "N_DOC": "1", "T_DO": "Decreto", "OBS": null }, "geometry": { "type": "Polygon", "coordinates": [ [ [ -72.424495471523002, -38.515291805158199 ], [ -72.427057533013894, -38.518673425004899 ], [ -72.427017361519603, -38.518692294634299 ], [ -72.4314551535563, -38.524538237950203 ], [ -72.432110021181799, -38.525548689378702 ], [ -72.432631936260506, -38.526315157321399 ], [ -72.432836720876693, -38.526537961097297 ], [ -72.433089985627504, -38.526759342329697 ], [ -72.433143899118093, -38.526872166898201 ], [ -72.433465355688099, -38.526996205665398 ], [ -72.433548039563902, -38.527203525286602 ], [ -72.434110532469006, -38.528312015106799 ], [ -72.434480704854806, -38.528949453227199 ], [ -72.438108128072699, -38.5368132396178 ], [ -72.439653386082696, -38.540200011167698 ], [ -72.440193658752804, -38.541347257397597 ], [ -72.440427574017804, -38.542179360228097 ], [ -72.440581493501199, -38.542861273140403 ], [ -72.440616287015999, -38.544099658966097 ], [ -72.440577158881197, -38.5448063194752 ], [ -72.440439230720202, -38.545477751495497 ], [ -72.439962133415193, -38.546673992274101 ], [ -72.437962701631406, -38.551514149859301 ], [ -72.438119416604707, -38.551572134328303 ], [ -72.438198720256295, -38.551447046899497 ], [ -72.439028415191999, -38.549496798296303 ], [ -72.440458850442894, -38.545889038395302 ], [ -72.440691944947304, -38.545176671057199 ], [ -72.440892333218898, -38.543778824479098 ], [ -72.440903579730403, -38.542996711898503 ], [ -72.440822390688993, -38.542312659515801 ], [ -72.440683909670895, -38.5419544448145 ], [ -72.440731279644396, -38.541956426523399 ], [ -72.440480049391894, -38.541243492469803 ], [ -72.439961293450494, -38.540038412199699 ], [ -72.439313167807896, -38.538665522839402 ], [ -72.437904600512397, -38.535598879766603 ], [ -72.435090570251205, -38.529522646611603 ], [ -72.434575626542397, -38.5283936975815 ], [ -72.434017656054905, -38.527380416317499 ], [ -72.433237923853895, -38.526297370258398 ], [ -72.432723246617897, -38.525683236188002 ], [ -72.432356731524493, -38.525121956133702 ], [ -72.432202241208003, -38.524935810910499 ], [ -72.432062937873397, -38.524558540857697 ], [ -72.431917297319103, -38.524047980278397 ], [ -72.431698944638597, -38.5235395538201 ], [ -72.431180680922907, -38.522849246534598 ], [ -72.430848386315603, -38.522496704444599 ], [ -72.430244045769101, -38.522037732087497 ], [ -72.429791473661695, -38.521707781537202 ], [ -72.429534618802506, -38.521410226877997 ], [ -72.429020011033401, -38.520796072964899 ], [ -72.427340696685704, -38.5185404112786 ], [ -72.427330487557398, -38.518545206551103 ], [ -72.4247874516211, -38.515153936281401 ], [ -72.424495471523002, -38.515291805158199 ] ] ] } },
{ "type": "Feature", "properties": { "id": "monoparte.31", "Name": null, "description": null, "timestamp": null, "begin": null, "end": null, "altitudeMode": null, "tessellate": -1, "extrude": 0, "visibility": -1, "drawOrder": null, "icon": null, "REG": "Araucanía", "COM": "Lautaro", "LOC": "Lautaro", "ZONA": "ZU1", "NOM": "Área Consolidada ZU1", "UPERM": "Vivienda; equipamiento a escala regional, comunal, vecinal; almacenamiento inofensivo.", "UPROH": "Industria de todo tipo y almacenamientos molestos y todos los no mencionados anteriormente.", "P_DO": "19/02/1988", "N_DOC": "1", "T_DO": "Decreto", "OBS": null }, "geometry": { "type": "Polygon", "coordinates": [ [ [ -72.436595869052894, -38.532773131973201 ], [ -72.437530316605503, -38.5347907699052 ], [ -72.440617115185603, -38.533936478308298 ], [ -72.439596985037994, -38.531888089305603 ], [ -72.436595869052894, -38.532773131973201 ] ] ] } },
{ "type": "Feature", "properties": { "id": "monoparte.32", "Name": null, "description": null, "timestamp": null, "begin": null, "end": null, "altitudeMode": null, "tessellate": -1, "extrude": 0, "visibility": -1, "drawOrder": null, "icon": null, "REG": "Araucanía", "COM": "Lautaro", "LOC": "Lautaro", "ZONA": "ZU1", "NOM": "Área Consolidada ZU1", "UPERM": "Vivienda; equipamiento a escala regional, comunal, vecinal; almacenamiento inofensivo.", "UPROH": "Industria de todo tipo y almacenamientos molestos y todos los no mencionados anteriormente.", "P_DO": "19/02/1988", "N_DOC": "1", "T_DO": "Decreto", "OBS": null }, "geometry": { "type": "Polygon", "coordinates": [ [ [ -72.433220916429505, -38.535480963100902 ], [ -72.433657539858999, -38.535938788752802 ], [ -72.437224605580099, -38.534898059813401 ], [ -72.434480704854806, -38.528949453227199 ], [ -72.434174894327995, -38.528422846861503 ], [ -72.4324381743983, -38.528875942035299 ], [ -72.4345400789325, -38.533257050998102 ], [ -72.432309410180693, -38.533952285073198 ], [ -72.432323296317705, -38.533962811966902 ], [ -72.432734722783195, -38.534446501808702 ], [ -72.432927067847402, -38.5349175521863 ], [ -72.433220916429505, -38.535480963100902 ] ] ] } },
{ "type": "Feature", "properties": { "id": "monoparte.33", "Name": null, "description": null, "timestamp": null, "begin": null, "end": null, "altitudeMode": null, "tessellate": -1, "extrude": 0, "visibility": -1, "drawOrder": null, "icon": null, "REG": "Araucanía", "COM": "Lautaro", "LOC": "Lautaro", "ZONA": "ZU5", "NOM": "Área Consolidada ZU5", "UPERM": "Industria y almacenamiento inofensivo y molesto; equipamiento vecinal.", "UPROH": "Todos los no mencionados anteriormente.", "P_DO": "19/02/1988", "N_DOC": "1", "T_DO": "Decreto", "OBS": null }, "geometry": { "type": "Polygon", "coordinates": [ [ [ -72.426695685497705, -38.523388354609502 ], [ -72.426776362269607, -38.523485577555 ], [ -72.426880548305903, -38.5236350678165 ], [ -72.427036830555195, -38.523859304273401 ], [ -72.427189496112405, -38.5240073737207 ], [ -72.427850452200204, -38.524636313539403 ], [ -72.428455705965703, -38.525114339473397 ], [ -72.429034919871796, -38.525554989203997 ], [ -72.429236071518503, -38.525701635158597 ], [ -72.429536897373495, -38.525902560772103 ], [ -72.429641094004694, -38.5260520489607 ], [ -72.429677095707106, -38.526298875895598 ], [ -72.429544132537501, -38.526452922208001 ], [ -72.429564041926895, -38.526473802819403 ], [ -72.429928928341994, -38.527511837529097 ], [ -72.430132998959195, -38.528230433098898 ], [ -72.430147259003505, -38.528270259179699 ], [ -72.432760806682793, -38.527493583637799 ], [ -72.433386513815606, -38.5273798778789 ], [ -72.433602159376804, -38.527310178190199 ], [ -72.433548039563902, -38.527203525286602 ], [ -72.433465355688099, -38.526996205665398 ], [ -72.433143899118093, -38.526872166898201 ], [ -72.433089985627504, -38.526759342329697 ], [ -72.432836720876693, -38.526537961097297 ], [ -72.432631936260506, -38.526315157321399 ], [ -72.432110021181799, -38.525548689378702 ], [ -72.4314551535563, -38.524538237950203 ], [ -72.428562053498396, -38.520727265421101 ], [ -72.428794279588004, -38.5221755811557 ], [ -72.429283752848093, -38.522771404603901 ], [ -72.426695685497705, -38.523388354609502 ] ] ] } }
]
}
