{
"type": "FeatureCollection",
"name": "IPT_09_PRC_Pucon",
"crs": { "type": "name", "properties": { "name": "urn:ogc:def:crs:OGC:1.3:CRS84" } },
"features": [
{ "type": "Feature", "properties": { "id": "monoparte.1", "Name": null, "description": null, "timestamp": null, "begin": null, "end": null, "altitudeMode": null, "tessellate": -1, "extrude": 0, "visibility": -1, "drawOrder": null, "icon": null, "REG": "Araucanía", "COM": "Pucón", "LOC": "Pucón", "ZONA": "Z-2E", "NOM": "Z-2E", "UPERM": "Vivienda; equipamiento de turismo y esparcimiento, áreas verdes, deportes, comercio minorista, servicios públicos, cultura, organización comunitaria; establecimientos de impacto vehicular; actividades productivas inofensivas.", "UPROH": "Todo uso no indicado como permitido.", "P_DO": "06/05/1994", "N_DOC": "4", "T_DO": "Resolución", "OBS": null }, "geometry": { "type": "Polygon", "coordinates": [ [ [ -71.977181845150199, -39.286240952716099 ], [ -71.976902093429402, -39.286365375130202 ], [ -71.976104153447906, -39.286534759971701 ], [ -71.975416059049707, -39.286582154910597 ], [ -71.975034343968204, -39.286621710134099 ], [ -71.974584854043101, -39.286871554327099 ], [ -71.974056246471307, -39.2870638319581 ], [ -71.973523855655202, -39.287166822618701 ], [ -71.9727704908302, -39.287484014214897 ], [ -71.971929192178706, -39.287535303507902 ], [ -71.971276864339004, -39.287522172781401 ], [ -71.970502091382102, -39.287333402338497 ], [ -71.970144825743901, -39.287044586538201 ], [ -71.969823345857094, -39.286695269365197 ], [ -71.969463570423997, -39.286346927858403 ], [ -71.969265793144402, -39.286203007063897 ], [ -71.968991421747006, -39.286061040720703 ], [ -71.968640456638695, -39.285921028269797 ], [ -71.968330305073394, -39.285839560964497 ], [ -71.968098006173804, -39.285785900354099 ], [ -71.967219681798895, -39.285867893759999 ], [ -71.966566111999398, -39.285824974215899 ], [ -71.963985745153707, -39.284639405985203 ], [ -71.963373633952202, -39.283761184724 ], [ -71.962452334953397, -39.281134630941303 ], [ -71.961283195336406, -39.281371320717497 ], [ -71.961112456217705, -39.280958552620902 ], [ -71.960597709966706, -39.279275673985602 ], [ -71.957150000831106, -39.2797186157065 ], [ -71.956962285741994, -39.279812768570103 ], [ -71.954712168558302, -39.281002103964902 ], [ -71.953595838484802, -39.281805091702402 ], [ -71.951967093383303, -39.283187155250999 ], [ -71.950691708266604, -39.284768791926197 ], [ -71.949034534394002, -39.286389887646799 ], [ -71.947941717615095, -39.287698274001499 ], [ -71.950293058437794, -39.286835148681803 ], [ -71.950688362854606, -39.286753617797402 ], [ -71.953007898125705, -39.286480247181302 ], [ -71.959451551116899, -39.2858159687446 ], [ -71.960639413221998, -39.285618898922202 ], [ -71.962250174412105, -39.285268039447601 ], [ -71.962415410560496, -39.285549852882703 ], [ -71.962607270800703, -39.285735647429398 ], [ -71.963020626719199, -39.286082645112899 ], [ -71.966178401844203, -39.2875037819284 ], [ -71.966458170668901, -39.287591987879701 ], [ -71.966705290995506, -39.287633356387801 ], [ -71.967434585047997, -39.287471745908299 ], [ -71.967800237099695, -39.287414748001403 ], [ -71.968082020359503, -39.2875505688773 ], [ -71.968276917664497, -39.287807782079703 ], [ -71.968326670276397, -39.288259377684597 ], [ -71.968615500913202, -39.288561862762499 ], [ -71.968965611538906, -39.288862783137297 ], [ -71.969647724570706, -39.289036052596401 ], [ -71.970394141029402, -39.289279180982 ], [ -71.971163143949497, -39.289331047678999 ], [ -71.972628792915998, -39.2891744308629 ], [ -71.9739994919086, -39.288948716404597 ], [ -71.975540905241402, -39.288408765525702 ], [ -71.976626906011404, -39.291598704613598 ], [ -71.978815277158901, -39.291153921999701 ], [ -71.977427707726406, -39.287007385305301 ], [ -71.977451299520695, -39.2864382734316 ], [ -71.977284975591402, -39.286534339261202 ], [ -71.977181845150199, -39.286240952716099 ] ] ] } },
{ "type": "Feature", "properties": { "id": "monoparte.2", "Name": null, "description": null, "timestamp": null, "begin": null, "end": null, "altitudeMode": null, "tessellate": -1, "extrude": 0, "visibility": -1, "drawOrder": null, "icon": null, "REG": "Araucanía", "COM": "Pucón", "LOC": "Pucón", "ZONA": "ZR-5E", "NOM": "ZR-5E", "UPERM": "Vivienda; equipamiento de turismo, áreas verdes, y forestación.", "UPROH": "Todo uso no indicado como permitido.", "P_DO": "06/05/1994", "N_DOC": "4", "T_DO": "Resolución", "OBS": null }, "geometry": { "type": "Polygon", "coordinates": [ [ [ -71.9821371121986, -39.2712944312701 ], [ -71.981159918449706, -39.273224561120401 ], [ -71.9837645121235, -39.2740813982128 ], [ -71.984542956813897, -39.2743593689165 ], [ -71.985234714582106, -39.274401208650602 ], [ -71.985694201053306, -39.2743894177651 ], [ -71.986154951714099, -39.274407386359897 ], [ -71.986637201915997, -39.274931294815502 ], [ -71.986872004618505, -39.275044441867799 ], [ -71.988155846875699, -39.275488174080799 ], [ -71.989392550928102, -39.275724546133901 ], [ -71.990197930378699, -39.275733642780096 ], [ -71.990730820409198, -39.276069281094301 ], [ -71.990897780418507, -39.275930637566603 ], [ -71.991263349229499, -39.275873568804201 ], [ -71.991531950623198, -39.275699817466297 ], [ -71.991847626980302, -39.275191165920297 ], [ -71.991779268210394, -39.275026078853898 ], [ -71.991898757030697, -39.274951501349499 ], [ -71.992076471139498, -39.274803921571902 ], [ -71.992194945615097, -39.274705534346701 ], [ -71.992438990680597, -39.2746754228829 ], [ -71.992623799254801, -39.274694503860303 ], [ -71.992654431152502, -39.274693715920797 ], [ -71.992648348520206, -39.274550862939897 ], [ -71.9927402451776, -39.274548499055399 ], [ -71.9930159362426, -39.274541406937701 ], [ -71.993172138326301, -39.274608893084398 ], [ -71.993422267864005, -39.274721632447999 ], [ -71.993912384859598, -39.274709020904602 ], [ -71.994308576153699, -39.2746511546178 ], [ -71.994627270963704, -39.274213922776298 ], [ -71.994591567254005, -39.274095666978099 ], [ -71.994551804967799, -39.273882176325699 ], [ -71.994726467317605, -39.273663165522301 ], [ -71.994906199968099, -39.273563199649203 ], [ -71.995118593654496, -39.273510061882497 ], [ -71.995205415756999, -39.273388651904398 ], [ -71.995416792856503, -39.273311705173199 ], [ -71.995661847191698, -39.273305395620099 ], [ -71.995908929959697, -39.273346703410901 ], [ -71.996517502051901, -39.273235690446 ], [ -71.996818742494497, -39.273108756545099 ], [ -71.996562524825094, -39.2728531719101 ], [ -71.996465555701505, -39.272736494653799 ], [ -71.996694365527205, -39.272349242393901 ], [ -71.996837370576799, -39.272107209312203 ], [ -71.997021156792002, -39.272102475104099 ], [ -71.997203928912896, -39.2720739321352 ], [ -71.997316299988896, -39.271832687661998 ], [ -71.997401085738701, -39.271663658461698 ], [ -71.997676764322605, -39.271656555743199 ], [ -71.997895241433, -39.271746266500799 ], [ -71.998207643970701, -39.271881225574603 ], [ -71.998729386402204, -39.2718916135386 ], [ -71.999188850812104, -39.271879770034303 ], [ -71.999407330384798, -39.2719694778459 ], [ -71.999839212841394, -39.272029847490899 ], [ -72.000027063076502, -39.272120343871997 ], [ -72.000302742786303, -39.2721132348682 ], [ -72.000449799928703, -39.271966432223103 ], [ -72.0005662249214, -39.271820420322904 ], [ -72.0006826505997, -39.271674408291801 ], [ -72.001047169873999, -39.271593500657403 ], [ -72.0011962575323, -39.271494315674701 ], [ -72.001302515547195, -39.271110215924402 ], [ -72.001428219813306, -39.270463429509903 ], [ -72.001607934366803, -39.270363453913099 ], [ -72.002158261103204, -39.270325419087598 ], [ -72.003742889557799, -39.270093839204797 ], [ -72.004226864535596, -39.269938333884298 ], [ -72.004648560737493, -39.269760599489501 ], [ -72.0048527916571, -39.269516975678798 ], [ -72.005107086166902, -39.269009874561696 ], [ -72.005189814247004, -39.268793223904801 ], [ -72.005421617031999, -39.268477382334801 ], [ -72.005377756078502, -39.268168661413597 ], [ -72.005586051732806, -39.268020270542003 ], [ -72.005947492790199, -39.267867923609202 ], [ -72.006222135076001, -39.267836992999001 ], [ -72.006434501841795, -39.267783835514599 ], [ -72.006636685706795, -39.267492591519499 ], [ -72.006871532832207, -39.267248173071998 ], [ -72.007255447626704, -39.266904562092101 ], [ -72.007310594260403, -39.266760127486698 ], [ -72.007425978108699, -39.266590300348497 ], [ -72.007726150734996, -39.2664395316881 ], [ -72.007840515635905, -39.266245895925998 ], [ -72.007802756496105, -39.266080027411 ], [ -72.007058515338301, -39.265884750319103 ], [ -72.006722624645406, -39.265917266544399 ], [ -72.006684868348003, -39.265751397549202 ], [ -72.006646095242701, -39.265561720238999 ], [ -72.006514420758293, -39.265350609003498 ], [ -72.006450110361698, -39.265280765282 ], [ -72.006229606808603, -39.2651434536442 ], [ -72.004987194922094, -39.264770355331599 ], [ -72.004495116109794, -39.264735393330298 ], [ -72.004124532747795, -39.264673457706799 ], [ -72.0038845976229, -39.2647988273105 ], [ -72.003609964588506, -39.264829752022997 ], [ -72.003244466346402, -39.264886857064198 ], [ -72.002906542932607, -39.264871743696403 ], [ -72.002726843942895, -39.264971721667401 ], [ -72.002457294444497, -39.265121687237603 ], [ -72.002402138755897, -39.265266119912198 ], [ -72.002071331121101, -39.265417666270103 ], [ -72.001641521225494, -39.265404920105098 ], [ -72.001249454664205, -39.2655580445334 ], [ -72.000672601264895, -39.2656920980317 ], [ -72.000495943981505, -39.265863497957 ], [ -72.000253965934306, -39.2659412436577 ], [ -72.000048712155404, -39.266161050430298 ], [ -71.999657653495206, -39.266337978178598 ], [ -71.999354415402394, -39.266417300509197 ], [ -71.998954212904493, -39.266379946604403 ], [ -71.998615266934806, -39.266341012577698 ], [ -71.998129271677996, -39.266448877255201 ], [ -71.997799463854804, -39.266624220450304 ], [ -71.9974073814181, -39.266777331580599 ], [ -71.996647750594605, -39.266939908552203 ], [ -71.996314892357404, -39.267043821419897 ], [ -71.995863575035102, -39.2672461229999 ], [ -71.995444913792497, -39.267495252237602 ], [ -71.994510622364899, -39.267876827180601 ], [ -71.994398245745302, -39.268118068341202 ], [ -71.994253211155595, -39.268312480635103 ], [ -71.993953000841799, -39.268463216761901 ], [ -71.993496598051394, -39.268546465262702 ], [ -71.992982989121899, -39.268726523902899 ], [ -71.992405078192306, -39.268836728474199 ], [ -71.991892477383402, -39.269040591043698 ], [ -71.991532011565695, -39.269216705108398 ], [ -71.990804994243803, -39.269426075891801 ], [ -71.9899524152259, -39.269567164222401 ], [ -71.989249945346401, -39.269632884899003 ], [ -71.988949716814801, -39.269783607837098 ], [ -71.988829219660403, -39.2698343735468 ], [ -71.988376850522499, -39.270012838832102 ], [ -71.988260401012397, -39.270158839454403 ], [ -71.988022441488994, -39.270331796224802 ], [ -71.987778408913201, -39.270361897929199 ], [ -71.987289331245606, -39.270398291161001 ], [ -71.986890121397096, -39.270384705945403 ], [ -71.986702290362302, -39.270294187513997 ], [ -71.9864205464702, -39.270158410116103 ], [ -71.986181570725094, -39.270307553706402 ], [ -71.985848678299604, -39.2704114377959 ], [ -71.985606666716095, -39.270489153284501 ], [ -71.984945934644003, -39.270815961789097 ], [ -71.984343424946502, -39.271069768301501 ], [ -71.983976864305404, -39.2711030049377 ], [ -71.983553082024599, -39.271233048253301 ], [ -71.983365253805204, -39.271142525234097 ], [ -71.983088563193704, -39.271125784342502 ], [ -71.982601497093199, -39.271209777464001 ], [ -71.9821371121986, -39.2712944312701 ] ] ] } },
{ "type": "Feature", "properties": { "id": "monoparte.3", "Name": null, "description": null, "timestamp": null, "begin": null, "end": null, "altitudeMode": null, "tessellate": -1, "extrude": 0, "visibility": -1, "drawOrder": null, "icon": null, "REG": "Araucanía", "COM": "Pucón", "LOC": "Pucón", "ZONA": "Z-E7", "NOM": "Z-E7", "UPERM": "Vivienda; equipamiento de turismo y esparcimiento, áreas verdes, comercio minorista, playas de estacionamiento, centros deportivos.", "UPROH": "Todo uso no indicado como permitido.", "P_DO": "06/05/1994", "N_DOC": "4", "T_DO": "Resolución", "OBS": null }, "geometry": { "type": "Polygon", "coordinates": [ [ [ -71.971762049485307, -39.263247707551699 ], [ -71.970977799756199, -39.261811868849598 ], [ -71.969216574965799, -39.262137282658998 ], [ -71.969705235329897, -39.264269969732901 ], [ -71.969775543439397, -39.264482690535701 ], [ -71.970954632715703, -39.266264055711801 ], [ -71.971090230702302, -39.266570449118703 ], [ -71.971099286429293, -39.266784733092699 ], [ -71.970448679297505, -39.268030202765701 ], [ -71.973530472557499, -39.269986015320498 ], [ -71.973617560456901, -39.269812528846003 ], [ -71.974928993192805, -39.268873138186301 ], [ -71.971967227289099, -39.264140239321399 ], [ -71.971738063424695, -39.263252276718298 ], [ -71.971762049485307, -39.263247707551699 ] ] ] } },
{ "type": "Feature", "properties": { "id": "monoparte.4", "Name": null, "description": null, "timestamp": null, "begin": null, "end": null, "altitudeMode": null, "tessellate": -1, "extrude": 0, "visibility": -1, "drawOrder": null, "icon": null, "REG": "Araucanía", "COM": "Pucón", "LOC": "Pucón", "ZONA": "Z-E8", "NOM": "Z-E8", "UPERM": "Vivienda; equipamiento de turismo y esparcimiento, áreas verdes, culto, organización comunitaria, servicios artesanales; actividades productivas y almacenamiento.", "UPROH": "Todo uso no indicado como permitido.", "P_DO": "06/05/1994", "N_DOC": "4", "T_DO": "Resolución", "OBS": null }, "geometry": { "type": "Polygon", "coordinates": [ [ [ -71.947941717615095, -39.287698274001499 ], [ -71.949034534394002, -39.286389887646799 ], [ -71.950691708266604, -39.284768791926197 ], [ -71.951967093383303, -39.283187155250999 ], [ -71.953595838484802, -39.281805091702402 ], [ -71.954712168558302, -39.281002103964902 ], [ -71.956962285741994, -39.279812768570103 ], [ -71.957150000831106, -39.2797186157065 ], [ -71.960619737749298, -39.279272843279998 ], [ -71.960403191938298, -39.278682476384098 ], [ -71.960411111907305, -39.278665496489801 ], [ -71.960353159228205, -39.278677791271001 ], [ -71.960184803741399, -39.2779361157274 ], [ -71.960168643065302, -39.277937639469798 ], [ -71.959586268320507, -39.276913777131298 ], [ -71.959078540934698, -39.276958807283897 ], [ -71.957071703518494, -39.2773673590698 ], [ -71.955492726221294, -39.277741172406998 ], [ -71.954857406025994, -39.277947990823897 ], [ -71.953811207029602, -39.278594270425103 ], [ -71.951477662528404, -39.279988260758799 ], [ -71.951034124509107, -39.2803808739 ], [ -71.949913935226604, -39.281458028057202 ], [ -71.947802997493, -39.283775871166 ], [ -71.947294144663502, -39.284074784447299 ], [ -71.936776466022295, -39.287796861975899 ], [ -71.938783930002302, -39.291059252989399 ], [ -71.947941717615095, -39.287698274001499 ] ] ] } },
{ "type": "Feature", "properties": { "id": "monoparte.5", "Name": null, "description": null, "timestamp": null, "begin": null, "end": null, "altitudeMode": null, "tessellate": -1, "extrude": 0, "visibility": -1, "drawOrder": null, "icon": null, "REG": "Araucanía", "COM": "Pucón", "LOC": "Pucón", "ZONA": "ZR-3", "NOM": "ZR-3", "UPERM": "Cementerio.", "UPROH": "Todo uso no indicado como permitido.", "P_DO": "06/05/1994", "N_DOC": "4", "T_DO": "Resolución", "OBS": null }, "geometry": { "type": "Polygon", "coordinates": [ [ [ -71.974609299799297, -39.281925166107897 ], [ -71.975883116817499, -39.282130939238698 ], [ -71.976308620745897, -39.281315623202303 ], [ -71.9765870834499, -39.280950973585 ], [ -71.974787115372493, -39.281092710339202 ], [ -71.974609299799297, -39.281925166107897 ] ] ] } },
{ "type": "Feature", "properties": { "id": "monoparte.6", "Name": null, "description": null, "timestamp": null, "begin": null, "end": null, "altitudeMode": null, "tessellate": -1, "extrude": 0, "visibility": -1, "drawOrder": null, "icon": null, "REG": "Araucanía", "COM": "Pucón", "LOC": "Pucón", "ZONA": "ZR-3", "NOM": "ZR-3", "UPERM": "Cementerio.", "UPROH": "Todo uso no indicado como permitido.", "P_DO": "06/05/1994", "N_DOC": "4", "T_DO": "Resolución", "OBS": null }, "geometry": { "type": "Polygon", "coordinates": [ [ [ -71.980055380469494, -39.274295639677398 ], [ -71.981495221716102, -39.274754419563102 ], [ -71.981845273296798, -39.273838625174101 ], [ -71.980564022556607, -39.273454343340902 ], [ -71.980485724705503, -39.273478366849901 ], [ -71.980055380469494, -39.274295639677398 ] ] ] } },
{ "type": "Feature", "properties": { "id": "monoparte.7", "Name": null, "description": null, "timestamp": null, "begin": null, "end": null, "altitudeMode": null, "tessellate": -1, "extrude": 0, "visibility": -1, "drawOrder": null, "icon": null, "REG": "Araucanía", "COM": "Pucón", "LOC": "Pucón", "ZONA": "ZR-3", "NOM": "ZR-3", "UPERM": "Cementerio.", "UPROH": "Todo uso no indicado como permitido.", "P_DO": "06/05/1994", "N_DOC": "4", "T_DO": "Resolución", "OBS": null }, "geometry": { "type": "Polygon", "coordinates": [ [ [ -71.972978716904095, -39.271020607123603 ], [ -71.976836522806707, -39.272248580753697 ], [ -71.977185339083206, -39.271514874846297 ], [ -71.974918143061203, -39.268880910691799 ], [ -71.973617560456901, -39.269812528846003 ], [ -71.973405453805398, -39.270235063340699 ], [ -71.972978716904095, -39.271020607123603 ] ] ] } },
{ "type": "Feature", "properties": { "id": "monoparte.8", "Name": null, "description": null, "timestamp": null, "begin": null, "end": null, "altitudeMode": null, "tessellate": -1, "extrude": 0, "visibility": -1, "drawOrder": null, "icon": null, "REG": "Araucanía", "COM": "Pucón", "LOC": "Pucón", "ZONA": "Z-2", "NOM": "Z-2", "UPERM": "Vivienda; equipamiento de turismo y esparcimiento, áreas verdes, deportes, comercio minorista, servicios públicos, cultura, organización comunitaria; establecimientos de impacto vehicular; actividades productivas inofensivas.", "UPROH": "Todo uso no indicado como permitido.", "P_DO": "06/05/1994", "N_DOC": "4", "T_DO": "Resolución", "OBS": null }, "geometry": { "type": "Polygon", "coordinates": [ [ [ -71.974787115372493, -39.281092710339202 ], [ -71.9765870834499, -39.280950973585 ], [ -71.977144001572597, -39.280221672592702 ], [ -71.977542998721106, -39.278781361220503 ], [ -71.977795668415297, -39.278342711074998 ], [ -71.968130038519504, -39.275474577606303 ], [ -71.963613780593505, -39.277820137094899 ], [ -71.962746839185598, -39.278169950296999 ], [ -71.960411111907305, -39.278665496489801 ], [ -71.960403191938298, -39.278682476384098 ], [ -71.960619737749298, -39.279272843279998 ], [ -71.960597709966706, -39.279275673985602 ], [ -71.961112456217705, -39.280958552620902 ], [ -71.961283195336406, -39.281371320717497 ], [ -71.963639917193206, -39.280894194987198 ], [ -71.965503249740706, -39.2850774343691 ], [ -71.965927029902403, -39.285126217737002 ], [ -71.966371514626204, -39.284757360044701 ], [ -71.969152085595397, -39.2843289009706 ], [ -71.9684092567487, -39.282172910230102 ], [ -71.973492958672196, -39.280910922672902 ], [ -71.973875903616701, -39.280901134321702 ], [ -71.974801269307903, -39.281026445002297 ], [ -71.974787115372493, -39.281092710339202 ] ] ] } },
{ "type": "Feature", "properties": { "id": "monoparte.9", "Name": null, "description": null, "timestamp": null, "begin": null, "end": null, "altitudeMode": null, "tessellate": -1, "extrude": 0, "visibility": -1, "drawOrder": null, "icon": null, "REG": "Araucanía", "COM": "Pucón", "LOC": "Pucón", "ZONA": "ZR-6", "NOM": "ZR-6", "UPERM": "No permite ningun tipo de edificación.", "UPROH": "No permite ningun tipo de edificación.", "P_DO": "06/05/1994", "N_DOC": "4", "T_DO": "Resolución", "OBS": null }, "geometry": { "type": "Polygon", "coordinates": [ [ [ -72.004602163880406, -39.291521276153503 ], [ -72.004782550614394, -39.291320837516999 ], [ -72.005514913935102, -39.290515367678402 ], [ -72.006053168089494, -39.290191606767799 ], [ -72.006719066270804, -39.289983718593398 ], [ -72.007239287689899, -39.289921513237999 ], [ -72.007035744975994, -39.289720222456197 ], [ -72.006627254087604, -39.2894924324088 ], [ -72.006225898120604, -39.289431300731003 ], [ -72.005639694180701, -39.2893511083915 ], [ -72.004159886973994, -39.289174820049602 ], [ -72.003792226513895, -39.289184314169603 ], [ -72.0031713047685, -39.289096089207298 ], [ -72.003123332468306, -39.289177280222397 ], [ -72.003133510944295, -39.289415365337298 ], [ -72.003141144909307, -39.289593929840599 ], [ -72.003416866943695, -39.289765573055497 ], [ -72.004048730128105, -39.2901961615216 ], [ -72.004529950962507, -39.290690224497503 ], [ -72.004540134787803, -39.290928310142803 ], [ -72.004476266627293, -39.291227894663201 ], [ -72.004485177479097, -39.291436219594601 ], [ -72.004602163880406, -39.291521276153503 ] ] ] } },
{ "type": "Feature", "properties": { "id": "monoparte.10", "Name": null, "description": null, "timestamp": null, "begin": null, "end": null, "altitudeMode": null, "tessellate": -1, "extrude": 0, "visibility": -1, "drawOrder": null, "icon": null, "REG": "Araucanía", "COM": "Pucón", "LOC": "Pucón", "ZONA": "Z-4", "NOM": "Z-4", "UPERM": "Vivienda; equipamiento de turismo y esparcimiento, a escala regional interurbana, áreas verdes, deporte (vecinal).", "UPROH": "Todo uso no indicado como permitido.", "P_DO": "06/05/1994", "N_DOC": "4", "T_DO": "Resolución", "OBS": null }, "geometry": { "type": "Polygon", "coordinates": [ [ [ -72.0031321949984, -39.289384584155798 ], [ -72.002446128610103, -39.289188357557798 ], [ -71.999628547864504, -39.288569833443503 ], [ -71.9979793205747, -39.288016475326899 ], [ -71.997360627280898, -39.287174361820703 ], [ -71.997561884620595, -39.286859322465403 ], [ -71.997694753850595, -39.286379200499503 ], [ -71.997466070898, -39.286051404858199 ], [ -71.996728917932302, -39.285307678814597 ], [ -71.996483997287001, -39.284598941006003 ], [ -71.996078614985393, -39.2844425373832 ], [ -71.995487384849696, -39.284243248746897 ], [ -71.9947338438391, -39.283833620725403 ], [ -71.994028194654007, -39.283827948292803 ], [ -71.993541057382004, -39.283911989076898 ], [ -71.9928425063205, -39.2840729724441 ], [ -71.992037847694903, -39.283902991166599 ], [ -71.991745380519603, -39.283593299748901 ], [ -71.991312687864195, -39.283731404245799 ], [ -71.990856943331494, -39.283832502981198 ], [ -71.990296445009207, -39.284174642108802 ], [ -71.989929952466696, -39.284571379025301 ], [ -71.990057505955903, -39.284866037523699 ], [ -71.990541127857796, -39.285419686206801 ], [ -71.991449821066198, -39.286051783991702 ], [ -71.992778530616803, -39.286643275180197 ], [ -71.993707801440706, -39.286857714143402 ], [ -71.994610199055003, -39.287340980226404 ], [ -71.995638921883597, -39.288089128058701 ], [ -71.996203014056206, -39.2887300607605 ], [ -71.997340321118998, -39.289326428897198 ], [ -71.998425373561503, -39.289596401755503 ], [ -71.999311318252495, -39.289692737323598 ], [ -72.000045341190599, -39.289822777767 ], [ -72.000550848101298, -39.289988501640003 ], [ -72.004636124862699, -39.291703923216502 ], [ -72.004704550656498, -39.291595716708798 ], [ -72.004485177479097, -39.291436219594601 ], [ -72.004476266627293, -39.291227894663201 ], [ -72.004540134787803, -39.290928310142803 ], [ -72.004529950962507, -39.290690224497503 ], [ -72.004048730128105, -39.2901961615216 ], [ -72.003416866943695, -39.289765573055497 ], [ -72.003141144909307, -39.289593929840599 ], [ -72.003133510944295, -39.289415365337298 ], [ -72.0031321949984, -39.289384584155798 ] ] ] } },
{ "type": "Feature", "properties": { "id": "monoparte.11", "Name": null, "description": null, "timestamp": null, "begin": null, "end": null, "altitudeMode": null, "tessellate": -1, "extrude": 0, "visibility": -1, "drawOrder": null, "icon": null, "REG": "Araucanía", "COM": "Pucón", "LOC": "Pucón", "ZONA": "Z-3", "NOM": "Z-3", "UPERM": "Vivienda; equipamiento de turismo y esparcimiento, apart-hoteles, moteles, casinos, hosterias, restaurantes, áreas verdes, comercio minorista, organización comunitaria, servicios públicos, deporte.", "UPROH": "Todo uso no indicado como permitido.", "P_DO": "06/05/1994", "N_DOC": "4", "T_DO": "Resolución", "OBS": null }, "geometry": { "type": "Polygon", "coordinates": [ [ [ -71.991745380519603, -39.283593299748901 ], [ -71.99120278449, -39.283018737600202 ], [ -71.990241146622907, -39.282042391860898 ], [ -71.989229657044802, -39.280614453954598 ], [ -71.988659999030801, -39.280200060425898 ], [ -71.988209849632696, -39.279711089669703 ], [ -71.986427246089804, -39.278898804299999 ], [ -71.985751266366194, -39.278868485553197 ], [ -71.984838303538496, -39.279034922064803 ], [ -71.984459267694604, -39.279497510408497 ], [ -71.9834705614727, -39.280047239739297 ], [ -71.981859032731407, -39.2803745752163 ], [ -71.981331164003095, -39.280221259559099 ], [ -71.980521523602803, -39.279932150083702 ], [ -71.980234542975097, -39.279695563089902 ], [ -71.980201203560497, -39.279994428578803 ], [ -71.980217612215895, -39.280381327066998 ], [ -71.980191940329803, -39.280679922243998 ], [ -71.979933978178295, -39.280924880142699 ], [ -71.979745030803699, -39.280989307301198 ], [ -71.979618789927798, -39.280724396823402 ], [ -71.979145821520305, -39.2795149661005 ], [ -71.979010755459896, -39.279041724476798 ], [ -71.979007019018297, -39.278702086707298 ], [ -71.977795668415297, -39.278342711074998 ], [ -71.977542998721106, -39.278781361220503 ], [ -71.977144001572597, -39.280221672592702 ], [ -71.976447923283004, -39.2811332056677 ], [ -71.977024729811603, -39.281297300492596 ], [ -71.978692841801603, -39.281761095267498 ], [ -71.979656519908005, -39.281885386012597 ], [ -71.980375284714896, -39.281658418306101 ], [ -71.981515284272007, -39.281420651454098 ], [ -71.982359024868799, -39.2814288185332 ], [ -71.983017611403, -39.281590695872801 ], [ -71.984737965677198, -39.2823807954451 ], [ -71.9884060305357, -39.283895487960997 ], [ -71.989026355498396, -39.284058313540797 ], [ -71.989614720404802, -39.284370925542703 ], [ -71.989933752019795, -39.284660662431797 ], [ -71.989970750136493, -39.284665626481399 ], [ -71.989929952466696, -39.284571379025301 ], [ -71.990296445009207, -39.284174642108802 ], [ -71.990856943331494, -39.283832502981198 ], [ -71.991312687864195, -39.283731404245799 ], [ -71.991745380519603, -39.283593299748901 ] ] ] } },
{ "type": "Feature", "properties": { "id": "monoparte.12", "Name": null, "description": null, "timestamp": null, "begin": null, "end": null, "altitudeMode": null, "tessellate": -1, "extrude": 0, "visibility": -1, "drawOrder": null, "icon": null, "REG": "Araucanía", "COM": "Pucón", "LOC": "Pucón", "ZONA": "Z-6", "NOM": "Z-6", "UPERM": "Vivienda, equipamiento de turismo y esparcimiento (regional), áreas verdes, deporte (comunal, vecinal).", "UPROH": "Todo uso no indicado como permitido.", "P_DO": "06/05/1994", "N_DOC": "4", "T_DO": "Resolución", "OBS": null }, "geometry": { "type": "Polygon", "coordinates": [ [ [ -71.980173318891005, -39.281722195061199 ], [ -71.980418205371294, -39.282670306142897 ], [ -71.976195160532001, -39.283433881658603 ], [ -71.977284975591402, -39.286534339261202 ], [ -71.9800916299845, -39.284913201143603 ], [ -71.981129041766195, -39.288581041794302 ], [ -71.9826954831492, -39.2884515081603 ], [ -71.981583071197903, -39.283921587354698 ], [ -71.984330473568605, -39.2821936521485 ], [ -71.983017611403, -39.281590695872801 ], [ -71.982359024868799, -39.2814288185332 ], [ -71.981515284272007, -39.281420651454098 ], [ -71.980375284714896, -39.281658418306101 ], [ -71.980173318891005, -39.281722195061199 ] ] ] } },
{ "type": "Feature", "properties": { "id": "monoparte.13", "Name": null, "description": null, "timestamp": null, "begin": null, "end": null, "altitudeMode": null, "tessellate": -1, "extrude": 0, "visibility": -1, "drawOrder": null, "icon": null, "REG": "Araucanía", "COM": "Pucón", "LOC": "Pucón", "ZONA": "ZR-5", "NOM": "ZR-5", "UPERM": "Vivienda; equipamiento de turismo, áreas verdes, y forestación.", "UPROH": "Todo uso no indicado como permitido.", "P_DO": "06/05/1994", "N_DOC": "4", "T_DO": "Resolución", "OBS": null }, "geometry": { "type": "Polygon", "coordinates": [ [ [ -71.981862333092195, -39.271837179203899 ], [ -71.981651781122395, -39.271875559948199 ], [ -71.980832808976601, -39.272087225488299 ], [ -71.980417091871402, -39.2724077308905 ], [ -71.980147462809995, -39.272557648425 ], [ -71.980028974071502, -39.272656023013198 ], [ -71.979408263559407, -39.272481240100497 ], [ -71.977289751157301, -39.270247309821798 ], [ -71.975797077140001, -39.268307188982398 ], [ -71.975732763271296, -39.268297371479598 ], [ -71.974918143061203, -39.268880910691799 ], [ -71.977185339083206, -39.271514874846297 ], [ -71.976836522806707, -39.272248580753697 ], [ -71.979965722968004, -39.273244505791297 ], [ -71.980516559439295, -39.273419807277101 ], [ -71.980485724705503, -39.273478366849901 ], [ -71.980564022556607, -39.273454343340902 ], [ -71.981845273296798, -39.273838625174101 ], [ -71.981549041805195, -39.2746136195586 ], [ -71.981655005641997, -39.274594304001099 ], [ -71.981994571765597, -39.274466425953698 ], [ -71.982262606613702, -39.274459555605603 ], [ -71.982607222712403, -39.274450721395901 ], [ -71.982886623937802, -39.274711702075599 ], [ -71.983114111324497, -39.275082086157198 ], [ -71.983165420521601, -39.275104259253403 ], [ -71.9835360464334, -39.275166260154499 ], [ -71.984188433346802, -39.275364043541501 ], [ -71.984563105585195, -39.275521276802003 ], [ -71.985061322028898, -39.275699174563897 ], [ -71.985648405536196, -39.275803284800098 ], [ -71.985931184121995, -39.275962872683401 ], [ -71.986243583830898, -39.276097864015 ], [ -71.986584596230003, -39.276184450718503 ], [ -71.986836744452205, -39.2763448226492 ], [ -71.987124586482693, -39.276623451583802 ], [ -71.9874083836784, -39.276806844236397 ], [ -71.987781044821304, -39.276916449289303 ], [ -71.988029149139805, -39.276981582118097 ], [ -71.988339533558303, -39.2770689502048 ], [ -71.988619285582701, -39.277157103459103 ], [ -71.989017521346099, -39.277146872630901 ], [ -71.989409680323305, -39.276993787099002 ], [ -71.989709937629002, -39.276843061986803 ], [ -71.990220573676993, -39.276591588821198 ], [ -71.990487155374794, -39.276370221636398 ], [ -71.990601582148699, -39.276176600693603 ], [ -71.990730820409198, -39.276069281094301 ], [ -71.990197930378699, -39.275733642780096 ], [ -71.989392550928102, -39.275724546133901 ], [ -71.988155846875699, -39.275488174080799 ], [ -71.986872004618505, -39.275044441867799 ], [ -71.986637201915997, -39.274931294815502 ], [ -71.986154951714099, -39.274407386359897 ], [ -71.985694201053306, -39.2743894177651 ], [ -71.985234714582106, -39.274401208650602 ], [ -71.984542956813897, -39.2743593689165 ], [ -71.9837645121235, -39.2740813982128 ], [ -71.981159918449706, -39.273224561120401 ], [ -71.981204732213598, -39.273136048486698 ], [ -71.981862333092195, -39.271837179203899 ] ] ] } },
{ "type": "Feature", "properties": { "id": "monoparte.14", "Name": null, "description": null, "timestamp": null, "begin": null, "end": null, "altitudeMode": null, "tessellate": -1, "extrude": 0, "visibility": -1, "drawOrder": null, "icon": null, "REG": "Araucanía", "COM": "Pucón", "LOC": "Pucón", "ZONA": "ZR-1A", "NOM": "ZR-1A", "UPERM": "Deportes náuticos.", "UPROH": "Todo uso no indicado como permitido.", "P_DO": "06/05/1994", "N_DOC": "4", "T_DO": "Resolución", "OBS": null }, "geometry": { "type": "Polygon", "coordinates": [ [ [ -71.979737883934206, -39.280974308357102 ], [ -71.979883094436502, -39.280787496101702 ], [ -71.979965912996704, -39.280570859352402 ], [ -71.980045701990804, -39.280282796214401 ], [ -71.980029546738706, -39.279901849404901 ], [ -71.979933603408497, -39.279808967485003 ], [ -71.9799245165337, -39.2795946848128 ], [ -71.9799837660061, -39.279545497873897 ], [ -71.979949983790604, -39.279363919765103 ], [ -71.9795937560216, -39.279104726955197 ], [ -71.979540913030903, -39.2785817107873 ], [ -71.979494126578103, -39.278201549164599 ], [ -71.979505581982593, -39.277748390155899 ], [ -71.979629127012799, -39.277769061620802 ], [ -71.9798099034156, -39.277692925788799 ], [ -71.979804855775697, -39.2775738809041 ], [ -71.979643610052904, -39.277387329910802 ], [ -71.979788703383903, -39.277192933833497 ], [ -71.980174826899599, -39.276897024102702 ], [ -71.980864590439396, -39.2758067775396 ], [ -71.981332501082605, -39.2752704183739 ], [ -71.981684945131306, -39.274903861052003 ], [ -71.9818823379169, -39.274877763574203 ], [ -71.982355833712205, -39.274815160358102 ], [ -71.982853029587005, -39.274969259263102 ], [ -71.983114111324497, -39.275082086157198 ], [ -71.982886623937802, -39.274711702075599 ], [ -71.982607222712403, -39.274450721395901 ], [ -71.982262606613702, -39.274459555605603 ], [ -71.981994571765597, -39.274466425953698 ], [ -71.981655005641997, -39.274594304001099 ], [ -71.981549041805195, -39.2746136195586 ], [ -71.981495221716102, -39.274754419563102 ], [ -71.981294149411795, -39.274690352831897 ], [ -71.980818538279607, -39.275569138866601 ], [ -71.980114979780694, -39.276153243532903 ], [ -71.978997322228295, -39.277820524826502 ], [ -71.979010755459896, -39.279041724476798 ], [ -71.979145821520305, -39.2795149661005 ], [ -71.979618789927798, -39.280724396823402 ], [ -71.979737883934206, -39.280974308357102 ] ] ] } },
{ "type": "Feature", "properties": { "id": "monoparte.15", "Name": null, "description": null, "timestamp": null, "begin": null, "end": null, "altitudeMode": null, "tessellate": -1, "extrude": 0, "visibility": -1, "drawOrder": null, "icon": null, "REG": "Araucanía", "COM": "Pucón", "LOC": "Pucón", "ZONA": "Z-9", "NOM": "Z-9", "UPERM": "Vivienda; equipamiento de turismo y esparcimiento, áreas verdes, comercio minorista, centros deportivos, organización comunitaria.", "UPROH": "Todo uso no indicado como permitido.", "P_DO": "06/05/1994", "N_DOC": "4", "T_DO": "Resolución", "OBS": null }, "geometry": { "type": "Polygon", "coordinates": [ [ [ -71.969093438666107, -39.270624425293597 ], [ -71.971111164284096, -39.271997880672998 ], [ -71.970408812981702, -39.272611691249502 ], [ -71.970993227913794, -39.272835119722501 ], [ -71.970646803225904, -39.273707985812699 ], [ -71.9702205748697, -39.2735996927074 ], [ -71.963657733607704, -39.2770443781151 ], [ -71.962488222892702, -39.277491277165801 ], [ -71.961466852142706, -39.277815219227797 ], [ -71.960184803741399, -39.2779361157274 ], [ -71.960353159228205, -39.278677791271001 ], [ -71.962746839185598, -39.278169950296999 ], [ -71.963613780593505, -39.277820137094899 ], [ -71.969465510045495, -39.2747809263698 ], [ -71.970894866191202, -39.275042373936301 ], [ -71.972985367062904, -39.270996602489603 ], [ -71.972993209110797, -39.270993928366401 ], [ -71.973348338508899, -39.270340202779202 ], [ -71.972069484389195, -39.270185774982899 ], [ -71.971478251891995, -39.270707371732897 ], [ -71.9696125000997, -39.269630854656199 ], [ -71.969093438666107, -39.270624425293597 ] ] ] } },
{ "type": "Feature", "properties": { "id": "monoparte.16", "Name": null, "description": null, "timestamp": null, "begin": null, "end": null, "altitudeMode": null, "tessellate": -1, "extrude": 0, "visibility": -1, "drawOrder": null, "icon": null, "REG": "Araucanía", "COM": "Pucón", "LOC": "Pucón", "ZONA": "Z-5", "NOM": "Z-5", "UPERM": "Vivienda; equipamiento de turismo, esparcimiento (regional), moteles, hosterias (comunal), áreas verdes (comunal, vecinal), deporte (comunal).", "UPROH": "Todo uso no indicado como permitido.", "P_DO": "06/05/1994", "N_DOC": "4", "T_DO": "Resolución", "OBS": null }, "geometry": { "type": "Polygon", "coordinates": [ [ [ -71.971967227289099, -39.264140239321399 ], [ -71.974928993192805, -39.268873138186301 ], [ -71.975777537619194, -39.268265297420903 ], [ -71.973742936623793, -39.265346209625697 ], [ -71.972545204049993, -39.263098500414003 ], [ -71.971738063424695, -39.263252276718298 ], [ -71.971967227289099, -39.264140239321399 ] ] ] } },
{ "type": "Feature", "properties": { "id": "monoparte.17", "Name": null, "description": null, "timestamp": null, "begin": null, "end": null, "altitudeMode": null, "tessellate": -1, "extrude": 0, "visibility": -1, "drawOrder": null, "icon": null, "REG": "Araucanía", "COM": "Pucón", "LOC": "Pucón", "ZONA": "Z-5E", "NOM": "Z-5E", "UPERM": "Vivienda; equipamiento de turismo, esparcimiento (regional), moteles, hosterias (comunal), áreas verdes (comunal, vecinal), deporte (comunal).", "UPROH": "Todo uso no indicado como permitido.", "P_DO": "06/05/1994", "N_DOC": "4", "T_DO": "Resolución", "OBS": null }, "geometry": { "type": "Polygon", "coordinates": [ [ [ -71.970977799756199, -39.261811868849598 ], [ -71.971762049485307, -39.263247707551699 ], [ -71.972525867004805, -39.263102184345499 ], [ -71.971813392378394, -39.2616574703925 ], [ -71.970977799756199, -39.261811868849598 ] ] ] } },
{ "type": "Feature", "properties": { "id": "monoparte.18", "Name": null, "description": null, "timestamp": null, "begin": null, "end": null, "altitudeMode": null, "tessellate": -1, "extrude": 0, "visibility": -1, "drawOrder": null, "icon": null, "REG": "Araucanía", "COM": "Pucón", "LOC": "Pucón", "ZONA": "ZR-1B", "NOM": "ZR-1B", "UPERM": "Balneario y deportes náuticos.", "UPROH": "Todo uso no indicado como permitido.", "P_DO": "06/05/1994", "N_DOC": "4", "T_DO": "Resolución", "OBS": null }, "geometry": { "type": "Polygon", "coordinates": [ [ [ -71.977504411466398, -39.270473673624799 ], [ -71.979408263559407, -39.272481240100497 ], [ -71.980028974071502, -39.272656023013198 ], [ -71.980147462809995, -39.272557648425 ], [ -71.980417091871402, -39.2724077308905 ], [ -71.980832808976601, -39.272087225488299 ], [ -71.981651781122395, -39.271875559948199 ], [ -71.981862333092195, -39.271837179203899 ], [ -71.9821371121986, -39.2712944312701 ], [ -71.981840768547201, -39.271348451068299 ], [ -71.981208621107399, -39.271626836650299 ], [ -71.980335454849296, -39.272006732702302 ], [ -71.979913679514297, -39.272184380799402 ], [ -71.979443103681206, -39.271934247623797 ], [ -71.978549100392399, -39.271099077464598 ], [ -71.977714363354906, -39.270214712972603 ], [ -71.977695422744802, -39.2701903117512 ], [ -71.977504411466398, -39.270473673624799 ] ] ] } },
{ "type": "Feature", "properties": { "id": "monoparte.19", "Name": null, "description": null, "timestamp": null, "begin": null, "end": null, "altitudeMode": null, "tessellate": -1, "extrude": 0, "visibility": -1, "drawOrder": null, "icon": null, "REG": "Araucanía", "COM": "Pucón", "LOC": "Pucón", "ZONA": "ZR-1C", "NOM": "ZR-1C", "UPERM": "Balneario.", "UPROH": "Todo uso no indicado como permitido.", "P_DO": "06/05/1994", "N_DOC": "4", "T_DO": "Resolución", "OBS": null }, "geometry": { "type": "Polygon", "coordinates": [ [ [ -71.983897052207297, -39.2786130747591 ], [ -71.983975506672394, -39.279016257564003 ], [ -71.983922326460103, -39.279208301325802 ], [ -71.983682303457897, -39.279333632290303 ], [ -71.983440259071003, -39.279411344438699 ], [ -71.983074665261896, -39.2794683894925 ], [ -71.982653863308698, -39.279669858440499 ], [ -71.982262684011701, -39.279846730995601 ], [ -71.9818725130323, -39.280047411947599 ], [ -71.981289438529799, -39.280038520676101 ], [ -71.981070953056602, -39.279948779927501 ], [ -71.980693235060599, -39.279720107985597 ], [ -71.980250531120504, -39.279552226723403 ], [ -71.980234542975097, -39.279695563089902 ], [ -71.980521523602803, -39.279932150083702 ], [ -71.981331164003095, -39.280221259559099 ], [ -71.981859032731407, -39.2803745752163 ], [ -71.9834705614727, -39.280047239739297 ], [ -71.984459267694604, -39.279497510408497 ], [ -71.984838303538496, -39.279034922064803 ], [ -71.985751266366194, -39.278868485553197 ], [ -71.986427246089804, -39.278898804299999 ], [ -71.988209849632696, -39.279711089669703 ], [ -71.988659999030801, -39.280200060425898 ], [ -71.989229657044802, -39.280614453954598 ], [ -71.990241146622907, -39.282042391860898 ], [ -71.99120278449, -39.283018737600202 ], [ -71.991745380519603, -39.283593299748901 ], [ -71.992037847694903, -39.283902991166599 ], [ -71.9928425063205, -39.2840729724441 ], [ -71.993541057382004, -39.283911989076898 ], [ -71.994028194654007, -39.283827948292803 ], [ -71.9947338438391, -39.283833620725403 ], [ -71.995487384849696, -39.284243248746897 ], [ -71.996078614985393, -39.2844425373832 ], [ -71.996483997287001, -39.284598941006003 ], [ -71.996728917932302, -39.285307678814597 ], [ -71.997466070898, -39.286051404858199 ], [ -71.997694753850595, -39.286379200499503 ], [ -71.997561884620595, -39.286859322465403 ], [ -71.997360627280898, -39.287174361820703 ], [ -71.9979793205747, -39.288016475326899 ], [ -71.999628547864504, -39.288569833443503 ], [ -72.002446128610103, -39.289188357557798 ], [ -72.0031321949984, -39.289384584155798 ], [ -72.003123332468306, -39.289177280222397 ], [ -72.0031713047685, -39.289096089207298 ], [ -72.003082456157301, -39.289083464930599 ], [ -72.002499309445298, -39.289074682182701 ], [ -72.002153130427899, -39.288869103251699 ], [ -72.001469932531194, -39.288672218400798 ], [ -72.001036929826199, -39.288588050649899 ], [ -72.000667237388498, -39.288549917294603 ], [ -72.000189363003003, -39.288133214915099 ], [ -71.999883999648304, -39.288164925352099 ], [ -71.999550030394701, -39.288245041662201 ], [ -71.999085378155996, -39.2881378471942 ], [ -71.998737179449407, -39.287884639048002 ], [ -71.998289958137207, -39.287467139340997 ], [ -71.998157245605, -39.287232210715104 ], [ -71.997991865988595, -39.286950453796798 ], [ -71.997986785866999, -39.286831410179097 ], [ -71.998131843643307, -39.2866369927156 ], [ -71.998211563736106, -39.2863489190457 ], [ -71.997891983280397, -39.286047301474902 ], [ -71.997126221024899, -39.285351986182 ], [ -71.997026184344307, -39.285163884269799 ], [ -71.996919040239703, -39.284809120750801 ], [ -71.996876217217803, -39.284524204719503 ], [ -71.996405499843604, -39.284274146177196 ], [ -71.995848968159095, -39.284169304800898 ], [ -71.995441559588897, -39.283965281941498 ], [ -71.995221015182906, -39.283827950337397 ], [ -71.995088321511005, -39.283593017390203 ], [ -71.995051595208494, -39.283450953700303 ], [ -71.994837143355696, -39.283456474604499 ], [ -71.994501160022097, -39.283488958023497 ], [ -71.994169235931295, -39.283616676095399 ], [ -71.993831223594398, -39.283601540659603 ], [ -71.993584105296904, -39.2835602298588 ], [ -71.993277743278398, -39.283568112935399 ], [ -71.992706811141502, -39.283844986455897 ], [ -71.992368796550295, -39.283829845928501 ], [ -71.991928735825596, -39.283578980385002 ], [ -71.991905926349901, -39.283542056677199 ], [ -71.991566394360504, -39.282992424975902 ], [ -71.991269384148893, -39.2824995286689 ], [ -71.990753876424904, -39.281916908664002 ], [ -71.989658577834803, -39.280681809506902 ], [ -71.989361591512093, -39.280188907265298 ], [ -71.988760289526894, -39.279751492668197 ], [ -71.987537194892596, -39.279115528828697 ], [ -71.986127282177705, -39.278412842286897 ], [ -71.984828510921602, -39.278160151086702 ], [ -71.984036068639, -39.278275819780198 ], [ -71.983916565523103, -39.2783503897043 ], [ -71.983897052207297, -39.2786130747591 ] ] ] } },
{ "type": "Feature", "properties": { "id": "monoparte.20", "Name": null, "description": null, "timestamp": null, "begin": null, "end": null, "altitudeMode": null, "tessellate": -1, "extrude": 0, "visibility": -1, "drawOrder": null, "icon": null, "REG": "Araucanía", "COM": "Pucón", "LOC": "Pucón", "ZONA": "ZR-1C", "NOM": "ZR-1C", "UPERM": "Balneario.", "UPROH": "Todo uso no indicado como permitido.", "P_DO": "06/05/1994", "N_DOC": "4", "T_DO": "Resolución", "OBS": null }, "geometry": { "type": "Polygon", "coordinates": [ [ [ -71.971813392378394, -39.2616574703925 ], [ -71.972525867004805, -39.263102184345499 ], [ -71.972545204049993, -39.263098500414003 ], [ -71.973742936623793, -39.265346209625697 ], [ -71.975777537619194, -39.268265297420903 ], [ -71.975732763271296, -39.268297371479598 ], [ -71.975797077140001, -39.268307188982398 ], [ -71.977289751157301, -39.270247309821798 ], [ -71.977504411466398, -39.270473673624799 ], [ -71.977695422744802, -39.2701903117512 ], [ -71.976644062792303, -39.268835834185303 ], [ -71.976065908655201, -39.268058723712002 ], [ -71.975408565853996, -39.267175147620399 ], [ -71.974658752403201, -39.266121743066797 ], [ -71.973860206648695, -39.264640546697898 ], [ -71.973380056017902, -39.263437230094198 ], [ -71.973223192131599, -39.262969324954902 ], [ -71.972888851113098, -39.2619720070198 ], [ -71.972886837841898, -39.261924388097803 ], [ -71.972940038455903, -39.261732348235498 ], [ -71.972995253283997, -39.2615879272456 ], [ -71.972958586671595, -39.261445853029201 ], [ -71.971813392378394, -39.2616574703925 ] ] ] } },
{ "type": "Feature", "properties": { "id": "monoparte.21", "Name": null, "description": null, "timestamp": null, "begin": null, "end": null, "altitudeMode": null, "tessellate": -1, "extrude": 0, "visibility": -1, "drawOrder": null, "icon": null, "REG": "Araucanía", "COM": "Pucón", "LOC": "Pucón", "ZONA": "ZR-2", "NOM": "ZR-2", "UPERM": "Áreas verdes, forestación.", "UPROH": "Todo uso no indicado como permitido.", "P_DO": "06/05/1994", "N_DOC": "4", "T_DO": "Resolución", "OBS": null }, "geometry": { "type": "Polygon", "coordinates": [ [ [ -72.004602163880406, -39.291521276153503 ], [ -72.004704550656498, -39.291595716708798 ], [ -72.004722321620307, -39.2915676144193 ], [ -72.005249382390303, -39.290981962213401 ], [ -72.0054240483543, -39.2907629364692 ], [ -72.005601769452298, -39.290615335944103 ], [ -72.0058703884701, -39.2904415510192 ], [ -72.006202320611806, -39.290313799241702 ], [ -72.006504632255002, -39.290210646574799 ], [ -72.006870258895205, -39.290153527371501 ], [ -72.007388057651895, -39.290068637678402 ], [ -72.007239287689899, -39.289921513237999 ], [ -72.006719066270804, -39.289983718593398 ], [ -72.006053168089494, -39.290191606767799 ], [ -72.005514913935102, -39.290515367678402 ], [ -72.004782550614394, -39.291320837516999 ], [ -72.004602163880406, -39.291521276153503 ] ] ] } },
{ "type": "Feature", "properties": { "id": "monoparte.22", "Name": null, "description": null, "timestamp": null, "begin": null, "end": null, "altitudeMode": null, "tessellate": -1, "extrude": 0, "visibility": -1, "drawOrder": null, "icon": null, "REG": "Araucanía", "COM": "Pucón", "LOC": "Pucón", "ZONA": "ZR-2", "NOM": "ZR-2", "UPERM": "Áreas verdes, forestación.", "UPROH": "Todo uso no indicado como permitido.", "P_DO": "06/05/1994", "N_DOC": "4", "T_DO": "Resolución", "OBS": null }, "geometry": { "type": "Polygon", "coordinates": [ [ [ -71.979737883934206, -39.280974308357102 ], [ -71.979745030803699, -39.280989307301198 ], [ -71.979933978178295, -39.280924880142699 ], [ -71.980191940329803, -39.280679922243998 ], [ -71.980217612215895, -39.280381327066998 ], [ -71.980201203560497, -39.279994428578803 ], [ -71.980250531120504, -39.279552226723403 ], [ -71.980163354056302, -39.279519167371099 ], [ -71.979949983790604, -39.279363919765103 ], [ -71.9799837660061, -39.279545497873897 ], [ -71.9799245165337, -39.2795946848128 ], [ -71.979933603408497, -39.279808967485003 ], [ -71.980029546738706, -39.279901849404901 ], [ -71.980045701990804, -39.280282796214401 ], [ -71.979965912996704, -39.280570859352402 ], [ -71.979883094436502, -39.280787496101702 ], [ -71.979737883934206, -39.280974308357102 ] ] ] } },
{ "type": "Feature", "properties": { "id": "monoparte.23", "Name": null, "description": null, "timestamp": null, "begin": null, "end": null, "altitudeMode": null, "tessellate": -1, "extrude": 0, "visibility": -1, "drawOrder": null, "icon": null, "REG": "Araucanía", "COM": "Pucón", "LOC": "Pucón", "ZONA": "Z-9E", "NOM": "Z-9E", "UPERM": "Vivienda; equipamiento de turismo y esparcimiento, áreas verdes, comercio minorista, centros deportivos, organización comunitaria.", "UPROH": "Todo uso no indicado como permitido.", "P_DO": "06/05/1994", "N_DOC": "4", "T_DO": "Resolución", "OBS": null }, "geometry": { "type": "Polygon", "coordinates": [ [ [ -71.967553014433904, -39.273572893412798 ], [ -71.961969724213304, -39.276432369975197 ], [ -71.961336443425793, -39.276686841950202 ], [ -71.960907566590095, -39.276697757639901 ], [ -71.960208999009595, -39.2768585443022 ], [ -71.959586268320507, -39.276913777131298 ], [ -71.960168643065302, -39.277937639469798 ], [ -71.961466852142706, -39.277815219227797 ], [ -71.962488222892702, -39.277491277165801 ], [ -71.963657733607704, -39.2770443781151 ], [ -71.9702205748697, -39.2735996927074 ], [ -71.970646803225904, -39.273707985812699 ], [ -71.970993227913794, -39.272835119722501 ], [ -71.970408812981702, -39.272611691249502 ], [ -71.971111164284096, -39.271997880672998 ], [ -71.969093438666107, -39.270624425293597 ], [ -71.967553014433904, -39.273572893412798 ] ] ] } },
{ "type": "Feature", "properties": { "id": "monoparte.24", "Name": null, "description": null, "timestamp": null, "begin": null, "end": null, "altitudeMode": null, "tessellate": -1, "extrude": 0, "visibility": -1, "drawOrder": null, "icon": null, "REG": "Araucanía", "COM": "Pucón", "LOC": "Pucón", "ZONA": "Z-9E", "NOM": "Z-9E", "UPERM": "Vivienda; equipamiento de turismo y esparcimiento, áreas verdes, comercio minorista, centros deportivos, organización comunitaria.", "UPROH": "Todo uso no indicado como permitido.", "P_DO": "06/05/1994", "N_DOC": "4", "T_DO": "Resolución", "OBS": null }, "geometry": { "type": "Polygon", "coordinates": [ [ [ -71.9696125000997, -39.269630854656199 ], [ -71.971478251891995, -39.270707371732897 ], [ -71.972069484389195, -39.270185774982899 ], [ -71.973348338508899, -39.270340202779202 ], [ -71.973405453805398, -39.270235063340699 ], [ -71.973530472557499, -39.269986015320498 ], [ -71.970448679297505, -39.268030202765701 ], [ -71.9696125000997, -39.269630854656199 ] ] ] } },
{ "type": "Feature", "properties": { "id": "monoparte.25", "Name": null, "description": null, "timestamp": null, "begin": null, "end": null, "altitudeMode": null, "tessellate": -1, "extrude": 0, "visibility": -1, "drawOrder": null, "icon": null, "REG": "Araucanía", "COM": "Pucón", "LOC": "Pucón", "ZONA": "Z-1", "NOM": "Z-1", "UPERM": "Vivienda; equipamiento de turismo y esparcimiento, áreas verdes, comercio minorista, servicios públicos, cultural, organización comunitaria (comunal, vecinal); actividades productivas inofensivas.", "UPROH": "Todo uso no indicado como permitido.", "P_DO": "06/05/1994", "N_DOC": "4", "T_DO": "Resolución", "OBS": null }, "geometry": { "type": "Polygon", "coordinates": [ [ [ -71.972985367062904, -39.270996602489603 ], [ -71.970894866191202, -39.275042373936301 ], [ -71.969465510045495, -39.2747809263698 ], [ -71.968130038519504, -39.275474577606303 ], [ -71.979007019018297, -39.278702086707298 ], [ -71.978997322228295, -39.277820524826502 ], [ -71.980114979780694, -39.276153243532903 ], [ -71.980818538279607, -39.275569138866601 ], [ -71.981294149411795, -39.274690352831897 ], [ -71.980055380469494, -39.274295639677398 ], [ -71.980516559439295, -39.273419807277101 ], [ -71.972978716904095, -39.271020607123603 ], [ -71.972993209110797, -39.270993928366401 ], [ -71.972985367062904, -39.270996602489603 ] ], [ [ -71.9796887624329, -39.276191577752101 ], [ -71.979582838914595, -39.276120957873403 ], [ -71.979572426151194, -39.276051547494298 ], [ -71.979570609239005, -39.276008691098802 ], [ -71.979566975387996, -39.2759229774068 ], [ -71.979600707005403, -39.275850608638102 ], [ -71.979636861139795, -39.275835381721102 ], [ -71.979746534781995, -39.275818271832897 ], [ -71.979875193932301, -39.275814976540403 ], [ -71.979931544973795, -39.275842135150803 ], [ -71.980043035724094, -39.2758678813654 ], [ -71.980081006974601, -39.275895510691001 ], [ -71.980085852930401, -39.2760097952604 ], [ -71.979979813419902, -39.276112618235203 ], [ -71.979873167899797, -39.276201155662797 ], [ -71.9796887624329, -39.276191577752101 ] ] ] } },
{ "type": "Feature", "properties": { "id": "monoparte.26", "Name": null, "description": null, "timestamp": null, "begin": null, "end": null, "altitudeMode": null, "tessellate": -1, "extrude": 0, "visibility": -1, "drawOrder": null, "icon": null, "REG": "Araucanía", "COM": "Pucón", "LOC": "Pucón", "ZONA": "Z-6E", "NOM": "Z-6E", "UPERM": "Vivienda; equipamiento de turismo y esparcimiento (regional), áreas verdes, deporte (comunal, vecinal).", "UPROH": "Todo uso no indicado como permitido.", "P_DO": "06/05/1994", "N_DOC": "4", "T_DO": "Resolución", "OBS": null }, "geometry": { "type": "Polygon", "coordinates": [ [ [ -71.981583071197903, -39.283921587354698 ], [ -71.9826954831492, -39.2884515081603 ], [ -71.981129041766195, -39.288581041794302 ], [ -71.9800916299845, -39.284913201143603 ], [ -71.977451299520695, -39.2864382734316 ], [ -71.977427707726406, -39.287007385305301 ], [ -71.978815277158901, -39.291153921999701 ], [ -71.978907749113404, -39.2911351262075 ], [ -71.987928020429194, -39.285421754020597 ], [ -71.988895753066103, -39.286540971971199 ], [ -71.989337850274197, -39.286839466563499 ], [ -71.990282316304103, -39.287411065782997 ], [ -71.992589076465904, -39.288281309693602 ], [ -71.993466224031494, -39.288711605789501 ], [ -71.994139059598595, -39.2893855021984 ], [ -71.995032472220899, -39.2901967247779 ], [ -71.996159848226696, -39.290739731711298 ], [ -71.997771377588094, -39.291127241894102 ], [ -71.998888623464097, -39.291432133049298 ], [ -72.000443987355993, -39.291940228016699 ], [ -72.003373991671694, -39.293032525031201 ], [ -72.003425091152906, -39.292792857043899 ], [ -72.003534414770101, -39.292480181286599 ], [ -72.003622262554103, -39.2923825732097 ], [ -72.003740748227997, -39.292284174853897 ], [ -72.003919494884698, -39.292160384862903 ], [ -72.004311699931804, -39.292007247418297 ], [ -72.004492482793694, -39.291931072982599 ], [ -72.004636124862699, -39.291703923216502 ], [ -72.000550848101298, -39.289988501640003 ], [ -72.000045341190599, -39.289822777767 ], [ -71.999311318252495, -39.289692737323598 ], [ -71.998425373561503, -39.289596401755503 ], [ -71.997340321118998, -39.289326428897198 ], [ -71.996203014056206, -39.2887300607605 ], [ -71.995638921883597, -39.288089128058701 ], [ -71.994610199055003, -39.287340980226404 ], [ -71.993707801440706, -39.286857714143402 ], [ -71.992778530616803, -39.286643275180197 ], [ -71.991449821066198, -39.286051783991702 ], [ -71.990541127857796, -39.285419686206801 ], [ -71.990057505955903, -39.284866037523699 ], [ -71.989970750136493, -39.284665626481399 ], [ -71.989933752019795, -39.284660662431797 ], [ -71.989614720404802, -39.284370925542703 ], [ -71.989026355498396, -39.284058313540797 ], [ -71.9884060305357, -39.283895487960997 ], [ -71.984737965677198, -39.2823807954451 ], [ -71.984330473568605, -39.2821936521485 ], [ -71.981583071197903, -39.283921587354698 ] ] ] } },
{ "type": "Feature", "properties": { "id": "monoparte.27", "Name": null, "description": null, "timestamp": null, "begin": null, "end": null, "altitudeMode": null, "tessellate": -1, "extrude": 0, "visibility": -1, "drawOrder": null, "icon": null, "REG": "Araucanía", "COM": "Pucón", "LOC": "Pucón", "ZONA": "Z-6E", "NOM": "Z-6E", "UPERM": "Vivienda; equipamiento de turismo y esparcimiento (regional), áreas verdes, deporte (comunal, vecinal).", "UPROH": "Todo uso no indicado como permitido.", "P_DO": "06/05/1994", "N_DOC": "4", "T_DO": "Resolución", "OBS": null }, "geometry": { "type": "Polygon", "coordinates": [ [ [ -71.963985745153707, -39.284639405985203 ], [ -71.966566111999398, -39.285824974215899 ], [ -71.967219681798895, -39.285867893759999 ], [ -71.968098006173804, -39.285785900354099 ], [ -71.968330305073394, -39.285839560964497 ], [ -71.968640456638695, -39.285921028269797 ], [ -71.968991421747006, -39.286061040720703 ], [ -71.969265793144402, -39.286203007063897 ], [ -71.969463570423997, -39.286346927858403 ], [ -71.969823345857094, -39.286695269365197 ], [ -71.970144825743901, -39.287044586538201 ], [ -71.970502091382102, -39.287333402338497 ], [ -71.971276864339004, -39.287522172781401 ], [ -71.971929192178706, -39.287535303507902 ], [ -71.9727704908302, -39.287484014214897 ], [ -71.973419638290693, -39.287210702040902 ], [ -71.973078908548999, -39.286528698215498 ], [ -71.973534245694907, -39.286416952784798 ], [ -71.973894637486197, -39.287095095139499 ], [ -71.974056246471307, -39.2870638319581 ], [ -71.974584854043101, -39.286871554327099 ], [ -71.975034343968204, -39.286621710134099 ], [ -71.975416059049707, -39.286582154910597 ], [ -71.976104153447906, -39.286534759971701 ], [ -71.976902093429402, -39.286365375130202 ], [ -71.977181845150199, -39.286240952716099 ], [ -71.976195160532001, -39.283433881658603 ], [ -71.980418205371294, -39.282670306142897 ], [ -71.980173318891005, -39.281722195061199 ], [ -71.979656519908005, -39.281885386012597 ], [ -71.978692841801603, -39.281761095267498 ], [ -71.977024729811603, -39.281297300492596 ], [ -71.976447923283004, -39.2811332056677 ], [ -71.976308620745897, -39.281315623202303 ], [ -71.975883116817499, -39.282130939238698 ], [ -71.974609299799297, -39.281925166107897 ], [ -71.974801269307903, -39.281026445002297 ], [ -71.973875903616701, -39.280901134321702 ], [ -71.973492958672196, -39.280910922672902 ], [ -71.9684092567487, -39.282172910230102 ], [ -71.969152085595397, -39.2843289009706 ], [ -71.966371514626204, -39.284757360044701 ], [ -71.965927029902403, -39.285126217737002 ], [ -71.965503249740706, -39.2850774343691 ], [ -71.963639917193206, -39.280894194987198 ], [ -71.962452334953397, -39.281134630941303 ], [ -71.963373633952202, -39.283761184724 ], [ -71.963985745153707, -39.284639405985203 ] ] ] } },
{ "type": "Feature", "properties": { "id": "monoparte.28", "Name": null, "description": null, "timestamp": null, "begin": null, "end": null, "altitudeMode": null, "tessellate": -1, "extrude": 0, "visibility": -1, "drawOrder": null, "icon": null, "REG": "Araucanía", "COM": "Pucón", "LOC": "Pucón", "ZONA": "ZR-4", "NOM": "ZR-4", "UPERM": "Se permitirá la construcción de obras afines del destino de las instalaciones, incluso vivienda del cuidador, bodegas y oficinas, de acuerdo a los requerimientos del funcionamiento de ellas.", "UPROH": "Todo uso no indicado como permitido.", "P_DO": "06/05/1994", "N_DOC": "4", "T_DO": "Resolución", "OBS": null }, "geometry": { "type": "Polygon", "coordinates": [ [ [ -71.973078908548999, -39.286528698215498 ], [ -71.973419638290693, -39.287210702040902 ], [ -71.973523855655202, -39.287166822618701 ], [ -71.973894637486197, -39.287095095139499 ], [ -71.973534245694907, -39.286416952784798 ], [ -71.973078908548999, -39.286528698215498 ] ] ] } },
{ "type": "Feature", "properties": { "id": "monoparte.29", "Name": null, "description": null, "timestamp": null, "begin": null, "end": null, "altitudeMode": null, "tessellate": -1, "extrude": 0, "visibility": -1, "drawOrder": null, "icon": null, "REG": "Araucanía", "COM": "Pucón", "LOC": "Pucón", "ZONA": "ZR-4", "NOM": "ZR-4", "UPERM": "Se permitirá la construcción de obras afines del destino de las instalaciones, incluso vivienda del cuidador, bodegas y oficinas, de acuerdo a los requerimientos del funcionamiento de ellas.", "UPROH": "Todo uso no indicado como permitido.", "P_DO": "06/05/1994", "N_DOC": "4", "T_DO": "Resolución", "OBS": null }, "geometry": { "type": "Polygon", "coordinates": [ [ [ -71.9796887624329, -39.276191577752101 ], [ -71.979873167899797, -39.276201155662797 ], [ -71.979979813419902, -39.276112618235203 ], [ -71.980085852930401, -39.2760097952604 ], [ -71.980081006974601, -39.275895510691001 ], [ -71.980043035724094, -39.2758678813654 ], [ -71.979931544973795, -39.275842135150803 ], [ -71.979875193932301, -39.275814976540403 ], [ -71.979746534781995, -39.275818271832897 ], [ -71.979636861139795, -39.275835381721102 ], [ -71.979600707005403, -39.275850608638102 ], [ -71.979566975387996, -39.2759229774068 ], [ -71.979570609239005, -39.276008691098802 ], [ -71.979572426151194, -39.276051547494298 ], [ -71.979582838914595, -39.276120957873403 ], [ -71.9796887624329, -39.276191577752101 ] ] ] } }
]
}
