{
"type": "FeatureCollection",
"name": "IPT_09_PRC_Tolten_Villa_Ohiggins",
"crs": { "type": "name", "properties": { "name": "urn:ogc:def:crs:OGC:1.3:CRS84" } },
"features": [
{ "type": "Feature", "properties": { "id": "monoparte.1", "Name": null, "description": null, "timestamp": null, "begin": null, "end": null, "altitudeMode": null, "tessellate": -1, "extrude": 0, "visibility": -1, "drawOrder": null, "icon": null, "REG": "Araucanía", "COM": "Toltén", "LOC": "Villa O´Higgins", "ZONA": "Z-3", "NOM": "Zona Residencial 3", "UPERM": "Vivienda, equipamiento científico, comercio, deporte, cultura, social. Mayor detalle en Ordenanza.", "UPROH": "Todo uso no indicado anteriormente.", "P_DO": "08/09/2012", "N_DOC": "7", "T_DO": "Decreto", "OBS": null }, "geometry": { "type": "Polygon", "coordinates": [ [ [ -73.216906949962294, -39.250866609359399 ], [ -73.217438114917499, -39.2514971835121 ], [ -73.221405569613594, -39.249649971727102 ], [ -73.221395129578994, -39.249636448155698 ], [ -73.221368766928904, -39.249580216902601 ], [ -73.221367267391102, -39.249555250704901 ], [ -73.221374085590398, -39.249515686256998 ], [ -73.221362983123299, -39.249483920636301 ], [ -73.221339619554797, -39.249477620870003 ], [ -73.221337691636805, -39.249445522113099 ], [ -73.2213457950904, -39.249427356238201 ], [ -73.221344081398001, -39.2493988242095 ], [ -73.221347169191006, -39.2493736923429 ], [ -73.221354843029502, -39.249348393053197 ], [ -73.221353557787793, -39.249326994481002 ], [ -73.221360161759506, -39.249283863305301 ], [ -73.221362819939998, -39.249251598023903 ], [ -73.221361963095404, -39.2492373320094 ], [ -73.221345631980896, -39.249195033621 ], [ -73.221321625845704, -39.249178033660101 ], [ -73.221320126400002, -39.249153068357799 ], [ -73.221309239405798, -39.249124869412803 ], [ -73.221293765180704, -39.249096837029199 ], [ -73.221264529251798, -39.249069304328998 ], [ -73.221245753016404, -39.249062837075002 ], [ -73.221222389599802, -39.249056537276601 ], [ -73.2211303112515, -39.248977671391501 ], [ -73.221067253570695, -39.248922772398601 ], [ -73.221042390827407, -39.2488915063497 ], [ -73.221019027483806, -39.248885206506102 ], [ -73.2209485101762, -39.2488591725443 ], [ -73.2209295198235, -39.2488491385038 ], [ -73.220895698071899, -39.248821772202199 ], [ -73.220885238546401, -39.248800706707598 ], [ -73.220874994325797, -39.2487832070018 ], [ -73.220873923398003, -39.248765374246403 ], [ -73.220867194380006, -39.248729876179098 ], [ -73.220847561544801, -39.248709142828297 ], [ -73.220811080303605, -39.248714041822602 ], [ -73.220797105611496, -39.248710974676698 ], [ -73.220737135281794, -39.248630943652898 ], [ -73.220688053987701, -39.248579110632299 ], [ -73.220679611719703, -39.248515080489803 ], [ -73.220677469984494, -39.248479414968401 ], [ -73.220648449900693, -39.248455448773797 ], [ -73.220605328410002, -39.248349785331797 ], [ -73.220595388224098, -39.248260788905803 ], [ -73.220591626591997, -39.2481981459769 ], [ -73.220450623507503, -39.248223152934798 ], [ -73.220334148660399, -39.248273847117098 ], [ -73.220051596884502, -39.248391331895498 ], [ -73.219790694344695, -39.248486585850998 ], [ -73.219593365084506, -39.248568808312697 ], [ -73.219539606608805, -39.248592204729597 ], [ -73.219512727934799, -39.2486039029084 ], [ -73.218869939005401, -39.247697915142403 ], [ -73.218783949574203, -39.247643847010103 ], [ -73.218694444602093, -39.247607778029199 ], [ -73.218590750102805, -39.247565074844502 ], [ -73.218390089116497, -39.247515167366203 ], [ -73.218167779123206, -39.247487490281301 ], [ -73.217996438500805, -39.247470871052101 ], [ -73.2179851605853, -39.247508413168802 ], [ -73.217970550920398, -39.247610199405798 ], [ -73.218274051643704, -39.247624223677697 ], [ -73.218374147861198, -39.247632505913302 ], [ -73.218482958488806, -39.247658343505499 ], [ -73.218561190401502, -39.247685290581003 ], [ -73.218631063565397, -39.247700626782297 ], [ -73.2187190814834, -39.247762961042298 ], [ -73.218793592959003, -39.247855572036997 ], [ -73.219062133388405, -39.248244956113503 ], [ -73.219947793431103, -39.249469770481603 ], [ -73.216906949962294, -39.250866609359399 ] ] ] } },
{ "type": "Feature", "properties": { "id": "monoparte.2", "Name": null, "description": null, "timestamp": null, "begin": null, "end": null, "altitudeMode": null, "tessellate": -1, "extrude": 0, "visibility": -1, "drawOrder": null, "icon": null, "REG": "Araucanía", "COM": "Toltén", "LOC": "Villa O´Higgins", "ZONA": "ZE-2", "NOM": "Zona Equipamiento 2", "UPERM": "Equipamiento de comercio, deporte, esparcimiento, social e infraestructura de transporte; actividades productivas de talleres, bodegas y depósitos. Mayor detalle en Ordenanza.", "UPROH": "Todo uso no indicado anteriormente.", "P_DO": "08/09/2012", "N_DOC": "7", "T_DO": "Decreto", "OBS": null }, "geometry": { "type": "Polygon", "coordinates": [ [ [ -73.221405569613594, -39.249649971727102 ], [ -73.221518436161901, -39.249597418930897 ], [ -73.221478069036806, -39.249563142375202 ], [ -73.221446061393493, -39.249540475480998 ], [ -73.221452635738004, -39.249522365123298 ], [ -73.221439991904205, -39.249439424485303 ], [ -73.221428062151304, -39.249368372037701 ], [ -73.221424134843403, -39.249302985620403 ], [ -73.221419850556501, -39.249231655553999 ], [ -73.2214006336701, -39.249166825217102 ], [ -73.221367198189597, -39.249120381897697 ], [ -73.221359195747397, -39.249114714960299 ], [ -73.221342478055504, -39.249091493743897 ], [ -73.221309042652393, -39.249045050403303 ], [ -73.221290538786903, -39.248992108277498 ], [ -73.221259602509505, -39.2489872740584 ], [ -73.221243241856996, -39.248969996473498 ], [ -73.221219235880497, -39.248952997384102 ], [ -73.221210876445099, -39.248941385886098 ], [ -73.2212090914322, -39.248911664940302 ], [ -73.221214951800505, -39.248881666395903 ], [ -73.221213166789596, -39.248851945449999 ], [ -73.221188446820506, -39.248823057253801 ], [ -73.221172086280404, -39.2488057805542 ], [ -73.221141150091597, -39.248800946298502 ], [ -73.220978464625205, -39.248771109806398 ], [ -73.2209551727274, -39.2487659988575 ], [ -73.220923522624403, -39.248749276338899 ], [ -73.220899873741303, -39.2487382208272 ], [ -73.220882085368999, -39.248697166775003 ], [ -73.220857008598998, -39.248662333945802 ], [ -73.220816999288502, -39.248634000762699 ], [ -73.220815571448099, -39.248610224352198 ], [ -73.220781779654502, -39.248557836273399 ], [ -73.220753490381398, -39.248469506038198 ], [ -73.220725915141799, -39.248393064897002 ], [ -73.220714344454706, -39.248327955930201 ], [ -73.2207024157197, -39.248256903348 ], [ -73.220646403360604, -39.248217236959697 ], [ -73.2206414060946, -39.2481340177007 ], [ -73.220643696076095, -39.248044577270797 ], [ -73.220621267874293, -39.247926249346797 ], [ -73.220609340439296, -39.247855195802003 ], [ -73.220597055029003, -39.247778199538899 ], [ -73.220577125498394, -39.247701479881698 ], [ -73.220545624575394, -39.247559652153299 ], [ -73.220522125924106, -39.247423490519502 ], [ -73.2204924098384, -39.247311382841502 ], [ -73.220464835445895, -39.247234941587102 ], [ -73.220410758655603, -39.2470998899785 ], [ -73.220345317712699, -39.247030779927201 ], [ -73.220341034864802, -39.246959449733602 ], [ -73.220312033171197, -39.246859231091598 ], [ -73.220276458217, -39.246777121796001 ], [ -73.220208519511701, -39.246666402428602 ], [ -73.220158011420494, -39.246590792679001 ], [ -73.220124221262196, -39.2465384052147 ], [ -73.220115505477096, -39.246520849947998 ], [ -73.220113721080196, -39.246491128947802 ], [ -73.220097361332293, -39.246473851149197 ], [ -73.220066426288, -39.246469017444497 ], [ -73.220019844045396, -39.246458793285399 ], [ -73.2199954835217, -39.246435849272501 ], [ -73.219994056070405, -39.246412072827802 ], [ -73.219960621804603, -39.2463656290074 ], [ -73.219882390955803, -39.246338682819903 ], [ -73.219858029310004, -39.246315737916397 ], [ -73.219828164916393, -39.246328736930103 ], [ -73.219782653352794, -39.246336345456399 ], [ -73.219713851925107, -39.2463388426752 ], [ -73.219660339569202, -39.246340784933103 ], [ -73.219629760252303, -39.246341894813803 ], [ -73.219595256956296, -39.246277618937398 ], [ -73.219616763765401, -39.246253009190497 ], [ -73.219635415921204, -39.246180846527203 ], [ -73.219625629849602, -39.246145459320502 ], [ -73.219570690286901, -39.246123624172398 ], [ -73.219495405858197, -39.246120517018198 ], [ -73.219493642672603, -39.246141909187799 ], [ -73.219472635374302, -39.246174840404699 ], [ -73.219716228750798, -39.246480537167102 ], [ -73.219734789980194, -39.246483437079704 ], [ -73.219873464848703, -39.246496275305098 ], [ -73.219943552309005, -39.246515177462001 ], [ -73.220028469310407, -39.246551412029902 ], [ -73.220102411121601, -39.246634510837197 ], [ -73.220222344456303, -39.246794574787899 ], [ -73.220327571506203, -39.247015935501103 ], [ -73.220325982407601, -39.247066033604398 ], [ -73.220339956696193, -39.247069099927899 ], [ -73.220345614539497, -39.247086766182299 ], [ -73.220399192642802, -39.2472134954076 ], [ -73.220432495127994, -39.247308792781503 ], [ -73.220444667460001, -39.247358390412401 ], [ -73.220471242559597, -39.24741818871 ], [ -73.220549752267004, -39.247883571225302 ], [ -73.220589177447096, -39.248157359955201 ], [ -73.220595388224098, -39.248260788905803 ], [ -73.220605328410002, -39.248349785331797 ], [ -73.220648449900693, -39.248455448773797 ], [ -73.220677469984494, -39.248479414968401 ], [ -73.220679611719703, -39.248515080489803 ], [ -73.220688053987701, -39.248579110632299 ], [ -73.220737135281794, -39.248630943652898 ], [ -73.220797105611496, -39.248710974676698 ], [ -73.220811080303605, -39.248714041822602 ], [ -73.220847561544801, -39.248709142828297 ], [ -73.220867194380006, -39.248729876179098 ], [ -73.220873923398003, -39.248765374246403 ], [ -73.220874994325797, -39.2487832070018 ], [ -73.220885238546401, -39.248800706707598 ], [ -73.220895698071899, -39.248821772202199 ], [ -73.2209295198235, -39.2488491385038 ], [ -73.2209485101762, -39.2488591725443 ], [ -73.221019027483806, -39.248885206506102 ], [ -73.221042390827407, -39.2488915063497 ], [ -73.221067253570695, -39.248922772398601 ], [ -73.2211303112515, -39.248977671391501 ], [ -73.221222389599802, -39.249056537276601 ], [ -73.221245753016404, -39.249062837075002 ], [ -73.221264529251798, -39.249069304328998 ], [ -73.221293765180704, -39.249096837029199 ], [ -73.221309239405798, -39.249124869412803 ], [ -73.221320126400002, -39.249153068357799 ], [ -73.221321625845704, -39.249178033660101 ], [ -73.221345631980896, -39.249195033621 ], [ -73.221361963095404, -39.2492373320094 ], [ -73.221362819939998, -39.249251598023903 ], [ -73.221360161759506, -39.249283863305301 ], [ -73.221353557787793, -39.249326994481002 ], [ -73.221354843029502, -39.249348393053197 ], [ -73.221347169191006, -39.2493736923429 ], [ -73.221344081398001, -39.2493988242095 ], [ -73.2213457950904, -39.249427356238201 ], [ -73.221337691636805, -39.249445522113099 ], [ -73.221339619554797, -39.249477620870003 ], [ -73.221362983123299, -39.249483920636301 ], [ -73.221374085590398, -39.249515686256998 ], [ -73.221367267391102, -39.249555250704901 ], [ -73.221368766928904, -39.249580216902601 ], [ -73.221395129578994, -39.249636448155698 ], [ -73.221405569613594, -39.249649971727102 ] ] ] } },
{ "type": "Feature", "properties": { "id": "monoparte.3", "Name": null, "description": null, "timestamp": null, "begin": null, "end": null, "altitudeMode": null, "tessellate": -1, "extrude": 0, "visibility": -1, "drawOrder": null, "icon": null, "REG": "Araucanía", "COM": "Toltén", "LOC": "Villa O´Higgins", "ZONA": "ZAV", "NOM": "Zona Área verde", "UPERM": "Según artículo 2.1.31 de la OGU y C. Mayor detalle en Ordenanza.", "UPROH": "Todo uso no indicado anteriormente.", "P_DO": "08/09/2012", "N_DOC": "7", "T_DO": "Decreto", "OBS": null }, "geometry": { "type": "Polygon", "coordinates": [ [ [ -73.219981170403898, -39.246835497991803 ], [ -73.220065355044198, -39.246936096663198 ], [ -73.220168068978197, -39.246885902301798 ], [ -73.220194732749704, -39.246870637275201 ], [ -73.220192805532406, -39.246838538456501 ], [ -73.220172531081701, -39.246807105640201 ], [ -73.220133481187702, -39.246769206243201 ], [ -73.220098590147103, -39.2467240068517 ], [ -73.219981170403898, -39.246835497991803 ] ] ] } },
{ "type": "Feature", "properties": { "id": "monoparte.4", "Name": null, "description": null, "timestamp": null, "begin": null, "end": null, "altitudeMode": null, "tessellate": -1, "extrude": 0, "visibility": -1, "drawOrder": null, "icon": null, "REG": "Araucanía", "COM": "Toltén", "LOC": "Villa O´Higgins", "ZONA": "ZAV", "NOM": "Zona Área verde", "UPERM": "Según artículo 2.1.31 de la OGU y C. Mayor detalle en Ordenanza.", "UPROH": "Todo uso no indicado anteriormente.", "P_DO": "08/09/2012", "N_DOC": "7", "T_DO": "Decreto", "OBS": null }, "geometry": { "type": "Polygon", "coordinates": [ [ [ -73.219343492129994, -39.246167613276 ], [ -73.219225459008101, -39.246243382624002 ], [ -73.219160582343207, -39.246311265253098 ], [ -73.219162723145004, -39.246346930857797 ], [ -73.219164507131396, -39.246376651895197 ], [ -73.219099273532393, -39.246438590830302 ], [ -73.2191087014793, -39.2464680344657 ], [ -73.2190809775867, -39.246516698006197 ], [ -73.219075116403403, -39.246546696490498 ], [ -73.219031389691594, -39.246584025732901 ], [ -73.218986591464301, -39.246603523096297 ], [ -73.218940724010807, -39.2466051875953 ], [ -73.218891491565003, -39.246678459882801 ], [ -73.218855408738307, -39.246715512575001 ], [ -73.2187898177703, -39.2467715067963 ], [ -73.218754091579797, -39.246814503133002 ], [ -73.218688857225601, -39.246876441875798 ], [ -73.218645485785899, -39.246919716504401 ], [ -73.218601758616501, -39.246957045608298 ], [ -73.218556960026206, -39.246976542824399 ], [ -73.218489941605895, -39.247008760413102 ], [ -73.218384341483798, -39.247036420368502 ], [ -73.218308607497505, -39.247051082442503 ], [ -73.218278028974595, -39.247052191942998 ], [ -73.218219367896594, -39.247096021178898 ], [ -73.218052099444407, -39.247245061479198 ], [ -73.217995579451596, -39.247324555328099 ], [ -73.217941555122295, -39.2474456585282 ], [ -73.217912962211798, -39.247607538964701 ], [ -73.217970550920398, -39.247610199405798 ], [ -73.2179851605853, -39.247508413168802 ], [ -73.218050295842005, -39.247291592851703 ], [ -73.218111086703502, -39.247232198680202 ], [ -73.218299974431602, -39.247085947481203 ], [ -73.218386910008505, -39.247079218592397 ], [ -73.218513843104404, -39.247049593053298 ], [ -73.218681721599197, -39.246936272371101 ], [ -73.218846388582605, -39.246769453948303 ], [ -73.218972128040093, -39.246643364872703 ], [ -73.219062151547007, -39.246611503661001 ], [ -73.219091262997694, -39.246560407663502 ], [ -73.219138720382801, -39.2465086449712 ], [ -73.219144254060097, -39.246447681086401 ], [ -73.219206114847907, -39.246406119184797 ], [ -73.219209203376096, -39.2463809873312 ], [ -73.219205564003303, -39.246320356346303 ], [ -73.219236386681999, -39.246297791588297 ], [ -73.219333442927805, -39.246229932550797 ], [ -73.219449273015499, -39.246168539287602 ], [ -73.219476323624093, -39.246169058837701 ], [ -73.219493642672603, -39.246141909187799 ], [ -73.219495405858197, -39.246120517018198 ], [ -73.219493887162102, -39.246120455058502 ], [ -73.2194327298606, -39.246122674672002 ], [ -73.219343492129994, -39.246167613276 ] ] ] } },
{ "type": "Feature", "properties": { "id": "monoparte.5", "Name": null, "description": null, "timestamp": null, "begin": null, "end": null, "altitudeMode": null, "tessellate": -1, "extrude": 0, "visibility": -1, "drawOrder": null, "icon": null, "REG": "Araucanía", "COM": "Toltén", "LOC": "Villa O´Higgins", "ZONA": "Área Verde", "NOM": "Área verde", "UPERM": "Sin información.", "UPROH": "Sin información.", "P_DO": "08/09/2012", "N_DOC": "7", "T_DO": "Decreto", "OBS": null }, "geometry": { "type": "Polygon", "coordinates": [ [ [ -73.218640563190704, -39.247552544669603 ], [ -73.218704259466094, -39.2475607641191 ], [ -73.218678206209205, -39.247490415654298 ], [ -73.218611512769797, -39.247374884122102 ], [ -73.218567449204599, -39.247330017097099 ], [ -73.218464947441007, -39.247383776879701 ], [ -73.218304315417598, -39.247464664647801 ], [ -73.218369601162706, -39.247480167461298 ], [ -73.2184206997145, -39.247489036899097 ], [ -73.218518736568797, -39.247514073882797 ], [ -73.218570476105398, -39.247533641723699 ], [ -73.218640563190704, -39.247552544669603 ] ] ] } },
{ "type": "Feature", "properties": { "id": "monoparte.6", "Name": null, "description": null, "timestamp": null, "begin": null, "end": null, "altitudeMode": null, "tessellate": -1, "extrude": 0, "visibility": -1, "drawOrder": null, "icon": null, "REG": "Araucanía", "COM": "Toltén", "LOC": "Villa O´Higgins", "ZONA": "Área Verde", "NOM": "Área verde", "UPERM": "Sin información.", "UPROH": "Sin información.", "P_DO": "08/09/2012", "N_DOC": "7", "T_DO": "Decreto", "OBS": null }, "geometry": { "type": "Polygon", "coordinates": [ [ [ -73.220168068978197, -39.246885902301798 ], [ -73.220065355044198, -39.246936096663198 ], [ -73.220060403828199, -39.246930179278202 ], [ -73.220061197321201, -39.246943395700903 ], [ -73.220166942718706, -39.247096826586699 ], [ -73.220191285830396, -39.247196022869197 ], [ -73.220197584890897, -39.247224388479999 ], [ -73.220237705802106, -39.247280120612302 ], [ -73.220297031877905, -39.247349452696902 ], [ -73.220350913251707, -39.2474046861674 ], [ -73.220383663320504, -39.247414219910397 ], [ -73.220391766839697, -39.247396054096797 ], [ -73.220390267818701, -39.2473710887569 ], [ -73.220376810615505, -39.247300091613099 ], [ -73.220328462008197, -39.247183895166401 ], [ -73.220287912781401, -39.247121029596599 ], [ -73.220252164896905, -39.247061564228297 ], [ -73.220253325799604, -39.247004333552297 ], [ -73.220194946897095, -39.246874204010297 ], [ -73.220191224551797, -39.246872645990599 ], [ -73.220168068978197, -39.246885902301798 ] ] ] } },
{ "type": "Feature", "properties": { "id": "monoparte.7", "Name": null, "description": null, "timestamp": null, "begin": null, "end": null, "altitudeMode": null, "tessellate": -1, "extrude": 0, "visibility": -1, "drawOrder": null, "icon": null, "REG": "Araucanía", "COM": "Toltén", "LOC": "Villa O´Higgins", "ZONA": "ZM-1", "NOM": "Zona Mixta 1", "UPERM": "Residencial, equipamiento científico, comercio, culto, deporte, cultura, social, servicios. Mayor detalle en Ordenanza.", "UPROH": "Todo uso no indicado anteriormente.", "P_DO": "08/09/2012", "N_DOC": "7", "T_DO": "Decreto", "OBS": null }, "geometry": { "type": "Polygon", "coordinates": [ [ [ -73.218846388582605, -39.246769453948303 ], [ -73.218681721599197, -39.246936272371101 ], [ -73.218513843104404, -39.247049593053298 ], [ -73.218386910008505, -39.247079218592397 ], [ -73.218299974431602, -39.247085947481203 ], [ -73.218111086703502, -39.247232198680202 ], [ -73.218050295842005, -39.247291592851703 ], [ -73.217996438500805, -39.247470871052101 ], [ -73.218167779123206, -39.247487490281301 ], [ -73.218390089116497, -39.247515167366203 ], [ -73.218590750102805, -39.247565074844502 ], [ -73.218694444602093, -39.247607778029199 ], [ -73.218726447813594, -39.247620675193701 ], [ -73.218783949574203, -39.247643847010103 ], [ -73.218869939005401, -39.247697915142403 ], [ -73.219512727934799, -39.2486039029084 ], [ -73.219539606608805, -39.248592204729597 ], [ -73.219593365084506, -39.248568808312697 ], [ -73.219790694344695, -39.248486585850998 ], [ -73.220051596884502, -39.248391331895498 ], [ -73.220334148660399, -39.248273847117098 ], [ -73.220450623507503, -39.248223152934798 ], [ -73.220591626591997, -39.2481981459769 ], [ -73.220589177447096, -39.248157359955201 ], [ -73.220549752267004, -39.247883571225302 ], [ -73.220471242559597, -39.24741818871 ], [ -73.220444667460001, -39.247358390412401 ], [ -73.220432495127994, -39.247308792781503 ], [ -73.220399192642802, -39.2472134954076 ], [ -73.220345614539497, -39.247086766182299 ], [ -73.220339956696193, -39.247069099927899 ], [ -73.220325982407601, -39.247066033604398 ], [ -73.220327571506203, -39.247015935501103 ], [ -73.220222344456303, -39.246794574787899 ], [ -73.220102411121601, -39.246634510837197 ], [ -73.220028469310407, -39.246551412029902 ], [ -73.219943552309005, -39.246515177462001 ], [ -73.219873464848703, -39.246496275305098 ], [ -73.219734789980194, -39.246483437079704 ], [ -73.219716228750798, -39.246480537167102 ], [ -73.219472635374302, -39.246174840404699 ], [ -73.219476323624093, -39.246169058837701 ], [ -73.219449273015499, -39.246168539287602 ], [ -73.219333442927805, -39.246229932550797 ], [ -73.219236386681999, -39.246297791588297 ], [ -73.219205564003303, -39.246320356346303 ], [ -73.219209203376096, -39.2463809873312 ], [ -73.219206114847907, -39.246406119184797 ], [ -73.219144254060097, -39.246447681086401 ], [ -73.219138720382801, -39.2465086449712 ], [ -73.219091262997694, -39.246560407663502 ], [ -73.219062151547007, -39.246611503661001 ], [ -73.218972128040093, -39.246643364872703 ], [ -73.218846388582605, -39.246769453948303 ] ], [ [ -73.220391766839697, -39.247396054096797 ], [ -73.220383663320504, -39.247414219910397 ], [ -73.220350913251707, -39.2474046861674 ], [ -73.220297031877905, -39.247349452696902 ], [ -73.220237705802106, -39.247280120612302 ], [ -73.220197584890897, -39.247224388479999 ], [ -73.220191285830396, -39.247196022869197 ], [ -73.220166942718706, -39.247096826586699 ], [ -73.220061197321201, -39.246943395700903 ], [ -73.220060403828199, -39.246930179278202 ], [ -73.219981170403898, -39.246835497991803 ], [ -73.220098590147103, -39.2467240068517 ], [ -73.220133481187702, -39.246769206243201 ], [ -73.220172531081701, -39.246807105640201 ], [ -73.220192805532406, -39.246838538456501 ], [ -73.220194732749704, -39.246870637275201 ], [ -73.220191224551797, -39.246872645990599 ], [ -73.220194946897095, -39.246874204010297 ], [ -73.220253325799604, -39.247004333552297 ], [ -73.220252164896905, -39.247061564228297 ], [ -73.220287912781401, -39.247121029596599 ], [ -73.220328462008197, -39.247183895166401 ], [ -73.220376810615505, -39.247300091613099 ], [ -73.220390267818701, -39.2473710887569 ], [ -73.220391766839697, -39.247396054096797 ] ], [ [ -73.218640563190704, -39.247552544669603 ], [ -73.218570476105398, -39.247533641723699 ], [ -73.218518736568797, -39.247514073882797 ], [ -73.2184206997145, -39.247489036899097 ], [ -73.218369601162706, -39.247480167461298 ], [ -73.218304315417598, -39.247464664647801 ], [ -73.218464947441007, -39.247383776879701 ], [ -73.218567449204599, -39.247330017097099 ], [ -73.218611512769797, -39.247374884122102 ], [ -73.218678206209205, -39.247490415654298 ], [ -73.218704259466094, -39.2475607641191 ], [ -73.218640563190704, -39.247552544669603 ] ] ] } },
{ "type": "Feature", "properties": { "id": "monoparte.8", "Name": null, "description": null, "timestamp": null, "begin": null, "end": null, "altitudeMode": null, "tessellate": -1, "extrude": 0, "visibility": -1, "drawOrder": null, "icon": null, "REG": "Araucanía", "COM": "Toltén", "LOC": "Villa O´Higgins", "ZONA": "ZE-1", "NOM": "Zona Equipamiento 1", "UPERM": "Equipamiento de comercio, deporte, esparcimiento, social e infraestructura de transporte; actividades productivas de talleres, bodegas y depósitos. Mayor detalle en Ordenanza.", "UPROH": "Todo uso no indicado anteriormente.", "P_DO": "08/09/2012", "N_DOC": "7", "T_DO": "Decreto", "OBS": null }, "geometry": { "type": "Polygon", "coordinates": [ [ [ -73.217438114917499, -39.2514971835121 ], [ -73.216906949962294, -39.250866609359399 ], [ -73.216286807548499, -39.251151461476603 ], [ -73.216800399533, -39.251794077619302 ], [ -73.217438114917499, -39.2514971835121 ] ] ] } }
]
}
