{
"type": "FeatureCollection",
"name": "IPT_09_PRC_Tolten_Queule",
"crs": { "type": "name", "properties": { "name": "urn:ogc:def:crs:OGC:1.3:CRS84" } },
"features": [
{ "type": "Feature", "properties": { "id": "monoparte.1", "Name": null, "description": null, "timestamp": null, "begin": null, "end": null, "altitudeMode": null, "tessellate": -1, "extrude": 0, "visibility": -1, "drawOrder": null, "icon": null, "REG": "Araucanía", "COM": "Toltén", "LOC": "Queule", "ZONA": "ZM-1", "NOM": "Zona Mixta 1", "UPERM": "Residencial: todo permitido; equipamiento: científico, comercio, culto, deporte, cultura, social y servicios.", "UPROH": "Todo uso no indicado anteriormente.", "P_DO": "08/09/2012", "N_DOC": "7", "T_DO": "Decreto", "OBS": null }, "geometry": { "type": "Polygon", "coordinates": [ [ [ -73.215859684278698, -39.399587094257598 ], [ -73.215899085883606, -39.399616789473399 ], [ -73.215989589027004, -39.399374245177597 ], [ -73.2160913885523, -39.399166541895198 ], [ -73.216240950468901, -39.398992583594101 ], [ -73.216384977097405, -39.398916395839102 ], [ -73.216464296039305, -39.398904646145702 ], [ -73.216644145122302, -39.398853767440798 ], [ -73.216769092853895, -39.398840360869102 ], [ -73.216983697854303, -39.398797088780697 ], [ -73.217172285386795, -39.398701542082001 ], [ -73.217261408513707, -39.398662825907103 ], [ -73.217397763261602, -39.398649005344502 ], [ -73.217452664928004, -39.398611531733103 ], [ -73.217518438903397, -39.398564793293701 ], [ -73.217608095649396, -39.398534928356398 ], [ -73.217639648257702, -39.398489432616302 ], [ -73.217691879934094, -39.398407706876597 ], [ -73.217722363412506, -39.398344510889999 ], [ -73.217717557788106, -39.3982648556253 ], [ -73.217722023865093, -39.3981493855389 ], [ -73.217683530084201, -39.398079823679502 ], [ -73.217643435768906, -39.397983710900398 ], [ -73.217614747767698, -39.397887183878701 ], [ -73.217583390256294, -39.397746404806597 ], [ -73.217579118820396, -39.397675600107 ], [ -73.217572177877699, -39.397560544264699 ], [ -73.217582178370293, -39.397347303439403 ], [ -73.217589848170803, -39.397284935067098 ], [ -73.217829058551203, -39.397081110159597 ], [ -73.217968273886399, -39.396925266360498 ], [ -73.2180021543263, -39.396728898183099 ], [ -73.218018221170894, -39.396426738139297 ], [ -73.217382383342894, -39.396109218933503 ], [ -73.217377222516305, -39.3961379255407 ], [ -73.217404983036502, -39.396288890489501 ], [ -73.217441179894493, -39.396425076481997 ], [ -73.217390566563196, -39.396513756280797 ], [ -73.217328902281494, -39.396573889465003 ], [ -73.217228705391705, -39.396613712027701 ], [ -73.217102329801307, -39.396683432964601 ], [ -73.217043279612994, -39.396786892462501 ], [ -73.217049055956906, -39.397191945023401 ], [ -73.216947826050699, -39.397369304401003 ], [ -73.216660295511801, -39.397705400934903 ], [ -73.216546707841403, -39.3978325509824 ], [ -73.216108517961302, -39.398145169906897 ], [ -73.215811400422993, -39.398322402214298 ], [ -73.215555156532403, -39.398404071984103 ], [ -73.215400122663098, -39.398428248879299 ], [ -73.215415821139601, -39.398568339746298 ], [ -73.215521955298499, -39.398781592525403 ], [ -73.215610782263994, -39.399017183211697 ], [ -73.215624007717594, -39.399081834327397 ], [ -73.215599135078406, -39.399133394852498 ], [ -73.215620797420598, -39.399183267126602 ], [ -73.215706739167203, -39.399216330814802 ], [ -73.215764760280507, -39.399250408857398 ], [ -73.215806778858493, -39.399328489151699 ], [ -73.215807922299305, -39.399502131379997 ], [ -73.215859684278698, -39.399587094257598 ] ] ] } },
{ "type": "Feature", "properties": { "id": "monoparte.2", "Name": null, "description": null, "timestamp": null, "begin": null, "end": null, "altitudeMode": null, "tessellate": -1, "extrude": 0, "visibility": -1, "drawOrder": null, "icon": null, "REG": "Araucanía", "COM": "Toltén", "LOC": "Queule", "ZONA": "ZM-1", "NOM": "Zona Mixta 1", "UPERM": "Residencial: todo permitido; equipamiento: científico, comercio, culto, deporte, cultura, social y servicios.", "UPROH": "Todo uso no indicado anteriormente.", "P_DO": "08/09/2012", "N_DOC": "7", "T_DO": "Decreto", "OBS": null }, "geometry": { "type": "Polygon", "coordinates": [ [ [ -73.205521932552799, -39.397371110402297 ], [ -73.205553762364204, -39.397435090064697 ], [ -73.205577588914593, -39.3975210693769 ], [ -73.205662656892102, -39.397539699663 ], [ -73.205740588104902, -39.397594771710601 ], [ -73.205807042173703, -39.397614075949399 ], [ -73.205890805897099, -39.397611042546998 ], [ -73.205965263172899, -39.397608346115703 ], [ -73.205995355766802, -39.397643440594798 ], [ -73.206026318400305, -39.397692977088496 ], [ -73.206083465023895, -39.3977126182373 ], [ -73.206121996462201, -39.397732933529603 ], [ -73.2061237342064, -39.397761817657901 ], [ -73.206200363869101, -39.397795226674901 ], [ -73.206256640506396, -39.397800424812303 ], [ -73.206312483878406, -39.397798402299102 ], [ -73.206351449913996, -39.397825938988198 ], [ -73.206392153842302, -39.397882359780198 ], [ -73.206439124090096, -39.3978878948909 ], [ -73.206514016113303, -39.397892419570503 ], [ -73.206552547713997, -39.397912733808703 ], [ -73.206620740291896, -39.3979609225606 ], [ -73.2066960657084, -39.3979726677372 ], [ -73.207117495432598, -39.398000822861 ], [ -73.207215347270406, -39.398076883901297 ], [ -73.207346081812602, -39.398079384187902 ], [ -73.207496734298402, -39.398102874377997 ], [ -73.207583541755795, -39.398150387261602 ], [ -73.207713841832799, -39.398145666557603 ], [ -73.2079460866359, -39.398130014873203 ], [ -73.208017935285795, -39.398083991054897 ], [ -73.208105356495096, -39.3979867442631 ], [ -73.208170506341503, -39.397984383645202 ], [ -73.2082746241298, -39.398009558046397 ], [ -73.208375085196394, -39.398128944106297 ], [ -73.208523385482394, -39.398268307262398 ], [ -73.208622977959706, -39.398373251043999 ], [ -73.2088379131945, -39.3983799355521 ], [ -73.208920316217004, -39.398378948581602 ], [ -73.208993526857796, -39.398330875476397 ], [ -73.209141571610601, -39.398311035649698 ], [ -73.209272307679996, -39.398313534594301 ], [ -73.210067330285298, -39.398349848697997 ], [ -73.210018298623098, -39.398502153020303 ], [ -73.210215199422805, -39.398481988935899 ], [ -73.2106500276509, -39.398422803396102 ], [ -73.210845912703903, -39.398422938530103 ], [ -73.210951336772496, -39.398469773849399 ], [ -73.211160444287003, -39.398534560282002 ], [ -73.211305271978702, -39.398616150721701 ], [ -73.211385818595005, -39.398714545457302 ], [ -73.211448187415996, -39.398820836511099 ], [ -73.211683134161504, -39.399159684361599 ], [ -73.211753506476299, -39.399243974273901 ], [ -73.211789258282394, -39.399372941104801 ], [ -73.211886246748406, -39.399434554962298 ], [ -73.211962880736905, -39.399467959917999 ], [ -73.212057694079107, -39.399493468291404 ], [ -73.212105535881093, -39.3995134438713 ], [ -73.212191041553098, -39.399539289706603 ], [ -73.212310731548598, -39.399513238788899 ], [ -73.212359008507306, -39.399540434782203 ], [ -73.212678937667306, -39.399586725264001 ], [ -73.212801672400602, -39.399611220215 ], [ -73.213140216474699, -39.399656834163103 ], [ -73.213355590542804, -39.399670730575799 ], [ -73.213430049292597, -39.399668029250002 ], [ -73.213523992938093, -39.399679095356902 ], [ -73.213664036695903, -39.3996812506971 ], [ -73.213837829457205, -39.399624287340302 ], [ -73.213955776528607, -39.399569350064098 ], [ -73.2140386723093, -39.399551868715399 ], [ -73.214084337036695, -39.399535738259097 ], [ -73.214176539274106, -39.399517918222998 ], [ -73.214281531748199, -39.399557529794698 ], [ -73.214367038138207, -39.399583373979297 ], [ -73.214444108687402, -39.3996239986242 ], [ -73.214493757832898, -39.399659076376103 ], [ -73.214553841956501, -39.399452965619801 ], [ -73.214613546990293, -39.3994951488528 ], [ -73.214618882830607, -39.399583654139299 ], [ -73.214668248641402, -39.399643951615801 ], [ -73.214739362757498, -39.399685720737097 ], [ -73.214846299686897, -39.399752798779403 ], [ -73.214893530196093, -39.399777694621797 ], [ -73.2149532368189, -39.399819876711597 ], [ -73.2150352241826, -39.399852381039302 ], [ -73.215084056946495, -39.399903828592997 ], [ -73.215129687812393, -39.3999021724497 ], [ -73.215211675293105, -39.399934675744099 ], [ -73.215303469571793, -39.399940213989503 ], [ -73.215370314808894, -39.399911177809003 ], [ -73.215507206200797, -39.3999062090301 ], [ -73.215668513004999, -39.399926963771399 ], [ -73.215841961556393, -39.399769879742301 ], [ -73.215853901997704, -39.399737878570399 ], [ -73.215840037336207, -39.399725307000701 ], [ -73.215719204239704, -39.399577720214403 ], [ -73.215713978751793, -39.399491068028297 ], [ -73.215685349013498, -39.399325659826502 ], [ -73.215560436859903, -39.3992650627928 ], [ -73.215490496740401, -39.399187996789301 ], [ -73.215521629093899, -39.399085550485999 ], [ -73.215428448139704, -39.398777749381502 ], [ -73.215369122506104, -39.3987220078128 ], [ -73.215342669974902, -39.398592705565498 ], [ -73.215348494332105, -39.398534599274797 ], [ -73.215325199418302, -39.398439932853599 ], [ -73.214889832555698, -39.3985078246101 ], [ -73.214292870895903, -39.398507778289598 ], [ -73.213309092570199, -39.398434919826599 ], [ -73.212806676257699, -39.398301171559901 ], [ -73.212779130064902, -39.398284818051998 ], [ -73.212777884344106, -39.398287742450101 ], [ -73.212447348313304, -39.398220127045199 ], [ -73.2121208996045, -39.398065519586901 ], [ -73.211448957530493, -39.397749757021302 ], [ -73.211173832988393, -39.397672891342097 ], [ -73.210853043496599, -39.397612154196203 ], [ -73.210282703286396, -39.397589410188999 ], [ -73.209157852109101, -39.3976518936811 ], [ -73.208843150030404, -39.397692245855403 ], [ -73.208173472857496, -39.397723750024902 ], [ -73.207844247803905, -39.397677783666602 ], [ -73.207570430535895, -39.397622572712599 ], [ -73.206940084125193, -39.397377644178903 ], [ -73.206916986397502, -39.397365686937803 ], [ -73.206912423321, -39.397382987926001 ], [ -73.206760034610895, -39.397330613672999 ], [ -73.206653745781907, -39.3972693313397 ], [ -73.206568244651507, -39.3972434811553 ], [ -73.206407417854393, -39.397205885584498 ], [ -73.206275381479202, -39.397181719707902 ], [ -73.205951990886007, -39.397077642452302 ], [ -73.205790730316807, -39.397032824502503 ], [ -73.205560411429005, -39.396925374770198 ], [ -73.205176402632205, -39.396743884541699 ], [ -73.204858414347001, -39.396574477185901 ], [ -73.204264879138293, -39.396320963741303 ], [ -73.203893223566794, -39.396189680686099 ], [ -73.203779803457493, -39.396164838062703 ], [ -73.203724699283995, -39.396188768488997 ], [ -73.203712074581503, -39.396556277555497 ], [ -73.2038330808589, -39.396585542272803 ], [ -73.203995641926696, -39.396652025780199 ], [ -73.204184822040702, -39.396695836509998 ], [ -73.204374436526194, -39.396746866619701 ], [ -73.204460804917204, -39.396787161495403 ], [ -73.204573357662696, -39.3967975603897 ], [ -73.204653459794599, -39.396888739805 ], [ -73.204693293183396, -39.396930718311197 ], [ -73.204797407232306, -39.396955896031002 ], [ -73.204845679739293, -39.396983096311097 ], [ -73.205035295464697, -39.397034126169402 ], [ -73.205056949596695, -39.397083999970803 ], [ -73.205087911303096, -39.397133536767598 ], [ -73.205135315337301, -39.397146293930902 ], [ -73.205211509522996, -39.397172482174497 ], [ -73.205280133632598, -39.397227892441002 ], [ -73.205309792503499, -39.397255765595403 ], [ -73.2053855513835, -39.397274733165901 ], [ -73.205436430480901, -39.397345259409903 ], [ -73.2054745283058, -39.397358353409402 ], [ -73.205521932552799, -39.397371110402297 ] ] ] } },
{ "type": "Feature", "properties": { "id": "monoparte.3", "Name": null, "description": null, "timestamp": null, "begin": null, "end": null, "altitudeMode": null, "tessellate": -1, "extrude": 0, "visibility": -1, "drawOrder": null, "icon": null, "REG": "Araucanía", "COM": "Toltén", "LOC": "Queule", "ZONA": "ZM-1", "NOM": "Zona Mixta 1", "UPERM": "Residencial: todo permitido; equipamiento: científico, comercio, culto, deporte, cultura, social y servicios.", "UPROH": "Todo uso no indicado anteriormente.", "P_DO": "08/09/2012", "N_DOC": "7", "T_DO": "Decreto", "OBS": null }, "geometry": { "type": "Polygon", "coordinates": [ [ [ -73.190583903721702, -39.396822641537099 ], [ -73.191189496259497, -39.396966827869903 ], [ -73.191186057647201, -39.396909466488097 ], [ -73.191230862109506, -39.3968789015521 ], [ -73.191257052408503, -39.396849009240199 ], [ -73.191290817567705, -39.396789895490599 ], [ -73.191287354436099, -39.396732126123602 ], [ -73.191331725875699, -39.396694340434898 ], [ -73.191578690286207, -39.396613058864503 ], [ -73.191613753860807, -39.3965756089938 ], [ -73.191611156277304, -39.396532281086301 ], [ -73.191623707734493, -39.396119326865303 ], [ -73.191656174651797, -39.3960385490427 ], [ -73.191707470384998, -39.395805117660899 ], [ -73.191829542972101, -39.395663211446397 ], [ -73.191918283923997, -39.3955876397333 ], [ -73.1920403557219, -39.395445733336302 ], [ -73.192057020184606, -39.3952569734452 ], [ -73.192226058919999, -39.395120607971101 ], [ -73.192470851755999, -39.3950032185734 ], [ -73.192876452796099, -39.3946122599124 ], [ -73.192864119885897, -39.394518763294499 ], [ -73.192392526469902, -39.394431255202697 ], [ -73.191946706361307, -39.3942779553294 ], [ -73.191840178562202, -39.394265385785602 ], [ -73.190583903721702, -39.396822641537099 ] ] ] } },
{ "type": "Feature", "properties": { "id": "monoparte.4", "Name": null, "description": null, "timestamp": null, "begin": null, "end": null, "altitudeMode": null, "tessellate": -1, "extrude": 0, "visibility": -1, "drawOrder": null, "icon": null, "REG": "Araucanía", "COM": "Toltén", "LOC": "Queule", "ZONA": "ZM-1", "NOM": "Zona Mixta 1", "UPERM": "Residencial: todo permitido; equipamiento: científico, comercio, culto, deporte, cultura, social y servicios.", "UPROH": "Todo uso no indicado anteriormente.", "P_DO": "08/09/2012", "N_DOC": "7", "T_DO": "Decreto", "OBS": null }, "geometry": { "type": "Polygon", "coordinates": [ [ [ -73.193800431052097, -39.3946223204657 ], [ -73.193811470922697, -39.394650869886398 ], [ -73.193510619200296, -39.394611074982897 ], [ -73.193504294787601, -39.394608061166302 ], [ -73.193496385434898, -39.394636080793703 ], [ -73.192984105321202, -39.39454102645 ], [ -73.192988568219107, -39.394615448724799 ], [ -73.192936191869507, -39.394675234830601 ], [ -73.192820398244095, -39.394766257492499 ], [ -73.192694865108905, -39.394850395293098 ], [ -73.192633613918204, -39.394917737985999 ], [ -73.192610455914405, -39.394998179121302 ], [ -73.192585132896795, -39.3950425148984 ], [ -73.192486221108297, -39.395103980662903 ], [ -73.192304411676503, -39.395182912245197 ], [ -73.192223680168894, -39.395236484309699 ], [ -73.192143380307797, -39.395297277081497 ], [ -73.192127578364506, -39.395444276426502 ], [ -73.192559169127605, -39.3955427966198 ], [ -73.1925414201731, -39.395557910911002 ], [ -73.192258531920004, -39.395662201093998 ], [ -73.1920102728714, -39.395721820852799 ], [ -73.191884772593696, -39.395719970690799 ], [ -73.191818721966499, -39.395793866067699 ], [ -73.191771537801102, -39.395940306687699 ], [ -73.191744267342798, -39.396107738502799 ], [ -73.191731281510698, -39.396202286834601 ], [ -73.191663753153705, -39.396631699721802 ], [ -73.191646870748798, -39.396661256192601 ], [ -73.191536483640505, -39.396686950930999 ], [ -73.191437134556395, -39.3967411943851 ], [ -73.191383456650897, -39.396779315971301 ], [ -73.191339518061696, -39.396824322401699 ], [ -73.191314193653, -39.396868657969598 ], [ -73.191279995561999, -39.396920550106302 ], [ -73.191276824161704, -39.3969876189609 ], [ -73.192088426284997, -39.3971808472131 ], [ -73.192374351867102, -39.3971271056948 ], [ -73.194857848544501, -39.396856509793999 ], [ -73.1948617479256, -39.396921500482101 ], [ -73.196731616311695, -39.3968394746462 ], [ -73.197023505661505, -39.398283536792398 ], [ -73.199834268460904, -39.397870742744502 ], [ -73.199723646513704, -39.397737242871997 ], [ -73.199642683071104, -39.397631617542203 ], [ -73.199490496051993, -39.397427251743601 ], [ -73.199468845675895, -39.397377376697797 ], [ -73.199455634324906, -39.397312722949302 ], [ -73.199441555470798, -39.397233626109298 ], [ -73.199389382274205, -39.397141434027098 ], [ -73.199317725367905, -39.397035471939297 ], [ -73.199263816423695, -39.396914394538499 ], [ -73.1991828547133, -39.396808768788503 ], [ -73.199178951338297, -39.396743778459602 ], [ -73.199166607829696, -39.396693566848001 ], [ -73.199106862637393, -39.3966305946077 ], [ -73.199025900363694, -39.396524968755799 ], [ -73.1989852031016, -39.396468545906302 ], [ -73.198945372046794, -39.396426564382502 ], [ -73.198879355539006, -39.396414477555403 ], [ -73.198867446016095, -39.396371487445698 ], [ -73.198875018806106, -39.396342265646297 ], [ -73.198901639140303, -39.396319592443703 ], [ -73.198853802956094, -39.396299611987899 ], [ -73.198815274246101, -39.396279294121499 ], [ -73.198813539607499, -39.396250409714398 ], [ -73.1987568295703, -39.396237985459202 ], [ -73.198700119605107, -39.396225562073802 ], [ -73.198633669653304, -39.3962062535415 ], [ -73.198631501427599, -39.396170147574402 ], [ -73.198565485204696, -39.396158060552303 ], [ -73.198537130292806, -39.396151849262999 ], [ -73.198524354886302, -39.3960944159533 ], [ -73.198521753072299, -39.396051088426397 ], [ -73.198516983166499, -39.395971655824098 ], [ -73.198523254071702, -39.395920771217199 ], [ -73.198576928324897, -39.395882646524498 ], [ -73.198621728732803, -39.395852079836096 ], [ -73.198676268997502, -39.395828397352197 ], [ -73.198759598837199, -39.395818147603698 ], [ -73.198907208760303, -39.395791100312401 ], [ -73.199027332277694, -39.395772283822097 ], [ -73.199072999763104, -39.3957561591737 ], [ -73.199107625072401, -39.395711486620897 ], [ -73.199200694663503, -39.395708121645697 ], [ -73.199284890491498, -39.395712313770098 ], [ -73.199333593830104, -39.395746737158198 ], [ -73.199340299021003, -39.395703074043702 ], [ -73.199355876673806, -39.395651851995702 ], [ -73.199364383868101, -39.395611193873201 ], [ -73.199191097014804, -39.395550191631699 ], [ -73.198826589711601, -39.395337515548803 ], [ -73.198228454859702, -39.3948697847026 ], [ -73.197559105017703, -39.394225821720198 ], [ -73.196866127627501, -39.393592119690297 ], [ -73.196303199362703, -39.393104285354603 ], [ -73.194575972819294, -39.393223141672202 ], [ -73.194456641956407, -39.393255683360003 ], [ -73.194348848361003, -39.393278396984002 ], [ -73.194242181219593, -39.393319891516697 ], [ -73.193988887412303, -39.393545483658698 ], [ -73.193764864648898, -39.393854713689599 ], [ -73.193615863672903, -39.394222935676403 ], [ -73.193687440401504, -39.394293504441698 ], [ -73.193760817223904, -39.3944283561964 ], [ -73.193777053237596, -39.394543559473902 ], [ -73.193800431052097, -39.3946223204657 ] ], [ [ -73.194332274412702, -39.395869566868697 ], [ -73.194329032860196, -39.3959710007666 ], [ -73.194371459025007, -39.396056310941901 ], [ -73.194434666432898, -39.396177054979297 ], [ -73.194503281453194, -39.3962324712409 ], [ -73.194547007701402, -39.396339445202798 ], [ -73.194551773221207, -39.3964188791035 ], [ -73.194553939362905, -39.396454985258202 ], [ -73.193626637099001, -39.396724798026597 ], [ -73.193307855943502, -39.396051295627601 ], [ -73.194262793534605, -39.395799708188001 ], [ -73.194332274412702, -39.395869566868697 ] ] ] } },
{ "type": "Feature", "properties": { "id": "monoparte.5", "Name": null, "description": null, "timestamp": null, "begin": null, "end": null, "altitudeMode": null, "tessellate": -1, "extrude": 0, "visibility": -1, "drawOrder": null, "icon": null, "REG": "Araucanía", "COM": "Toltén", "LOC": "Queule", "ZONA": "Z-3", "NOM": "Zona Residencial 3", "UPERM": "Residencial: vivienda; equipamiento: científico, comercio, deporte, cultura, y social.", "UPROH": "Todo uso no indicado anteriormente.", "P_DO": "08/09/2012", "N_DOC": "7", "T_DO": "Decreto", "OBS": null }, "geometry": { "type": "Polygon", "coordinates": [ [ [ -73.208754108901303, -39.399931656355697 ], [ -73.208722095496398, -39.4000196585175 ], [ -73.208567347453098, -39.400083161342401 ], [ -73.208170606371397, -39.400155432710399 ], [ -73.208050734888502, -39.400333460189799 ], [ -73.208035417940295, -39.400543883487103 ], [ -73.208028616210299, -39.401050708575902 ], [ -73.2081082921394, -39.401134663635403 ], [ -73.208336891195103, -39.401213222326298 ], [ -73.208943878823007, -39.401379383346097 ], [ -73.209029820698802, -39.401412452896501 ], [ -73.209126809983104, -39.401474069923303 ], [ -73.209184830152495, -39.401508151320002 ], [ -73.209419284488305, -39.401506652167001 ], [ -73.209419104000105, -39.401505813947701 ], [ -73.2094182635621, -39.40150190069 ], [ -73.210558624690094, -39.401282468741599 ], [ -73.210107333034202, -39.399788529127498 ], [ -73.209614476827497, -39.399813631882402 ], [ -73.209154761064994, -39.399924373449302 ], [ -73.209121621238694, -39.399838732519697 ], [ -73.209116838614307, -39.3997593001532 ], [ -73.209095615449101, -39.399716648778103 ], [ -73.209082829388095, -39.399659217200004 ], [ -73.209067435902, -39.3995584595624 ], [ -73.209062653386695, -39.399479027186601 ], [ -73.209068481903401, -39.399420921873897 ], [ -73.209052653731604, -39.399312942775303 ], [ -73.209029691674104, -39.399241406465201 ], [ -73.209014297251699, -39.399140648848203 ], [ -73.208998903990704, -39.399039890284897 ], [ -73.208901048954502, -39.398963831834003 ], [ -73.208836767727703, -39.398980634920399 ], [ -73.208746303350296, -39.399027334771802 ], [ -73.208730296202106, -39.3990713354181 ], [ -73.208715159697405, -39.399129778932299 ], [ -73.208711504541498, -39.399223989724199 ], [ -73.208708717736897, -39.399332643468199 ], [ -73.208669571487803, -39.3994570883535 ], [ -73.208668781000696, -39.399753827313297 ], [ -73.208754108901303, -39.399931656355697 ] ] ] } },
{ "type": "Feature", "properties": { "id": "monoparte.6", "Name": null, "description": null, "timestamp": null, "begin": null, "end": null, "altitudeMode": null, "tessellate": -1, "extrude": 0, "visibility": -1, "drawOrder": null, "icon": null, "REG": "Araucanía", "COM": "Toltén", "LOC": "Queule", "ZONA": "Z-3", "NOM": "Zona Residencial 3", "UPERM": "Residencial: vivienda; equipamiento: científico, comercio, deporte, cultura, y social.", "UPROH": "Todo uso no indicado anteriormente.", "P_DO": "08/09/2012", "N_DOC": "7", "T_DO": "Decreto", "OBS": null }, "geometry": { "type": "Polygon", "coordinates": [ [ [ -73.199356110919297, -39.3958110544664 ], [ -73.199338364677899, -39.3958261705789 ], [ -73.199260873848203, -39.395778313591101 ], [ -73.199213905345204, -39.395772775465197 ], [ -73.199176676782002, -39.3957741214954 ], [ -73.199160665206705, -39.395818121079998 ], [ -73.199097251403003, -39.395849361842501 ], [ -73.198735146883294, -39.395876926731802 ], [ -73.198690780182403, -39.395914715014698 ], [ -73.198618492209206, -39.395953512663901 ], [ -73.198601612977001, -39.395983069983302 ], [ -73.198616557782898, -39.396076609209899 ], [ -73.198692313925307, -39.396095581321298 ], [ -73.198741450901096, -39.396137225611298 ], [ -73.198817641926993, -39.396163418246402 ], [ -73.198904006727005, -39.396203717473597 ], [ -73.198962885100599, -39.396252246709899 ], [ -73.198994275912099, -39.396309006939298 ], [ -73.199005316978401, -39.396337554874798 ], [ -73.199100555892599, -39.396370295881397 ], [ -73.199121771968706, -39.396412950383699 ], [ -73.199161169390393, -39.396447710294098 ], [ -73.199212041711803, -39.396518238746502 ], [ -73.199273088051797, -39.396602874674201 ], [ -73.199304912980494, -39.396666855442703 ], [ -73.199299075215393, -39.396724961648097 ], [ -73.199291937371896, -39.396761403173301 ], [ -73.199285232161699, -39.3968050671849 ], [ -73.199307315942406, -39.396862163830903 ], [ -73.199375502753398, -39.396910356273601 ], [ -73.199534627044599, -39.397230260759002 ], [ -73.199536362095103, -39.3972591460331 ], [ -73.199538964594396, -39.397302472595797 ], [ -73.199569488899996, -39.397344790424697 ], [ -73.199610620976102, -39.397408434552602 ], [ -73.199785326518906, -39.3976771173337 ], [ -73.199837501898102, -39.397769310038903 ], [ -73.199796789973007, -39.397825513558601 ], [ -73.199834268460904, -39.397870742744502 ], [ -73.197023505661505, -39.398283536792398 ], [ -73.196731616311695, -39.3968394746462 ], [ -73.1948617479256, -39.396921500482101 ], [ -73.194857848544501, -39.396856509793999 ], [ -73.192374351867102, -39.3971271056948 ], [ -73.192088426284997, -39.3971808472131 ], [ -73.191271761832994, -39.396986413820002 ], [ -73.191263328990701, -39.397109309979598 ], [ -73.191048613229199, -39.397261796028097 ], [ -73.190960566891306, -39.397388661997198 ], [ -73.192056096080407, -39.397606227647699 ], [ -73.194852262977093, -39.397336737739899 ], [ -73.196255382733398, -39.397286050380401 ], [ -73.196543343229493, -39.3988456255179 ], [ -73.199953127043102, -39.398323220182697 ], [ -73.199884391260198, -39.398130567305799 ], [ -73.199871630610502, -39.397918150174299 ], [ -73.199998950156299, -39.397753887460603 ], [ -73.200090983011194, -39.397573160697299 ], [ -73.200181421409496, -39.397365881481797 ], [ -73.200142945144194, -39.397296313732603 ], [ -73.200128879052698, -39.397252472343098 ], [ -73.200180066535296, -39.397153051897597 ], [ -73.200393617176402, -39.3970921095138 ], [ -73.200556218760894, -39.396944309320503 ], [ -73.200672659412405, -39.396789309391799 ], [ -73.200719061020706, -39.396610232586099 ], [ -73.2007370897865, -39.396529750360997 ], [ -73.200546837361699, -39.396217314545098 ], [ -73.200475976776701, -39.395989258763997 ], [ -73.200459783941, -39.3959100151624 ], [ -73.200492134773995, -39.3959178403313 ], [ -73.200471756051201, -39.395870895964897 ], [ -73.199748682323104, -39.395746475385103 ], [ -73.1994432324706, -39.395638949819798 ], [ -73.199423627414504, -39.395692823872999 ], [ -73.199407616065898, -39.395736824381402 ], [ -73.199356110919297, -39.3958110544664 ] ] ] } },
{ "type": "Feature", "properties": { "id": "monoparte.7", "Name": null, "description": null, "timestamp": null, "begin": null, "end": null, "altitudeMode": null, "tessellate": -1, "extrude": 0, "visibility": -1, "drawOrder": null, "icon": null, "REG": "Araucanía", "COM": "Toltén", "LOC": "Queule", "ZONA": "Z-3", "NOM": "Zona Residencial 3", "UPERM": "Residencial: vivienda; equipamiento: científico, comercio, deporte, cultura, y social.", "UPROH": "Todo uso no indicado anteriormente.", "P_DO": "08/09/2012", "N_DOC": "7", "T_DO": "Decreto", "OBS": null }, "geometry": { "type": "Polygon", "coordinates": [ [ [ -73.189788382501504, -39.397155859850599 ], [ -73.190861102318294, -39.397368908419303 ], [ -73.190989306192193, -39.397206040909097 ], [ -73.191186273523101, -39.397068669945497 ], [ -73.191187891223706, -39.396966445395996 ], [ -73.190583903721702, -39.396822641537099 ], [ -73.191840178562202, -39.394265385785602 ], [ -73.191641331970501, -39.394241922962003 ], [ -73.191273061730101, -39.394210988315997 ], [ -73.189788382501504, -39.397155859850599 ] ] ] } },
{ "type": "Feature", "properties": { "id": "monoparte.8", "Name": null, "description": null, "timestamp": null, "begin": null, "end": null, "altitudeMode": null, "tessellate": -1, "extrude": 0, "visibility": -1, "drawOrder": null, "icon": null, "REG": "Araucanía", "COM": "Toltén", "LOC": "Queule", "ZONA": "ZAV", "NOM": "Zona Áreas Verdes", "UPERM": "Según artículo 2.1.31. de la OGU y C.", "UPROH": "Todo uso no indicado anteriormente.", "P_DO": "08/09/2012", "N_DOC": "7", "T_DO": "Decreto", "OBS": null }, "geometry": { "type": "Polygon", "coordinates": [ [ [ -73.211040946297501, -39.400731654064202 ], [ -73.2111251481561, -39.400735837226698 ], [ -73.211161073807105, -39.4007128247369 ], [ -73.211157593747501, -39.400655055985403 ], [ -73.211119493168795, -39.400641964012102 ], [ -73.211035726384097, -39.400645001372801 ], [ -73.210998061944807, -39.400639129849701 ], [ -73.210891764499394, -39.400577852794697 ], [ -73.210829830839501, -39.400478782896101 ], [ -73.210756587250998, -39.400191964669197 ], [ -73.210956304466293, -39.399848023991403 ], [ -73.210911679154904, -39.399824500032203 ], [ -73.210871149914695, -39.399797172914099 ], [ -73.210743973586304, -39.399982553824103 ], [ -73.210640983999596, -39.400131024764399 ], [ -73.210688651945105, -39.400302980460097 ], [ -73.210768592382493, -39.400546134487897 ], [ -73.210947001489103, -39.400720586900803 ], [ -73.211040946297501, -39.400731654064202 ] ] ] } },
{ "type": "Feature", "properties": { "id": "monoparte.9", "Name": null, "description": null, "timestamp": null, "begin": null, "end": null, "altitudeMode": null, "tessellate": -1, "extrude": 0, "visibility": -1, "drawOrder": null, "icon": null, "REG": "Araucanía", "COM": "Toltén", "LOC": "Queule", "ZONA": "ZAV", "NOM": "Zona Áreas Verdes", "UPERM": "Según artículo 2.1.31. de la OGU y C.", "UPROH": "Todo uso no indicado anteriormente.", "P_DO": "08/09/2012", "N_DOC": "7", "T_DO": "Decreto", "OBS": null }, "geometry": { "type": "Polygon", "coordinates": [ [ [ -73.215840037336207, -39.399725307000701 ], [ -73.215853901997704, -39.399737878570399 ], [ -73.215899085883606, -39.399616789473399 ], [ -73.215859684278698, -39.399587094257598 ], [ -73.215807922299305, -39.399502131379997 ], [ -73.215806778858493, -39.399328489151699 ], [ -73.215764760280507, -39.399250408857398 ], [ -73.215706739167203, -39.399216330814802 ], [ -73.215620797420598, -39.399183267126602 ], [ -73.215599135078406, -39.399133394852498 ], [ -73.215624007717594, -39.399081834327397 ], [ -73.215610782263994, -39.399017183211697 ], [ -73.215521955298499, -39.398781592525403 ], [ -73.215415821139601, -39.398568339746298 ], [ -73.215400122663098, -39.398428248879299 ], [ -73.215325199418302, -39.398439932853599 ], [ -73.215348494332105, -39.398534599274797 ], [ -73.215342669974902, -39.398592705565498 ], [ -73.215369122506104, -39.3987220078128 ], [ -73.215428448139704, -39.398777749381502 ], [ -73.215521629093899, -39.399085550485999 ], [ -73.215490496740401, -39.399187996789301 ], [ -73.215560436859903, -39.3992650627928 ], [ -73.215685349013498, -39.399325659826502 ], [ -73.215713978751793, -39.399491068028297 ], [ -73.215719204239704, -39.399577720214403 ], [ -73.215840037336207, -39.399725307000701 ] ] ] } },
{ "type": "Feature", "properties": { "id": "monoparte.10", "Name": null, "description": null, "timestamp": null, "begin": null, "end": null, "altitudeMode": null, "tessellate": -1, "extrude": 0, "visibility": -1, "drawOrder": null, "icon": null, "REG": "Araucanía", "COM": "Toltén", "LOC": "Queule", "ZONA": "ZAV", "NOM": "Zona Áreas Verdes", "UPERM": "Según artículo 2.1.31. de la OGU y C.", "UPROH": "Todo uso no indicado anteriormente.", "P_DO": "08/09/2012", "N_DOC": "7", "T_DO": "Decreto", "OBS": null }, "geometry": { "type": "Polygon", "coordinates": [ [ [ -73.209674513090107, -39.398487114076701 ], [ -73.209749977987599, -39.398529630139699 ], [ -73.210018298623098, -39.398502153020303 ], [ -73.210067330285298, -39.398349848697997 ], [ -73.209272307679996, -39.398313534594301 ], [ -73.209141571610601, -39.398311035649698 ], [ -73.208993526857796, -39.398330875476397 ], [ -73.208920316217004, -39.398378948581602 ], [ -73.209136178003007, -39.398376363317198 ], [ -73.209418436119904, -39.3984167910304 ], [ -73.209674513090107, -39.398487114076701 ] ] ] } },
{ "type": "Feature", "properties": { "id": "monoparte.11", "Name": null, "description": null, "timestamp": null, "begin": null, "end": null, "altitudeMode": null, "tessellate": -1, "extrude": 0, "visibility": -1, "drawOrder": null, "icon": null, "REG": "Araucanía", "COM": "Toltén", "LOC": "Queule", "ZONA": "ZAV", "NOM": "Zona Áreas Verdes", "UPERM": "Según artículo 2.1.31. de la OGU y C.", "UPROH": "Todo uso no indicado anteriormente.", "P_DO": "08/09/2012", "N_DOC": "7", "T_DO": "Decreto", "OBS": null }, "geometry": { "type": "Polygon", "coordinates": [ [ [ -73.213309092570199, -39.398434919826599 ], [ -73.214271748034605, -39.398506214026497 ], [ -73.214306068992997, -39.3981075656 ], [ -73.213517396946102, -39.398000429876397 ], [ -73.212947792389897, -39.397889058984198 ], [ -73.212779130064902, -39.398284818051998 ], [ -73.212806676257699, -39.398301171559901 ], [ -73.213309092570199, -39.398434919826599 ] ] ] } },
{ "type": "Feature", "properties": { "id": "monoparte.12", "Name": null, "description": null, "timestamp": null, "begin": null, "end": null, "altitudeMode": null, "tessellate": -1, "extrude": 0, "visibility": -1, "drawOrder": null, "icon": null, "REG": "Araucanía", "COM": "Toltén", "LOC": "Queule", "ZONA": "ZAV", "NOM": "Zona Áreas Verdes", "UPERM": "Según artículo 2.1.31. de la OGU y C.", "UPROH": "Todo uso no indicado anteriormente.", "P_DO": "08/09/2012", "N_DOC": "7", "T_DO": "Decreto", "OBS": null }, "geometry": { "type": "Polygon", "coordinates": [ [ [ -73.208000258728603, -39.401686337478203 ], [ -73.209577114107205, -39.402241215971401 ], [ -73.209518314840196, -39.4019675597686 ], [ -73.209300952130405, -39.401887494795901 ], [ -73.208843315629807, -39.401723159567197 ], [ -73.208100801201397, -39.4014750668399 ], [ -73.207919174187197, -39.401402042093601 ], [ -73.207803571062797, -39.4013410993443 ], [ -73.207637083628597, -39.401209631522903 ], [ -73.207545492239902, -39.401082686352503 ], [ -73.207465381262296, -39.400991510342102 ], [ -73.207325006296301, -39.4005189641627 ], [ -73.207232474480307, -39.400066395326597 ], [ -73.207108545155506, -39.399557068760203 ], [ -73.206976432758097, -39.399221722553797 ], [ -73.206802565158199, -39.398967494397098 ], [ -73.206660096973906, -39.3987700227486 ], [ -73.206491011184795, -39.398595226633503 ], [ -73.206059335548403, -39.398241781852697 ], [ -73.204802493423102, -39.397505712588398 ], [ -73.204143989465607, -39.397102577317497 ], [ -73.204018655033593, -39.397034746524 ], [ -73.203941592927094, -39.396994114458998 ], [ -73.203855658751806, -39.396961040698798 ], [ -73.203698922781598, -39.396939151012198 ], [ -73.203691673030704, -39.397150181711901 ], [ -73.203808407057195, -39.397190305600098 ], [ -73.204032596928101, -39.397306369798102 ], [ -73.205278281049999, -39.398059564993602 ], [ -73.205907368710598, -39.398444801186699 ], [ -73.206099474117494, -39.398597502260799 ], [ -73.206292111784506, -39.398759054623802 ], [ -73.2064510609476, -39.3989306959282 ], [ -73.2065757877767, -39.399103576551298 ], [ -73.206700515249807, -39.399276457003403 ], [ -73.206782276456096, -39.399495243652602 ], [ -73.206979576451502, -39.400304128634303 ], [ -73.207048866766399, -39.400505626792302 ], [ -73.207084998953604, -39.400726066060997 ], [ -73.207142348264796, -39.400919126711301 ], [ -73.207174219698501, -39.401068761203199 ], [ -73.207222515155294, -39.401111360725302 ], [ -73.207360787076894, -39.401319229666598 ], [ -73.207552370027699, -39.401463077029099 ], [ -73.207753764797303, -39.401579959476699 ], [ -73.208000258728603, -39.401686337478203 ] ] ] } },
{ "type": "Feature", "properties": { "id": "monoparte.13", "Name": null, "description": null, "timestamp": null, "begin": null, "end": null, "altitudeMode": null, "tessellate": -1, "extrude": 0, "visibility": -1, "drawOrder": null, "icon": null, "REG": "Araucanía", "COM": "Toltén", "LOC": "Queule", "ZONA": "ZAV", "NOM": "Zona Áreas Verdes", "UPERM": "Según artículo 2.1.31. de la OGU y C.", "UPROH": "Todo uso no indicado anteriormente.", "P_DO": "08/09/2012", "N_DOC": "7", "T_DO": "Decreto", "OBS": null }, "geometry": { "type": "Polygon", "coordinates": [ [ [ -73.193779494929501, -39.391459223261201 ], [ -73.193518206837297, -39.391486397623098 ], [ -73.193289543956993, -39.391485783403503 ], [ -73.193045498723393, -39.391609902760898 ], [ -73.193027993623403, -39.391699235080701 ], [ -73.192991388759097, -39.391851345374 ], [ -73.193103070399303, -39.391998102271401 ], [ -73.193283193221205, -39.392142388980702 ], [ -73.193485598381599, -39.392276999943697 ], [ -73.1937320391621, -39.3923834113154 ], [ -73.193957791564699, -39.392526049334897 ], [ -73.194124916878906, -39.392644193911401 ], [ -73.194195222920001, -39.392863403158501 ], [ -73.194172681562904, -39.3930593560776 ], [ -73.194070292691407, -39.393258192387798 ], [ -73.193963656418802, -39.393386222629402 ], [ -73.193885401375098, -39.393415658494497 ], [ -73.193764703335205, -39.393499846158299 ], [ -73.193663632928704, -39.393530105700002 ], [ -73.193428865475795, -39.393618411727502 ], [ -73.193146347374395, -39.393672961106397 ], [ -73.192897518044703, -39.3937174244776 ], [ -73.192806792482102, -39.393729569753098 ], [ -73.192629589123101, -39.393824666134201 ], [ -73.192487136019295, -39.3939273778971 ], [ -73.192432223362303, -39.393964840231398 ], [ -73.192229551389701, -39.394016505174903 ], [ -73.192070383854798, -39.394031120289199 ], [ -73.191959497756898, -39.394088342760703 ], [ -73.191837204298196, -39.394145975941598 ], [ -73.191736133154905, -39.394176233853798 ], [ -73.1913005434848, -39.394156473749298 ], [ -73.191273061730101, -39.394210988315997 ], [ -73.191641331970501, -39.394241922962003 ], [ -73.191946706361307, -39.3942779553294 ], [ -73.192392526469902, -39.394431255202697 ], [ -73.192864119885897, -39.394518763294499 ], [ -73.192876452796099, -39.3946122599124 ], [ -73.192470851755999, -39.3950032185734 ], [ -73.192226058919999, -39.395120607971101 ], [ -73.192057020184606, -39.3952569734452 ], [ -73.1920403557219, -39.395445733336302 ], [ -73.191918283923997, -39.3955876397333 ], [ -73.191829542972101, -39.395663211446397 ], [ -73.191707470384998, -39.395805117660899 ], [ -73.191656174651797, -39.3960385490427 ], [ -73.191623707734493, -39.396119326865303 ], [ -73.191611156277304, -39.396532281086301 ], [ -73.191613753860807, -39.3965756089938 ], [ -73.191578690286207, -39.396613058864503 ], [ -73.191331725875699, -39.396694340434898 ], [ -73.191287354436099, -39.396732126123602 ], [ -73.191290817567705, -39.396789895490599 ], [ -73.191257052408503, -39.396849009240199 ], [ -73.191230862109506, -39.3968789015521 ], [ -73.191186057647201, -39.396909466488097 ], [ -73.191189496259497, -39.396966827869903 ], [ -73.191187891223706, -39.396966445395996 ], [ -73.191186273523101, -39.397068669945497 ], [ -73.190989306192193, -39.397206040909097 ], [ -73.190861102318294, -39.397368908419303 ], [ -73.190960566891306, -39.397388661997198 ], [ -73.191048613229199, -39.397261796028097 ], [ -73.191263328990701, -39.397109309979598 ], [ -73.191271761832994, -39.396986413820002 ], [ -73.191276824161704, -39.3969876189609 ], [ -73.191279995561999, -39.396920550106302 ], [ -73.191314193653, -39.396868657969598 ], [ -73.191339518061696, -39.396824322401699 ], [ -73.191383456650897, -39.396779315971301 ], [ -73.191437134556395, -39.3967411943851 ], [ -73.191536483640505, -39.396686950930999 ], [ -73.191646870748798, -39.396661256192601 ], [ -73.191663753153705, -39.396631699721802 ], [ -73.191731281510698, -39.396202286834601 ], [ -73.191744267342798, -39.396107738502799 ], [ -73.191771537801102, -39.395940306687699 ], [ -73.191818721966499, -39.395793866067699 ], [ -73.192045984148706, -39.395539609835403 ], [ -73.192125418391001, -39.395464373885403 ], [ -73.192143380307797, -39.395297277081497 ], [ -73.192223680168894, -39.395236484309699 ], [ -73.192304411676503, -39.395182912245197 ], [ -73.192486221108297, -39.395103980662903 ], [ -73.192585132896795, -39.3950425148984 ], [ -73.192610455914405, -39.394998179121302 ], [ -73.192633613918204, -39.394917737985999 ], [ -73.192694865108905, -39.394850395293098 ], [ -73.192820398244095, -39.394766257492499 ], [ -73.192936191869507, -39.394675234830601 ], [ -73.192988568219107, -39.394615448724799 ], [ -73.192984105321202, -39.39454102645 ], [ -73.193496385434898, -39.394636080793703 ], [ -73.193606421090294, -39.394246271701903 ], [ -73.193764864648898, -39.393854713689599 ], [ -73.193988887412303, -39.393545483658698 ], [ -73.194242181219593, -39.393319891516697 ], [ -73.194348848361003, -39.393278396984002 ], [ -73.194456641956407, -39.393255683360003 ], [ -73.194575972819294, -39.393223141672202 ], [ -73.196303199362703, -39.393104285354603 ], [ -73.196866127627501, -39.393592119690297 ], [ -73.197559105017703, -39.394225821720198 ], [ -73.198228454859702, -39.3948697847026 ], [ -73.198826589711601, -39.395337515548803 ], [ -73.199191097014804, -39.395550191631699 ], [ -73.199364383868101, -39.395611193873201 ], [ -73.199355876673806, -39.395651851995702 ], [ -73.199340299021003, -39.395703074043702 ], [ -73.199333593830104, -39.395746737158198 ], [ -73.199284890491498, -39.395712313770098 ], [ -73.199200694663503, -39.395708121645697 ], [ -73.199107625072401, -39.395711486620897 ], [ -73.199072999763104, -39.3957561591737 ], [ -73.199027332277694, -39.395772283822097 ], [ -73.198907208760303, -39.395791100312401 ], [ -73.198759598837199, -39.395818147603698 ], [ -73.198676268997502, -39.395828397352197 ], [ -73.198621728732803, -39.395852079836096 ], [ -73.198576928324897, -39.395882646524498 ], [ -73.198523254071702, -39.395920771217199 ], [ -73.198516983166499, -39.395971655824098 ], [ -73.198521753072299, -39.396051088426397 ], [ -73.198524354886302, -39.3960944159533 ], [ -73.198537130292806, -39.396151849262999 ], [ -73.198565485204696, -39.396158060552303 ], [ -73.198631501427599, -39.396170147574402 ], [ -73.198633669653304, -39.3962062535415 ], [ -73.198700119605107, -39.396225562073802 ], [ -73.1987568295703, -39.396237985459202 ], [ -73.198813539607499, -39.396250409714398 ], [ -73.198815274246101, -39.396279294121499 ], [ -73.198853802956094, -39.396299611987899 ], [ -73.198901639140303, -39.396319592443703 ], [ -73.198875018806106, -39.396342265646297 ], [ -73.198867446016095, -39.396371487445698 ], [ -73.198879355539006, -39.396414477555403 ], [ -73.198945372046794, -39.396426564382502 ], [ -73.1989852031016, -39.396468545906302 ], [ -73.199025900363694, -39.396524968755799 ], [ -73.199106862637393, -39.3966305946077 ], [ -73.199166607829696, -39.396693566848001 ], [ -73.199178951338297, -39.396743778459602 ], [ -73.1991828547133, -39.396808768788503 ], [ -73.199263816423695, -39.396914394538499 ], [ -73.199317725367905, -39.397035471939297 ], [ -73.199389382274205, -39.397141434027098 ], [ -73.199441555470798, -39.397233626109298 ], [ -73.199455634324906, -39.397312722949302 ], [ -73.199468845675895, -39.397377376697797 ], [ -73.199490496051993, -39.397427251743601 ], [ -73.199642683071104, -39.397631617542203 ], [ -73.199723646513704, -39.397737242871997 ], [ -73.199796789973007, -39.397825513558601 ], [ -73.199837501898102, -39.397769310038903 ], [ -73.199785326518906, -39.3976771173337 ], [ -73.199610620976102, -39.397408434552602 ], [ -73.199569488899996, -39.397344790424697 ], [ -73.199538964594396, -39.397302472595797 ], [ -73.199536362095103, -39.3972591460331 ], [ -73.199534627044599, -39.397230260759002 ], [ -73.199375502753398, -39.396910356273601 ], [ -73.199307315942406, -39.396862163830903 ], [ -73.199285232161699, -39.3968050671849 ], [ -73.199291937371896, -39.396761403173301 ], [ -73.199299075215393, -39.396724961648097 ], [ -73.199304912980494, -39.396666855442703 ], [ -73.199273088051797, -39.396602874674201 ], [ -73.199212041711803, -39.396518238746502 ], [ -73.199161169390393, -39.396447710294098 ], [ -73.199121771968706, -39.396412950383699 ], [ -73.199100555892599, -39.396370295881397 ], [ -73.199005316978401, -39.396337554874798 ], [ -73.198994275912099, -39.396309006939298 ], [ -73.198962885100599, -39.396252246709899 ], [ -73.198904006727005, -39.396203717473597 ], [ -73.198817641926993, -39.396163418246402 ], [ -73.198741450901096, -39.396137225611298 ], [ -73.198692313925307, -39.396095581321298 ], [ -73.198616557782898, -39.396076609209899 ], [ -73.198601612977001, -39.395983069983302 ], [ -73.198618492209206, -39.395953512663901 ], [ -73.198690780182403, -39.395914715014698 ], [ -73.198735146883294, -39.395876926731802 ], [ -73.199097251403003, -39.395849361842501 ], [ -73.199160665206705, -39.395818121079998 ], [ -73.199176676782002, -39.3957741214954 ], [ -73.199213905345204, -39.395772775465197 ], [ -73.199260873848203, -39.395778313591101 ], [ -73.199338364677899, -39.3958261705789 ], [ -73.199356110919297, -39.3958110544664 ], [ -73.199407616065898, -39.395736824381402 ], [ -73.199423627414504, -39.395692823872999 ], [ -73.1994432324706, -39.395638949819798 ], [ -73.199748682323104, -39.395746475385103 ], [ -73.200471756051201, -39.395870895964897 ], [ -73.200492134773995, -39.3959178403313 ], [ -73.200587389799594, -39.395940879159397 ], [ -73.200874695499095, -39.395965967616199 ], [ -73.201413492230998, -39.395990827938 ], [ -73.201698671849996, -39.395980511194999 ], [ -73.201938754165994, -39.395980695374298 ], [ -73.202109537375193, -39.396001915343398 ], [ -73.202215186007095, -39.396015043011403 ], [ -73.202479678853294, -39.396040952876199 ], [ -73.203734233627102, -39.396181819292799 ], [ -73.203734006715294, -39.396188431605303 ], [ -73.203789110884898, -39.396164501174802 ], [ -73.203902530996203, -39.396189343788997 ], [ -73.204274186580605, -39.396320626813498 ], [ -73.204867720657802, -39.396574140250699 ], [ -73.205185710119906, -39.396743547538001 ], [ -73.205569717778005, -39.396925037776398 ], [ -73.205800036677303, -39.397032487489497 ], [ -73.205961297250596, -39.397077305426102 ], [ -73.206284687853696, -39.397181382655099 ], [ -73.206416725388706, -39.397205548479 ], [ -73.206577552188904, -39.397243144036601 ], [ -73.206663053321705, -39.397268994214002 ], [ -73.206769340999301, -39.397330276580298 ], [ -73.206921730872807, -39.397382650778802 ], [ -73.207034469433196, -39.3969551710221 ], [ -73.206910382086306, -39.3969094565755 ], [ -73.206807184538306, -39.3969043246315 ], [ -73.206603983468, -39.396947164790603 ], [ -73.206535540462198, -39.396949643786797 ], [ -73.206268913576594, -39.396888341468099 ], [ -73.206142368875604, -39.396875184493297 ], [ -73.206025634205901, -39.3968350620979 ], [ -73.205862737901398, -39.3967877421723 ], [ -73.205779693117293, -39.3967375294785 ], [ -73.205662958914701, -39.396697407592399 ], [ -73.205500063086106, -39.396650086227503 ], [ -73.205310626420697, -39.396541637411602 ], [ -73.205262868923398, -39.396507886625997 ], [ -73.205124385369999, -39.3964862908024 ], [ -73.204854035219199, -39.396363030831402 ], [ -73.204618440017896, -39.396247381094597 ], [ -73.204464291952306, -39.396155392407998 ], [ -73.204233487907601, -39.396119397584798 ], [ -73.204126033982902, -39.396043458137299 ], [ -73.203965269275599, -39.396031537453297 ], [ -73.203732869428293, -39.395968990255497 ], [ -73.203398336930604, -39.395919009042998 ], [ -73.203202287826997, -39.395890624284597 ], [ -73.202998555982703, -39.3959246072951 ], [ -73.202836727540003, -39.395894983506501 ], [ -73.202606456921103, -39.395867836112799 ], [ -73.202536949527101, -39.395852612118098 ], [ -73.202529181810803, -39.3958494628043 ], [ -73.202396339945807, -39.395795609869303 ], [ -73.202174817310606, -39.395723795911202 ], [ -73.202082496789103, -39.395709396150998 ], [ -73.201838692172799, -39.395647257728299 ], [ -73.201663330057002, -39.395582642750902 ], [ -73.2013664516886, -39.395398244055897 ], [ -73.201217627610205, -39.3953947575841 ], [ -73.201000893347498, -39.395402597359301 ], [ -73.200898229780904, -39.3954063107943 ], [ -73.200689712083502, -39.3953606326927 ], [ -73.200563702421306, -39.395356320208101 ], [ -73.200472444898097, -39.395359620734801 ], [ -73.200392064052295, -39.395353658707002 ], [ -73.200125979148297, -39.395301191527999 ], [ -73.199977686856997, -39.395306554241699 ], [ -73.200044534989203, -39.395277526774201 ], [ -73.200167354484606, -39.395228735993399 ], [ -73.2002570156356, -39.395198883390997 ], [ -73.200359147277297, -39.395186319750401 ], [ -73.200506375793793, -39.395163254992397 ], [ -73.200630258205905, -39.395132165318898 ], [ -73.200731857903406, -39.395110750575 ], [ -73.200788893635504, -39.395108687637801 ], [ -73.200887302672598, -39.395034168967697 ], [ -73.2009899656952, -39.395030455571401 ], [ -73.201161071462906, -39.395024266348997 ], [ -73.201275141559407, -39.395020140075403 ], [ -73.201410962205799, -39.394997486839799 ], [ -73.201513625105605, -39.3949937729843 ], [ -73.201545719047999, -39.394957131901002 ], [ -73.201655534117293, -39.394882199969302 ], [ -73.201695310848905, -39.394783191706601 ], [ -73.201676989595299, -39.394668545229102 ], [ -73.201615700666395, -39.394599803246699 ], [ -73.201424679782207, -39.394464794208602 ], [ -73.2012668171146, -39.394310846269398 ], [ -73.201117704390697, -39.3941122315168 ], [ -73.201081064388902, -39.393882938231698 ], [ -73.200694536032501, -39.393728390437701 ], [ -73.200410428583893, -39.393756405808098 ], [ -73.200495834275699, -39.393655747711698 ], [ -73.200605116931499, -39.393571966023899 ], [ -73.200856598058195, -39.393571740327701 ], [ -73.201176520421498, -39.393569037518702 ], [ -73.201405719460794, -39.3935784866391 ], [ -73.201414413706303, -39.3931524158629 ], [ -73.201289711052496, -39.392979527406702 ], [ -73.201076945474597, -39.392863045197103 ], [ -73.2008294296934, -39.392738948557103 ], [ -73.200673699237498, -39.392620401747998 ], [ -73.200603664928295, -39.392596325562401 ], [ -73.200392497687602, -39.392506393398001 ], [ -73.200124297382501, -39.392418523341298 ], [ -73.199378858559697, -39.392188249467097 ], [ -73.199146475101998, -39.392125692143502 ], [ -73.199066629465406, -39.3921285788972 ], [ -73.198402637503904, -39.391921964038403 ], [ -73.198028594858499, -39.391784695729697 ], [ -73.197686116980904, -39.391601935253298 ], [ -73.197544988478199, -39.391536076496301 ], [ -73.197464079650004, -39.391521260504902 ], [ -73.197383703269495, -39.391515295240303 ], [ -73.197208886577897, -39.391459522647402 ], [ -73.197091634405894, -39.391410540541401 ], [ -73.196710970695193, -39.391353336484201 ], [ -73.196619719093405, -39.391356633668899 ], [ -73.196495841063907, -39.3913877188103 ], [ -73.196201927172496, -39.391442688114402 ], [ -73.195635319084104, -39.391525246974197 ], [ -73.195465813703805, -39.391557980160499 ], [ -73.194318787963198, -39.3914929685182 ], [ -73.194020625906802, -39.391477125456802 ], [ -73.193779494929501, -39.391459223261201 ] ] ] } },
{ "type": "Feature", "properties": { "id": "monoparte.14", "Name": null, "description": null, "timestamp": null, "begin": null, "end": null, "altitudeMode": null, "tessellate": -1, "extrude": 0, "visibility": -1, "drawOrder": null, "icon": null, "REG": "Araucanía", "COM": "Toltén", "LOC": "Queule", "ZONA": "ZE-1", "NOM": "Zona Equipamiento 1", "UPERM": "Equipamiento: educación, seguridad, salud, deporte y social.", "UPROH": "Todo uso no indicado anteriormente.", "P_DO": "08/09/2012", "N_DOC": "7", "T_DO": "Decreto", "OBS": null }, "geometry": { "type": "Polygon", "coordinates": [ [ [ -73.206859113195094, -39.399050178940797 ], [ -73.206976432758097, -39.399221722553797 ], [ -73.207108545155506, -39.399557068760203 ], [ -73.207196453194101, -39.399918353024503 ], [ -73.208371993407397, -39.399627082326099 ], [ -73.208130642538904, -39.398716748651204 ], [ -73.207001060743195, -39.399010962040698 ], [ -73.206859113195094, -39.399050178940797 ] ] ] } },
{ "type": "Feature", "properties": { "id": "monoparte.15", "Name": null, "description": null, "timestamp": null, "begin": null, "end": null, "altitudeMode": null, "tessellate": -1, "extrude": 0, "visibility": -1, "drawOrder": null, "icon": null, "REG": "Araucanía", "COM": "Toltén", "LOC": "Queule", "ZONA": "AV", "NOM": "Área Verde", "UPERM": "Sin información.", "UPROH": "Sin información.", "P_DO": "08/09/2012", "N_DOC": "7", "T_DO": "Decreto", "OBS": null }, "geometry": { "type": "Polygon", "coordinates": [ [ [ -73.209995644814498, -39.399792577897998 ], [ -73.209995743309705, -39.399794213416399 ], [ -73.210107333034202, -39.399788529127498 ], [ -73.210212042052106, -39.400135163234701 ], [ -73.210250247851405, -39.399993217321402 ], [ -73.210274256101698, -39.399927214798502 ], [ -73.210327490304607, -39.3998818643663 ], [ -73.210388727469905, -39.399814512153597 ], [ -73.210433959608395, -39.399791162498403 ], [ -73.210504069522997, -39.399716252248503 ], [ -73.209975380512603, -39.399301207552199 ], [ -73.209977119996907, -39.399330092428102 ], [ -73.209953546444595, -39.399403315443699 ], [ -73.209883872175794, -39.399485445882199 ], [ -73.209834985362306, -39.399603007904801 ], [ -73.209995644814498, -39.399792577897998 ] ] ] } },
{ "type": "Feature", "properties": { "id": "monoparte.16", "Name": null, "description": null, "timestamp": null, "begin": null, "end": null, "altitudeMode": null, "tessellate": -1, "extrude": 0, "visibility": -1, "drawOrder": null, "icon": null, "REG": "Araucanía", "COM": "Toltén", "LOC": "Queule", "ZONA": "AV", "NOM": "Área Verde", "UPERM": "Sin información.", "UPROH": "Sin información.", "P_DO": "08/09/2012", "N_DOC": "7", "T_DO": "Decreto", "OBS": null }, "geometry": { "type": "Polygon", "coordinates": [ [ [ -73.193307855943502, -39.396051295627601 ], [ -73.193626637099001, -39.396724798026597 ], [ -73.194553939362905, -39.396454985258202 ], [ -73.194551773221207, -39.3964188791035 ], [ -73.194547007701402, -39.396339445202798 ], [ -73.194503281453194, -39.3962324712409 ], [ -73.194434666432898, -39.396177054979297 ], [ -73.194371459025007, -39.396056310941901 ], [ -73.194329032860196, -39.3959710007666 ], [ -73.194332274412702, -39.395869566868697 ], [ -73.194262793534605, -39.395799708188001 ], [ -73.193307855943502, -39.396051295627601 ] ] ] } },
{ "type": "Feature", "properties": { "id": "monoparte.17", "Name": null, "description": null, "timestamp": null, "begin": null, "end": null, "altitudeMode": null, "tessellate": -1, "extrude": 0, "visibility": -1, "drawOrder": null, "icon": null, "REG": "Araucanía", "COM": "Toltén", "LOC": "Queule", "ZONA": "AV", "NOM": "Área Verde", "UPERM": "Sin información.", "UPROH": "Sin información.", "P_DO": "08/09/2012", "N_DOC": "7", "T_DO": "Decreto", "OBS": null }, "geometry": { "type": "Polygon", "coordinates": [ [ [ -73.191884772593696, -39.395719970690799 ], [ -73.1920102728714, -39.395721820852799 ], [ -73.192258531920004, -39.395662201093998 ], [ -73.1925414201731, -39.395557910911002 ], [ -73.192559169127605, -39.3955427966198 ], [ -73.192127578364506, -39.395444276426502 ], [ -73.192125418391001, -39.395464373885403 ], [ -73.192045984148706, -39.395539609835403 ], [ -73.191884772593696, -39.395719970690799 ] ] ] } },
{ "type": "Feature", "properties": { "id": "monoparte.18", "Name": null, "description": null, "timestamp": null, "begin": null, "end": null, "altitudeMode": null, "tessellate": -1, "extrude": 0, "visibility": -1, "drawOrder": null, "icon": null, "REG": "Araucanía", "COM": "Toltén", "LOC": "Queule", "ZONA": "AV", "NOM": "Área Verde", "UPERM": "Sin información.", "UPROH": "Sin información.", "P_DO": "08/09/2012", "N_DOC": "7", "T_DO": "Decreto", "OBS": null }, "geometry": { "type": "Polygon", "coordinates": [ [ [ -73.193510619200296, -39.394611074982897 ], [ -73.193811470922697, -39.394650869886398 ], [ -73.193800431052097, -39.3946223204657 ], [ -73.193777053237596, -39.394543559473902 ], [ -73.193760817223904, -39.3944283561964 ], [ -73.193687440401504, -39.394293504441698 ], [ -73.193615863672903, -39.394222935676403 ], [ -73.193606421090294, -39.394246271701903 ], [ -73.193504294787601, -39.394608061166302 ], [ -73.193510619200296, -39.394611074982897 ] ] ] } },
{ "type": "Feature", "properties": { "id": "monoparte.19", "Name": null, "description": null, "timestamp": null, "begin": null, "end": null, "altitudeMode": null, "tessellate": -1, "extrude": 0, "visibility": -1, "drawOrder": null, "icon": null, "REG": "Araucanía", "COM": "Toltén", "LOC": "Queule", "ZONA": "Z-1", "NOM": "Zona Residencial 1", "UPERM": "Residencial: vivienda y hospedaje; equipamiento: comercio, educación, seguridad, culto, cultura, salud, servicios, y social, actividades productivas: talleres inofensivos.", "UPROH": "Todo uso no indicado anteriormente.", "P_DO": "08/09/2012", "N_DOC": "7", "T_DO": "Decreto", "OBS": null }, "geometry": { "type": "Polygon", "coordinates": [ [ [ -73.210956304466293, -39.399848023991403 ], [ -73.210756587250998, -39.400191964669197 ], [ -73.210829830839501, -39.400478782896101 ], [ -73.210891764499394, -39.400577852794697 ], [ -73.210998061944807, -39.400639129849701 ], [ -73.211035726384097, -39.400645001372801 ], [ -73.211119493168795, -39.400641964012102 ], [ -73.211157593747501, -39.400655055985403 ], [ -73.211161073807105, -39.4007128247369 ], [ -73.2111251481561, -39.400735837226698 ], [ -73.211040946297501, -39.400731654064202 ], [ -73.210947001489103, -39.400720586900803 ], [ -73.210768592382493, -39.400546134487897 ], [ -73.210688651945105, -39.400302980460097 ], [ -73.210640983999596, -39.400131024764399 ], [ -73.210743973586304, -39.399982553824103 ], [ -73.210871149914695, -39.399797172914099 ], [ -73.210697783456396, -39.3996802811508 ], [ -73.210682822612696, -39.399586745289902 ], [ -73.210678908126397, -39.399521755054799 ], [ -73.210726661552798, -39.399230550736299 ], [ -73.210742840285803, -39.399034569474601 ], [ -73.210547126850699, -39.398882454725403 ], [ -73.210218504306098, -39.3986917373567 ], [ -73.209915889986803, -39.398623101589102 ], [ -73.209674513090107, -39.398487114076701 ], [ -73.209418436119904, -39.3984167910304 ], [ -73.209136178003007, -39.398376363317198 ], [ -73.2088379131945, -39.3983799355521 ], [ -73.208622977959706, -39.398373251043999 ], [ -73.208523385482394, -39.398268307262398 ], [ -73.208375085196394, -39.398128944106297 ], [ -73.2082746241298, -39.398009558046397 ], [ -73.208170506341503, -39.397984383645202 ], [ -73.208105356495096, -39.3979867442631 ], [ -73.208017935285795, -39.398083991054897 ], [ -73.2079460866359, -39.398130014873203 ], [ -73.207713841832799, -39.398145666557603 ], [ -73.207583541755795, -39.398150387261602 ], [ -73.207496734298402, -39.398102874377997 ], [ -73.207346081812602, -39.398079384187902 ], [ -73.207215347270406, -39.398076883901297 ], [ -73.207117495432598, -39.398000822861 ], [ -73.2066960657084, -39.3979726677372 ], [ -73.206620740291896, -39.3979609225606 ], [ -73.206552547713997, -39.397912733808703 ], [ -73.206514016113303, -39.397892419570503 ], [ -73.206439124090096, -39.3978878948909 ], [ -73.206392153842302, -39.397882359780198 ], [ -73.206351449913996, -39.397825938988198 ], [ -73.206312483878406, -39.397798402299102 ], [ -73.206256640506396, -39.397800424812303 ], [ -73.206200363869101, -39.397795226674901 ], [ -73.2061237342064, -39.397761817657901 ], [ -73.206121996462201, -39.397732933529603 ], [ -73.206083465023895, -39.3977126182373 ], [ -73.206026318400305, -39.397692977088496 ], [ -73.205995355766802, -39.397643440594798 ], [ -73.205965263172899, -39.397608346115703 ], [ -73.205890805897099, -39.397611042546998 ], [ -73.205807042173703, -39.397614075949399 ], [ -73.205740588104902, -39.397594771710601 ], [ -73.205662656892102, -39.397539699663 ], [ -73.205577588914593, -39.3975210693769 ], [ -73.205553762364204, -39.397435090064697 ], [ -73.205521932552799, -39.397371110402297 ], [ -73.2054745283058, -39.397358353409402 ], [ -73.205436430480901, -39.397345259409903 ], [ -73.2053855513835, -39.397274733165901 ], [ -73.205309792503499, -39.397255765595403 ], [ -73.205280133632598, -39.397227892441002 ], [ -73.205211509522996, -39.397172482174497 ], [ -73.205135315337301, -39.397146293930902 ], [ -73.205087911303096, -39.397133536767598 ], [ -73.205056949596695, -39.397083999970803 ], [ -73.205035295464697, -39.397034126169402 ], [ -73.204845679739293, -39.396983096311097 ], [ -73.204797407232306, -39.396955896031002 ], [ -73.204693293183396, -39.396930718311197 ], [ -73.204653459794599, -39.396888739805 ], [ -73.204573357662696, -39.3967975603897 ], [ -73.204460804917204, -39.396787161495403 ], [ -73.204374436526194, -39.396746866619701 ], [ -73.204184822040702, -39.396695836509998 ], [ -73.203995641926696, -39.396652025780199 ], [ -73.2038330808589, -39.396585542272803 ], [ -73.203712074581503, -39.396556277555497 ], [ -73.203698922781598, -39.396939151012198 ], [ -73.203855658751806, -39.396961040698798 ], [ -73.203941592927094, -39.396994114458998 ], [ -73.204018655033593, -39.397034746524 ], [ -73.204143989465607, -39.397102577317497 ], [ -73.204802493423102, -39.397505712588398 ], [ -73.206059335548403, -39.398241781852697 ], [ -73.206491011184795, -39.398595226633503 ], [ -73.206660096973906, -39.3987700227486 ], [ -73.206802565158199, -39.398967494397098 ], [ -73.206859113195094, -39.399050178940797 ], [ -73.207001060743195, -39.399010962040698 ], [ -73.208130642538904, -39.398716748651204 ], [ -73.208371993407397, -39.399627082326099 ], [ -73.207196453194101, -39.399918353024503 ], [ -73.207232474480307, -39.400066395326597 ], [ -73.207325006296301, -39.4005189641627 ], [ -73.207465381262296, -39.400991510342102 ], [ -73.207545492239902, -39.401082686352503 ], [ -73.207637083628597, -39.401209631522903 ], [ -73.207803571062797, -39.4013410993443 ], [ -73.207919174187197, -39.401402042093601 ], [ -73.208100801201397, -39.4014750668399 ], [ -73.208843315629807, -39.401723159567197 ], [ -73.209300952130405, -39.401887494795901 ], [ -73.209518314840196, -39.4019675597686 ], [ -73.209419284488305, -39.401506652167001 ], [ -73.209184830152495, -39.401508151320002 ], [ -73.209126809983104, -39.401474069923303 ], [ -73.209029820698802, -39.401412452896501 ], [ -73.208943878823007, -39.401379383346097 ], [ -73.208336891195103, -39.401213222326298 ], [ -73.2081082921394, -39.401134663635403 ], [ -73.208028616210299, -39.401050708575902 ], [ -73.208035417940295, -39.400543883487103 ], [ -73.208050734888502, -39.400333460189799 ], [ -73.208170606371397, -39.400155432710399 ], [ -73.208567347453098, -39.400083161342401 ], [ -73.208722095496398, -39.4000196585175 ], [ -73.208754108901303, -39.399931656355697 ], [ -73.208668781000696, -39.399753827313297 ], [ -73.208669571487803, -39.3994570883535 ], [ -73.208708717736897, -39.399332643468199 ], [ -73.208711504541498, -39.399223989724199 ], [ -73.208715159697405, -39.399129778932299 ], [ -73.208730296202106, -39.3990713354181 ], [ -73.208746303350296, -39.399027334771802 ], [ -73.208836767727703, -39.398980634920399 ], [ -73.208901048954502, -39.398963831834003 ], [ -73.208998903990704, -39.399039890284897 ], [ -73.209014297251699, -39.399140648848203 ], [ -73.209029691674104, -39.399241406465201 ], [ -73.209052653731604, -39.399312942775303 ], [ -73.209068481903401, -39.399420921873897 ], [ -73.209062653386695, -39.399479027186601 ], [ -73.209067435902, -39.3995584595624 ], [ -73.209082829388095, -39.399659217200004 ], [ -73.209095615449101, -39.399716648778103 ], [ -73.209116838614307, -39.3997593001532 ], [ -73.209121621238694, -39.399838732519697 ], [ -73.209154761064994, -39.399924373449302 ], [ -73.209614476827497, -39.399813631882402 ], [ -73.209995743309705, -39.399794213416399 ], [ -73.209995644814498, -39.399792577897998 ], [ -73.209834985362306, -39.399603007904801 ], [ -73.209883872175794, -39.399485445882199 ], [ -73.209953546444595, -39.399403315443699 ], [ -73.209977119996907, -39.399330092428102 ], [ -73.209975380512603, -39.399301207552199 ], [ -73.210504069522997, -39.399716252248503 ], [ -73.210433959608395, -39.399791162498403 ], [ -73.210388727469905, -39.399814512153597 ], [ -73.210327490304607, -39.3998818643663 ], [ -73.210274256101698, -39.399927214798502 ], [ -73.210250247851405, -39.399993217321402 ], [ -73.210212042052106, -39.400135163234701 ], [ -73.210558624690094, -39.401282468741599 ], [ -73.210586735466705, -39.401277059155298 ], [ -73.213905054913397, -39.400638465001002 ], [ -73.213948017595399, -39.400592557112702 ], [ -73.213950856417895, -39.400590738469397 ], [ -73.213657376940006, -39.400499254617301 ], [ -73.213522721014598, -39.4004317717148 ], [ -73.213343268029703, -39.400394860867102 ], [ -73.213136765522094, -39.4003734054319 ], [ -73.212861627722205, -39.400296544479097 ], [ -73.212614849176106, -39.400225890493502 ], [ -73.212463320714306, -39.400187966255302 ], [ -73.211937321166502, -39.400127438257698 ], [ -73.211484476633998, -39.400042545232203 ], [ -73.211104351239698, -39.399926066633398 ], [ -73.210956304466293, -39.399848023991403 ] ] ] } },
{ "type": "Feature", "properties": { "id": "monoparte.20", "Name": null, "description": null, "timestamp": null, "begin": null, "end": null, "altitudeMode": null, "tessellate": -1, "extrude": 0, "visibility": -1, "drawOrder": null, "icon": null, "REG": "Araucanía", "COM": "Toltén", "LOC": "Queule", "ZONA": "Z-2", "NOM": "Zona Residencial 2", "UPERM": "Residencial: vivienda y hospedaje, equipamiento: comercio, sólo restaurantes, educación.", "UPROH": "Todo uso no indicado anteriormente.", "P_DO": "08/09/2012", "N_DOC": "7", "T_DO": "Decreto", "OBS": null }, "geometry": { "type": "Polygon", "coordinates": [ [ [ -73.209749977987599, -39.398529630139699 ], [ -73.209915889986803, -39.398623101589102 ], [ -73.210218504306098, -39.3986917373567 ], [ -73.210547126850699, -39.398882454725403 ], [ -73.210742840285803, -39.399034569474601 ], [ -73.210726661552798, -39.399230550736299 ], [ -73.210678908126397, -39.399521755054799 ], [ -73.210682822612696, -39.399586745289902 ], [ -73.210697783456396, -39.3996802811508 ], [ -73.210911679154904, -39.399824500032203 ], [ -73.211104351239698, -39.399926066633398 ], [ -73.211484476633998, -39.400042545232203 ], [ -73.211937321166502, -39.400127438257698 ], [ -73.212463320714306, -39.400187966255302 ], [ -73.212614849176106, -39.400225890493502 ], [ -73.212861627722205, -39.400296544479097 ], [ -73.213136765522094, -39.4003734054319 ], [ -73.213343268029703, -39.400394860867102 ], [ -73.213522721014598, -39.4004317717148 ], [ -73.213657376940006, -39.400499254617301 ], [ -73.213950856417895, -39.400590738469397 ], [ -73.213992048385805, -39.400564349518902 ], [ -73.214060494266903, -39.400561865947097 ], [ -73.214118600551899, -39.400577497483603 ], [ -73.214176172148598, -39.400584278409603 ], [ -73.214257094158597, -39.400599081970803 ], [ -73.214335347169495, -39.400569632415198 ], [ -73.214416269186103, -39.400584435864403 ], [ -73.214518938557006, -39.4005807100948 ], [ -73.214562434330205, -39.400543651721399 ], [ -73.214606998429304, -39.4005242945262 ], [ -73.214663503937501, -39.400513373934601 ], [ -73.214718941080406, -39.400484753025403 ], [ -73.214831417176697, -39.4004540611392 ], [ -73.214900931319903, -39.400469278265099 ], [ -73.214968309724995, -39.4004490929375 ], [ -73.215055301779202, -39.400374976729402 ], [ -73.214673713935696, -39.400113858727501 ], [ -73.214565175796395, -39.400020228694899 ], [ -73.214498533797297, -39.3998629883109 ], [ -73.214478055372794, -39.399712943549197 ], [ -73.214493757832898, -39.399659076376103 ], [ -73.214444108687402, -39.3996239986242 ], [ -73.214367038138207, -39.399583373979297 ], [ -73.214281531748199, -39.399557529794698 ], [ -73.214176539274106, -39.399517918222998 ], [ -73.214084337036695, -39.399535738259097 ], [ -73.2140386723093, -39.399551868715399 ], [ -73.213955776528607, -39.399569350064098 ], [ -73.213837829457205, -39.399624287340302 ], [ -73.213664036695903, -39.3996812506971 ], [ -73.213523992938093, -39.399679095356902 ], [ -73.213430049292597, -39.399668029250002 ], [ -73.213355590542804, -39.399670730575799 ], [ -73.213140216474699, -39.399656834163103 ], [ -73.212801672400602, -39.399611220215 ], [ -73.212678937667306, -39.399586725264001 ], [ -73.212359008507306, -39.399540434782203 ], [ -73.212310731548598, -39.399513238788899 ], [ -73.212191041553098, -39.399539289706603 ], [ -73.212105535881093, -39.3995134438713 ], [ -73.212057694079107, -39.399493468291404 ], [ -73.211962880736905, -39.399467959917999 ], [ -73.211886246748406, -39.399434554962298 ], [ -73.211789258282394, -39.399372941104801 ], [ -73.211753506476299, -39.399243974273901 ], [ -73.211683134161504, -39.399159684361599 ], [ -73.211448187415996, -39.398820836511099 ], [ -73.211385818595005, -39.398714545457302 ], [ -73.211305271978702, -39.398616150721701 ], [ -73.211160444287003, -39.398534560282002 ], [ -73.210951336772496, -39.398469773849399 ], [ -73.210845912703903, -39.398422938530103 ], [ -73.2106500276509, -39.398422803396102 ], [ -73.210215199422805, -39.398481988935899 ], [ -73.209749977987599, -39.398529630139699 ] ] ] } },
{ "type": "Feature", "properties": { "id": "monoparte.21", "Name": null, "description": null, "timestamp": null, "begin": null, "end": null, "altitudeMode": null, "tessellate": -1, "extrude": 0, "visibility": -1, "drawOrder": null, "icon": null, "REG": "Araucanía", "COM": "Toltén", "LOC": "Queule", "ZONA": "ZE-2", "NOM": "Zona Equipamiento 2", "UPERM": "Equipamiento: comercio, deporte, esparcimiento, social e infraestructura de transporte; actividades productivas: talleres, bodegas y depósitos.", "UPROH": "Todo uso no indicado anteriormente.", "P_DO": "08/09/2012", "N_DOC": "7", "T_DO": "Decreto", "OBS": null }, "geometry": { "type": "Polygon", "coordinates": [ [ [ -73.206940084125193, -39.397377644178903 ], [ -73.207570430535895, -39.397622572712599 ], [ -73.207844247803905, -39.397677783666602 ], [ -73.208173472857496, -39.397723750024902 ], [ -73.208843150030404, -39.397692245855403 ], [ -73.209157852109101, -39.3976518936811 ], [ -73.210282703286396, -39.397589410188999 ], [ -73.210853043496599, -39.397612154196203 ], [ -73.211173832988393, -39.397672891342097 ], [ -73.211448957530493, -39.397749757021302 ], [ -73.2121208996045, -39.398065519586901 ], [ -73.212447348313304, -39.398220127045199 ], [ -73.212777884344106, -39.398287742450101 ], [ -73.212947792389897, -39.397889058984198 ], [ -73.212522500803999, -39.397805902700803 ], [ -73.212350325360106, -39.397794407659298 ], [ -73.212342117562301, -39.397847925288403 ], [ -73.212272073240598, -39.397823855805697 ], [ -73.212159066685402, -39.3978456944036 ], [ -73.211607993273105, -39.397617321703798 ], [ -73.211479314181105, -39.397568768950698 ], [ -73.211306073092402, -39.397539571000898 ], [ -73.2111524471145, -39.397456442505501 ], [ -73.210887947403194, -39.397430552885197 ], [ -73.210819504302506, -39.397433034426697 ], [ -73.210728778336005, -39.397445193808302 ], [ -73.210589758802101, -39.397414754935603 ], [ -73.210348074098405, -39.3973880369197 ], [ -73.210291038369704, -39.397390104600298 ], [ -73.210049886782301, -39.397372236625003 ], [ -73.209796795009694, -39.397345931856997 ], [ -73.209548499438199, -39.397399280845903 ], [ -73.209260652616095, -39.3973653646229 ], [ -73.208983680509306, -39.397322182673001 ], [ -73.208731121863494, -39.397304725337101 ], [ -73.208501378124595, -39.397286441614597 ], [ -73.207945083962599, -39.397350947601403 ], [ -73.207511296234699, -39.397171525524399 ], [ -73.207243069992799, -39.397083673423303 ], [ -73.207076444298096, -39.3969744003264 ], [ -73.207025161939598, -39.396955508175303 ], [ -73.206916986397502, -39.397365686937803 ], [ -73.206940084125193, -39.397377644178903 ] ] ] } },
{ "type": "Feature", "properties": { "id": "monoparte.22", "Name": null, "description": null, "timestamp": null, "begin": null, "end": null, "altitudeMode": null, "tessellate": -1, "extrude": 0, "visibility": -1, "drawOrder": null, "icon": null, "REG": "Araucanía", "COM": "Toltén", "LOC": "Queule", "ZONA": "ZE-2", "NOM": "Zona Equipamiento 2", "UPERM": "Equipamiento: comercio, deporte, esparcimiento, social e infraestructura de transporte; actividades productivas: talleres, bodegas y depósitos.", "UPROH": "Todo uso no indicado anteriormente.", "P_DO": "08/09/2012", "N_DOC": "7", "T_DO": "Decreto", "OBS": null }, "geometry": { "type": "Polygon", "coordinates": [ [ [ -73.216877519675606, -39.396468161279302 ], [ -73.216827424669304, -39.396585288994501 ], [ -73.216781796064396, -39.396586945687801 ], [ -73.216747574608206, -39.396588188196098 ], [ -73.216787667902906, -39.396684301369199 ], [ -73.216836302306305, -39.396922022280997 ], [ -73.216801883533506, -39.397109539739098 ], [ -73.216709895679998, -39.397290278316603 ], [ -73.216634315167198, -39.397363981372898 ], [ -73.216552330185706, -39.397331478048599 ], [ -73.216421849274198, -39.397442654103401 ], [ -73.216423984387603, -39.397478056507602 ], [ -73.216438060539602, -39.397521894468802 ], [ -73.216219524161701, -39.397689487031997 ], [ -73.2160248688905, -39.397873951333999 ], [ -73.215946618456101, -39.397903401881102 ], [ -73.215868902773494, -39.397941702044697 ], [ -73.215812399551993, -39.397952623105198 ], [ -73.215699927904097, -39.3979833157128 ], [ -73.215609203579902, -39.397995478862299 ], [ -73.215521681214597, -39.398060744706797 ], [ -73.214649187212501, -39.398189979684098 ], [ -73.214555259925902, -39.3981490392487 ], [ -73.214393423935505, -39.398119432092699 ], [ -73.214306068992997, -39.3981075656 ], [ -73.214271748034605, -39.398506214026497 ], [ -73.214292870895903, -39.398507778289598 ], [ -73.214889832555698, -39.3985078246101 ], [ -73.215555156532403, -39.398404071984103 ], [ -73.215811400422993, -39.398322402214298 ], [ -73.216108517961302, -39.398145169906897 ], [ -73.216546707841403, -39.3978325509824 ], [ -73.216660295511801, -39.397705400934903 ], [ -73.216947826050699, -39.397369304401003 ], [ -73.217049055956906, -39.397191945023401 ], [ -73.217043279612994, -39.396786892462501 ], [ -73.217102329801307, -39.396683432964601 ], [ -73.217228705391705, -39.396613712027701 ], [ -73.217328902281494, -39.396573889465003 ], [ -73.217390566563196, -39.396513756280797 ], [ -73.217441179894493, -39.396425076481997 ], [ -73.217404983036502, -39.396288890489501 ], [ -73.217377222516305, -39.3961379255407 ], [ -73.217382383342894, -39.396109218933503 ], [ -73.217322784856805, -39.396079457863898 ], [ -73.216789721174905, -39.395770626983797 ], [ -73.216769043456395, -39.395806857667701 ], [ -73.216809668874902, -39.395911821506402 ], [ -73.216836219513695, -39.395972946460297 ], [ -73.216850829391603, -39.396025635879198 ], [ -73.216855633593894, -39.3961052903649 ], [ -73.216893057629207, -39.396157150525298 ], [ -73.216932616999401, -39.396244413058703 ], [ -73.216914607118397, -39.396324895898999 ], [ -73.216877519675606, -39.396468161279302 ] ] ] } }
]
}
