{
"type": "FeatureCollection",
"name": "IPT_09_PRC_Padre_Las_Casas",
"crs": { "type": "name", "properties": { "name": "urn:ogc:def:crs:OGC:1.3:CRS84" } },
"features": [
{ "type": "Feature", "properties": { "id": "monoparte.1", "Name": null, "description": null, "timestamp": null, "begin": null, "end": null, "altitudeMode": null, "tessellate": -1, "extrude": 0, "visibility": -1, "drawOrder": null, "icon": null, "REG": "Araucanía", "COM": "Padre Las Casas", "LOC": "Padre Las Casas", "ZONA": "F", "NOM": "Zona F", "UPERM": "Vivienda, equipamiento, comercio, oficinas, talleres artesanales, industria y bodegas inofensivas y áreas verdes", "UPROH": "Para mayor detalle revisar ordenanza local", "P_DO": "08/09/1983", "N_DOC": "100", "T_DO": "Decreto", "OBS": null }, "geometry": { "type": "Polygon", "coordinates": [ [ [ -72.5831073275412, -38.749590826504097 ], [ -72.588608486597806, -38.764007894740999 ], [ -72.588610873626905, -38.764055488334002 ], [ -72.588014914810898, -38.764312142591798 ], [ -72.587842093109003, -38.7645081217441 ], [ -72.587494059417907, -38.764852485790897 ], [ -72.587120400044697, -38.765292970319202 ], [ -72.586975582391801, -38.765440421564797 ], [ -72.5870483035728, -38.765676519987899 ], [ -72.586987568848002, -38.766893889538501 ], [ -72.586905981565593, -38.768302566736899 ], [ -72.5867743371779, -38.769927281949101 ], [ -72.586653997391494, -38.771170315558798 ], [ -72.607331697490906, -38.773702916624899 ], [ -72.608998578882407, -38.766310744370898 ], [ -72.609252493311203, -38.764706064381997 ], [ -72.609224762975799, -38.758724769611902 ], [ -72.607666390925701, -38.758606109419397 ], [ -72.606042443854705, -38.758394121289598 ], [ -72.605185484826293, -38.7583014244955 ], [ -72.604232559207205, -38.758116350807001 ], [ -72.603832676022094, -38.758033364194702 ], [ -72.6036187368816, -38.758016135902501 ], [ -72.603248048864899, -38.757908412103902 ], [ -72.602877360737295, -38.7578006871071 ], [ -72.602599046694394, -38.757713943072197 ], [ -72.602290341238003, -38.757628137122403 ], [ -72.601917260490794, -38.757472815988301 ], [ -72.601758118176903, -38.7573347267031 ], [ -72.601511395436901, -38.757270838246598 ], [ -72.6012646731469, -38.757206950145701 ], [ -72.601050736746103, -38.757189716991903 ], [ -72.600772427015698, -38.7571029683698 ], [ -72.600552505084096, -38.756966752178798 ], [ -72.600304587446502, -38.756879064985696 ], [ -72.599959512441998, -38.756675207676999 ], [ -72.599709202752507, -38.756539926962603 ], [ -72.5995208718127, -38.756426567573499 ], [ -72.599332542609105, -38.756313207814301 ], [ -72.599087021917896, -38.756273110948001 ], [ -72.598842698066704, -38.756256810561801 ], [ -72.598594784772601, -38.756169119506701 ], [ -72.597971414714294, -38.755878501043703 ], [ -72.597685936367697, -38.755648965974999 ], [ -72.597435633195403, -38.755513680018602 ], [ -72.597246113561496, -38.755376520448003 ], [ -72.597027399310207, -38.755264093161102 ], [ -72.596961835422206, -38.755170779545203 ], [ -72.597103024574196, -38.754951929181999 ], [ -72.597095848911906, -38.754809149510898 ], [ -72.596933134114707, -38.754599663464099 ], [ -72.596579708090204, -38.754229219219802 ], [ -72.596540948321405, -38.754063579550802 ], [ -72.595406263591499, -38.753288198060197 ], [ -72.593315193557899, -38.752256246489601 ], [ -72.5924499579789, -38.751996875013297 ], [ -72.590872645206204, -38.751497236248902 ], [ -72.590770734641197, -38.751285869831001 ], [ -72.590582431236797, -38.751172494585603 ], [ -72.590202248054993, -38.750874353045802 ], [ -72.590109886874004, -38.750853360414403 ], [ -72.590210602447101, -38.7510409302526 ], [ -72.590125401792605, -38.7511627175979 ], [ -72.589474105798303, -38.750920577065003 ], [ -72.587367106831707, -38.750175006934597 ], [ -72.586926164381694, -38.749878721415698 ], [ -72.586283234804895, -38.749803140756498 ], [ -72.584753077487605, -38.749635635688698 ], [ -72.5831073275412, -38.749590826504097 ] ] ] } }
]
}
