{
"type": "FeatureCollection",
"name": "IPT_09_PRC_Curacautin",
"crs": { "type": "name", "properties": { "name": "urn:ogc:def:crs:OGC:1.3:CRS84" } },
"features": [
{ "type": "Feature", "properties": { "id": "monoparte.1", "Name": null, "description": null, "timestamp": null, "begin": null, "end": null, "altitudeMode": null, "tessellate": -1, "extrude": 0, "visibility": -1, "drawOrder": null, "icon": null, "REG": "Araucanía", "COM": "Curacautín", "LOC": "Curacautín", "ZONA": "ZU-2", "NOM": "Zona ZU-2", "UPERM": "Vivienda; equipamiento de nivel comunal y vecinal; industria inofensiva y almacenamiento inofensivo.\ninofensiva y almacenamiento inofensivo.", "UPROH": "Industria y almacenamiento molestos, y todos los no mencionados anteriormente.\nanteriormente", "P_DO": "04/05/1989", "N_DOC": "1585", "T_DO": "Resolución", "OBS": null }, "geometry": { "type": "Polygon", "coordinates": [ [ [ -71.880841157999399, -38.440798531966003 ], [ -71.880876590823107, -38.441470189857498 ], [ -71.881505095861797, -38.441423435139399 ], [ -71.881681563273204, -38.441287983038897 ], [ -71.881842416497193, -38.4411409962051 ], [ -71.882037814311204, -38.441100429027003 ], [ -71.882370891848893, -38.441092229372799 ], [ -71.882592776870695, -38.440955657768903 ], [ -71.882771137000304, -38.440867833611598 ], [ -71.883250202592393, -38.440592658860197 ], [ -71.882397244477801, -38.4406767997462 ], [ -71.881703655583806, -38.440765387240802 ], [ -71.880841157999399, -38.440798531966003 ] ] ] } },
{ "type": "Feature", "properties": { "id": "monoparte.2", "Name": null, "description": null, "timestamp": null, "begin": null, "end": null, "altitudeMode": null, "tessellate": -1, "extrude": 0, "visibility": -1, "drawOrder": null, "icon": null, "REG": "Araucanía", "COM": "Curacautín", "LOC": "Curacautín", "ZONA": "ZU-2", "NOM": "Zona ZU-2", "UPERM": "Vivienda; equipamiento de nivel comunal y vecinal; industria inofensiva y almacenamiento inofensivo.\ninofensiva y almacenamiento inofensivo.", "UPROH": "Industria y almacenamiento molestos, y todos los no mencionados anteriormente.\nanteriormente", "P_DO": "04/05/1989", "N_DOC": "1585", "T_DO": "Resolución", "OBS": null }, "geometry": { "type": "Polygon", "coordinates": [ [ [ -71.886887349540899, -38.440408442247403 ], [ -71.887346081534005, -38.4403971300327 ], [ -71.887661451000895, -38.4403249892666 ], [ -71.888076973087607, -38.440215018062702 ], [ -71.887426917038795, -38.440254889395099 ], [ -71.886382859392398, -38.4403547268521 ], [ -71.886887349540899, -38.440408442247403 ] ] ] } },
{ "type": "Feature", "properties": { "id": "monoparte.3", "Name": null, "description": null, "timestamp": null, "begin": null, "end": null, "altitudeMode": null, "tessellate": -1, "extrude": 0, "visibility": -1, "drawOrder": null, "icon": null, "REG": "Araucanía", "COM": "Curacautín", "LOC": "Curacautín", "ZONA": "ZU-2", "NOM": "Zona ZU-2", "UPERM": "Vivienda; equipamiento de nivel comunal y vecinal; industria inofensiva y almacenamiento inofensivo.\ninofensiva y almacenamiento inofensivo.", "UPROH": "Industria y almacenamiento molestos, y todos los no mencionados anteriormente.\nanteriormente", "P_DO": "04/05/1989", "N_DOC": "1585", "T_DO": "Resolución", "OBS": null }, "geometry": { "type": "Polygon", "coordinates": [ [ [ -71.888349635187197, -38.440250007988404 ], [ -71.888149522701795, -38.440362215653799 ], [ -71.887727986299595, -38.440432208505499 ], [ -71.887211363540303, -38.440587977289503 ], [ -71.886519658389105, -38.440533519376501 ], [ -71.886034237064095, -38.4405216486577 ], [ -71.885705422270306, -38.440541672453499 ], [ -71.885453482460306, -38.440494246837297 ], [ -71.885150924772205, -38.440507662095101 ], [ -71.884884556208505, -38.440478469473597 ], [ -71.884486417512207, -38.440375048256399 ], [ -71.884130159868704, -38.440371906107302 ], [ -71.883878711831301, -38.4405270874419 ], [ -71.883433496617201, -38.440756170389299 ], [ -71.883147737061606, -38.440810883962001 ], [ -71.882969377561395, -38.440898708670801 ], [ -71.882852998227307, -38.441020764305698 ], [ -71.882632061490895, -38.4411811515766 ], [ -71.882316966806599, -38.441260423046202 ], [ -71.881999028198905, -38.441268249896801 ], [ -71.881866085318507, -38.441354954961298 ], [ -71.881723688254894, -38.441584921056297 ], [ -71.881363171261697, -38.4416653079982 ], [ -71.880891772798904, -38.4416276466699 ], [ -71.880979784610602, -38.442540360162603 ], [ -71.881267266591195, -38.4444331707301 ], [ -71.881314130642295, -38.4448491820473 ], [ -71.881516241019497, -38.4461195391928 ], [ -71.881578359754002, -38.446970158548702 ], [ -71.881686238259604, -38.446938895917498 ], [ -71.882190807912295, -38.446821588857297 ], [ -71.883109867761306, -38.446760817782199 ], [ -71.888482188592704, -38.446513969909198 ], [ -71.890296439611305, -38.446402446832302 ], [ -71.891189443271898, -38.446357512469703 ], [ -71.892240964995807, -38.446274328728599 ], [ -71.894428026840899, -38.446086786074801 ], [ -71.895955637221206, -38.445855675357102 ], [ -71.895646407873102, -38.445249505031903 ], [ -71.896900386370106, -38.445075455725899 ], [ -71.896406106044793, -38.442721059265303 ], [ -71.896288015998607, -38.441284171714798 ], [ -71.896211983448794, -38.439989270511298 ], [ -71.896202898882507, -38.439852707192898 ], [ -71.896003396690105, -38.439870233982603 ], [ -71.895867617347093, -38.439885511280401 ], [ -71.895563637651193, -38.439863232266497 ], [ -71.895412718982996, -38.4398788843611 ], [ -71.895270560454506, -38.439924116138997 ], [ -71.895091980981405, -38.440006005619999 ], [ -71.894835560492993, -38.4400361836503 ], [ -71.894572046616702, -38.4400784561807 ], [ -71.894214602283, -38.440045575794201 ], [ -71.893933569585101, -38.440028685123899 ], [ -71.893634585005202, -38.440131427147001 ], [ -71.893409157811803, -38.440178714676101 ], [ -71.893090274559398, -38.4401627564961 ], [ -71.892879510573096, -38.440197761879098 ], [ -71.892518538252602, -38.440266275444102 ], [ -71.891279442676193, -38.440469707550598 ], [ -71.890976649484699, -38.4404771847502 ], [ -71.890599108351395, -38.440510344272496 ], [ -71.890138978140897, -38.440372716581599 ], [ -71.889822914313896, -38.440237491016497 ], [ -71.889475414928199, -38.440263945527597 ], [ -71.889133822979204, -38.440248537886802 ], [ -71.888880220012297, -38.440159444471597 ], [ -71.888623989450096, -38.439909508370597 ], [ -71.888540722468505, -38.439911562749302 ], [ -71.888444452022995, -38.439967572931202 ], [ -71.888349635187197, -38.440250007988404 ] ] ] } },
{ "type": "Feature", "properties": { "id": "monoparte.4", "Name": null, "description": null, "timestamp": null, "begin": null, "end": null, "altitudeMode": null, "tessellate": -1, "extrude": 0, "visibility": -1, "drawOrder": null, "icon": null, "REG": "Araucanía", "COM": "Curacautín", "LOC": "Curacautín", "ZONA": "ZU-2", "NOM": "Zona ZU-2", "UPERM": "Vivienda; equipamiento de nivel comunal y vecinal; industria inofensiva y almacenamiento inofensivo.\ninofensiva y almacenamiento inofensivo.", "UPROH": "Industria y almacenamiento molestos, y todos los no mencionados anteriormente.\nanteriormente", "P_DO": "04/05/1989", "N_DOC": "1585", "T_DO": "Resolución", "OBS": null }, "geometry": { "type": "Polygon", "coordinates": [ [ [ -71.896181586159798, -38.4395323336513 ], [ -71.8937262455363, -38.439789471268597 ], [ -71.890020489724293, -38.440067350174502 ], [ -71.890117838368596, -38.440146777697898 ], [ -71.8905036946894, -38.440321996533299 ], [ -71.890806961502904, -38.440326427668303 ], [ -71.891245060255599, -38.440291772031301 ], [ -71.891441162644995, -38.440269050469503 ], [ -71.891804124566605, -38.440212409868103 ], [ -71.892202470864802, -38.440131056461802 ], [ -71.8925322119496, -38.440039477900001 ], [ -71.892719553879402, -38.439987173216601 ], [ -71.893043864940495, -38.439949362394202 ], [ -71.893368650164504, -38.439923457746801 ], [ -71.8936182144584, -38.439911330118001 ], [ -71.894116865761205, -38.439875167176403 ], [ -71.894479737896006, -38.439854277796897 ], [ -71.894743964938996, -38.439829866480601 ], [ -71.895006763858902, -38.439769733527299 ], [ -71.8951638234809, -38.439718173748503 ], [ -71.895563590764695, -38.439672530182698 ], [ -71.895775541882301, -38.4396672880426 ], [ -71.895973307180498, -38.439686234877598 ], [ -71.896190667267405, -38.4396688421051 ], [ -71.896181586159798, -38.4395323336513 ] ] ] } },
{ "type": "Feature", "properties": { "id": "monoparte.5", "Name": null, "description": null, "timestamp": null, "begin": null, "end": null, "altitudeMode": null, "tessellate": -1, "extrude": 0, "visibility": -1, "drawOrder": null, "icon": null, "REG": "Araucanía", "COM": "Curacautín", "LOC": "Curacautín", "ZONA": "ZE-3", "NOM": "Zona ZE-3", "UPERM": "Vivienda; equipamiento de nivel interurbano, comunal o vecinal; industria inofensiva y molesta, almacenamiento inofensivo y molesto.", "UPROH": "Todos los no indicados anteriormente.", "P_DO": "04/05/1989", "N_DOC": "1585", "T_DO": "Resolución", "OBS": null }, "geometry": { "type": "Polygon", "coordinates": [ [ [ -71.870442387213998, -38.438912870547398 ], [ -71.870590503408295, -38.439327475328597 ], [ -71.876410757413893, -38.438234269254401 ], [ -71.876151504788595, -38.437811553921598 ], [ -71.875984508836098, -38.437422329202398 ], [ -71.875852994388097, -38.437163341669901 ], [ -71.875572936371697, -38.436598107186697 ], [ -71.875463901629303, -38.436189826183799 ], [ -71.874179700519704, -38.436551804322903 ], [ -71.873562009331195, -38.4368720915365 ], [ -71.872547635643599, -38.4375835187832 ], [ -71.871606668784807, -38.438312206835299 ], [ -71.870442387213998, -38.438912870547398 ] ] ] } },
{ "type": "Feature", "properties": { "id": "monoparte.6", "Name": null, "description": null, "timestamp": null, "begin": null, "end": null, "altitudeMode": null, "tessellate": -1, "extrude": 0, "visibility": -1, "drawOrder": null, "icon": null, "REG": "Araucanía", "COM": "Curacautín", "LOC": "Curacautín", "ZONA": "ZE-3", "NOM": "Zona ZE-3", "UPERM": "Vivienda; equipamiento de nivel interurbano, comunal o vecinal; industria inofensiva y molesta, almacenamiento inofensivo y molesto.", "UPROH": "Todos los no indicados anteriormente.", "P_DO": "04/05/1989", "N_DOC": "1585", "T_DO": "Resolución", "OBS": null }, "geometry": { "type": "Polygon", "coordinates": [ [ [ -71.902145673205396, -38.434474279666198 ], [ -71.9021987203744, -38.434663667880002 ], [ -71.902838040659503, -38.434546507955702 ], [ -71.903236102752501, -38.4344591647098 ], [ -71.904736713273493, -38.4341299313012 ], [ -71.904828580293199, -38.4341026991871 ], [ -71.904583231447305, -38.433334275835399 ], [ -71.903663981667705, -38.430833835238403 ], [ -71.903583761656904, -38.430722593075203 ], [ -71.903440367364496, -38.430547364597899 ], [ -71.903275696720101, -38.430408420740299 ], [ -71.9032377877556, -38.430218658448901 ], [ -71.903229675970707, -38.430016236722203 ], [ -71.903057201665206, -38.429871527980197 ], [ -71.9028052892657, -38.429824137766502 ], [ -71.902526528138196, -38.430364719575998 ], [ -71.902181356171695, -38.430826195754101 ], [ -71.901684327013697, -38.431279515678398 ], [ -71.901379313391701, -38.4316088868338 ], [ -71.901388851117503, -38.4318470297316 ], [ -71.901500661226095, -38.432368692583402 ], [ -71.901619504000806, -38.4326875590246 ], [ -71.901723686023502, -38.433018708338899 ], [ -71.901943374929502, -38.433585372991097 ], [ -71.902084515467806, -38.434082470548802 ], [ -71.902145673205396, -38.434474279666198 ] ] ] } },
{ "type": "Feature", "properties": { "id": "monoparte.7", "Name": null, "description": null, "timestamp": null, "begin": null, "end": null, "altitudeMode": null, "tessellate": -1, "extrude": 0, "visibility": -1, "drawOrder": null, "icon": null, "REG": "Araucanía", "COM": "Curacautín", "LOC": "Curacautín", "ZONA": "ZU-4", "NOM": "Zona ZU-4", "UPERM": "Vivienda; equipamiento de nivel comunal o vecinal; industria inofensiva y molesta, almacenamiento inofensivo y molesto.", "UPROH": "Todos los no indicados anteriormente.", "P_DO": "04/05/1989", "N_DOC": "1585", "T_DO": "Resolución", "OBS": null }, "geometry": { "type": "Polygon", "coordinates": [ [ [ -71.899175095764207, -38.432254964435202 ], [ -71.898453053593599, -38.432387262715501 ], [ -71.897893695154394, -38.432343898369403 ], [ -71.896328651538795, -38.433221718346097 ], [ -71.895793506124306, -38.433177743258497 ], [ -71.895434759867697, -38.433301037282099 ], [ -71.894633947036894, -38.433282697918898 ], [ -71.893817283584696, -38.433474518001603 ], [ -71.893519781447495, -38.433310237738397 ], [ -71.893208713209305, -38.433413276087002 ], [ -71.892408017777299, -38.434005170352997 ], [ -71.892115080151896, -38.4339551947782 ], [ -71.891727541700902, -38.433964766814 ], [ -71.891322624236395, -38.434146399652597 ], [ -71.890815496809495, -38.4341970639612 ], [ -71.890285667111797, -38.434286425955101 ], [ -71.889279669937906, -38.433987059073999 ], [ -71.8881828745685, -38.4338424855978 ], [ -71.887556918477401, -38.433953276134403 ], [ -71.887487291204707, -38.434031275836603 ], [ -71.887247356830599, -38.4340944037898 ], [ -71.887024394735604, -38.434164561904701 ], [ -71.886904805674106, -38.434205651920301 ], [ -71.886735635148597, -38.434219357856598 ], [ -71.886557770608803, -38.434319095330103 ], [ -71.886419769831804, -38.434521782865403 ], [ -71.886315138051998, -38.434634016434799 ], [ -71.886105665760098, -38.4347011590202 ], [ -71.885815764708099, -38.434727375356999 ], [ -71.885627566527205, -38.4348400156371 ], [ -71.885653995871607, -38.434941493610403 ], [ -71.885729234571301, -38.435118424163399 ], [ -71.885759532774401, -38.4353083811353 ], [ -71.885782499716697, -38.435504478646301 ], [ -71.8858471077057, -38.435794901193397 ], [ -71.885876694987104, -38.435966996963103 ], [ -71.885909128984196, -38.436210537228298 ], [ -71.886196765959397, -38.436203447030003 ], [ -71.887021118465498, -38.436165244309002 ], [ -71.889049702207004, -38.436019853472402 ], [ -71.890130696406601, -38.435957418085898 ], [ -71.890340738276095, -38.435904557877898 ], [ -71.890964717721502, -38.435781880472199 ], [ -71.891383627412196, -38.435741738656603 ], [ -71.892531073271897, -38.435635923840401 ], [ -71.893195746133301, -38.435583743836197 ], [ -71.893778343234004, -38.4355633869963 ], [ -71.894411547833002, -38.435482179520598 ], [ -71.894827943695802, -38.435436128604003 ], [ -71.895221547024605, -38.435426396202502 ], [ -71.895735780656594, -38.435401760259502 ], [ -71.896364744192198, -38.435404081361902 ], [ -71.897263253149305, -38.435369248089302 ], [ -71.897639449786695, -38.435354662272303 ], [ -71.898061658538495, -38.435302496163899 ], [ -71.8984578841374, -38.435295870153297 ], [ -71.898803682521304, -38.435290085892703 ], [ -71.899234652142994, -38.435267496959803 ], [ -71.8996114453263, -38.435216448962002 ], [ -71.899986569407204, -38.435123724916998 ], [ -71.900820229955599, -38.434977924640897 ], [ -71.901165790166303, -38.434903808832402 ], [ -71.901638593173999, -38.434790781405702 ], [ -71.9021987203744, -38.434663667880002 ], [ -71.902145673205396, -38.434474279666198 ], [ -71.902084515467806, -38.434082470548802 ], [ -71.901943374929502, -38.433585372991097 ], [ -71.901723686023502, -38.433018708338899 ], [ -71.901619504000806, -38.4326875590246 ], [ -71.901500661226095, -38.432368692583402 ], [ -71.901388851117503, -38.4318470297316 ], [ -71.901379313391701, -38.4316088868338 ], [ -71.901684327013697, -38.431279515678398 ], [ -71.902181356171695, -38.430826195754101 ], [ -71.902526528138196, -38.430364719575998 ], [ -71.9028052892657, -38.429824137766502 ], [ -71.902425187580505, -38.4297918434916 ], [ -71.901674400445401, -38.429583991547602 ], [ -71.901402883307895, -38.429614559382998 ], [ -71.901104431633001, -38.4297292236567 ], [ -71.901005860275603, -38.429916411181402 ], [ -71.901136017632496, -38.430139645886698 ], [ -71.901231729385401, -38.430335128501902 ], [ -71.900484152781104, -38.431040181555801 ], [ -71.900141444416093, -38.4315635714416 ], [ -71.900343597038997, -38.431768336112199 ], [ -71.900273985944096, -38.4318463419241 ], [ -71.899916779946096, -38.432007752565603 ], [ -71.899175095764207, -38.432254964435202 ] ] ] } },
{ "type": "Feature", "properties": { "id": "monoparte.8", "Name": null, "description": null, "timestamp": null, "begin": null, "end": null, "altitudeMode": null, "tessellate": -1, "extrude": 0, "visibility": -1, "drawOrder": null, "icon": null, "REG": "Araucanía", "COM": "Curacautín", "LOC": "Curacautín", "ZONA": "ZU-3", "NOM": "Zona ZU-3", "UPERM": "Vivienda; equipamiento de nivel comunal y vecinal; almacenamiento inofensivo.", "UPROH": "Industria de cualquier tipo y todos los no mencionados anteriormente.", "P_DO": "04/05/1989", "N_DOC": "1585", "T_DO": "Resolución", "OBS": null }, "geometry": { "type": "Polygon", "coordinates": [ [ [ -71.879754536646104, -38.441609535218497 ], [ -71.879370365382499, -38.441857362239297 ], [ -71.878870267968907, -38.441857742524498 ], [ -71.878489871909196, -38.441819420360403 ], [ -71.877993086942595, -38.441903146303702 ], [ -71.877694071868007, -38.442005848692403 ], [ -71.877448989569203, -38.441940357677503 ], [ -71.877248855504803, -38.441861843596499 ], [ -71.876908246594297, -38.441946820760698 ], [ -71.878382773356407, -38.446786550639303 ], [ -71.878816553130207, -38.447816184771 ], [ -71.881681699382796, -38.447161236745401 ], [ -71.881578359754002, -38.446970158548702 ], [ -71.881516241019497, -38.4461195391928 ], [ -71.881314130642295, -38.4448491820473 ], [ -71.881267266591195, -38.4444331707301 ], [ -71.880979784610602, -38.442540360162603 ], [ -71.880891772798904, -38.4416276466699 ], [ -71.880432996853997, -38.4415213304625 ], [ -71.880128775673697, -38.441493057399001 ], [ -71.879754536646104, -38.441609535218497 ] ] ] } },
{ "type": "Feature", "properties": { "id": "monoparte.9", "Name": null, "description": null, "timestamp": null, "begin": null, "end": null, "altitudeMode": null, "tessellate": -1, "extrude": 0, "visibility": -1, "drawOrder": null, "icon": null, "REG": "Araucanía", "COM": "Curacautín", "LOC": "Curacautín", "ZONA": "ZU-3", "NOM": "Zona ZU-3", "UPERM": "Vivienda; equipamiento de nivel comunal y vecinal; almacenamiento inofensivo.", "UPROH": "Industria de cualquier tipo y todos los no mencionados anteriormente.", "P_DO": "04/05/1989", "N_DOC": "1585", "T_DO": "Resolución", "OBS": null }, "geometry": { "type": "Polygon", "coordinates": [ [ [ -71.901789894855298, -38.438094023313397 ], [ -71.901750879838502, -38.438141474306804 ], [ -71.901709574902796, -38.438131770316801 ], [ -71.901656362550199, -38.438165270441601 ], [ -71.901646887983304, -38.438269200099803 ], [ -71.901663947525805, -38.4383545935356 ], [ -71.901646925579996, -38.438383620814399 ], [ -71.9014219858676, -38.4384428312529 ], [ -71.901102813955305, -38.438532980797099 ], [ -71.900617277583905, -38.4385557377203 ], [ -71.900345667736801, -38.438698342694899 ], [ -71.900000376604794, -38.438692593232503 ], [ -71.899982638735295, -38.438703759398997 ], [ -71.899983926035006, -38.438735908835703 ], [ -71.899886439758106, -38.438799110225098 ], [ -71.899793837458503, -38.4388707721955 ], [ -71.899305363016794, -38.439047351296601 ], [ -71.898299028965198, -38.439404805905802 ], [ -71.898111989718899, -38.439502404045697 ], [ -71.897911896569298, -38.4396146277169 ], [ -71.897450489586603, -38.439672531581301 ], [ -71.897346169952499, -38.439678688242097 ], [ -71.897093257427301, -38.439720704068201 ], [ -71.896915411313202, -38.439707226108297 ], [ -71.896911178684107, -38.439495735314402 ], [ -71.896181586159798, -38.4395323336513 ], [ -71.896190667267405, -38.4396688421051 ], [ -71.896281383668594, -38.439654974729102 ], [ -71.896362707185304, -38.439642236105001 ], [ -71.896420608115307, -38.439612197358798 ], [ -71.896547065652996, -38.4395911911109 ], [ -71.896736392267599, -38.4395507497211 ], [ -71.896845539641603, -38.439551625063203 ], [ -71.896825003676994, -38.439720190783397 ], [ -71.896593941634094, -38.439740210365898 ], [ -71.896306979448397, -38.4398402768796 ], [ -71.896202898882507, -38.439852707192898 ], [ -71.896211983448794, -38.439989270511298 ], [ -71.896288015998607, -38.441284171714798 ], [ -71.896406106044793, -38.442721059265303 ], [ -71.896900386370106, -38.445075455725899 ], [ -71.895646407873102, -38.445249505031903 ], [ -71.895955637221206, -38.445855675357102 ], [ -71.896224558052893, -38.446382818854801 ], [ -71.896535674885001, -38.446279769791801 ], [ -71.897583289047901, -38.445796159041102 ], [ -71.898120639416703, -38.445287030554603 ], [ -71.898355847497101, -38.444499324255403 ], [ -71.898312559860898, -38.4440236396877 ], [ -71.897904207740297, -38.442908599540303 ], [ -71.897860924607102, -38.442432912738298 ], [ -71.898425522476998, -38.441999389102399 ], [ -71.899655407274196, -38.441225192104298 ], [ -71.900728678791097, -38.440779059887298 ], [ -71.901490082870197, -38.440416924189101 ], [ -71.901787428124905, -38.439970937989401 ], [ -71.902061311217196, -38.4395446041014 ], [ -71.902359410778601, -38.439117667471898 ], [ -71.902366836268101, -38.438697936248602 ], [ -71.9018852349338, -38.438175907050997 ], [ -71.901960415581996, -38.4381179626048 ], [ -71.901847986106205, -38.437988855339903 ], [ -71.901789894855298, -38.438094023313397 ] ] ] } },
{ "type": "Feature", "properties": { "id": "monoparte.10", "Name": null, "description": null, "timestamp": null, "begin": null, "end": null, "altitudeMode": null, "tessellate": -1, "extrude": 0, "visibility": -1, "drawOrder": null, "icon": null, "REG": "Araucanía", "COM": "Curacautín", "LOC": "Curacautín", "ZONA": "ZU-3", "NOM": "Zona ZU-3", "UPERM": "Vivienda; equipamiento de nivel comunal y vecinal; almacenamiento inofensivo.", "UPROH": "Industria de cualquier tipo y todos los no mencionados anteriormente.", "P_DO": "04/05/1989", "N_DOC": "1585", "T_DO": "Resolución", "OBS": null }, "geometry": { "type": "Polygon", "coordinates": [ [ [ -71.8972254720846, -38.436230223985199 ], [ -71.897681887527895, -38.4394570696996 ], [ -71.897924088898407, -38.4393625972574 ], [ -71.898137234638597, -38.439235747757401 ], [ -71.898458525547298, -38.439084767008303 ], [ -71.898819293500907, -38.439011473334503 ], [ -71.899259526013594, -38.438878999027402 ], [ -71.899715062273003, -38.438674630499001 ], [ -71.899871985640004, -38.438506262221601 ], [ -71.899997724822597, -38.438467390556397 ], [ -71.900144490420004, -38.438499512368502 ], [ -71.900333526902799, -38.438451921496402 ], [ -71.900565976887904, -38.438353194854102 ], [ -71.900692000393505, -38.438321467211097 ], [ -71.900907428359304, -38.4382517670442 ], [ -71.901077723329706, -38.438190336638101 ], [ -71.901241225779003, -38.438186285136297 ], [ -71.901474818437805, -38.4381161347114 ], [ -71.901561359153405, -38.4380067192659 ], [ -71.901772036699001, -38.437901638417401 ], [ -71.901571699665595, -38.437671580544801 ], [ -71.901427150471207, -38.437467773087199 ], [ -71.9006185179787, -38.437709501056801 ], [ -71.899530011416601, -38.438001064086002 ], [ -71.899268391575603, -38.437371071717898 ], [ -71.899072929969506, -38.436803801371298 ], [ -71.898592845293805, -38.435626765777201 ], [ -71.8972254720846, -38.436230223985199 ] ] ] } },
{ "type": "Feature", "properties": { "id": "monoparte.11", "Name": null, "description": null, "timestamp": null, "begin": null, "end": null, "altitudeMode": null, "tessellate": -1, "extrude": 0, "visibility": -1, "drawOrder": null, "icon": null, "REG": "Araucanía", "COM": "Curacautín", "LOC": "Curacautín", "ZONA": "ZU-3", "NOM": "Zona ZU-3", "UPERM": "Vivienda; equipamiento de nivel comunal y vecinal; almacenamiento inofensivo.", "UPROH": "Industria de cualquier tipo y todos los no mencionados anteriormente.", "P_DO": "04/05/1989", "N_DOC": "1585", "T_DO": "Resolución", "OBS": null }, "geometry": { "type": "Polygon", "coordinates": [ [ [ -71.885006888162707, -38.4356483849865 ], [ -71.884703938971398, -38.435803644971202 ], [ -71.884576773612807, -38.435806778026802 ], [ -71.884350633618894, -38.435759905188299 ], [ -71.884127527157801, -38.435789239774898 ], [ -71.883974256714595, -38.435897902441098 ], [ -71.883738483327605, -38.436065808032197 ], [ -71.883565337416798, -38.436132050519802 ], [ -71.883215253977397, -38.436169277557497 ], [ -71.882860062057105, -38.436230467875099 ], [ -71.882622958024498, -38.436365030608101 ], [ -71.882250313566004, -38.436383740484999 ], [ -71.881959836391701, -38.436395657880801 ], [ -71.881646273427805, -38.436436749183599 ], [ -71.881035606765906, -38.436475615061497 ], [ -71.880779189102796, -38.436429481247799 ], [ -71.880490977823797, -38.436345987744197 ], [ -71.880301908493493, -38.436248790780901 ], [ -71.880011241875707, -38.436255940998699 ], [ -71.879883312600398, -38.436087454481701 ], [ -71.879733432547297, -38.435976716999903 ], [ -71.879442009533093, -38.435964814625898 ], [ -71.879009037714894, -38.436051744658997 ], [ -71.878685821197095, -38.435849915497599 ], [ -71.878383799606894, -38.435571287077799 ], [ -71.878066642889905, -38.435521870735698 ], [ -71.877806253013802, -38.435680834762003 ], [ -71.877497421520602, -38.435840988758798 ], [ -71.876970586536899, -38.436006498956303 ], [ -71.876929814155403, -38.436068724822803 ], [ -71.876856284941994, -38.436180940901799 ], [ -71.875810186806405, -38.436092215959398 ], [ -71.875463901629303, -38.436189826183799 ], [ -71.875572936371697, -38.436598107186697 ], [ -71.875852994388097, -38.437163341669901 ], [ -71.875984508836098, -38.437422329202398 ], [ -71.876151504788595, -38.437811553921598 ], [ -71.876410757413893, -38.438234269254401 ], [ -71.870590503408295, -38.439327475328597 ], [ -71.871702912568296, -38.442441125744402 ], [ -71.876730539892094, -38.441363494368197 ], [ -71.876844486903195, -38.441737529063403 ], [ -71.877105499149593, -38.441686581501401 ], [ -71.877440473361006, -38.441726026348498 ], [ -71.8775781539306, -38.441758398933501 ], [ -71.877714415127699, -38.441755049771402 ], [ -71.878120831263104, -38.441685464518102 ], [ -71.878574087089902, -38.441650482693099 ], [ -71.879106829879206, -38.441708897707898 ], [ -71.879493843149106, -38.441532513665997 ], [ -71.879776768982595, -38.441406364841797 ], [ -71.880092813453501, -38.441350914448499 ], [ -71.880471786765099, -38.441353510870897 ], [ -71.880876590823107, -38.441470189857498 ], [ -71.880841157999399, -38.440798531966003 ], [ -71.880512962420298, -38.437423996403702 ], [ -71.8903446572306, -38.436722012175899 ], [ -71.890130696406601, -38.435957418085898 ], [ -71.889049702207004, -38.436019853472402 ], [ -71.887021118465498, -38.436165244309002 ], [ -71.886196765959397, -38.436203447030003 ], [ -71.885909128984196, -38.436210537228298 ], [ -71.885876694987104, -38.435966996963103 ], [ -71.8858471077057, -38.435794901193397 ], [ -71.885782499716697, -38.435504478646301 ], [ -71.885759532774401, -38.4353083811353 ], [ -71.885729234571301, -38.435118424163399 ], [ -71.885653995871607, -38.434941493610403 ], [ -71.885627566527205, -38.4348400156371 ], [ -71.885609271376595, -38.4347697708167 ], [ -71.885545935939206, -38.434877053234601 ], [ -71.885423705232697, -38.435004023415601 ], [ -71.885182261768904, -38.435181606455501 ], [ -71.884991142757102, -38.435253061795699 ], [ -71.885036756250699, -38.435332987415002 ], [ -71.885131382265996, -38.435426008027797 ], [ -71.885134607355795, -38.435506977220903 ], [ -71.885118338083302, -38.435555054286297 ], [ -71.885006888162707, -38.4356483849865 ] ] ] } },
{ "type": "Feature", "properties": { "id": "monoparte.12", "Name": null, "description": null, "timestamp": null, "begin": null, "end": null, "altitudeMode": null, "tessellate": -1, "extrude": 0, "visibility": -1, "drawOrder": null, "icon": null, "REG": "Araucanía", "COM": "Curacautín", "LOC": "Curacautín", "ZONA": "ZU-3", "NOM": "Zona ZU-3", "UPERM": "Vivienda; equipamiento de nivel comunal y vecinal; almacenamiento inofensivo.", "UPROH": "Industria de cualquier tipo y todos los no mencionados anteriormente.", "P_DO": "04/05/1989", "N_DOC": "1585", "T_DO": "Resolución", "OBS": null }, "geometry": { "type": "Polygon", "coordinates": [ [ [ -71.8840174608181, -38.432743726130902 ], [ -71.880493413997897, -38.436186868387701 ], [ -71.880712608433598, -38.436264253181903 ], [ -71.880994005867507, -38.436328843147301 ], [ -71.881230363152994, -38.436327794859103 ], [ -71.881515922345201, -38.436344604949902 ], [ -71.881798449670796, -38.436285208144099 ], [ -71.881996956156797, -38.4362469486286 ], [ -71.882200196128295, -38.436251481452999 ], [ -71.8823213077535, -38.4362485000023 ], [ -71.882489915571099, -38.436220510568901 ], [ -71.882655490405597, -38.436116314758401 ], [ -71.8829123904261, -38.436022265491403 ], [ -71.882990163565395, -38.435996512825298 ], [ -71.883158391323306, -38.435958996921599 ], [ -71.883262662976804, -38.4359898025996 ], [ -71.883743538503595, -38.4358730723986 ], [ -71.883977794154603, -38.435667062889301 ], [ -71.884143555157806, -38.4355676283135 ], [ -71.884294752757597, -38.435559135824697 ], [ -71.884435736424194, -38.435598570938502 ], [ -71.884595833942299, -38.435661373502299 ], [ -71.884892348686506, -38.4354967365703 ], [ -71.884827052480205, -38.435379155470798 ], [ -71.884779921692996, -38.435261126758498 ], [ -71.884837820881799, -38.4351929542688 ], [ -71.885111628785197, -38.435067017574497 ], [ -71.885263567715697, -38.434925012862003 ], [ -71.885407743923395, -38.434740291886499 ], [ -71.885621185680904, -38.434620608661902 ], [ -71.885776727941305, -38.434569099833404 ], [ -71.886006263972604, -38.434549139446503 ], [ -71.886161617099802, -38.434492865986101 ], [ -71.886260382943803, -38.434385544139502 ], [ -71.886323187294707, -38.434212362830401 ], [ -71.887061988998099, -38.43401689089 ], [ -71.8840174608181, -38.432743726130902 ] ] ] } },
{ "type": "Feature", "properties": { "id": "monoparte.13", "Name": null, "description": null, "timestamp": null, "begin": null, "end": null, "altitudeMode": null, "tessellate": -1, "extrude": 0, "visibility": -1, "drawOrder": null, "icon": null, "REG": "Araucanía", "COM": "Curacautín", "LOC": "Curacautín", "ZONA": "ZE-2", "NOM": "Zona ZE-2", "UPERM": "Vivienda; equipamiento de nivel comunal y vecinal; almacenamiento inofensivo.", "UPROH": "Industria de cualquier tipo y todos los no mencionados anteriormente.", "P_DO": "04/05/1989", "N_DOC": "1585", "T_DO": "Resolución", "OBS": null }, "geometry": { "type": "Polygon", "coordinates": [ [ [ -71.881681699382796, -38.447161236745401 ], [ -71.882207310288393, -38.448497116494799 ], [ -71.8826141166752, -38.448317725382601 ], [ -71.8835104606177, -38.447990526041103 ], [ -71.884375389416803, -38.447788050692502 ], [ -71.884891695102695, -38.447660907046902 ], [ -71.8854356406069, -38.447618896327803 ], [ -71.885958016926807, -38.447644160585902 ], [ -71.886457306510394, -38.447698598086397 ], [ -71.886801407445503, -38.447814070288302 ], [ -71.887148168493695, -38.447996223431304 ], [ -71.887619861432, -38.448270644383101 ], [ -71.887983678999106, -38.448576330925398 ], [ -71.889038319706899, -38.447901918110801 ], [ -71.890112842453604, -38.447179329137299 ], [ -71.890995442515603, -38.4465091460849 ], [ -71.891189443271898, -38.446357512469703 ], [ -71.890296439611305, -38.446402446832302 ], [ -71.888482188592704, -38.446513969909198 ], [ -71.883109867761306, -38.446760817782199 ], [ -71.882190807912295, -38.446821588857297 ], [ -71.881686238259604, -38.446938895917498 ], [ -71.881578359754002, -38.446970158548702 ], [ -71.881681699382796, -38.447161236745401 ] ] ] } },
{ "type": "Feature", "properties": { "id": "monoparte.14", "Name": null, "description": null, "timestamp": null, "begin": null, "end": null, "altitudeMode": null, "tessellate": -1, "extrude": 0, "visibility": -1, "drawOrder": null, "icon": null, "REG": "Araucanía", "COM": "Curacautín", "LOC": "Curacautín", "ZONA": "ZE-2", "NOM": "Zona ZE-2", "UPERM": "Vivienda; equipamiento de nivel comunal y vecinal; almacenamiento inofensivo.", "UPROH": "Industria de cualquier tipo y todos los no mencionados anteriormente.", "P_DO": "04/05/1989", "N_DOC": "1585", "T_DO": "Resolución", "OBS": null }, "geometry": { "type": "Polygon", "coordinates": [ [ [ -71.899234652142994, -38.435267496959803 ], [ -71.898803682521304, -38.435290085892703 ], [ -71.8984578841374, -38.435295870153297 ], [ -71.898592845293805, -38.435626765777201 ], [ -71.899072929969506, -38.436803801371298 ], [ -71.899268391575603, -38.437371071717898 ], [ -71.899530011416601, -38.438001064086002 ], [ -71.9006185179787, -38.437709501056801 ], [ -71.901427150471207, -38.437467773087199 ], [ -71.901571699665595, -38.437671580544801 ], [ -71.901772036699001, -38.437901638417401 ], [ -71.901847986106205, -38.437988855339903 ], [ -71.901960415581996, -38.4381179626048 ], [ -71.902473236122503, -38.437722712911501 ], [ -71.903705296525402, -38.437005633222 ], [ -71.9057354733377, -38.436652592186803 ], [ -71.905587106943997, -38.436261689215399 ], [ -71.9050733972947, -38.434788145158798 ], [ -71.904921154444594, -38.434392636126503 ], [ -71.904828580293199, -38.4341026991871 ], [ -71.904736713273493, -38.4341299313012 ], [ -71.903236102752501, -38.4344591647098 ], [ -71.902838040659503, -38.434546507955702 ], [ -71.9021987203744, -38.434663667880002 ], [ -71.901638593173999, -38.434790781405702 ], [ -71.901165790166303, -38.434903808832402 ], [ -71.900820229955599, -38.434977924640897 ], [ -71.899986569407204, -38.435123724916998 ], [ -71.8996114453263, -38.435216448962002 ], [ -71.899234652142994, -38.435267496959803 ] ] ] } },
{ "type": "Feature", "properties": { "id": "monoparte.15", "Name": null, "description": null, "timestamp": null, "begin": null, "end": null, "altitudeMode": null, "tessellate": -1, "extrude": 0, "visibility": -1, "drawOrder": null, "icon": null, "REG": "Araucanía", "COM": "Curacautín", "LOC": "Curacautín", "ZONA": "ZR-1", "NOM": "Zona ZR-1", "UPERM": "Equipamiento turístico y recreacional. Mayor detalle en Ordenanza.", "UPROH": "Todos los no indicados anteriormente.", "P_DO": "04/05/1989", "N_DOC": "1585", "T_DO": "Resolución", "OBS": null }, "geometry": { "type": "Polygon", "coordinates": [ [ [ -71.889038319706899, -38.447901918110801 ], [ -71.887983678999106, -38.448576330925398 ], [ -71.887619861432, -38.448270644383101 ], [ -71.887148168493695, -38.447996223431304 ], [ -71.886801407445503, -38.447814070288302 ], [ -71.886457306510394, -38.447698598086397 ], [ -71.885958016926807, -38.447644160585902 ], [ -71.8854356406069, -38.447618896327803 ], [ -71.884891695102695, -38.447660907046902 ], [ -71.884375389416803, -38.447788050692502 ], [ -71.8835104606177, -38.447990526041103 ], [ -71.8826141166752, -38.448317725382601 ], [ -71.882207310288393, -38.448497116494799 ], [ -71.882922774193901, -38.450315431229399 ], [ -71.883164234572703, -38.449680162560099 ], [ -71.883806970417595, -38.449378276914999 ], [ -71.884551921360298, -38.449207360908602 ], [ -71.885609534981, -38.448971524805003 ], [ -71.8861493514421, -38.4491298506397 ], [ -71.886575633265906, -38.449481677661097 ], [ -71.887204088163102, -38.450038289277501 ], [ -71.888035396293901, -38.450208486649601 ], [ -71.888703105311706, -38.449925029728703 ], [ -71.889576676296798, -38.449331360323697 ], [ -71.890692498332001, -38.448731703139202 ], [ -71.891183751678895, -38.448280956619499 ], [ -71.891789278023097, -38.447655747462697 ], [ -71.892668887547302, -38.4472144710696 ], [ -71.893674182493498, -38.446884503376701 ], [ -71.895000492745993, -38.446699150428202 ], [ -71.896224558052893, -38.446382818854801 ], [ -71.895955637221206, -38.445855675357102 ], [ -71.894428026840899, -38.446086786074801 ], [ -71.892240964995807, -38.446274328728599 ], [ -71.891189443271898, -38.446357512469703 ], [ -71.890995442515603, -38.4465091460849 ], [ -71.890112842453604, -38.447179329137299 ], [ -71.889038319706899, -38.447901918110801 ] ] ] } },
{ "type": "Feature", "properties": { "id": "monoparte.16", "Name": null, "description": null, "timestamp": null, "begin": null, "end": null, "altitudeMode": null, "tessellate": -1, "extrude": 0, "visibility": -1, "drawOrder": null, "icon": null, "REG": "Araucanía", "COM": "Curacautín", "LOC": "Curacautín", "ZONA": "Zona Difusa", "NOM": "Zona Difusa", "UPERM": "Sin Información.", "UPROH": "Sin Información.", "P_DO": "04/05/1989", "N_DOC": "1585", "T_DO": "Resolución", "OBS": null }, "geometry": { "type": "Polygon", "coordinates": [ [ [ -71.897263253149305, -38.435369248089302 ], [ -71.896364744192198, -38.435404081361902 ], [ -71.895735780656594, -38.435401760259502 ], [ -71.895221547024605, -38.435426396202502 ], [ -71.894827943695802, -38.435436128604003 ], [ -71.894411547833002, -38.435482179520598 ], [ -71.893778343234004, -38.4355633869963 ], [ -71.893195746133301, -38.435583743836197 ], [ -71.892531073271897, -38.435635923840401 ], [ -71.891383627412196, -38.435741738656603 ], [ -71.890964717721502, -38.435781880472199 ], [ -71.890340738276095, -38.435904557877898 ], [ -71.890130696406601, -38.435957418085898 ], [ -71.8903446572306, -38.436722012175899 ], [ -71.8972254720846, -38.436230223985199 ], [ -71.898592845293805, -38.435626765777201 ], [ -71.8984578841374, -38.435295870153297 ], [ -71.898061658538495, -38.435302496163899 ], [ -71.897639449786695, -38.435354662272303 ], [ -71.897263253149305, -38.435369248089302 ] ] ] } },
{ "type": "Feature", "properties": { "id": "monoparte.17", "Name": null, "description": null, "timestamp": null, "begin": null, "end": null, "altitudeMode": null, "tessellate": -1, "extrude": 0, "visibility": -1, "drawOrder": null, "icon": null, "REG": "Araucanía", "COM": "Curacautín", "LOC": "Curacautín", "ZONA": "ZR-2", "NOM": "Zona ZR-2", "UPERM": "Faja de protección no edificable. Mayor detalle en Ordenanza.", "UPROH": "Sin Información.", "P_DO": "04/05/1989", "N_DOC": "1585", "T_DO": "Resolución", "OBS": null }, "geometry": { "type": "Polygon", "coordinates": [ [ [ -71.888287921944098, -38.439804569566498 ], [ -71.888174877540607, -38.440009980602397 ], [ -71.888076973087607, -38.440215018062702 ], [ -71.887661451000895, -38.4403249892666 ], [ -71.887346081534005, -38.4403971300327 ], [ -71.886887349540899, -38.440408442247403 ], [ -71.886382859392398, -38.4403547268521 ], [ -71.886083282970006, -38.440383371125598 ], [ -71.885719930808193, -38.440392327519099 ], [ -71.8850520429624, -38.440369612905002 ], [ -71.884777745543204, -38.440246495656197 ], [ -71.884516778284507, -38.4402431915412 ], [ -71.884159544790194, -38.440211070685599 ], [ -71.883928435212198, -38.440306156138099 ], [ -71.883556580726506, -38.440482181298698 ], [ -71.883250202592393, -38.440592658860197 ], [ -71.882771137000304, -38.440867833611598 ], [ -71.882592776870695, -38.440955657768903 ], [ -71.882370891848893, -38.441092229372799 ], [ -71.882037814311204, -38.441100429027003 ], [ -71.881842416497193, -38.4411409962051 ], [ -71.881681563273204, -38.441287983038897 ], [ -71.881505095861797, -38.441423435139399 ], [ -71.880876590823107, -38.441470189857498 ], [ -71.880471786765099, -38.441353510870897 ], [ -71.880092813453501, -38.441350914448499 ], [ -71.879776768982595, -38.441406364841797 ], [ -71.879493843149106, -38.441532513665997 ], [ -71.879106829879206, -38.441708897707898 ], [ -71.878574087089902, -38.441650482693099 ], [ -71.878120831263104, -38.441685464518102 ], [ -71.877714415127699, -38.441755049771402 ], [ -71.8775781539306, -38.441758398933501 ], [ -71.877440473361006, -38.441726026348498 ], [ -71.877105499149593, -38.441686581501401 ], [ -71.876844486903195, -38.441737529063403 ], [ -71.876481820766699, -38.441818713347899 ], [ -71.876285471445001, -38.4418354561233 ], [ -71.876146365773195, -38.4421487675029 ], [ -71.876136421303997, -38.442661528537599 ], [ -71.875861049917305, -38.442978187042797 ], [ -71.875541674012396, -38.443331683116398 ], [ -71.874923266058204, -38.443787873298 ], [ -71.874444440181904, -38.443942658146803 ], [ -71.873661854116705, -38.444081059697403 ], [ -71.873206217225203, -38.444056486086197 ], [ -71.872662571091396, -38.444105583183003 ], [ -71.872322542097905, -38.444175348131303 ], [ -71.872376185518306, -38.444325482023899 ], [ -71.872942189846697, -38.444277507067099 ], [ -71.873383159027199, -38.4443143614102 ], [ -71.873850630006402, -38.444255211112399 ], [ -71.8743914401268, -38.444134664244103 ], [ -71.874947861396095, -38.444025649470099 ], [ -71.875330169586604, -38.443730204425698 ], [ -71.875739446214297, -38.4433506630605 ], [ -71.876133104364499, -38.442959585168502 ], [ -71.876319050557797, -38.442680880431602 ], [ -71.876297762091397, -38.442526456005403 ], [ -71.876331359579197, -38.44222765544 ], [ -71.876521087113105, -38.442044209904303 ], [ -71.876908246594297, -38.441946820760698 ], [ -71.877248855504803, -38.441861843596499 ], [ -71.877448989569203, -38.441940357677503 ], [ -71.877694071868007, -38.442005848692403 ], [ -71.877993086942595, -38.441903146303702 ], [ -71.878489871909196, -38.441819420360403 ], [ -71.878870267968907, -38.441857742524498 ], [ -71.879370365382499, -38.441857362239297 ], [ -71.879754536646104, -38.441609535218497 ], [ -71.880128775673697, -38.441493057399001 ], [ -71.880432996853997, -38.4415213304625 ], [ -71.880891772798904, -38.4416276466699 ], [ -71.881363171261697, -38.4416653079982 ], [ -71.881723688254894, -38.441584921056297 ], [ -71.881866085318507, -38.441354954961298 ], [ -71.881999028198905, -38.441268249896801 ], [ -71.882316966806599, -38.441260423046202 ], [ -71.882632061490895, -38.4411811515766 ], [ -71.882852998227307, -38.441020764305698 ], [ -71.882969377561395, -38.440898708670801 ], [ -71.883147737061606, -38.440810883962001 ], [ -71.883433496617201, -38.440756170389299 ], [ -71.883878711831301, -38.4405270874419 ], [ -71.884130159868704, -38.440371906107302 ], [ -71.884486417512207, -38.440375048256399 ], [ -71.884884556208505, -38.440478469473597 ], [ -71.885150924772205, -38.440507662095101 ], [ -71.885453482460306, -38.440494246837297 ], [ -71.885705422270306, -38.440541672453499 ], [ -71.886034237064095, -38.4405216486577 ], [ -71.886519658389105, -38.440533519376501 ], [ -71.887211363540303, -38.440587977289503 ], [ -71.887727986299595, -38.440432208505499 ], [ -71.888149522701795, -38.440362215653799 ], [ -71.888349635187197, -38.440250007988404 ], [ -71.888444452022995, -38.439967572931202 ], [ -71.888540722468505, -38.439911562749302 ], [ -71.888623989450096, -38.439909508370597 ], [ -71.888880220012297, -38.440159444471597 ], [ -71.889133822979204, -38.440248537886802 ], [ -71.889475414928199, -38.440263945527597 ], [ -71.889822914313896, -38.440237491016497 ], [ -71.890138978140897, -38.440372716581599 ], [ -71.890599108351395, -38.440510344272496 ], [ -71.890976649484699, -38.4404771847502 ], [ -71.891279442676193, -38.440469707550598 ], [ -71.892518538252602, -38.440266275444102 ], [ -71.892879510573096, -38.440197761879098 ], [ -71.893090274559398, -38.4401627564961 ], [ -71.893409157811803, -38.440178714676101 ], [ -71.893634585005202, -38.440131427147001 ], [ -71.893933569585101, -38.440028685123899 ], [ -71.894214602283, -38.440045575794201 ], [ -71.894572046616702, -38.4400784561807 ], [ -71.894835560492993, -38.4400361836503 ], [ -71.895091980981405, -38.440006005619999 ], [ -71.895270560454506, -38.439924116138997 ], [ -71.895412718982996, -38.4398788843611 ], [ -71.895563637651193, -38.439863232266497 ], [ -71.895867617347093, -38.439885511280401 ], [ -71.896003396690105, -38.439870233982603 ], [ -71.896202898882507, -38.439852707192898 ], [ -71.896306979448397, -38.4398402768796 ], [ -71.896593941634094, -38.439740210365898 ], [ -71.896825003676994, -38.439720190783397 ], [ -71.896845539641603, -38.439551625063203 ], [ -71.896736392267599, -38.4395507497211 ], [ -71.896547065652996, -38.4395911911109 ], [ -71.896420608115307, -38.439612197358798 ], [ -71.896362707185304, -38.439642236105001 ], [ -71.896281383668594, -38.439654974729102 ], [ -71.896190667267405, -38.4396688421051 ], [ -71.895973307180498, -38.439686234877598 ], [ -71.895775541882301, -38.4396672880426 ], [ -71.895563590764695, -38.439672530182698 ], [ -71.8951638234809, -38.439718173748503 ], [ -71.895006763858902, -38.439769733527299 ], [ -71.894743964938996, -38.439829866480601 ], [ -71.894479737896006, -38.439854277796897 ], [ -71.894116865761205, -38.439875167176403 ], [ -71.8936182144584, -38.439911330118001 ], [ -71.893368650164504, -38.439923457746801 ], [ -71.893043864940495, -38.439949362394202 ], [ -71.892719553879402, -38.439987173216601 ], [ -71.8925322119496, -38.440039477900001 ], [ -71.892202470864802, -38.440131056461802 ], [ -71.891804124566605, -38.440212409868103 ], [ -71.891441162644995, -38.440269050469503 ], [ -71.891245060255599, -38.440291772031301 ], [ -71.890806961502904, -38.440326427668303 ], [ -71.8905036946894, -38.440321996533299 ], [ -71.890117838368596, -38.440146777697898 ], [ -71.890020489724293, -38.440067350174502 ], [ -71.889933831528396, -38.440073846300201 ], [ -71.889448977559596, -38.4400381381339 ], [ -71.889053448308005, -38.4400002228831 ], [ -71.888772387193796, -38.439792616975502 ], [ -71.888618142103198, -38.439724908080301 ], [ -71.888287921944098, -38.439804569566498 ] ] ] } },
{ "type": "Feature", "properties": { "id": "monoparte.18", "Name": null, "description": null, "timestamp": null, "begin": null, "end": null, "altitudeMode": null, "tessellate": -1, "extrude": 0, "visibility": -1, "drawOrder": null, "icon": null, "REG": "Araucanía", "COM": "Curacautín", "LOC": "Curacautín", "ZONA": "ZR-2", "NOM": "Zona ZR-2", "UPERM": "Faja de protección no edificable. Mayor detalle en Ordenanza.", "UPROH": "Sin Información.", "P_DO": "04/05/1989", "N_DOC": "1585", "T_DO": "Resolución", "OBS": null }, "geometry": { "type": "Polygon", "coordinates": [ [ [ -71.901474818437805, -38.4381161347114 ], [ -71.901241225779003, -38.438186285136297 ], [ -71.901077723329706, -38.438190336638101 ], [ -71.900907428359304, -38.4382517670442 ], [ -71.900692000393505, -38.438321467211097 ], [ -71.900565976887904, -38.438353194854102 ], [ -71.900333526902799, -38.438451921496402 ], [ -71.900144490420004, -38.438499512368502 ], [ -71.899997724822597, -38.438467390556397 ], [ -71.899871985640004, -38.438506262221601 ], [ -71.899715062273003, -38.438674630499001 ], [ -71.899259526013594, -38.438878999027402 ], [ -71.898819293500907, -38.439011473334503 ], [ -71.898458525547298, -38.439084767008303 ], [ -71.898137234638597, -38.439235747757401 ], [ -71.897924088898407, -38.4393625972574 ], [ -71.897681887527895, -38.4394570696996 ], [ -71.896911178684107, -38.439495735314402 ], [ -71.896915411313202, -38.439707226108297 ], [ -71.897093257427301, -38.439720704068201 ], [ -71.897346169952499, -38.439678688242097 ], [ -71.897450489586603, -38.439672531581301 ], [ -71.897911896569298, -38.4396146277169 ], [ -71.898111989718899, -38.439502404045697 ], [ -71.898299028965198, -38.439404805905802 ], [ -71.899305363016794, -38.439047351296601 ], [ -71.899793837458503, -38.4388707721955 ], [ -71.899886439758106, -38.438799110225098 ], [ -71.899983926035006, -38.438735908835703 ], [ -71.899982638735295, -38.438703759398997 ], [ -71.900000376604794, -38.438692593232503 ], [ -71.900345667736801, -38.438698342694899 ], [ -71.900617277583905, -38.4385557377203 ], [ -71.901102813955305, -38.438532980797099 ], [ -71.9014219858676, -38.4384428312529 ], [ -71.901646925579996, -38.438383620814399 ], [ -71.901663947525805, -38.4383545935356 ], [ -71.901646887983304, -38.438269200099803 ], [ -71.901656362550199, -38.438165270441601 ], [ -71.901709574902796, -38.438131770316801 ], [ -71.901750879838502, -38.438141474306804 ], [ -71.901789894855298, -38.438094023313397 ], [ -71.901847986106205, -38.437988855339903 ], [ -71.901772036699001, -38.437901638417401 ], [ -71.901561359153405, -38.4380067192659 ], [ -71.901474818437805, -38.4381161347114 ] ] ] } },
{ "type": "Feature", "properties": { "id": "monoparte.19", "Name": null, "description": null, "timestamp": null, "begin": null, "end": null, "altitudeMode": null, "tessellate": -1, "extrude": 0, "visibility": -1, "drawOrder": null, "icon": null, "REG": "Araucanía", "COM": "Curacautín", "LOC": "Curacautín", "ZONA": "ZR-2", "NOM": "Zona ZR-2", "UPERM": "Faja de protección no edificable. Mayor detalle en Ordenanza.", "UPROH": "Sin Información.", "P_DO": "04/05/1989", "N_DOC": "1585", "T_DO": "Resolución", "OBS": null }, "geometry": { "type": "Polygon", "coordinates": [ [ [ -71.885407743923395, -38.434740291886499 ], [ -71.885263567715697, -38.434925012862003 ], [ -71.885111628785197, -38.435067017574497 ], [ -71.884837820881799, -38.4351929542688 ], [ -71.884779921692996, -38.435261126758498 ], [ -71.884827052480205, -38.435379155470798 ], [ -71.884892348686506, -38.4354967365703 ], [ -71.884595833942299, -38.435661373502299 ], [ -71.884435736424194, -38.435598570938502 ], [ -71.884294752757597, -38.435559135824697 ], [ -71.884143555157806, -38.4355676283135 ], [ -71.883977794154603, -38.435667062889301 ], [ -71.883743538503595, -38.4358730723986 ], [ -71.883262662976804, -38.4359898025996 ], [ -71.883158391323306, -38.435958996921599 ], [ -71.882990163565395, -38.435996512825298 ], [ -71.8829123904261, -38.436022265491403 ], [ -71.882655490405597, -38.436116314758401 ], [ -71.882489915571099, -38.436220510568901 ], [ -71.8823213077535, -38.4362485000023 ], [ -71.882200196128295, -38.436251481452999 ], [ -71.881996956156797, -38.4362469486286 ], [ -71.881798449670796, -38.436285208144099 ], [ -71.881515922345201, -38.436344604949902 ], [ -71.881230363152994, -38.436327794859103 ], [ -71.880994005867507, -38.436328843147301 ], [ -71.880712608433598, -38.436264253181903 ], [ -71.880493413997897, -38.436186868387701 ], [ -71.880301908493493, -38.436248790780901 ], [ -71.880490977823797, -38.436345987744197 ], [ -71.880779189102796, -38.436429481247799 ], [ -71.881035606765906, -38.436475615061497 ], [ -71.881646273427805, -38.436436749183599 ], [ -71.881959836391701, -38.436395657880801 ], [ -71.882250313566004, -38.436383740484999 ], [ -71.882622958024498, -38.436365030608101 ], [ -71.882860062057105, -38.436230467875099 ], [ -71.883215253977397, -38.436169277557497 ], [ -71.883565337416798, -38.436132050519802 ], [ -71.883738483327605, -38.436065808032197 ], [ -71.883974256714595, -38.435897902441098 ], [ -71.884127527157801, -38.435789239774898 ], [ -71.884350633618894, -38.435759905188299 ], [ -71.884576773612807, -38.435806778026802 ], [ -71.884703938971398, -38.435803644971202 ], [ -71.885006888162707, -38.4356483849865 ], [ -71.885118338083302, -38.435555054286297 ], [ -71.885134607355795, -38.435506977220903 ], [ -71.885131382265996, -38.435426008027797 ], [ -71.885036756250699, -38.435332987415002 ], [ -71.884991142757102, -38.435253061795699 ], [ -71.885182261768904, -38.435181606455501 ], [ -71.885423705232697, -38.435004023415601 ], [ -71.885545935939206, -38.434877053234601 ], [ -71.885609271376595, -38.4347697708167 ], [ -71.885627566527205, -38.4348400156371 ], [ -71.885815764708099, -38.434727375356999 ], [ -71.886105665760098, -38.4347011590202 ], [ -71.886315138051998, -38.434634016434799 ], [ -71.886419769831804, -38.434521782865403 ], [ -71.886557770608803, -38.434319095330103 ], [ -71.886735635148597, -38.434219357856598 ], [ -71.886904805674106, -38.434205651920301 ], [ -71.887024394735604, -38.434164561904701 ], [ -71.887247356830599, -38.4340944037898 ], [ -71.887061988998099, -38.43401689089 ], [ -71.886323187294707, -38.434212362830401 ], [ -71.886260382943803, -38.434385544139502 ], [ -71.886161617099802, -38.434492865986101 ], [ -71.886006263972604, -38.434549139446503 ], [ -71.885776727941305, -38.434569099833404 ], [ -71.885621185680904, -38.434620608661902 ], [ -71.885407743923395, -38.434740291886499 ] ] ] } },
{ "type": "Feature", "properties": { "id": "monoparte.20", "Name": null, "description": null, "timestamp": null, "begin": null, "end": null, "altitudeMode": null, "tessellate": -1, "extrude": 0, "visibility": -1, "drawOrder": null, "icon": null, "REG": "Araucanía", "COM": "Curacautín", "LOC": "Curacautín", "ZONA": "ZU-1", "NOM": "Zona ZU-1", "UPERM": "Vivienda; equipamiento de nivel comunal y vecinal; almacenamiento inofensivo.", "UPROH": "Industria de cualquier tipo y todos los no mencionados anteriormente.", "P_DO": "04/05/1989", "N_DOC": "1585", "T_DO": "Resolución", "OBS": null }, "geometry": { "type": "Polygon", "coordinates": [ [ [ -71.888917154609203, -38.436823987742898 ], [ -71.888996892932994, -38.437792227381699 ], [ -71.887625303666397, -38.437869311640704 ], [ -71.887542845254401, -38.436922147393602 ], [ -71.880512962420298, -38.437423996403702 ], [ -71.880841157999399, -38.440798531966003 ], [ -71.881703655583806, -38.440765387240802 ], [ -71.882397244477801, -38.4406767997462 ], [ -71.883250202592393, -38.440592658860197 ], [ -71.883556580726506, -38.440482181298698 ], [ -71.883928435212198, -38.440306156138099 ], [ -71.884159544790194, -38.440211070685599 ], [ -71.884516778284507, -38.4402431915412 ], [ -71.884777745543204, -38.440246495656197 ], [ -71.8850520429624, -38.440369612905002 ], [ -71.885719930808193, -38.440392327519099 ], [ -71.886083282970006, -38.440383371125598 ], [ -71.886382859392398, -38.4403547268521 ], [ -71.887426917038795, -38.440254889395099 ], [ -71.888076973087607, -38.440215018062702 ], [ -71.888174877540607, -38.440009980602397 ], [ -71.888287921944098, -38.439804569566498 ], [ -71.888618142103198, -38.439724908080301 ], [ -71.888772387193796, -38.439792616975502 ], [ -71.889053448308005, -38.4400002228831 ], [ -71.889448977559596, -38.4400381381339 ], [ -71.889933831528396, -38.440073846300201 ], [ -71.890020489724293, -38.440067350174502 ], [ -71.8937262455363, -38.439789471268597 ], [ -71.896181586159798, -38.4395323336513 ], [ -71.896911178684107, -38.439495735314402 ], [ -71.897681887527895, -38.4394570696996 ], [ -71.8972254720846, -38.436230223985199 ], [ -71.8903446572306, -38.436722012175899 ], [ -71.888917154609203, -38.436823987742898 ] ] ] } },
{ "type": "Feature", "properties": { "id": "monoparte.21", "Name": null, "description": null, "timestamp": null, "begin": null, "end": null, "altitudeMode": null, "tessellate": -1, "extrude": 0, "visibility": -1, "drawOrder": null, "icon": null, "REG": "Araucanía", "COM": "Curacautín", "LOC": "Curacautín", "ZONA": "ZE-1", "NOM": "Zona ZE-1", "UPERM": "Vivienda; equipamiento de nivel comunal y vecinal; almacenamiento inofensivo.", "UPROH": "Industria de cualquier tipo y todos los no mencionados anteriormente.", "P_DO": "04/05/1989", "N_DOC": "1585", "T_DO": "Resolución", "OBS": null }, "geometry": { "type": "Polygon", "coordinates": [ [ [ -71.873850630006402, -38.444255211112399 ], [ -71.873383159027199, -38.4443143614102 ], [ -71.872942189846697, -38.444277507067099 ], [ -71.872376185518306, -38.444325482023899 ], [ -71.874015618609405, -38.448913455043098 ], [ -71.878816553130207, -38.447816184771 ], [ -71.878382773356407, -38.446786550639303 ], [ -71.876908246594297, -38.441946820760698 ], [ -71.876521087113105, -38.442044209904303 ], [ -71.876331359579197, -38.44222765544 ], [ -71.876297762091397, -38.442526456005403 ], [ -71.876319050557797, -38.442680880431602 ], [ -71.876133104364499, -38.442959585168502 ], [ -71.875739446214297, -38.4433506630605 ], [ -71.875330169586604, -38.443730204425698 ], [ -71.874947861396095, -38.444025649470099 ], [ -71.8743914401268, -38.444134664244103 ], [ -71.873850630006402, -38.444255211112399 ] ] ] } },
{ "type": "Feature", "properties": { "id": "monoparte.22", "Name": null, "description": null, "timestamp": null, "begin": null, "end": null, "altitudeMode": null, "tessellate": -1, "extrude": 0, "visibility": -1, "drawOrder": null, "icon": null, "REG": "Araucanía", "COM": "Curacautín", "LOC": "Curacautín", "ZONA": "ZE-1", "NOM": "Zona ZE-1", "UPERM": "Vivienda; equipamiento de nivel comunal y vecinal; almacenamiento inofensivo.", "UPROH": "Industria de cualquier tipo y todos los no mencionados anteriormente.", "P_DO": "04/05/1989", "N_DOC": "1585", "T_DO": "Resolución", "OBS": null }, "geometry": { "type": "Polygon", "coordinates": [ [ [ -71.871702912568296, -38.442441125744402 ], [ -71.872322542097905, -38.444175348131303 ], [ -71.872662571091396, -38.444105583183003 ], [ -71.873206217225203, -38.444056486086197 ], [ -71.873661854116705, -38.444081059697403 ], [ -71.874444440181904, -38.443942658146803 ], [ -71.874923266058204, -38.443787873298 ], [ -71.875541674012396, -38.443331683116398 ], [ -71.875861049917305, -38.442978187042797 ], [ -71.876136421303997, -38.442661528537599 ], [ -71.876146365773195, -38.4421487675029 ], [ -71.876285471445001, -38.4418354561233 ], [ -71.876481820766699, -38.441818713347899 ], [ -71.876844486903195, -38.441737529063403 ], [ -71.876730539892094, -38.441363494368197 ], [ -71.871702912568296, -38.442441125744402 ] ] ] } },
{ "type": "Feature", "properties": { "id": "monoparte.23", "Name": null, "description": null, "timestamp": null, "begin": null, "end": null, "altitudeMode": null, "tessellate": -1, "extrude": 0, "visibility": -1, "drawOrder": null, "icon": null, "REG": "Araucanía", "COM": "Curacautín", "LOC": "Curacautín", "ZONA": "ZU-1", "NOM": "Zona ZU-1", "UPERM": "Vivienda; equipamiento de nivel comunal y vecinal; almacenamiento inofensivo.", "UPROH": "Industria de cualquier tipo y todos los no mencionados anteriormente.", "P_DO": "04/05/1989", "N_DOC": "1585", "T_DO": "Resolución", "OBS": null }, "geometry": { "type": "Polygon", "coordinates": [ [ [ -71.887542845254401, -38.436922147393602 ], [ -71.887625303666397, -38.437869311640704 ], [ -71.888996892932994, -38.437792227381699 ], [ -71.888917154609203, -38.436823987742898 ], [ -71.887542845254401, -38.436922147393602 ] ] ] } }
]
}
